{"type":"FeatureCollection","features":[{"type":"Feature","properties":{"objectid":2029593,"permanentidentifier":"{2107E060-74B6-4038-A18F-2402247583D7}","name":"Trail 254","namealternate":null,"trailnumber":null,"sourcefeatureid":"525","sourcedatasetid":"{D686D16C-722C-4C5A-AABF-1FD80E2FFE70}","sourcedatadecscription":"Kentucky State Trails Update 12/2024","sourceoriginator":"Kentucky's Division of Geographic Information","loaddate":1734519035000,"trailtype":"Terra Trail","hikerpedestrian":null,"bicycle":null,"packsaddle":"No","motorcycle":null,"ohvisorunder50inches":null,"ebike":null,"livestock":null,"pets":null,"primarytrailmaintainer":"State","nationaltraildesignation":null,"lengthmiles":1.36500774,"maplabel":"Trail 254","publisheddate":null,"routetype":null,"seasonopen":null,"sourceeditdate":null,"trailsurface":null,"rrgh_source":"usgs-aggregated-trails","rrgh_classification":"usgs-aggregated-candidate","rrgh_planner_eligible":true,"rrgh_part":0,"rrgh_official_overlap_ratio":0.0,"rrgh_state_park_overlap_ratio":0.0,"rrgh_osm_overlap_ratio":0.018},"geometry":{"type":"LineString","coordinates":[[-83.7116167806719,37.67918700766276],[-83.7118291901,37.67904997116831],[-83.7120008495005,37.67868519088096],[-83.71161460982414,37.67898560137331],[-83.711700440012,37.67832041061402],[-83.71103525125248,37.67799854078806],[-83.71054173028573,37.67817020125984],[-83.70974778947271,37.67883539100814],[-83.70966196131072,37.67866373160321],[-83.70987654049334,37.67797709083412],[-83.709533210156,37.67756939076901],[-83.70966195912861,37.67722607090433],[-83.71015549050769,37.67699003125327],[-83.71052026978612,37.67705441145842],[-83.71077775942311,37.67673254055071],[-83.71093059280999,37.6768572114019],[-83.71107550743788,37.67688546035951],[-83.71131420022512,37.67701149058222],[-83.71159315135185,37.67705441141188],[-83.71191502016266,37.67656088109271],[-83.71238707965152,37.67619610079227],[-83.71230125149098,37.676045891391546],[-83.71285914954676,37.67568111108735],[-83.71307372966355,37.673428061677505],[-83.71300935975718,37.67203331140646],[-83.71335267849919,37.67044544128818],[-83.71283770016962,37.669672971367234],[-83.71176481019107,37.668514251394605],[-83.71174334972979,37.667956351285994],[-83.71144294960307,37.667398451189484],[-83.71159314962522,37.667076590703154],[-83.71144295059614,37.66669035000879],[-83.71071338994562,37.66641140102735],[-83.71002735328734,37.6664390521042]]}}],"rrgh_cache":{"source":"USGS The National Map USGSTrails","source_layer":"https://partnerships.nationalmap.gov/arcgis/rest/services/USGSTrails/MapServer/0","source_fallback_errors":["Kentucky DGI USGS Aggregated Trails: HTTP Error 404: Not Found"],"method":"USGS Terra Trail candidates minus authoritative Kentucky State Park and current USDA Forest Service official-trail buffers, then existing RRGH OSM Community / Informal duplicate buffer","bbox":[37.45,-83.93,38.05,-83.25],"raw_feature_count":292,"terra_input_count":290,"kept_feature_count":1,"non_terra_removed":2,"official_like_removed":267,"state_park_like_removed":33,"osm_duplicate_removed":1,"official_match_buffer_m":30,"official_overlap_exclusion_ratio":0.65,"state_park_match_buffer_m":30,"state_park_overlap_exclusion_ratio":0.65,"osm_match_buffer_m":20,"osm_overlap_exclusion_ratio":0.65,"bounds_clipped":true,"dropped_out_of_bounds_features":0,"clipped_edge_features":5,"planner_rule":"Explicit hikerpedestrian=N/No features are displayed as context but excluded from route snapping.","validation_reference":{"lat":37.86393,"lon":-83.55277,"nearest_source_segments":[{"distance_m":1863.6,"disposition":"official-overlap","name":"OSBORNE BEND LOOP","namealternate":null,"trailnumber":"240","trailtype":"Terra Trail","hikerpedestrian":null,"packsaddle":null,"sourceoriginator":"U.S. Forest Service","sourcedatasetid":"{95479145-03BE-48B3-9120-08A686F7C9E4}","sourcefeatureid":"5836","official_overlap_ratio":1.0,"state_park_overlap_ratio":0.0,"osm_overlap_ratio":0.044},{"distance_m":1959.0,"disposition":"official-overlap","name":"OSBORNE BEND LOOP","namealternate":null,"trailnumber":"240","trailtype":"Terra Trail","hikerpedestrian":null,"packsaddle":null,"sourceoriginator":"U.S. Forest Service","sourcedatasetid":"{95479145-03BE-48B3-9120-08A686F7C9E4}","sourcefeatureid":"3212","official_overlap_ratio":1.0,"state_park_overlap_ratio":0.0,"osm_overlap_ratio":0.025},{"distance_m":2468.2,"disposition":"official-overlap","name":"LOST BRANCH TRAIL","namealternate":null,"trailnumber":"239","trailtype":"Terra Trail","hikerpedestrian":null,"packsaddle":null,"sourceoriginator":"U.S. Forest Service","sourcedatasetid":"{95479145-03BE-48B3-9120-08A686F7C9E4}","sourcefeatureid":"6642","official_overlap_ratio":1.0,"state_park_overlap_ratio":0.0,"osm_overlap_ratio":0.0},{"distance_m":2481.8,"disposition":"official-overlap","name":"LOST BRANCH TRAIL","namealternate":null,"trailnumber":"239","trailtype":"Terra Trail","hikerpedestrian":null,"packsaddle":null,"sourceoriginator":"U.S. Forest Service","sourcedatasetid":"{95479145-03BE-48B3-9120-08A686F7C9E4}","sourcefeatureid":"4862","official_overlap_ratio":1.0,"state_park_overlap_ratio":0.0,"osm_overlap_ratio":0.0},{"distance_m":2504.2,"disposition":"official-overlap","name":"LOST BRANCH TRAIL","namealternate":null,"trailnumber":"239","trailtype":"Terra Trail","hikerpedestrian":null,"packsaddle":null,"sourceoriginator":"U.S. Forest Service","sourcedatasetid":"{95479145-03BE-48B3-9120-08A686F7C9E4}","sourcefeatureid":"4179","official_overlap_ratio":1.0,"state_park_overlap_ratio":0.0,"osm_overlap_ratio":0.0},{"distance_m":2531.1,"disposition":"official-overlap","name":"LOST BRANCH TRAIL","namealternate":null,"trailnumber":"239","trailtype":"Terra Trail","hikerpedestrian":null,"packsaddle":null,"sourceoriginator":"U.S. Forest Service","sourcedatasetid":"{95479145-03BE-48B3-9120-08A686F7C9E4}","sourcefeatureid":"4053","official_overlap_ratio":1.0,"state_park_overlap_ratio":0.0,"osm_overlap_ratio":0.0},{"distance_m":2539.0,"disposition":"official-overlap","name":"LOST BRANCH TRAIL","namealternate":null,"trailnumber":"239","trailtype":"Terra Trail","hikerpedestrian":null,"packsaddle":null,"sourceoriginator":"U.S. Forest Service","sourcedatasetid":"{95479145-03BE-48B3-9120-08A686F7C9E4}","sourcefeatureid":"975","official_overlap_ratio":1.0,"state_park_overlap_ratio":0.0,"osm_overlap_ratio":0.0},{"distance_m":2704.3,"disposition":"official-overlap","name":"LOST BRANCH TRAIL","namealternate":null,"trailnumber":"239","trailtype":"Terra Trail","hikerpedestrian":null,"packsaddle":null,"sourceoriginator":"U.S. Forest Service","sourcedatasetid":"{95479145-03BE-48B3-9120-08A686F7C9E4}","sourcefeatureid":"474","official_overlap_ratio":1.0,"state_park_overlap_ratio":0.0,"osm_overlap_ratio":0.0},{"distance_m":2753.3,"disposition":"official-overlap","name":"LOST BRANCH TRAIL","namealternate":null,"trailnumber":"239","trailtype":"Terra Trail","hikerpedestrian":null,"packsaddle":null,"sourceoriginator":"U.S. Forest Service","sourcedatasetid":"{95479145-03BE-48B3-9120-08A686F7C9E4}","sourcefeatureid":"2639","official_overlap_ratio":1.0,"state_park_overlap_ratio":0.0,"osm_overlap_ratio":0.0},{"distance_m":2784.2,"disposition":"official-overlap","name":"LOST BRANCH TRAIL","namealternate":null,"trailnumber":"239","trailtype":"Terra Trail","hikerpedestrian":null,"packsaddle":null,"sourceoriginator":"U.S. Forest Service","sourcedatasetid":"{95479145-03BE-48B3-9120-08A686F7C9E4}","sourcefeatureid":"5778","official_overlap_ratio":1.0,"state_park_overlap_ratio":0.0,"osm_overlap_ratio":0.0},{"distance_m":2797.0,"disposition":"official-overlap","name":"OSBORNE BEND LOOP","namealternate":null,"trailnumber":"240","trailtype":"Terra Trail","hikerpedestrian":null,"packsaddle":null,"sourceoriginator":"U.S. Forest Service","sourcedatasetid":"{95479145-03BE-48B3-9120-08A686F7C9E4}","sourcefeatureid":"1931","official_overlap_ratio":1.0,"state_park_overlap_ratio":0.0,"osm_overlap_ratio":0.0},{"distance_m":2879.2,"disposition":"official-overlap","name":"LOST BRANCH TRAIL","namealternate":null,"trailnumber":"239","trailtype":"Terra Trail","hikerpedestrian":null,"packsaddle":null,"sourceoriginator":"U.S. Forest Service","sourcedatasetid":"{95479145-03BE-48B3-9120-08A686F7C9E4}","sourcefeatureid":"5433","official_overlap_ratio":1.0,"state_park_overlap_ratio":0.0,"osm_overlap_ratio":0.0}]}}}
