{"type":"FeatureCollection","name":"RRG LiDAR sunrise/sunset r2c4","features":[{"type":"Feature","properties":{"kind":"sunrise","strength":0.2,"hard":false,"sector":"r2c4"},"geometry":{"type":"Polygon","coordinates":[[[-83.54602547849063,37.845249748977096],[-83.5458009257205,37.84523202169285],[-83.5458009257205,37.845143385207685],[-83.54586829155154,37.84510793058378],[-83.54618266542974,37.84510793058378],[-83.54622757598376,37.845143385207685],[-83.54591320210558,37.845143385207685],[-83.54591320210558,37.84519656711157],[-83.54604793376765,37.84523202169285],[-83.54607038904466,37.845285203532825],[-83.54602547849063,37.845249748977096]]]}},{"type":"Feature","properties":{"kind":"sunrise","strength":0.2,"hard":false,"sector":"r2c4"},"geometry":{"type":"Polygon","coordinates":[[[-83.54649703930792,37.84443428949105],[-83.54651949458494,37.84446974443882],[-83.5464521287539,37.84450519936953],[-83.5464521287539,37.84446974443882],[-83.54649703930792,37.84443428949105]]]}},{"type":"Feature","properties":{"kind":"sunrise","strength":0.2,"hard":false,"sector":"r2c4"},"geometry":{"type":"Polygon","coordinates":[[[-83.5464521287539,37.84450519936953],[-83.54640721819986,37.844576109179826],[-83.54642967347688,37.84466474634682],[-83.54651949458494,37.84466474634682],[-83.54663177097001,37.844593836621755],[-83.54667668152403,37.84461156405941],[-83.54649703930792,37.844735656003714],[-83.5463173970918,37.84475338340728],[-83.5463173970918,37.84464701892195],[-83.5464521287539,37.84450519936953]]]}},{"type":"Feature","properties":{"kind":"sunrise","strength":0.2,"hard":false,"sector":"r2c4"},"geometry":{"type":"Polygon","coordinates":[[[-83.54889975394839,37.84602974526533],[-83.54901203033347,37.84601201816857],[-83.54901203033347,37.84592338262092],[-83.54894466450243,37.84588792837202],[-83.54901203033347,37.84588792837202],[-83.5491018514415,37.84599429106756],[-83.5491018514415,37.8460474723578],[-83.54898957505645,37.84608292653],[-83.54889975394839,37.84602974526533]]]}},{"type":"Feature","properties":{"kind":"sunrise","strength":0.2,"hard":false,"sector":"r2c4"},"geometry":{"type":"Polygon","coordinates":[[[-83.55000006252207,37.84088870863595],[-83.54991024141401,37.84083552362558],[-83.54991024141401,37.84080006693067],[-83.55000006252207,37.84085325196662],[-83.55000006252207,37.84088870863595]]]}},{"type":"Feature","properties":{"kind":"sunrise","strength":0.2,"hard":false,"sector":"r2c4"},"geometry":{"type":"Polygon","coordinates":[[[-83.55000006252207,37.84088870863595],[-83.5500449730761,37.84090643696423],[-83.55008988363014,37.84101280684438],[-83.55008988363014,37.84111917657113],[-83.55002251779909,37.84119008963706],[-83.54991024141401,37.84119008963706],[-83.54968568864389,37.84108372001259],[-83.54973059919791,37.84106599172693],[-83.54982042030596,37.84111917657113],[-83.54993269669103,37.84111917657113],[-83.54995515196804,37.84106599172693],[-83.55002251779909,37.84104826343701],[-83.55000006252207,37.84088870863595]]]}},{"type":"Feature","properties":{"kind":"sunrise","strength":0.2,"hard":false,"sector":"r2c4"},"geometry":{"type":"Polygon","coordinates":[[[-83.54995515196804,37.84723517784686],[-83.55015724946117,37.846987002161484],[-83.55017970473817,37.84702245588198],[-83.55006742835312,37.84714654376939],[-83.55006742835312,37.84721745103989],[-83.55015724946117,37.84723517784686],[-83.55031443640027,37.847128816941115],[-83.55031443640027,37.84716427059341],[-83.55006742835312,37.84732381181779],[-83.54995515196804,37.84732381181779],[-83.54995515196804,37.84723517784686]]]}},{"type":"Feature","properties":{"kind":"sunrise","strength":0.2,"hard":false,"sector":"r2c4"},"geometry":{"type":"Polygon","coordinates":[[[-83.55098809471068,37.84799742651519],[-83.5510330052647,37.84801515313465],[-83.55094318415664,37.84805060636079],[-83.55094318415664,37.848032879749866],[-83.55098809471068,37.84799742651519]]]}},{"type":"Feature","properties":{"kind":"sunrise","strength":0.2,"hard":false,"sector":"r2c4"},"geometry":{"type":"Polygon","coordinates":[[[-83.55094318415664,37.84805060636079],[-83.55080845249456,37.84815696593695],[-83.55067372083249,37.8482101456675],[-83.55056144444741,37.8482101456675],[-83.55056144444741,37.84812151276195],[-83.5506961761095,37.84797969989146],[-83.5506961761095,37.84812151276195],[-83.55078599721756,37.84812151276195],[-83.55094318415664,37.84805060636079]]]}},{"type":"Feature","properties":{"kind":"sunrise","strength":0.2,"hard":false,"sector":"r2c4"},"geometry":{"type":"Polygon","coordinates":[[[-83.55123510275783,37.84436337954438],[-83.55132492386588,37.84425701449655],[-83.55132492386588,37.84407973907591],[-83.55123510275783,37.844044283940654],[-83.55121264748081,37.84392019083299],[-83.5510105499877,37.84390246322914],[-83.5511901922038,37.843867008008644],[-83.55130246858887,37.84388473562103],[-83.55130246858887,37.843955646027915],[-83.55141474497394,37.84407973907591],[-83.55141474497394,37.84425701449655],[-83.55123510275783,37.84436337954438]]]}},{"type":"Feature","properties":{"kind":"sunrise","strength":0.2,"hard":false,"sector":"r2c4"},"geometry":{"type":"Polygon","coordinates":[[[-83.5510105499877,37.84392019083299],[-83.55096563943367,37.843973373618994],[-83.55092072887963,37.843973373618994],[-83.55096563943367,37.84392019083299],[-83.5510105499877,37.84392019083299]]]}},{"type":"Feature","properties":{"kind":"sunrise","strength":0.2,"hard":false,"sector":"r2c4"},"geometry":{"type":"Polygon","coordinates":[[[-83.55188630579121,37.84487747511295],[-83.5519985821763,37.84487747511295],[-83.5519985821763,37.84480656559242],[-83.55170666357512,37.844593836621755],[-83.55170666357512,37.84455838173365],[-83.55197612689928,37.84477111080659],[-83.55211085856136,37.84482429297895],[-83.55208840328436,37.8449306572086],[-83.5518413952372,37.84491292984765],[-83.55188630579121,37.84487747511295]]]}},{"type":"Feature","properties":{"kind":"sunrise","strength":0.2,"hard":false,"sector":"r2c4"},"geometry":{"type":"Polygon","coordinates":[[[-83.55175157412914,37.84932691114929],[-83.55190876106823,37.849185100597076],[-83.55186385051422,37.849309184845175],[-83.55188630579121,37.84932691114929],[-83.5519985821763,37.849291458536804],[-83.55204349273033,37.849309184845175],[-83.55186385051422,37.84941554260592],[-83.55175157412914,37.84941554260592],[-83.55175157412914,37.84932691114929]]]}},{"type":"Feature","properties":{"kind":"sunrise","strength":0.2,"hard":false,"sector":"r2c4"},"geometry":{"type":"Polygon","coordinates":[[[-83.56255256237277,37.82695292470741],[-83.56257501764979,37.826775607699155],[-83.56253010709575,37.82672241251358],[-83.56266483875783,37.82684653455359],[-83.56266483875783,37.8269706563848],[-83.56237292015665,37.8269706563848],[-83.56255256237277,37.82695292470741]]]}},{"type":"Feature","properties":{"kind":"sunrise","strength":0.2,"hard":false,"sector":"r2c4"},"geometry":{"type":"Polygon","coordinates":[[[-83.56253010709575,37.82672241251358],[-83.56246274126471,37.82668694903523],[-83.56246274126471,37.82665148553985],[-83.56253010709575,37.82668694903523],[-83.56253010709575,37.82672241251358]]]}},{"type":"Feature","properties":{"kind":"sunrise","strength":0.2,"hard":false,"sector":"r2c4"},"geometry":{"type":"Polygon","coordinates":[[[-83.56398970010166,37.828016817809555],[-83.56407952120969,37.82796362351874],[-83.56403461065567,37.828087743470995],[-83.56412443176372,37.82810547487569],[-83.56416934231775,37.828070012062014],[-83.56421425287178,37.828087743470995],[-83.56407952120969,37.82819413183532],[-83.56394478954763,37.82819413183532],[-83.56398970010166,37.828016817809555]]]}},{"type":"Feature","properties":{"kind":"sunrise","strength":0.36,"hard":false,"sector":"r2c4"},"geometry":{"type":"Polygon","coordinates":[[[-83.54618266542974,37.84516111251323],[-83.54604793376765,37.84516111251323],[-83.54607038904466,37.845249748977096],[-83.54591320210558,37.84519656711157],[-83.54593565738259,37.84512565789787],[-83.54616021015272,37.84512565789787],[-83.54618266542974,37.84516111251323]]]}},{"type":"Feature","properties":{"kind":"sunrise","strength":0.36,"hard":false,"sector":"r2c4"},"geometry":{"type":"Polygon","coordinates":[[[-83.54642967347688,37.84454065428321],[-83.54649703930792,37.84446974443882],[-83.54651949458494,37.84455838173365],[-83.54674404735506,37.844522926828496],[-83.54667668152403,37.844593836621755],[-83.54651949458494,37.84466474634682],[-83.54640721819986,37.84464701892195],[-83.54642967347688,37.84454065428321]]]}},{"type":"Feature","properties":{"kind":"sunrise","strength":0.36,"hard":false,"sector":"r2c4"},"geometry":{"type":"Polygon","coordinates":[[[-83.54892220922542,37.845976563962296],[-83.54894466450243,37.84592338262092],[-83.54889975394839,37.84588792837202],[-83.54901203033347,37.84592338262092],[-83.54901203033347,37.84601201816857],[-83.54874256700931,37.84601201816857],[-83.54892220922542,37.845976563962296]]]}},{"type":"Feature","properties":{"kind":"sunrise","strength":0.36,"hard":false,"sector":"r2c4"},"geometry":{"type":"Polygon","coordinates":[[[-83.54991024141401,37.84083552362558],[-83.55002251779909,37.840924165288236],[-83.55002251779909,37.84104826343701],[-83.54995515196804,37.84106599172693],[-83.54993269669103,37.84111917657113],[-83.54982042030596,37.84111917657113],[-83.54973059919791,37.84106599172693],[-83.54984287558297,37.84106599172693],[-83.54986533085999,37.84095962192348],[-83.54993269669103,37.84094189360799],[-83.54991024141401,37.84083552362558]]]}},{"type":"Feature","properties":{"kind":"sunrise","strength":0.36,"hard":false,"sector":"r2c4"},"geometry":{"type":"Polygon","coordinates":[[[-83.55017970473817,37.84702245588198],[-83.55015724946117,37.847128816941115],[-83.55026952584623,37.847128816941115],[-83.55031443640027,37.847075636430716],[-83.5503593469543,37.84709336327178],[-83.55020216001519,37.84721745103989],[-83.55008988363014,37.84723517784686],[-83.55006742835312,37.84714654376939],[-83.55017970473817,37.84702245588198]]]}},{"type":"Feature","properties":{"kind":"sunrise","strength":0.36,"hard":false,"sector":"r2c4"},"geometry":{"type":"Polygon","coordinates":[[[-83.55083090777157,37.84790879335395],[-83.55080845249456,37.84801515313465],[-83.55094318415664,37.84801515313465],[-83.5510330052647,37.84794424663123],[-83.55107791581874,37.84796197326347],[-83.55087581832561,37.84808605956989],[-83.5506961761095,37.84812151276195],[-83.55067372083249,37.84805060636079],[-83.55083090777157,37.84790879335395]]]}},{"type":"Feature","properties":{"kind":"sunrise","strength":0.36,"hard":false,"sector":"r2c4"},"geometry":{"type":"Polygon","coordinates":[[[-83.55076354194054,37.84659701011123],[-83.55078599721756,37.84641974031564],[-83.55078599721756,37.84659701011123],[-83.55076354194054,37.84659701011123]]]}},{"type":"Feature","properties":{"kind":"sunrise","strength":0.36,"hard":false,"sector":"r2c4"},"geometry":{"type":"Polygon","coordinates":[[[-83.55123510275783,37.84432792454549],[-83.55123510275783,37.84416837683949],[-83.55114528164978,37.84411519419413],[-83.55107791581874,37.843955646027915],[-83.55096563943367,37.843973373618994],[-83.5510105499877,37.84392019083299],[-83.55121264748081,37.84392019083299],[-83.55123510275783,37.844044283940654],[-83.55132492386588,37.84407973907591],[-83.55132492386588,37.84425701449655],[-83.55123510275783,37.84432792454549]]]}},{"type":"Feature","properties":{"kind":"sunrise","strength":0.36,"hard":false,"sector":"r2c4"},"geometry":{"type":"Polygon","coordinates":[[[-83.55170666357512,37.844593836621755],[-83.55159438719004,37.844487471906305],[-83.55170666357512,37.84455838173365],[-83.55170666357512,37.844593836621755]]]}},{"type":"Feature","properties":{"kind":"sunrise","strength":0.36,"hard":false,"sector":"r2c4"},"geometry":{"type":"Polygon","coordinates":[[[-83.55179648468317,37.8449306572086],[-83.55186385051422,37.84475338340728],[-83.55172911885214,37.84461156405941],[-83.5519985821763,37.84480656559242],[-83.5519985821763,37.84487747511295],[-83.55188630579121,37.84487747511295],[-83.55179648468317,37.8449306572086]]]}},{"type":"Feature","properties":{"kind":"sunrise","strength":0.36,"hard":false,"sector":"r2c4"},"geometry":{"type":"Polygon","coordinates":[[[-83.55213331383838,37.84920282693103],[-83.55204349273033,37.849291458536804],[-83.55195367162227,37.84932691114929],[-83.55186385051422,37.849309184845175],[-83.55190876106823,37.849185100597076],[-83.5519985821763,37.84911419521869],[-83.5519985821763,37.84922055326069],[-83.55213331383838,37.84920282693103]]]}},{"type":"Feature","properties":{"kind":"sunrise","strength":0.36,"hard":false,"sector":"r2c4"},"geometry":{"type":"Polygon","coordinates":[[[-83.55255996410165,37.84858240270743],[-83.55258241937865,37.8484051376847],[-83.55258241937865,37.84858240270743],[-83.55255996410165,37.84858240270743]]]}},{"type":"Feature","properties":{"kind":"sunrise","strength":0.36,"hard":false,"sector":"r2c4"},"geometry":{"type":"Polygon","coordinates":[[[-83.56246274126471,37.82668694903523],[-83.56257501764979,37.826775607699155],[-83.56257501764979,37.826917461339846],[-83.56255256237277,37.82695292470741],[-83.5623055543256,37.82693519302576],[-83.56246274126471,37.826899729649675],[-83.56246274126471,37.82668694903523]]]}},{"type":"Feature","properties":{"kind":"sunrise","strength":0.36,"hard":false,"sector":"r2c4"},"geometry":{"type":"Polygon","coordinates":[[[-83.56430407397984,37.827981354953266],[-83.56416934231775,37.828087743470995],[-83.56403461065567,37.828087743470995],[-83.56407952120969,37.82796362351874],[-83.56416934231775,37.82789269773801],[-83.56416934231775,37.82799908638355],[-83.56430407397984,37.827981354953266]]]}},{"type":"Feature","properties":{"kind":"sunrise","strength":0.52,"hard":false,"sector":"r2c4"},"geometry":{"type":"Polygon","coordinates":[[[-83.54620512070674,37.845356112593116],[-83.54604793376765,37.84521429440434],[-83.54607038904466,37.845143385207685],[-83.54618266542974,37.84516111251323],[-83.5463173970918,37.845249748977096],[-83.54627248653779,37.8452674762571],[-83.54620512070674,37.84523202169285],[-83.54616021015272,37.8452674762571],[-83.54620512070674,37.845356112593116]]]}},{"type":"Feature","properties":{"kind":"sunrise","strength":0.52,"hard":false,"sector":"r2c4"},"geometry":{"type":"Polygon","coordinates":[[[-83.54651949458494,37.84446974443882],[-83.546609315693,37.84432792454549],[-83.54663177097001,37.84446974443882],[-83.54690123429418,37.844398834526245],[-83.54665422624703,37.84455838173365],[-83.54651949458494,37.84455838173365],[-83.54651949458494,37.84446974443882]]]}},{"type":"Feature","properties":{"kind":"sunrise","strength":0.52,"hard":false,"sector":"r2c4"},"geometry":{"type":"Polygon","coordinates":[[[-83.5487201117323,37.845976563962296],[-83.54885484339437,37.84595883685276],[-83.54883238811736,37.84585247410609],[-83.54894466450243,37.84592338262092],[-83.54892220922542,37.84599429106756],[-83.5487201117323,37.845976563962296]]]}},{"type":"Feature","properties":{"kind":"sunrise","strength":0.52,"hard":false,"sector":"r2c4"},"geometry":{"type":"Polygon","coordinates":[[[-83.54973059919791,37.84103053514282],[-83.54975305447492,37.84088870863595],[-83.54982042030596,37.84081779528026],[-83.54977550975195,37.840764610218734],[-83.54979796502894,37.84072915348975],[-83.54993269669103,37.84087098030343],[-83.54993269669103,37.84094189360799],[-83.54986533085999,37.84095962192348],[-83.54984287558297,37.84106599172693],[-83.54966323336687,37.84104826343701],[-83.54973059919791,37.84103053514282]]]}},{"type":"Feature","properties":{"kind":"sunrise","strength":0.52,"hard":false,"sector":"r2c4"},"geometry":{"type":"Polygon","coordinates":[[[-83.55020216001519,37.84700472902385],[-83.55029198112325,37.84693382154882],[-83.55026952584623,37.84702245588198],[-83.55033689167728,37.84704018273582],[-83.5503818022313,37.84700472902385],[-83.55042671278534,37.84702245588198],[-83.55026952584623,37.847128816941115],[-83.55015724946117,37.847128816941115],[-83.55020216001519,37.84700472902385]]]}},{"type":"Feature","properties":{"kind":"sunrise","strength":0.52,"hard":false,"sector":"r2c4"},"geometry":{"type":"Polygon","coordinates":[[[-83.55085336304859,37.84789106670892],[-83.55096563943367,37.84780243341983],[-83.55092072887963,37.84787334005962],[-83.55096563943367,37.847926519994715],[-83.55107791581874,37.84789106670892],[-83.55112282637276,37.84790879335395],[-83.55094318415664,37.84801515313465],[-83.55080845249456,37.84801515313465],[-83.55085336304859,37.84789106670892]]]}},{"type":"Feature","properties":{"kind":"sunrise","strength":0.52,"hard":false,"sector":"r2c4"},"geometry":{"type":"Polygon","coordinates":[[[-83.5511677369268,37.844398834526245],[-83.55114528164978,37.844239286973654],[-83.55105546054173,37.84418610437943],[-83.5510330052647,37.84407973907591],[-83.55098809471068,37.844044283940654],[-83.55085336304859,37.84406201151042],[-83.5510105499877,37.843955646027915],[-83.55110037109576,37.843973373618994],[-83.55114528164978,37.84411519419413],[-83.55123510275783,37.84416837683949],[-83.55123510275783,37.84432792454549],[-83.5511677369268,37.844398834526245]]]}},{"type":"Feature","properties":{"kind":"sunrise","strength":0.52,"hard":false,"sector":"r2c4"},"geometry":{"type":"Polygon","coordinates":[[[-83.55175157412914,37.84491292984765],[-83.55172911885214,37.84482429297895],[-83.55161684246707,37.84471792859589],[-83.55157193191303,37.844522926828496],[-83.55152702135901,37.844487471906305],[-83.5513698344199,37.84450519936953],[-83.55139228969693,37.84446974443882],[-83.55157193191303,37.84446974443882],[-83.5518413952372,37.84471792859589],[-83.55186385051422,37.844859747739214],[-83.55170666357512,37.84498383926591],[-83.55175157412914,37.84491292984765]]]}},{"type":"Feature","properties":{"kind":"sunrise","strength":0.52,"hard":false,"sector":"r2c4"},"geometry":{"type":"Polygon","coordinates":[[[-83.5519985821763,37.849149647916406],[-83.55213331383838,37.84900783702327],[-83.5521557691154,37.849043289772126],[-83.55211085856136,37.84909646886344],[-83.5521557691154,37.849131921569686],[-83.55226804550045,37.84909646886344],[-83.55213331383838,37.84920282693103],[-83.5519985821763,37.84922055326069],[-83.5519985821763,37.849149647916406]]]}},{"type":"Feature","properties":{"kind":"sunrise","strength":0.52,"hard":false,"sector":"r2c4"},"geometry":{"type":"Polygon","coordinates":[[[-83.5623055543256,37.826917461339846],[-83.56221573321756,37.82684653455359],[-83.56235046487964,37.82686426625654],[-83.56239537543367,37.826616022027416],[-83.56248519654173,37.82672241251358],[-83.56246274126471,37.826899729649675],[-83.5623055543256,37.826917461339846]]]}},{"type":"Feature","properties":{"kind":"sunrise","strength":0.52,"hard":false,"sector":"r2c4"},"geometry":{"type":"Polygon","coordinates":[[[-83.56416934231775,37.827928160636894],[-83.56430407397984,37.82780404041621],[-83.56432652925686,37.82773311448209],[-83.56432652925686,37.82782177188909],[-83.56428161870284,37.827874966282174],[-83.56432652925686,37.82791042918958],[-83.56439389508789,37.827874966282174],[-83.56443880564191,37.82789269773801],[-83.5642591634258,37.82799908638355],[-83.56416934231775,37.82799908638355],[-83.56416934231775,37.827928160636894]]]}},{"type":"Feature","properties":{"kind":"sunrise","strength":0.68,"hard":false,"sector":"r2c4"},"geometry":{"type":"Polygon","coordinates":[[[-83.54633985236882,37.845462476055715],[-83.54616021015272,37.845285203532825],[-83.54620512070674,37.84523202169285],[-83.5464521287539,37.845356112593116],[-83.5462949418148,37.845356112593116],[-83.54633985236882,37.845462476055715]]]}},{"type":"Feature","properties":{"kind":"sunrise","strength":0.68,"hard":false,"sector":"r2c4"},"geometry":{"type":"Polygon","coordinates":[[[-83.54663177097001,37.84432792454549],[-83.54674404735506,37.84422155944652],[-83.54674404735506,37.84436337954438],[-83.54685632374014,37.84436337954438],[-83.54703596595625,37.844292469529535],[-83.54690123429418,37.844398834526245],[-83.54669913680105,37.84446974443882],[-83.546609315693,37.84445201696706],[-83.54663177097001,37.84432792454549]]]}},{"type":"Feature","properties":{"kind":"sunrise","strength":0.68,"hard":false,"sector":"r2c4"},"geometry":{"type":"Polygon","coordinates":[[[-83.5487650222863,37.845976563962296],[-83.54865274590125,37.8459056554986],[-83.54874256700931,37.84592338262092],[-83.54878747756332,37.84588792837202],[-83.5487650222863,37.84585247410609],[-83.54878747756332,37.84579929267521],[-83.54885484339437,37.84588792837202],[-83.54885484339437,37.84595883685276],[-83.5487650222863,37.845976563962296]]]}},{"type":"Feature","properties":{"kind":"sunrise","strength":0.68,"hard":false,"sector":"r2c4"},"geometry":{"type":"Polygon","coordinates":[[[-83.54966323336687,37.840995078541674],[-83.54968568864389,37.84067596836431],[-83.54964077808985,37.84062278320052],[-83.54982042030596,37.84080006693067],[-83.54975305447492,37.84088870863595],[-83.54973059919791,37.84103053514282],[-83.54959586753583,37.84101280684438],[-83.54966323336687,37.840995078541674]]]}},{"type":"Feature","properties":{"kind":"sunrise","strength":0.68,"hard":false,"sector":"r2c4"},"geometry":{"type":"Polygon","coordinates":[[[-83.55026952584623,37.84702245588198],[-83.55031443640027,37.84689836778573],[-83.5503593469543,37.84688064089779],[-83.5503593469543,37.84680973330343],[-83.55040425750833,37.84693382154882],[-83.5505389891704,37.84689836778573],[-83.55033689167728,37.84704018273582],[-83.55026952584623,37.84702245588198]]]}},{"type":"Feature","properties":{"kind":"sunrise","strength":0.68,"hard":false,"sector":"r2c4"},"geometry":{"type":"Polygon","coordinates":[[[-83.55074108666354,37.846614737067355],[-83.55076354194054,37.84641974031564],[-83.55076354194054,37.846614737067355],[-83.55074108666354,37.846614737067355]]]}},{"type":"Feature","properties":{"kind":"sunrise","strength":0.68,"hard":false,"sector":"r2c4"},"geometry":{"type":"Polygon","coordinates":[[[-83.55105546054173,37.84434565204707],[-83.55092072887963,37.844132921746855],[-83.55087581832561,37.84411519419413],[-83.55078599721756,37.8441506492953],[-83.55074108666354,37.844132921746855],[-83.55089827360261,37.844044283940654],[-83.55098809471068,37.844044283940654],[-83.5511677369268,37.84431019703964],[-83.55107791581874,37.84446974443882],[-83.55105546054173,37.84434565204707]]]}},{"type":"Feature","properties":{"kind":"sunrise","strength":0.68,"hard":false,"sector":"r2c4"},"geometry":{"type":"Polygon","coordinates":[[[-83.55092072887963,37.84787334005962],[-83.55105546054173,37.8477138000242],[-83.55107791581874,37.84782016008617],[-83.55125755803483,37.84778470674922],[-83.55107791581874,37.84790879335395],[-83.55096563943367,37.847926519994715],[-83.55092072887963,37.84787334005962]]]}},{"type":"Feature","properties":{"kind":"sunrise","strength":0.68,"hard":false,"sector":"r2c4"},"geometry":{"type":"Polygon","coordinates":[[[-83.55161684246707,37.84494838456529],[-83.551504566082,37.84484202036121],[-83.55141474497394,37.844576109179826],[-83.55130246858887,37.844576109179826],[-83.55123510275783,37.84461156405941],[-83.55141474497394,37.844487471906305],[-83.55152702135901,37.844487471906305],[-83.55157193191303,37.844522926828496],[-83.55161684246707,37.84471792859589],[-83.55175157412914,37.844859747739214],[-83.55170666357512,37.84498383926591],[-83.55157193191303,37.845090203265435],[-83.55161684246707,37.84503702128484],[-83.55161684246707,37.84494838456529]]]}},{"type":"Feature","properties":{"kind":"sunrise","strength":0.68,"hard":false,"sector":"r2c4"},"geometry":{"type":"Polygon","coordinates":[[[-83.55211085856136,37.84907874250393],[-83.5521782243924,37.84897238425737],[-83.55222313494643,37.84902556339982],[-83.5523354113315,37.84900783702327],[-83.55231295605448,37.84906101614016],[-83.5521782243924,37.849131921569686],[-83.55211085856136,37.84907874250393]]]}},{"type":"Feature","properties":{"kind":"sunrise","strength":0.68,"hard":false,"sector":"r2c4"},"geometry":{"type":"Polygon","coordinates":[[[-83.55240277716254,37.8488305730233],[-83.5524701429936,37.848706487969785],[-83.55240277716254,37.84893693147442],[-83.55240277716254,37.8488305730233]]]}},{"type":"Feature","properties":{"kind":"sunrise","strength":0.68,"hard":false,"sector":"r2c4"},"geometry":{"type":"Polygon","coordinates":[[[-83.55253750882463,37.84860012918626],[-83.55255996410165,37.8484051376847],[-83.55255996410165,37.84860012918626],[-83.55253750882463,37.84860012918626]]]}},{"type":"Feature","properties":{"kind":"sunrise","strength":0.68,"hard":false,"sector":"r2c4"},"geometry":{"type":"Polygon","coordinates":[[[-83.56217082266353,37.82682880284636],[-83.5622606437716,37.826775607699155],[-83.5623055543256,37.82652736317176],[-83.56239537543367,37.82665148553985],[-83.56235046487964,37.82686426625654],[-83.56217082266353,37.82682880284636]]]}},{"type":"Feature","properties":{"kind":"sunrise","strength":0.68,"hard":false,"sector":"r2c4"},"geometry":{"type":"Polygon","coordinates":[[[-83.56428161870284,37.827857234822076],[-83.56432652925686,37.82782177188909],[-83.56432652925686,37.82773311448209],[-83.56439389508789,37.82780404041621],[-83.56452862674998,37.82778630893908],[-83.56452862674998,37.82782177188909],[-83.56434898453386,37.82791042918958],[-83.56428161870284,37.827857234822076]]]}},{"type":"Feature","properties":{"kind":"sunrise","strength":0.84,"hard":false,"sector":"r2c4"},"geometry":{"type":"Polygon","coordinates":[[[-83.54651949458494,37.8454447488226],[-83.54642967347688,37.8454447488226],[-83.54638476292286,37.84551565772949],[-83.5462949418148,37.84540929434359],[-83.5462949418148,37.845356112593116],[-83.54638476292286,37.845338385334436],[-83.54651949458494,37.8454447488226]]]}},{"type":"Feature","properties":{"kind":"sunrise","strength":0.84,"hard":false,"sector":"r2c4"},"geometry":{"type":"Polygon","coordinates":[[[-83.54651949458494,37.8454447488226],[-83.54658686041599,37.845462476055715],[-83.54658686041599,37.84551565772949],[-83.54656440513898,37.84551565772949],[-83.54651949458494,37.8454447488226]]]}},{"type":"Feature","properties":{"kind":"sunrise","strength":0.84,"hard":false,"sector":"r2c4"},"geometry":{"type":"Polygon","coordinates":[[[-83.54672159207806,37.84434565204707],[-83.5467889579091,37.84418610437943],[-83.54683386846312,37.84418610437943],[-83.54685632374014,37.84425701449655],[-83.54701351067924,37.84425701449655],[-83.54708087651028,37.84418610437943],[-83.54708087651028,37.84425701449655],[-83.54685632374014,37.84436337954438],[-83.54672159207806,37.84434565204707]]]}},{"type":"Feature","properties":{"kind":"sunrise","strength":0.84,"hard":false,"sector":"r2c4"},"geometry":{"type":"Polygon","coordinates":[[[-83.54865274590125,37.8459056554986],[-83.54860783534723,37.84585247410609],[-83.54869765645529,37.84585247410609],[-83.54869765645529,37.84576383836665],[-83.5487650222863,37.84579929267521],[-83.54878747756332,37.84588792837202],[-83.54874256700931,37.84592338262092],[-83.54865274590125,37.8459056554986]]]}},{"type":"Feature","properties":{"kind":"sunrise","strength":0.84,"hard":false,"sector":"r2c4"},"geometry":{"type":"Polygon","coordinates":[[[-83.54943868059674,37.840995078541674],[-83.54957341225881,37.84094189360799],[-83.54957341225881,37.84062278320052],[-83.54948359115075,37.84058732640335],[-83.54959586753583,37.84058732640335],[-83.54968568864389,37.84067596836431],[-83.54966323336687,37.840995078541674],[-83.54943868059674,37.840995078541674]]]}},{"type":"Feature","properties":{"kind":"sunrise","strength":0.84,"hard":false,"sector":"r2c4"},"geometry":{"type":"Polygon","coordinates":[[[-83.5503818022313,37.84680973330343],[-83.5505389891704,37.8468274602084],[-83.55067372083249,37.84673882564088],[-83.55074108666354,37.8465438292173],[-83.55071863138652,37.84673882564088],[-83.55058389972443,37.8468274602084],[-83.55058389972443,37.846862914005584],[-83.55047162333936,37.84693382154882],[-83.55040425750833,37.84693382154882],[-83.5503818022313,37.84680973330343]]]}},{"type":"Feature","properties":{"kind":"sunrise","strength":0.84,"hard":false,"sector":"r2c4"},"geometry":{"type":"Polygon","coordinates":[[[-83.55098809471068,37.844398834526245],[-83.55080845249456,37.8442038319151],[-83.5506961761095,37.8442038319151],[-83.55074108666354,37.8441506492953],[-83.55083090777157,37.84411519419413],[-83.55092072887963,37.844132921746855],[-83.55096563943367,37.844239286973654],[-83.55105546054173,37.84431019703964],[-83.55107791581874,37.84443428949105],[-83.5510105499877,37.84450519936953],[-83.55098809471068,37.844398834526245]]]}},{"type":"Feature","properties":{"kind":"sunrise","strength":0.84,"hard":false,"sector":"r2c4"},"geometry":{"type":"Polygon","coordinates":[[[-83.55107791581874,37.84782016008617],[-83.55107791581874,37.84766061993569],[-83.55112282637276,37.8477138000242],[-83.55128001331185,37.8477138000242],[-83.5513473791429,37.84762516652204],[-83.551504566082,37.8475719863696],[-83.55152702135901,37.84750107944002],[-83.55152702135901,37.84758971309134],[-83.55125755803483,37.84778470674922],[-83.55107791581874,37.84782016008617]]]}},{"type":"Feature","properties":{"kind":"sunrise","strength":0.84,"hard":false,"sector":"r2c4"},"geometry":{"type":"Polygon","coordinates":[[[-83.551482110805,37.845143385207685],[-83.551482110805,37.84503702128484],[-83.5513698344199,37.84491292984765],[-83.55130246858887,37.84470020118379],[-83.5511677369268,37.844682473767435],[-83.55130246858887,37.844576109179826],[-83.55141474497394,37.844576109179826],[-83.551504566082,37.84484202036121],[-83.55161684246707,37.84494838456529],[-83.55161684246707,37.84503702128484],[-83.551482110805,37.845143385207685]]]}},{"type":"Feature","properties":{"kind":"sunrise","strength":0.84,"hard":false,"sector":"r2c4"},"geometry":{"type":"Polygon","coordinates":[[[-83.55251505354762,37.84861785566084],[-83.55242523243956,37.84872421441878],[-83.55240277716254,37.84893693147442],[-83.55231295605448,37.84902556339982],[-83.55222313494643,37.84902556339982],[-83.5521557691154,37.84891920507656],[-83.55226804550045,37.84891920507656],[-83.5523354113315,37.84884829944249],[-83.5523354113315,37.84872421441878],[-83.55226804550045,37.84868876151651],[-83.55235786660852,37.84867103505898],[-83.55235786660852,37.84854694973698],[-83.55238032188554,37.84863558213115],[-83.5524925982706,37.84863558213115],[-83.5524925982706,37.84861785566084],[-83.55251505354762,37.84861785566084]]]}},{"type":"Feature","properties":{"kind":"sunrise","strength":0.84,"hard":false,"sector":"r2c4"},"geometry":{"type":"Polygon","coordinates":[[[-83.56210345683249,37.82679333941914],[-83.56223818849458,37.82654509495142],[-83.5622606437716,37.8264209724044],[-83.5622606437716,37.826509631387864],[-83.5623055543256,37.82656282672681],[-83.5622606437716,37.826775607699155],[-83.56210345683249,37.82682880284636],[-83.56190135933937,37.82682880284636],[-83.56210345683249,37.82679333941914]]]}},{"type":"Feature","properties":{"kind":"sunrise","strength":0.84,"hard":false,"sector":"r2c4"},"geometry":{"type":"Polygon","coordinates":[[[-83.56439389508789,37.82780404041621],[-83.56430407397984,37.827697651489466],[-83.56441635036491,37.827697651489466],[-83.564573537304,37.82764445696857],[-83.56461844785804,37.82757353088107],[-83.56461844785804,37.827679919986764],[-83.56452862674998,37.82778630893908],[-83.56439389508789,37.82780404041621]]]}},{"type":"Feature","properties":{"kind":"sunrise","strength":1.0,"hard":false,"sector":"r2c4"},"geometry":{"type":"Polygon","coordinates":[[[-83.54651949458494,37.84563974815248],[-83.54638476292286,37.84560429376721],[-83.54640721819986,37.845480203284566],[-83.54642967347688,37.8454447488226],[-83.54651949458494,37.8454447488226],[-83.54658686041599,37.84551565772949],[-83.54658686041599,37.84560429376721],[-83.54651949458494,37.84563974815248]]]}},{"type":"Feature","properties":{"kind":"sunrise","strength":1.0,"hard":false,"sector":"r2c4"},"geometry":{"type":"Polygon","coordinates":[[[-83.54685632374014,37.84425701449655],[-83.54681141318612,37.84411519419413],[-83.54687877901716,37.84407973907591],[-83.54701351067924,37.84406201151042],[-83.54705842123326,37.84400882878834],[-83.54712578706432,37.84402655636662],[-83.54714824234132,37.84409746663715],[-83.54708087651028,37.8441506492953],[-83.54705842123326,37.844239286973654],[-83.54685632374014,37.84425701449655]]]}},{"type":"Feature","properties":{"kind":"sunrise","strength":1.0,"hard":false,"sector":"r2c4"},"geometry":{"type":"Polygon","coordinates":[[[-83.54854046951617,37.845817019823095],[-83.54849555896216,37.84572838404105],[-83.54854046951617,37.84567520252069],[-83.54860783534723,37.84567520252069],[-83.54869765645529,37.84576383836665],[-83.54869765645529,37.84585247410609],[-83.54854046951617,37.845817019823095]]]}},{"type":"Feature","properties":{"kind":"sunrise","strength":1.0,"hard":false,"sector":"r2c4"},"geometry":{"type":"Polygon","coordinates":[[[-83.54943868059674,37.84097735023471],[-83.54934885948869,37.840924165288236],[-83.54934885948869,37.84058732640335],[-83.54957341225881,37.84062278320052],[-83.54957341225881,37.84094189360799],[-83.54952850170477,37.84097735023471],[-83.54943868059674,37.84097735023471]]]}},{"type":"Feature","properties":{"kind":"sunrise","strength":1.0,"hard":false,"sector":"r2c4"},"geometry":{"type":"Polygon","coordinates":[[[-83.55040425750833,37.8468274602084],[-83.55024707056923,37.846667917910146],[-83.55042671278534,37.84659701011123],[-83.55051653389337,37.84647292129907],[-83.55062881027845,37.84638428630539],[-83.5506961761095,37.84638428630539],[-83.55074108666354,37.84641974031564],[-83.55074108666354,37.8465438292173],[-83.55067372083249,37.84673882564088],[-83.5505389891704,37.8468274602084],[-83.55040425750833,37.8468274602084]]]}},{"type":"Feature","properties":{"kind":"sunrise","strength":1.0,"hard":false,"sector":"r2c4"},"geometry":{"type":"Polygon","coordinates":[[[-83.55087581832561,37.84461156405941],[-83.55058389972443,37.84434565204707],[-83.55058389972443,37.84427474201517],[-83.5506961761095,37.8442038319151],[-83.55080845249456,37.8442038319151],[-83.55098809471068,37.844398834526245],[-83.55096563943367,37.84454065428321],[-83.55087581832561,37.84461156405941]]]}},{"type":"Feature","properties":{"kind":"sunrise","strength":1.0,"hard":false,"sector":"r2c4"},"geometry":{"type":"Polygon","coordinates":[[[-83.55112282637276,37.8477138000242],[-83.5510105499877,37.847607439808826],[-83.55105546054173,37.84751880617881],[-83.5511677369268,37.847483352696976],[-83.55125755803483,37.84750107944002],[-83.55128001331185,37.8474478991981],[-83.55145965552796,37.84737699214921],[-83.55152702135901,37.847288358242196],[-83.55163929774407,37.847252904649565],[-83.55163929774407,37.84739471891782],[-83.55152702135901,37.847430172442266],[-83.551504566082,37.8475719863696],[-83.55145965552796,37.847607439808826],[-83.5513473791429,37.84762516652204],[-83.55128001331185,37.8477138000242],[-83.55112282637276,37.8477138000242]]]}},{"type":"Feature","properties":{"kind":"sunrise","strength":1.0,"hard":false,"sector":"r2c4"},"geometry":{"type":"Polygon","coordinates":[[[-83.5513473791429,37.8452674762571],[-83.55114528164978,37.84510793058378],[-83.55114528164978,37.845019293949456],[-83.5510330052647,37.84482429297895],[-83.5510330052647,37.84477111080659],[-83.5511677369268,37.844682473767435],[-83.55130246858887,37.84470020118379],[-83.5513698344199,37.84491292984765],[-83.551482110805,37.84503702128484],[-83.551482110805,37.845143385207685],[-83.55143720025096,37.84519656711157],[-83.5513473791429,37.8452674762571]]]}},{"type":"Feature","properties":{"kind":"sunrise","strength":1.0,"hard":false,"sector":"r2c4"},"geometry":{"type":"Polygon","coordinates":[[[-83.5521557691154,37.84891920507656],[-83.5519985821763,37.848795120172184],[-83.55208840328436,37.84868876151651],[-83.55220067966943,37.84863558213115],[-83.55229050077747,37.84872421441878],[-83.5523354113315,37.84872421441878],[-83.5523354113315,37.84884829944249],[-83.55226804550045,37.84891920507656],[-83.5521557691154,37.84891920507656]]]}},{"type":"Feature","properties":{"kind":"sunrise","strength":1.0,"hard":false,"sector":"r2c4"},"geometry":{"type":"Polygon","coordinates":[[[-83.55238032188554,37.84863558213115],[-83.55242523243956,37.84836968462903],[-83.55253750882463,37.8484051376847],[-83.55253750882463,37.84854694973698],[-83.5524925982706,37.84863558213115],[-83.55238032188554,37.84863558213115]]]}},{"type":"Feature","properties":{"kind":"sunrise","strength":1.0,"hard":false,"sector":"r2c4"},"geometry":{"type":"Polygon","coordinates":[[[-83.56187890406235,37.826811071134884],[-83.56178908295429,37.82674014424636],[-83.56178908295429,37.82668694903523],[-83.56187890406235,37.82666921728967],[-83.56203609100145,37.826385508781186],[-83.56201363572443,37.82633231331441],[-83.56210345683249,37.8262968496486],[-83.56223818849458,37.8264209724044],[-83.56223818849458,37.82654509495142],[-83.56217082266353,37.826616022027416],[-83.56214836738653,37.82672241251358],[-83.56205854627846,37.826811071134884],[-83.56187890406235,37.826811071134884]]]}},{"type":"Feature","properties":{"kind":"sunrise","strength":1.0,"hard":false,"sector":"r2c4"},"geometry":{"type":"Polygon","coordinates":[[[-83.56430407397984,37.827697651489466],[-83.56414688704074,37.827591262409335],[-83.56414688704074,37.827538067811744],[-83.56430407397984,37.82750260472538],[-83.56446126091893,37.82739621536405],[-83.564573537304,37.82743167850153],[-83.564573537304,37.82764445696857],[-83.56441635036491,37.827697651489466],[-83.56430407397984,37.827697651489466]]]}},{"type":"Feature","properties":{"kind":"sunrise","strength":1.0,"hard":true,"sector":"r2c4"},"geometry":{"type":"Polygon","coordinates":[[[-83.54642967347688,37.845622020961976],[-83.54647458403092,37.845586566568194],[-83.54651949458494,37.845622020961976],[-83.54647458403092,37.84563974815248],[-83.54647458403092,37.845622020961976],[-83.54642967347688,37.845622020961976]]]}},{"type":"Feature","properties":{"kind":"sunrise","strength":1.0,"hard":true,"sector":"r2c4"},"geometry":{"type":"Polygon","coordinates":[[[-83.54692368957119,37.84407973907591],[-83.54692368957119,37.84406201151042],[-83.54696860012523,37.84406201151042],[-83.54696860012523,37.84409746663715],[-83.54685632374014,37.84411519419413],[-83.54687877901716,37.84407973907591],[-83.54692368957119,37.84407973907591]]]}},{"type":"Feature","properties":{"kind":"sunrise","strength":1.0,"hard":true,"sector":"r2c4"},"geometry":{"type":"Polygon","coordinates":[[[-83.54699105540224,37.84407973907591],[-83.54705842123326,37.84400882878834],[-83.5471033317873,37.84400882878834],[-83.54708087651028,37.84406201151042],[-83.54699105540224,37.84407973907591]]]}},{"type":"Feature","properties":{"kind":"sunrise","strength":1.0,"hard":true,"sector":"r2c4"},"geometry":{"type":"Polygon","coordinates":[[[-83.54849555896216,37.84574611120598],[-83.54851801423916,37.84571065687186],[-83.54856292479319,37.84571065687186],[-83.54854046951617,37.845781565523055],[-83.54849555896216,37.84574611120598]]]}},{"type":"Feature","properties":{"kind":"sunrise","strength":1.0,"hard":true,"sector":"r2c4"},"geometry":{"type":"Polygon","coordinates":[[[-83.54934885948869,37.84081779528026],[-83.5493713147657,37.84080006693067],[-83.54934885948869,37.84062278320052],[-83.5493937700427,37.84062278320052],[-83.5493937700427,37.840658239980634],[-83.54941622531972,37.840658239980634],[-83.54941622531972,37.84074688185637],[-83.5493937700427,37.84074688185637],[-83.54941622531972,37.84081779528026],[-83.5493937700427,37.84081779528026],[-83.5493937700427,37.84085325196662],[-83.54934885948869,37.84085325196662],[-83.5493713147657,37.84083552362558],[-83.54934885948869,37.84081779528026]]]}},{"type":"Feature","properties":{"kind":"sunrise","strength":1.0,"hard":true,"sector":"r2c4"},"geometry":{"type":"Polygon","coordinates":[[[-83.55031443640027,37.84663246401921],[-83.55040425750833,37.846614737067355],[-83.55047162333936,37.8465438292173],[-83.55051653389337,37.84656155618621],[-83.55049407861637,37.846614737067355],[-83.55040425750833,37.84663246401921],[-83.55033689167728,37.84668564484922],[-83.55029198112325,37.846667917910146],[-83.55031443640027,37.84663246401921]]]}},{"type":"Feature","properties":{"kind":"sunrise","strength":1.0,"hard":true,"sector":"r2c4"},"geometry":{"type":"Polygon","coordinates":[[[-83.55051653389337,37.84649064828501],[-83.55060635500143,37.84641974031564],[-83.55065126555547,37.84641974031564],[-83.55062881027845,37.84647292129907],[-83.55058389972443,37.84647292129907],[-83.55058389972443,37.84650837526671],[-83.55051653389337,37.84652610224413],[-83.55051653389337,37.84649064828501]]]}},{"type":"Feature","properties":{"kind":"sunrise","strength":1.0,"hard":true,"sector":"r2c4"},"geometry":{"type":"Polygon","coordinates":[[[-83.55080845249456,37.84454065428321],[-83.5506961761095,37.84446974443882],[-83.5506961761095,37.84441656201078],[-83.55062881027845,37.844398834526245],[-83.55060635500143,37.84432792454549],[-83.55065126555547,37.84432792454549],[-83.55071863138652,37.84438110703744],[-83.55071863138652,37.84441656201078],[-83.55078599721756,37.84445201696706],[-83.55078599721756,37.844487471906305],[-83.55083090777157,37.84450519936953],[-83.55085336304859,37.84455838173365],[-83.55080845249456,37.844576109179826],[-83.55080845249456,37.84454065428321]]]}},{"type":"Feature","properties":{"kind":"sunrise","strength":1.0,"hard":true,"sector":"r2c4"},"geometry":{"type":"Polygon","coordinates":[[[-83.55107791581874,37.84491292984765],[-83.55105546054173,37.84482429297895],[-83.55110037109576,37.84482429297895],[-83.55110037109576,37.844859747739214],[-83.55114528164978,37.84489520248243],[-83.55114528164978,37.84494838456529],[-83.5511677369268,37.84494838456529],[-83.55114528164978,37.84500156660981],[-83.55112282637276,37.84500156660981],[-83.55110037109576,37.84491292984765],[-83.55107791581874,37.84491292984765]]]}},{"type":"Feature","properties":{"kind":"sunrise","strength":1.0,"hard":true,"sector":"r2c4"},"geometry":{"type":"Polygon","coordinates":[[[-83.55110037109576,37.84750107944002],[-83.55114528164978,37.84750107944002],[-83.55114528164978,37.84751880617881],[-83.55112282637276,37.84751880617881],[-83.55112282637276,37.8475542596436],[-83.55105546054173,37.8475719863696],[-83.55105546054173,37.84753653291334],[-83.55110037109576,37.84750107944002]]]}},{"type":"Feature","properties":{"kind":"sunrise","strength":1.0,"hard":true,"sector":"r2c4"},"geometry":{"type":"Polygon","coordinates":[[[-83.55121264748081,37.84519656711157],[-83.5511677369268,37.845090203265435],[-83.55114528164978,37.845090203265435],[-83.55114528164978,37.84505474861597],[-83.5511901922038,37.84505474861597],[-83.55121264748081,37.84512565789787],[-83.55128001331185,37.84516111251323],[-83.55130246858887,37.84523202169285],[-83.55125755803483,37.84519656711157],[-83.55121264748081,37.84519656711157]]]}},{"type":"Feature","properties":{"kind":"sunrise","strength":1.0,"hard":true,"sector":"r2c4"},"geometry":{"type":"Polygon","coordinates":[[[-83.55132492386588,37.847430172442266],[-83.5513698344199,37.84739471891782],[-83.55141474497394,37.84739471891782],[-83.55141474497394,37.847430172442266],[-83.55132492386588,37.84746562594967],[-83.55132492386588,37.847430172442266]]]}},{"type":"Feature","properties":{"kind":"sunrise","strength":1.0,"hard":true,"sector":"r2c4"},"geometry":{"type":"Polygon","coordinates":[[[-83.551482110805,37.84732381181779],[-83.55152702135901,37.847288358242196],[-83.55159438719004,37.847288358242196],[-83.55159438719004,37.84732381181779],[-83.551482110805,37.847359265376326],[-83.551482110805,37.84732381181779]]]}},{"type":"Feature","properties":{"kind":"sunrise","strength":1.0,"hard":true,"sector":"r2c4"},"geometry":{"type":"Polygon","coordinates":[[[-83.55208840328436,37.84868876151651],[-83.5521557691154,37.84867103505898],[-83.55213331383838,37.84872421441878],[-83.55208840328436,37.84874194086352],[-83.55208840328436,37.84877739374023],[-83.55204349273033,37.84877739374023],[-83.55208840328436,37.84868876151651]]]}},{"type":"Feature","properties":{"kind":"sunrise","strength":1.0,"hard":true,"sector":"r2c4"},"geometry":{"type":"Polygon","coordinates":[[[-83.55244768771658,37.84844059072335],[-83.55242523243956,37.84844059072335],[-83.55242523243956,37.84847604374493],[-83.55238032188554,37.84849377024934],[-83.55238032188554,37.84842286420616],[-83.55244768771658,37.8484051376847],[-83.55244768771658,37.84844059072335]]]}},{"type":"Feature","properties":{"kind":"sunrise","strength":1.0,"hard":true,"sector":"r2c4"},"geometry":{"type":"Polygon","coordinates":[[[-83.56190135933937,37.82663375378576],[-83.56194626989338,37.82652736317176],[-83.56199118044741,37.826509631387864],[-83.56199118044741,37.8264387042096],[-83.56203609100145,37.82640324059492],[-83.56201363572443,37.82633231331441],[-83.56205854627846,37.8262968496486],[-83.56210345683249,37.8262968496486],[-83.56208100155547,37.8264209724044],[-83.56205854627846,37.8264209724044],[-83.56203609100145,37.82649189959968],[-83.56199118044741,37.82652736317176],[-83.56199118044741,37.82658055849794],[-83.5619687251704,37.82658055849794],[-83.56194626989338,37.82665148553985],[-83.56183399350833,37.82670468077654],[-83.56183399350833,37.82666921728967],[-83.56187890406235,37.82666921728967],[-83.56187890406235,37.82663375378576],[-83.56190135933937,37.82663375378576]]]}},{"type":"Feature","properties":{"kind":"sunrise","strength":1.0,"hard":true,"sector":"r2c4"},"geometry":{"type":"Polygon","coordinates":[[[-83.5642591634258,37.827538067811744],[-83.56419179759477,37.82755579934853],[-83.56419179759477,37.8275203362707],[-83.5642591634258,37.8275203362707],[-83.5642591634258,37.827538067811744]]]}},{"type":"Feature","properties":{"kind":"sunrise","strength":1.0,"hard":true,"sector":"r2c4"},"geometry":{"type":"Polygon","coordinates":[[[-83.56428161870284,37.8275203362707],[-83.56437143981087,37.827449410063885],[-83.56441635036491,37.827449410063885],[-83.56446126091893,37.82739621536405],[-83.56450617147296,37.82739621536405],[-83.56446126091893,37.82746714162198],[-83.56428161870284,37.8275203362707]]]}},{"type":"Feature","properties":{"kind":"sunset","strength":0.2,"hard":false,"sector":"r2c4"},"geometry":{"type":"Polygon","coordinates":[[[-83.54577847044348,37.845143385207685],[-83.54604793376765,37.84510793058378],[-83.54589074682855,37.845143385207685],[-83.54589074682855,37.84521429440434],[-83.54600302321361,37.845249748977096],[-83.54577847044348,37.84523202169285],[-83.54577847044348,37.845143385207685]]]}},{"type":"Feature","properties":{"kind":"sunset","strength":0.2,"hard":false,"sector":"r2c4"},"geometry":{"type":"Polygon","coordinates":[[[-83.54654194986196,37.845090203265435],[-83.54685632374014,37.845072475942835],[-83.54685632374014,37.845090203265435],[-83.54654194986196,37.845090203265435]]]}},{"type":"Feature","properties":{"kind":"sunset","strength":0.2,"hard":false,"sector":"r2c4"},"geometry":{"type":"Polygon","coordinates":[[[-83.54654194986196,37.845090203265435],[-83.54654194986196,37.84510793058378],[-83.54607038904466,37.84510793058378],[-83.54607038904466,37.845090203265435],[-83.54654194986196,37.845090203265435]]]}},{"type":"Feature","properties":{"kind":"sunset","strength":0.2,"hard":false,"sector":"r2c4"},"geometry":{"type":"Polygon","coordinates":[[[-83.5462949418148,37.84475338340728],[-83.5464521287539,37.84461156405941],[-83.54640721819986,37.844735656003714],[-83.54642967347688,37.84475338340728],[-83.54654194986196,37.84471792859589],[-83.54658686041599,37.844735656003714],[-83.54640721819986,37.84484202036121],[-83.5462949418148,37.84484202036121],[-83.5462949418148,37.84475338340728]]]}},{"type":"Feature","properties":{"kind":"sunset","strength":0.2,"hard":false,"sector":"r2c4"},"geometry":{"type":"Polygon","coordinates":[[[-83.54894466450243,37.846862914005584],[-83.54898957505645,37.84680973330343],[-83.54901203033347,37.8466501909668],[-83.5490569408875,37.84663246401921],[-83.54898957505645,37.8468274602084],[-83.54898957505645,37.846987002161484],[-83.54907939616452,37.84714654376939],[-83.54925903838063,37.847111090108584],[-83.54907939616452,37.84723517784686],[-83.54892220922542,37.84721745103989],[-83.54894466450243,37.846862914005584]]]}},{"type":"Feature","properties":{"kind":"sunset","strength":0.2,"hard":false,"sector":"r2c4"},"geometry":{"type":"Polygon","coordinates":[[[-83.55000006252207,37.84721745103989],[-83.55015724946117,37.84700472902385],[-83.55024707056923,37.846951548423974],[-83.55011233890716,37.84714654376939],[-83.55011233890716,37.84721745103989],[-83.55013479418415,37.84723517784686],[-83.55024707056923,37.84719972422865],[-83.55029198112325,37.84721745103989],[-83.55011233890716,37.84732381181779],[-83.55000006252207,37.84732381181779],[-83.55000006252207,37.84721745103989]]]}},{"type":"Feature","properties":{"kind":"sunset","strength":0.2,"hard":false,"sector":"r2c4"},"geometry":{"type":"Polygon","coordinates":[[[-83.5503818022313,37.84844059072335],[-83.55017970473817,37.84842286420616],[-83.55011233890716,37.848458317236265],[-83.55011233890716,37.84861785566084],[-83.55020216001519,37.84881284659988],[-83.55017970473817,37.84884829944249],[-83.5500449730761,37.848706487969785],[-83.55000006252207,37.84844059072335],[-83.55011233890716,37.8484051376847],[-83.55029198112325,37.8484051376847],[-83.5503818022313,37.84844059072335]]]}},{"type":"Feature","properties":{"kind":"sunset","strength":0.2,"hard":false,"sector":"r2c4"},"geometry":{"type":"Polygon","coordinates":[[[-83.5503818022313,37.84844059072335],[-83.55042671278534,37.84844059072335],[-83.55047162333936,37.84849377024934],[-83.55042671278534,37.84849377024934],[-83.5503818022313,37.84844059072335]]]}},{"type":"Feature","properties":{"kind":"sunset","strength":0.2,"hard":false,"sector":"r2c4"},"geometry":{"type":"Polygon","coordinates":[[[-83.55022461529221,37.84890147867443],[-83.55024707056923,37.8488660258574],[-83.55031443640027,37.84895465786803],[-83.55029198112325,37.84895465786803],[-83.55022461529221,37.84890147867443]]]}},{"type":"Feature","properties":{"kind":"sunset","strength":0.2,"hard":false,"sector":"r2c4"},"geometry":{"type":"Polygon","coordinates":[[[-83.55078599721756,37.84799742651519],[-83.55074108666354,37.84805060636079],[-83.55076354194054,37.84812151276195],[-83.55085336304859,37.84810378616805],[-83.55094318415664,37.84812151276195],[-83.55076354194054,37.848174692518064],[-83.55062881027845,37.848174692518064],[-83.55062881027845,37.84806833296748],[-83.55078599721756,37.84799742651519]]]}},{"type":"Feature","properties":{"kind":"sunset","strength":0.2,"hard":false,"sector":"r2c4"},"geometry":{"type":"Polygon","coordinates":[[[-83.55172911885214,37.849911876794216],[-83.55193121634525,37.84985869829101],[-83.5518189399602,37.849911876794216],[-83.5518189399602,37.84998278140552],[-83.55211085856136,37.85],[-83.55170666357512,37.85],[-83.55172911885214,37.849911876794216]]]}},{"type":"Feature","properties":{"kind":"sunset","strength":0.2,"hard":false,"sector":"r2c4"},"geometry":{"type":"Polygon","coordinates":[[[-83.55213331383838,37.849770067367054],[-83.55235786660852,37.849787793560374],[-83.55213331383838,37.849787793560374],[-83.55213331383838,37.849770067367054]]]}},{"type":"Feature","properties":{"kind":"sunset","strength":0.2,"hard":false,"sector":"r2c4"},"geometry":{"type":"Polygon","coordinates":[[[-83.56003757134722,37.82709477800726],[-83.56023966884034,37.82700611972682],[-83.56014984773229,37.82705931470787],[-83.56014984773229,37.82713024128962],[-83.56037440050243,37.82714797292441],[-83.56003757134722,37.8272011678032],[-83.56003757134722,37.82709477800726]]]}},{"type":"Feature","properties":{"kind":"sunset","strength":0.2,"hard":false,"sector":"r2c4"},"geometry":{"type":"Polygon","coordinates":[[[-83.56077859548869,37.82695292470741],[-83.5610031482588,37.82693519302576],[-83.5610031482588,37.82695292470741],[-83.56077859548869,37.82695292470741]]]}},{"type":"Feature","properties":{"kind":"sunset","strength":0.2,"hard":false,"sector":"r2c4"},"geometry":{"type":"Polygon","coordinates":[[[-83.56257501764979,37.8269706563848],[-83.56241783071067,37.82686426625654],[-83.56257501764979,37.826899729649675],[-83.5625974729268,37.82675787597488],[-83.56268729403484,37.82684653455359],[-83.56268729403484,37.82695292470741],[-83.56257501764979,37.8269706563848]]]}},{"type":"Feature","properties":{"kind":"sunset","strength":0.2,"hard":false,"sector":"r2c4"},"geometry":{"type":"Polygon","coordinates":[[[-83.56241783071067,37.82686426625654],[-83.56237292015665,37.82686426625654],[-83.56232800960261,37.826811071134884],[-83.56237292015665,37.826811071134884],[-83.56241783071067,37.82686426625654]]]}},{"type":"Feature","properties":{"kind":"sunset","strength":0.2,"hard":false,"sector":"r2c4"},"geometry":{"type":"Polygon","coordinates":[[[-83.56279957041991,37.82686426625654],[-83.56295675735902,37.826811071134884],[-83.56286693625097,37.82686426625654],[-83.56286693625097,37.826917461339846],[-83.562934302082,37.82695292470741],[-83.56295675735902,37.82693519302576],[-83.56304657846707,37.82695292470741],[-83.56279957041991,37.8269706563848],[-83.56279957041991,37.82686426625654]]]}},{"type":"Feature","properties":{"kind":"sunset","strength":0.2,"hard":false,"sector":"r2c4"},"geometry":{"type":"Polygon","coordinates":[[[-83.56398970010166,37.82805228064879],[-83.56414688704074,37.82791042918958],[-83.56410197648671,37.827981354953266],[-83.56412443176372,37.828070012062014],[-83.56419179759477,37.82810547487569],[-83.56430407397984,37.828070012062014],[-83.56434898453386,37.828087743470995],[-83.56416934231775,37.82819413183532],[-83.56403461065567,37.82819413183532],[-83.56398970010166,37.82815866906425],[-83.56398970010166,37.82805228064879]]]}},{"type":"Feature","properties":{"kind":"sunset","strength":0.2,"hard":false,"sector":"r2c4"},"geometry":{"type":"Polygon","coordinates":[[[-83.5647082689661,37.82872607135616],[-83.56459599258102,37.82879699633587],[-83.56439389508789,37.828814727570155],[-83.56439389508789,37.82865514630828],[-83.56455108202698,37.82847783339031],[-83.564573537304,37.82851329600798],[-83.56452862674998,37.828548758608626],[-83.56450617147296,37.82874380260749],[-83.56461844785804,37.828761533854546],[-83.56466335841206,37.82872607135616],[-83.5647082689661,37.82872607135616]]]}},{"type":"Feature","properties":{"kind":"sunset","strength":0.36,"hard":false,"sector":"r2c4"},"geometry":{"type":"Polygon","coordinates":[[[-83.54604793376765,37.845249748977096],[-83.54589074682855,37.84521429440434],[-83.54589074682855,37.845143385207685],[-83.54604793376765,37.84510793058378],[-83.54649703930792,37.84510793058378],[-83.54602547849063,37.845143385207685],[-83.54604793376765,37.845249748977096]]]}},{"type":"Feature","properties":{"kind":"sunset","strength":0.36,"hard":false,"sector":"r2c4"},"geometry":{"type":"Polygon","coordinates":[[[-83.54604793376765,37.845249748977096],[-83.54611529959868,37.845285203532825],[-83.54611529959868,37.84532065807148],[-83.54604793376765,37.845285203532825],[-83.54604793376765,37.845249748977096]]]}},{"type":"Feature","properties":{"kind":"sunset","strength":0.36,"hard":false,"sector":"r2c4"},"geometry":{"type":"Polygon","coordinates":[[[-83.54667668152403,37.844629291492815],[-83.54658686041599,37.84471792859589],[-83.54649703930792,37.84475338340728],[-83.54640721819986,37.844735656003714],[-83.5464521287539,37.84461156405941],[-83.54654194986196,37.84454065428321],[-83.54654194986196,37.84464701892195],[-83.54667668152403,37.844629291492815]]]}},{"type":"Feature","properties":{"kind":"sunset","strength":0.36,"hard":false,"sector":"r2c4"},"geometry":{"type":"Polygon","coordinates":[[[-83.54934885948869,37.84702245588198],[-83.54916921727256,37.84714654376939],[-83.54907939616452,37.84714654376939],[-83.54903448561049,37.84709336327178],[-83.54898957505645,37.8468274602084],[-83.5490569408875,37.84663246401921],[-83.54914676199554,37.84656155618621],[-83.54916921727256,37.84659701011123],[-83.5491018514415,37.84672109871458],[-83.5491018514415,37.846862914005584],[-83.54916921727256,37.84693382154882],[-83.54916921727256,37.84702245588198],[-83.54934885948869,37.84702245588198]]]}},{"type":"Feature","properties":{"kind":"sunset","strength":0.36,"hard":false,"sector":"r2c4"},"geometry":{"type":"Polygon","coordinates":[[[-83.5503818022313,37.847111090108584],[-83.55020216001519,37.84723517784686],[-83.55011233890716,37.84721745103989],[-83.55015724946117,37.847075636430716],[-83.55031443640027,37.84689836778573],[-83.55033689167728,37.84693382154882],[-83.55024707056923,37.84702245588198],[-83.55024707056923,37.847128816941115],[-83.5503818022313,37.847111090108584]]]}},{"type":"Feature","properties":{"kind":"sunset","strength":0.36,"hard":false,"sector":"r2c4"},"geometry":{"type":"Polygon","coordinates":[[[-83.55042671278534,37.84849377024934],[-83.55024707056923,37.84849377024934],[-83.55024707056923,37.84874194086352],[-83.55031443640027,37.848883752268044],[-83.55029198112325,37.84891920507656],[-83.55015724946117,37.84877739374023],[-83.55011233890716,37.848458317236265],[-83.55026952584623,37.84842286420616],[-83.5503818022313,37.84844059072335],[-83.55042671278534,37.84849377024934]]]}},{"type":"Feature","properties":{"kind":"sunset","strength":0.36,"hard":false,"sector":"r2c4"},"geometry":{"type":"Polygon","coordinates":[[[-83.55076354194054,37.84801515313465],[-83.55089827360261,37.84796197326347],[-83.55087581832561,37.84806833296748],[-83.5510105499877,37.84808605956989],[-83.55076354194054,37.84812151276195],[-83.55076354194054,37.84801515313465]]]}},{"type":"Feature","properties":{"kind":"sunset","strength":0.36,"hard":false,"sector":"r2c4"},"geometry":{"type":"Polygon","coordinates":[[[-83.5518189399602,37.849911876794216],[-83.5519985821763,37.84985869829101],[-83.55195367162227,37.849947329108396],[-83.55211085856136,37.84998278140552],[-83.5518189399602,37.84998278140552],[-83.5518189399602,37.849911876794216]]]}},{"type":"Feature","properties":{"kind":"sunset","strength":0.36,"hard":false,"sector":"r2c4"},"geometry":{"type":"Polygon","coordinates":[[[-83.55213331383838,37.849805519749424],[-83.55235786660852,37.849787793560374],[-83.55235786660852,37.849805519749424],[-83.55213331383838,37.849805519749424]]]}},{"type":"Feature","properties":{"kind":"sunset","strength":0.36,"hard":false,"sector":"r2c4"},"geometry":{"type":"Polygon","coordinates":[[[-83.56046422161049,37.82709477800726],[-83.56041931105646,37.82713024128962],[-83.56014984773229,37.82713024128962],[-83.56014984773229,37.82705931470787],[-83.5603294899484,37.82695292470741],[-83.56035194522542,37.82698838805794],[-83.56028457939436,37.82702385139143],[-83.56028457939436,37.82709477800726],[-83.56046422161049,37.82709477800726]]]}},{"type":"Feature","properties":{"kind":"sunset","strength":0.36,"hard":false,"sector":"r2c4"},"geometry":{"type":"Polygon","coordinates":[[[-83.56250765181873,37.82672241251358],[-83.5625974729268,37.82679333941914],[-83.56257501764979,37.826899729649675],[-83.56250765181873,37.826899729649675],[-83.56237292015665,37.82682880284636],[-83.56250765181873,37.826811071134884],[-83.56250765181873,37.82672241251358]]]}},{"type":"Feature","properties":{"kind":"sunset","strength":0.36,"hard":false,"sector":"r2c4"},"geometry":{"type":"Polygon","coordinates":[[[-83.56288939152797,37.82693519302576],[-83.562911846805,37.82682880284636],[-83.56300166791304,37.826811071134884],[-83.56295675735902,37.826899729649675],[-83.56304657846707,37.82693519302576],[-83.56288939152797,37.82693519302576]]]}},{"type":"Feature","properties":{"kind":"sunset","strength":0.36,"hard":false,"sector":"r2c4"},"geometry":{"type":"Polygon","coordinates":[[[-83.56443880564191,37.827981354953266],[-83.5642591634258,37.82810547487569],[-83.56414688704074,37.828087743470995],[-83.56410197648671,37.828034549231305],[-83.56414688704074,37.82791042918958],[-83.5642367081488,37.827839503357716],[-83.5642367081488,37.82796362351874],[-83.56428161870284,37.82799908638355],[-83.56443880564191,37.827981354953266]]]}},{"type":"Feature","properties":{"kind":"sunset","strength":0.36,"hard":false,"sector":"r2c4"},"geometry":{"type":"Polygon","coordinates":[[[-83.56477563479712,37.82865514630828],[-83.56461844785804,37.828761533854546],[-83.56450617147296,37.82874380260749],[-83.56452862674998,37.828548758608626],[-83.56466335841206,37.82840690810382],[-83.56464090313504,37.82867287757664],[-83.56477563479712,37.82865514630828]]]}},{"type":"Feature","properties":{"kind":"sunset","strength":0.52,"hard":false,"sector":"r2c4"},"geometry":{"type":"Polygon","coordinates":[[[-83.54618266542974,37.845356112593116],[-83.54602547849063,37.84521429440434],[-83.54602547849063,37.845143385207685],[-83.54649703930792,37.84512565789787],[-83.54642967347688,37.84516111251323],[-83.54620512070674,37.84517883981453],[-83.54613775487572,37.845249748977096],[-83.54618266542974,37.845356112593116]]]}},{"type":"Feature","properties":{"kind":"sunset","strength":0.52,"hard":false,"sector":"r2c4"},"geometry":{"type":"Polygon","coordinates":[[[-83.54654194986196,37.844576109179826],[-83.54667668152403,37.84443428949105],[-83.54672159207806,37.84443428949105],[-83.54665422624703,37.84454065428321],[-83.54676650263208,37.844576109179826],[-83.54663177097001,37.84464701892195],[-83.54654194986196,37.84464701892195],[-83.54654194986196,37.844576109179826]]]}},{"type":"Feature","properties":{"kind":"sunset","strength":0.52,"hard":false,"sector":"r2c4"},"geometry":{"type":"Polygon","coordinates":[[[-83.54943868059674,37.84696927529486],[-83.54930394893465,37.84704018273582],[-83.54919167254957,37.84704018273582],[-83.54916921727256,37.84693382154882],[-83.5491018514415,37.846862914005584],[-83.54914676199554,37.84659701011123],[-83.54928149365763,37.846455194308845],[-83.54930394893465,37.84649064828501],[-83.54925903838063,37.84652610224413],[-83.54921412782659,37.84673882564088],[-83.54928149365763,37.84680973330343],[-83.54930394893465,37.84693382154882],[-83.54934885948869,37.84696927529486],[-83.54943868059674,37.84696927529486]]]}},{"type":"Feature","properties":{"kind":"sunset","strength":0.52,"hard":false,"sector":"r2c4"},"geometry":{"type":"Polygon","coordinates":[[[-83.55044916806236,37.84902556339982],[-83.55029198112325,37.848883752268044],[-83.55029198112325,37.848795120172184],[-83.55024707056923,37.84874194086352],[-83.55026952584623,37.84847604374493],[-83.5503818022313,37.84847604374493],[-83.55056144444741,37.84858240270743],[-83.55051653389337,37.84860012918626],[-83.55042671278534,37.848564676224335],[-83.5503593469543,37.84861785566084],[-83.5503593469543,37.848795120172184],[-83.55044916806236,37.84902556339982]]]}},{"type":"Feature","properties":{"kind":"sunset","strength":0.52,"hard":false,"sector":"r2c4"},"geometry":{"type":"Polygon","coordinates":[[[-83.55024707056923,37.84702245588198],[-83.55033689167728,37.84689836778573],[-83.55047162333936,37.846792006394175],[-83.5503593469543,37.84700472902385],[-83.55040425750833,37.84704018273582],[-83.55047162333936,37.84700472902385],[-83.55051653389337,37.84702245588198],[-83.5503818022313,37.847111090108584],[-83.55024707056923,37.847128816941115],[-83.55024707056923,37.84702245588198]]]}},{"type":"Feature","properties":{"kind":"sunset","strength":0.52,"hard":false,"sector":"r2c4"},"geometry":{"type":"Polygon","coordinates":[[[-83.55087581832561,37.84797969989146],[-83.5510105499877,37.84790879335395],[-83.5510105499877,37.84787334005962],[-83.55121264748081,37.8477138000242],[-83.5511677369268,37.84780243341983],[-83.55098809471068,37.84796197326347],[-83.55098809471068,37.84801515313465],[-83.55114528164978,37.848032879749866],[-83.55087581832561,37.84806833296748],[-83.55087581832561,37.84797969989146]]]}},{"type":"Feature","properties":{"kind":"sunset","strength":0.52,"hard":false,"sector":"r2c4"},"geometry":{"type":"Polygon","coordinates":[[[-83.55197612689928,37.84989415063074],[-83.55211085856136,37.849805519749424],[-83.5521782243924,37.849805519749424],[-83.55206594800734,37.849876424463],[-83.55211085856136,37.84996505525909],[-83.55197612689928,37.84996505525909],[-83.55197612689928,37.84989415063074]]]}},{"type":"Feature","properties":{"kind":"sunset","strength":0.52,"hard":false,"sector":"r2c4"},"geometry":{"type":"Polygon","coordinates":[[[-83.56028457939436,37.82702385139143],[-83.56041931105646,37.826899729649675],[-83.56044176633347,37.82693519302576],[-83.56039685577944,37.82698838805794],[-83.56044176633347,37.82702385139143],[-83.56059895327256,37.82698838805794],[-83.56046422161049,37.82709477800726],[-83.56028457939436,37.82709477800726],[-83.56028457939436,37.82702385139143]]]}},{"type":"Feature","properties":{"kind":"sunset","strength":0.52,"hard":false,"sector":"r2c4"},"geometry":{"type":"Polygon","coordinates":[[[-83.5610031482588,37.82693519302576],[-83.56075614021167,37.826917461339846],[-83.5610031482588,37.826917461339846],[-83.5610031482588,37.82693519302576]]]}},{"type":"Feature","properties":{"kind":"sunset","strength":0.52,"hard":false,"sector":"r2c4"},"geometry":{"type":"Polygon","coordinates":[[[-83.56244028598769,37.82682880284636],[-83.5622606437716,37.82672241251358],[-83.56241783071067,37.82674014424636],[-83.56244028598769,37.82665148553985],[-83.56250765181873,37.82672241251358],[-83.56250765181873,37.826811071134884],[-83.56244028598769,37.82682880284636]]]}},{"type":"Feature","properties":{"kind":"sunset","strength":0.52,"hard":false,"sector":"r2c4"},"geometry":{"type":"Polygon","coordinates":[[[-83.56295675735902,37.826899729649675],[-83.56300166791304,37.826811071134884],[-83.56320376540617,37.82674014424636],[-83.56306903374407,37.82682880284636],[-83.56309148902109,37.82693519302576],[-83.56295675735902,37.826899729649675]]]}},{"type":"Feature","properties":{"kind":"sunset","strength":0.52,"hard":false,"sector":"r2c4"},"geometry":{"type":"Polygon","coordinates":[[[-83.5642367081488,37.82796362351874],[-83.5642367081488,37.827874966282174],[-83.56437143981087,37.82773311448209],[-83.56439389508789,37.82776857745767],[-83.56434898453386,37.827839503357716],[-83.56439389508789,37.82789269773801],[-83.56448371619594,37.82791042918958],[-83.564573537304,37.827874966282174],[-83.56439389508789,37.82799908638355],[-83.56428161870284,37.82799908638355],[-83.5642367081488,37.82796362351874]]]}},{"type":"Feature","properties":{"kind":"sunset","strength":0.52,"hard":false,"sector":"r2c4"},"geometry":{"type":"Polygon","coordinates":[[[-83.56500000000001,37.828548758608626],[-83.56473072424309,37.82867287757664],[-83.56464090313504,37.82867287757664],[-83.56466335841206,37.82844237075559],[-83.56479809007413,37.82830052004626],[-83.56482054535115,37.82833598274916],[-83.56477563479712,37.82837144543501],[-83.56475317952011,37.828548758608626],[-83.56479809007413,37.82858422119222],[-83.56500000000001,37.828548758608626]]]}},{"type":"Feature","properties":{"kind":"sunset","strength":0.68,"hard":false,"sector":"r2c4"},"geometry":{"type":"Polygon","coordinates":[[[-83.5463173970918,37.845462476055715],[-83.54613775487572,37.845285203532825],[-83.54620512070674,37.84517883981453],[-83.54642967347688,37.84516111251323],[-83.54656440513898,37.84510793058378],[-83.54685632374014,37.84510793058378],[-83.546609315693,37.84516111251323],[-83.54651949458494,37.8452674762571],[-83.5463173970918,37.845285203532825],[-83.54627248653779,37.84532065807148],[-83.54627248653779,37.84540929434359],[-83.5463173970918,37.845462476055715]]]}},{"type":"Feature","properties":{"kind":"sunset","strength":0.68,"hard":false,"sector":"r2c4"},"geometry":{"type":"Polygon","coordinates":[[[-83.54667668152403,37.84446974443882],[-83.54681141318612,37.84438110703744],[-83.5467889579091,37.84446974443882],[-83.5469461448482,37.84450519936953],[-83.54667668152403,37.84455838173365],[-83.54667668152403,37.84446974443882]]]}},{"type":"Feature","properties":{"kind":"sunset","strength":0.68,"hard":false,"sector":"r2c4"},"geometry":{"type":"Polygon","coordinates":[[[-83.54934885948869,37.84696927529486],[-83.54921412782659,37.846667917910146],[-83.54930394893465,37.846455194308845],[-83.54943868059674,37.84634883227809],[-83.54934885948869,37.84652610224413],[-83.54934885948869,37.8466501909668],[-83.5493937700427,37.84668564484922],[-83.54941622531972,37.84680973330343],[-83.54950604642777,37.84689836778573],[-83.54959586753583,37.84689836778573],[-83.54961832281283,37.846862914005584],[-83.54966323336687,37.84688064089779],[-83.54955095698179,37.846951548423974],[-83.54943868059674,37.84696927529486],[-83.54934885948869,37.84696927529486]]]}},{"type":"Feature","properties":{"kind":"sunset","strength":0.68,"hard":false,"sector":"r2c4"},"geometry":{"type":"Polygon","coordinates":[[[-83.55058389972443,37.849131921569686],[-83.55040425750833,37.84895465786803],[-83.5503593469543,37.848795120172184],[-83.5503593469543,37.84861785566084],[-83.55042671278534,37.848564676224335],[-83.55056144444741,37.84860012918626],[-83.5506961761095,37.84868876151651],[-83.55065126555547,37.848706487969785],[-83.55062881027845,37.84867103505898],[-83.55051653389337,37.84867103505898],[-83.55049407861637,37.848706487969785],[-83.55049407861637,37.84891920507656],[-83.55058389972443,37.849131921569686]]]}},{"type":"Feature","properties":{"kind":"sunset","strength":0.68,"hard":false,"sector":"r2c4"},"geometry":{"type":"Polygon","coordinates":[[[-83.55060635500143,37.846667917910146],[-83.55062881027845,37.84670337178404],[-83.55056144444741,37.84673882564088],[-83.55056144444741,37.84670337178404],[-83.55060635500143,37.846667917910146]]]}},{"type":"Feature","properties":{"kind":"sunset","strength":0.68,"hard":false,"sector":"r2c4"},"geometry":{"type":"Polygon","coordinates":[[[-83.55056144444741,37.84673882564088],[-83.55049407861637,37.8469160946694],[-83.55065126555547,37.84693382154882],[-83.55040425750833,37.84704018273582],[-83.5503593469543,37.84700472902385],[-83.5503818022313,37.8469160946694],[-83.55047162333936,37.846792006394175],[-83.55056144444741,37.84673882564088]]]}},{"type":"Feature","properties":{"kind":"sunset","strength":0.68,"hard":false,"sector":"r2c4"},"geometry":{"type":"Polygon","coordinates":[[[-83.5510105499877,37.847926519994715],[-83.5511677369268,37.84780243341983],[-83.55128001331185,37.84764289323099],[-83.5513473791429,37.847607439808826],[-83.55123510275783,37.84782016008617],[-83.55112282637276,37.84787334005962],[-83.55112282637276,37.84796197326347],[-83.55125755803483,37.84797969989146],[-83.5510330052647,37.848032879749866],[-83.55098809471068,37.84801515313465],[-83.5510105499877,37.847926519994715]]]}},{"type":"Feature","properties":{"kind":"sunset","strength":0.68,"hard":false,"sector":"r2c4"},"geometry":{"type":"Polygon","coordinates":[[[-83.55208840328436,37.849947329108396],[-83.55206594800734,37.849876424463],[-83.5521782243924,37.849805519749424],[-83.5523354113315,37.849805519749424],[-83.55244768771658,37.849876424463],[-83.55222313494643,37.849876424463],[-83.55220067966943,37.85],[-83.55208840328436,37.849947329108396]]]}},{"type":"Feature","properties":{"kind":"sunset","strength":0.68,"hard":false,"sector":"r2c4"},"geometry":{"type":"Polygon","coordinates":[[[-83.56039685577944,37.8269706563848],[-83.56055404271854,37.82679333941914],[-83.56057649799554,37.82682880284636],[-83.56053158744153,37.82684653455359],[-83.56053158744153,37.826917461339846],[-83.56068877438062,37.82693519302576],[-83.56050913216453,37.82702385139143],[-83.56044176633347,37.82702385139143],[-83.56039685577944,37.8269706563848]]]}},{"type":"Feature","properties":{"kind":"sunset","strength":0.68,"hard":false,"sector":"r2c4"},"geometry":{"type":"Polygon","coordinates":[[[-83.5623055543256,37.82674014424636],[-83.56219327794055,37.82665148553985],[-83.5623055543256,37.82668694903523],[-83.56239537543367,37.826598290264805],[-83.56241783071067,37.82674014424636],[-83.5623055543256,37.82674014424636]]]}},{"type":"Feature","properties":{"kind":"sunset","strength":0.68,"hard":false,"sector":"r2c4"},"geometry":{"type":"Polygon","coordinates":[[[-83.56333849706824,37.826811071134884],[-83.56329358651423,37.82682880284636],[-83.56329358651423,37.826899729649675],[-83.56315885485213,37.82688199795523],[-83.56318131012914,37.8269706563848],[-83.56315885485213,37.82700611972682],[-83.56306903374407,37.826917461339846],[-83.56306903374407,37.82682880284636],[-83.5632711312372,37.82668694903523],[-83.56331604179124,37.82670468077654],[-83.5632486759602,37.82674014424636],[-83.5632486759602,37.82679333941914],[-83.56333849706824,37.826811071134884]]]}},{"type":"Feature","properties":{"kind":"sunset","strength":0.68,"hard":false,"sector":"r2c4"},"geometry":{"type":"Polygon","coordinates":[[[-83.56439389508789,37.82789269773801],[-83.56434898453386,37.82780404041621],[-83.56443880564191,37.827697651489466],[-83.56443880564191,37.82760899393334],[-83.56450617147296,37.82778630893908],[-83.564573537304,37.82782177188909],[-83.5647082689661,37.82782177188909],[-83.56448371619594,37.82791042918958],[-83.56439389508789,37.82789269773801]]]}},{"type":"Feature","properties":{"kind":"sunset","strength":0.68,"hard":false,"sector":"r2c4"},"geometry":{"type":"Polygon","coordinates":[[[-83.56475317952011,37.828548758608626],[-83.56482054535115,37.82830052004626],[-83.56493282173622,37.82821186321446],[-83.5648879111822,37.82847783339031],[-83.56497773229025,37.828548758608626],[-83.56479809007413,37.82858422119222],[-83.56475317952011,37.828548758608626]]]}},{"type":"Feature","properties":{"kind":"sunset","strength":0.84,"hard":false,"sector":"r2c4"},"geometry":{"type":"Polygon","coordinates":[[[-83.54640721819986,37.84553338494556],[-83.54627248653779,37.84540929434359],[-83.54627248653779,37.84532065807148],[-83.5463173970918,37.845285203532825],[-83.54651949458494,37.8452674762571],[-83.546609315693,37.84516111251323],[-83.54669913680105,37.84516111251323],[-83.54672159207806,37.84512565789787],[-83.54708087651028,37.845143385207685],[-83.54687877901716,37.84516111251323],[-83.54683386846312,37.845249748977096],[-83.54672159207806,37.8452674762571],[-83.54663177097001,37.84537383984753],[-83.54647458403092,37.84537383984753],[-83.54640721819986,37.84542702158523],[-83.54640721819986,37.84553338494556]]]}},{"type":"Feature","properties":{"kind":"sunset","strength":0.84,"hard":false,"sector":"r2c4"},"geometry":{"type":"Polygon","coordinates":[[[-83.54681141318612,37.84441656201078],[-83.54687877901716,37.84434565204707],[-83.54699105540224,37.84434565204707],[-83.54692368957119,37.84436337954438],[-83.5469461448482,37.844487471906305],[-83.54681141318612,37.844487471906305],[-83.54681141318612,37.84441656201078]]]}},{"type":"Feature","properties":{"kind":"sunset","strength":0.84,"hard":false,"sector":"r2c4"},"geometry":{"type":"Polygon","coordinates":[[[-83.54973059919791,37.846792006394175],[-83.54959586753583,37.84689836778573],[-83.54950604642777,37.84689836778573],[-83.54941622531972,37.84680973330343],[-83.54941622531972,37.84673882564088],[-83.54934885948869,37.8466501909668],[-83.54934885948869,37.84652610224413],[-83.5493937700427,37.84640201331265],[-83.54948359115075,37.84631337823374],[-83.54959586753583,37.84631337823374],[-83.54950604642777,37.84634883227809],[-83.54948359115075,37.84641974031564],[-83.54948359115075,37.84656155618621],[-83.54955095698179,37.84672109871458],[-83.54961832281283,37.846792006394175],[-83.54973059919791,37.846792006394175]]]}},{"type":"Feature","properties":{"kind":"sunset","strength":0.84,"hard":false,"sector":"r2c4"},"geometry":{"type":"Polygon","coordinates":[[[-83.55076354194054,37.84877739374023],[-83.55062881027845,37.848795120172184],[-83.55065126555547,37.849131921569686],[-83.55071863138652,37.849149647916406],[-83.55062881027845,37.849167374258876],[-83.5505389891704,37.84907874250393],[-83.55049407861637,37.848706487969785],[-83.55051653389337,37.84867103505898],[-83.55062881027845,37.84867103505898],[-83.55076354194054,37.84877739374023]]]}},{"type":"Feature","properties":{"kind":"sunset","strength":0.84,"hard":false,"sector":"r2c4"},"geometry":{"type":"Polygon","coordinates":[[[-83.55071863138652,37.846614737067355],[-83.55071863138652,37.84672109871458],[-83.55062881027845,37.84677427948067],[-83.55065126555547,37.8469160946694],[-83.55051653389337,37.84693382154882],[-83.55049407861637,37.84684518710913],[-83.5505389891704,37.84677427948067],[-83.55071863138652,37.846614737067355]]]}},{"type":"Feature","properties":{"kind":"sunset","strength":0.84,"hard":false,"sector":"r2c4"},"geometry":{"type":"Polygon","coordinates":[[[-83.55112282637276,37.84796197326347],[-83.55112282637276,37.84787334005962],[-83.55123510275783,37.84782016008617],[-83.5513473791429,37.847607439808826],[-83.55139228969693,37.8475719863696],[-83.551482110805,37.8475719863696],[-83.55139228969693,37.84764289323099],[-83.55139228969693,37.84776698007436],[-83.55145965552796,37.847749253395236],[-83.55154947663601,37.84776698007436],[-83.551482110805,37.84776698007436],[-83.55145965552796,37.84782016008617],[-83.55132492386588,37.84780243341983],[-83.55125755803483,37.84785561340607],[-83.55125755803483,37.84794424663123],[-83.55130246858887,37.84799742651519],[-83.55125755803483,37.84796197326347],[-83.55112282637276,37.84796197326347]]]}},{"type":"Feature","properties":{"kind":"sunset","strength":0.84,"hard":false,"sector":"r2c4"},"geometry":{"type":"Polygon","coordinates":[[[-83.55251505354762,37.84996505525909],[-83.55220067966943,37.85],[-83.55220067966943,37.849911876794216],[-83.55226804550045,37.84985869829101],[-83.55238032188554,37.84985869829101],[-83.55251505354762,37.84996505525909]]]}},{"type":"Feature","properties":{"kind":"sunset","strength":0.84,"hard":false,"sector":"r2c4"},"geometry":{"type":"Polygon","coordinates":[[[-83.5609806929818,37.826899729649675],[-83.56057649799554,37.82693519302576],[-83.56053158744153,37.826917461339846],[-83.56053158744153,37.82684653455359],[-83.56057649799554,37.82682880284636],[-83.56062140854957,37.82672241251358],[-83.5606438638266,37.826811071134884],[-83.56073368493466,37.82686426625654],[-83.5609806929818,37.826899729649675]]]}},{"type":"Feature","properties":{"kind":"sunset","strength":0.84,"hard":false,"sector":"r2c4"},"geometry":{"type":"Polygon","coordinates":[[[-83.56219327794055,37.82665148553985],[-83.56217082266353,37.826598290264805],[-83.56203609100145,37.826509631387864],[-83.56203609100145,37.8264387042096],[-83.56205854627846,37.82649189959968],[-83.56221573321756,37.826598290264805],[-83.56237292015665,37.826598290264805],[-83.56237292015665,37.82665148553985],[-83.5623055543256,37.82668694903523],[-83.56219327794055,37.82665148553985]]]}},{"type":"Feature","properties":{"kind":"sunset","strength":0.84,"hard":false,"sector":"r2c4"},"geometry":{"type":"Polygon","coordinates":[[[-83.5632486759602,37.82704158305177],[-83.56315885485213,37.82688199795523],[-83.5632711312372,37.82688199795523],[-83.56333849706824,37.82693519302576],[-83.5632486759602,37.8269706563848],[-83.5632486759602,37.82704158305177]]]}},{"type":"Feature","properties":{"kind":"sunset","strength":0.84,"hard":false,"sector":"r2c4"},"geometry":{"type":"Polygon","coordinates":[[[-83.5632711312372,37.82674014424636],[-83.56333849706824,37.82666921728967],[-83.56338340762227,37.82666921728967],[-83.56336095234525,37.82675787597488],[-83.5634283181763,37.82679333941914],[-83.5632711312372,37.826811071134884],[-83.5632711312372,37.82674014424636]]]}},{"type":"Feature","properties":{"kind":"sunset","strength":0.84,"hard":false,"sector":"r2c4"},"geometry":{"type":"Polygon","coordinates":[[[-83.56455108202698,37.82780404041621],[-83.56446126091893,37.82773311448209],[-83.56443880564191,37.827538067811744],[-83.56448371619594,37.82760899393334],[-83.56459599258102,37.82762672545308],[-83.56484300062817,37.827839503357716],[-83.56455108202698,37.82780404041621]]]}},{"type":"Feature","properties":{"kind":"sunset","strength":0.84,"hard":false,"sector":"r2c4"},"geometry":{"type":"Polygon","coordinates":[[[-83.5649103664592,37.82851329600798],[-83.5649103664592,37.828247325959964],[-83.56500000000001,37.82810547487569],[-83.56500000000001,37.828548758608626],[-83.5649103664592,37.82851329600798]]]}},{"type":"Feature","properties":{"kind":"sunset","strength":1.0,"hard":false,"sector":"r2c4"},"geometry":{"type":"Polygon","coordinates":[[[-83.54640721819986,37.84560429376721],[-83.54640721819986,37.84542702158523],[-83.54647458403092,37.84537383984753],[-83.54663177097001,37.84537383984753],[-83.54672159207806,37.8452674762571],[-83.54683386846312,37.845249748977096],[-83.54687877901716,37.84516111251323],[-83.5471033317873,37.84516111251323],[-83.54717069761834,37.84521429440434],[-83.54712578706432,37.845249748977096],[-83.54712578706432,37.845338385334436],[-83.54696860012523,37.84539156709769],[-83.5469461448482,37.845480203284566],[-83.5467889579091,37.845480203284566],[-83.54669913680105,37.84556883936491],[-83.54654194986196,37.84560429376721],[-83.54651949458494,37.84563974815248],[-83.54640721819986,37.84560429376721]]]}},{"type":"Feature","properties":{"kind":"sunset","strength":1.0,"hard":false,"sector":"r2c4"},"geometry":{"type":"Polygon","coordinates":[[[-83.54703596595625,37.84455838173365],[-83.54692368957119,37.84446974443882],[-83.54692368957119,37.84436337954438],[-83.54717069761834,37.84432792454549],[-83.54719315289536,37.84438110703744],[-83.54714824234132,37.84454065428321],[-83.54703596595625,37.84455838173365]]]}},{"type":"Feature","properties":{"kind":"sunset","strength":1.0,"hard":false,"sector":"r2c4"},"geometry":{"type":"Polygon","coordinates":[[[-83.54961832281283,37.846792006394175],[-83.54948359115075,37.84656155618621],[-83.54950604642777,37.84634883227809],[-83.54973059919791,37.84631337823374],[-83.54973059919791,37.84640201331265],[-83.54979796502894,37.84647292129907],[-83.54977550975195,37.8465438292173],[-83.54984287558297,37.84659701011123],[-83.54986533085999,37.84670337178404],[-83.54973059919791,37.846792006394175],[-83.54961832281283,37.846792006394175]]]}},{"type":"Feature","properties":{"kind":"sunset","strength":1.0,"hard":false,"sector":"r2c4"},"geometry":{"type":"Polygon","coordinates":[[[-83.55083090777157,37.84923827958612],[-83.55065126555547,37.849131921569686],[-83.55065126555547,37.84877739374023],[-83.55076354194054,37.84877739374023],[-83.55092072887963,37.848883752268044],[-83.55087581832561,37.84890147867443],[-83.55085336304859,37.84897238425737],[-83.55085336304859,37.84909646886344],[-83.55092072887963,37.849131921569686],[-83.55094318415664,37.84922055326069],[-83.55083090777157,37.84923827958612]]]}},{"type":"Feature","properties":{"kind":"sunset","strength":1.0,"hard":false,"sector":"r2c4"},"geometry":{"type":"Polygon","coordinates":[[[-83.55080845249456,37.84700472902385],[-83.55062881027845,37.84689836778573],[-83.55062881027845,37.84677427948067],[-83.55071863138652,37.84672109871458],[-83.55071863138652,37.846614737067355],[-83.55076354194054,37.84656155618621],[-83.55087581832561,37.84649064828501],[-83.55096563943367,37.84649064828501],[-83.55096563943367,37.84659701011123],[-83.55085336304859,37.846667917910146],[-83.55087581832561,37.846951548423974],[-83.55080845249456,37.84700472902385]]]}},{"type":"Feature","properties":{"kind":"sunset","strength":1.0,"hard":false,"sector":"r2c4"},"geometry":{"type":"Polygon","coordinates":[[[-83.5513473791429,37.848032879749866],[-83.55125755803483,37.84794424663123],[-83.55125755803483,37.84785561340607],[-83.55132492386588,37.84780243341983],[-83.55143720025096,37.84780243341983],[-83.55157193191303,37.847926519994715],[-83.55145965552796,37.84806833296748],[-83.5513473791429,37.848032879749866]]]}},{"type":"Feature","properties":{"kind":"sunset","strength":1.0,"hard":false,"sector":"r2c4"},"geometry":{"type":"Polygon","coordinates":[[[-83.55139228969693,37.84764289323099],[-83.551482110805,37.8475719863696],[-83.55163929774407,37.8475719863696],[-83.55161684246707,37.84773152671184],[-83.55139228969693,37.84776698007436],[-83.55139228969693,37.84764289323099]]]}},{"type":"Feature","properties":{"kind":"sunset","strength":1.0,"hard":false,"sector":"r2c4"},"geometry":{"type":"Polygon","coordinates":[[[-83.55251505354762,37.84996505525909],[-83.55253750882463,37.85],[-83.55235786660852,37.85],[-83.55238032188554,37.84996505525909],[-83.55251505354762,37.84996505525909]]]}},{"type":"Feature","properties":{"kind":"sunset","strength":1.0,"hard":false,"sector":"r2c4"},"geometry":{"type":"Polygon","coordinates":[[[-83.56073368493466,37.82686426625654],[-83.5606438638266,37.826811071134884],[-83.56057649799554,37.82663375378576],[-83.56073368493466,37.82663375378576],[-83.56082350604271,37.82666921728967],[-83.56093578242776,37.82665148553985],[-83.56109296936687,37.82674014424636],[-83.56113787992089,37.82672241251358],[-83.56113787992089,37.82679333941914],[-83.5609806929818,37.826899729649675],[-83.56073368493466,37.82686426625654]]]}},{"type":"Feature","properties":{"kind":"sunset","strength":1.0,"hard":false,"sector":"r2c4"},"geometry":{"type":"Polygon","coordinates":[[[-83.5622606437716,37.826616022027416],[-83.56205854627846,37.82649189959968],[-83.56205854627846,37.8262968496486],[-83.56241783071067,37.82645643601056],[-83.56248519654173,37.82645643601056],[-83.56248519654173,37.826509631387864],[-83.56237292015665,37.826598290264805],[-83.5622606437716,37.826616022027416]],[[-83.5623055543256,37.82645643601056],[-83.56232800960261,37.8264387042096],[-83.5623055543256,37.8264387042096],[-83.5623055543256,37.82645643601056]]]}},{"type":"Feature","properties":{"kind":"sunset","strength":1.0,"hard":false,"sector":"r2c4"},"geometry":{"type":"Polygon","coordinates":[[[-83.56338340762227,37.827165704554936],[-83.5632486759602,37.82704158305177],[-83.5632711312372,37.82695292470741],[-83.56347322873033,37.82700611972682],[-83.56345077345331,37.827165704554936],[-83.56338340762227,37.827165704554936]]]}},{"type":"Feature","properties":{"kind":"sunset","strength":1.0,"hard":false,"sector":"r2c4"},"geometry":{"type":"Polygon","coordinates":[[[-83.56354059456137,37.82686426625654],[-83.56336095234525,37.82675787597488],[-83.56336095234525,37.82668694903523],[-83.56347322873033,37.82665148553985],[-83.56351813928437,37.826598290264805],[-83.56367532622345,37.82656282672681],[-83.56369778150045,37.82665148553985],[-83.5636079603924,37.82674014424636],[-83.5635855051154,37.82682880284636],[-83.56354059456137,37.82686426625654]]]}},{"type":"Feature","properties":{"kind":"sunset","strength":1.0,"hard":false,"sector":"r2c4"},"geometry":{"type":"Polygon","coordinates":[[[-83.56500000000001,37.82791042918958],[-83.56484300062817,37.827839503357716],[-83.56459599258102,37.82762672545308],[-83.56446126091893,37.827591262409335],[-83.56446126091893,37.82739621536405],[-83.56479809007413,37.827449410063885],[-83.56500000000001,37.827591262409335],[-83.56500000000001,37.82791042918958]]]}},{"type":"Feature","properties":{"kind":"sunset","strength":1.0,"hard":true,"sector":"r2c4"},"geometry":{"type":"Polygon","coordinates":[[[-83.54647458403092,37.845586566568194],[-83.54654194986196,37.84556883936491],[-83.54658686041599,37.84560429376721],[-83.54647458403092,37.84563974815248],[-83.5464521287539,37.845622020961976],[-83.54647458403092,37.845586566568194]]]}},{"type":"Feature","properties":{"kind":"sunset","strength":1.0,"hard":true,"sector":"r2c4"},"geometry":{"type":"Polygon","coordinates":[[[-83.54667668152403,37.84551565772949],[-83.54672159207806,37.84555111215736],[-83.546609315693,37.845586566568194],[-83.54663177097001,37.84553338494556],[-83.54667668152403,37.84553338494556],[-83.54667668152403,37.84551565772949]]]}},{"type":"Feature","properties":{"kind":"sunset","strength":1.0,"hard":true,"sector":"r2c4"},"geometry":{"type":"Polygon","coordinates":[[[-83.54685632374014,37.845462476055715],[-83.54692368957119,37.84540929434359],[-83.54696860012523,37.84540929434359],[-83.54696860012523,37.845462476055715],[-83.54685632374014,37.84549793050916],[-83.54685632374014,37.845462476055715]]]}},{"type":"Feature","properties":{"kind":"sunset","strength":1.0,"hard":true,"sector":"r2c4"},"geometry":{"type":"Polygon","coordinates":[[[-83.54708087651028,37.84530293080428],[-83.54708087651028,37.8452674762571],[-83.54712578706432,37.845249748977096],[-83.5471033317873,37.845356112593116],[-83.54703596595625,37.84537383984753],[-83.54703596595625,37.845338385334436],[-83.54708087651028,37.84530293080428]]]}},{"type":"Feature","properties":{"kind":"sunset","strength":1.0,"hard":true,"sector":"r2c4"},"geometry":{"type":"Polygon","coordinates":[[[-83.54714824234132,37.84443428949105],[-83.54714824234132,37.844398834526245],[-83.54717069761834,37.844398834526245],[-83.54717069761834,37.84450519936953],[-83.54714824234132,37.84450519936953],[-83.54714824234132,37.84454065428321],[-83.5471033317873,37.84454065428321],[-83.5471033317873,37.844487471906305],[-83.54712578706432,37.844487471906305],[-83.54712578706432,37.84443428949105],[-83.54714824234132,37.84443428949105]]]}},{"type":"Feature","properties":{"kind":"sunset","strength":1.0,"hard":true,"sector":"r2c4"},"geometry":{"type":"Polygon","coordinates":[[[-83.54977550975195,37.846614737067355],[-83.54975305447492,37.84656155618621],[-83.54973059919791,37.84656155618621],[-83.54973059919791,37.84647292129907],[-83.54966323336687,37.84640201331265],[-83.54968568864389,37.84634883227809],[-83.54973059919791,37.84634883227809],[-83.5497081439209,37.84638428630539],[-83.54975305447492,37.84640201331265],[-83.54977550975195,37.8465438292173],[-83.54984287558297,37.84659701011123],[-83.54984287558297,37.8466501909668],[-83.54977550975195,37.846614737067355]]]}},{"type":"Feature","properties":{"kind":"sunset","strength":1.0,"hard":true,"sector":"r2c4"},"geometry":{"type":"Polygon","coordinates":[[[-83.55083090777157,37.8469160946694],[-83.55080845249456,37.846862914005584],[-83.55083090777157,37.846862914005584],[-83.55080845249456,37.84677427948067],[-83.55085336304859,37.84673882564088],[-83.55085336304859,37.846792006394175],[-83.55087581832561,37.846792006394175],[-83.55085336304859,37.84696927529486],[-83.55080845249456,37.84696927529486],[-83.55080845249456,37.8469160946694],[-83.55083090777157,37.8469160946694]]]}},{"type":"Feature","properties":{"kind":"sunset","strength":1.0,"hard":true,"sector":"r2c4"},"geometry":{"type":"Polygon","coordinates":[[[-83.55087581832561,37.84911419521869],[-83.55092072887963,37.849131921569686],[-83.55092072887963,37.849167374258876],[-83.55087581832561,37.849149647916406],[-83.55087581832561,37.84911419521869]]]}},{"type":"Feature","properties":{"kind":"sunset","strength":1.0,"hard":true,"sector":"r2c4"},"geometry":{"type":"Polygon","coordinates":[[[-83.55087581832561,37.84911419521869],[-83.55083090777157,37.84911419521869],[-83.55083090777157,37.84907874250393],[-83.55080845249456,37.84907874250393],[-83.55083090777157,37.84891920507656],[-83.55087581832561,37.84891920507656],[-83.55087581832561,37.84895465786803],[-83.55085336304859,37.84895465786803],[-83.55085336304859,37.84909646886344],[-83.55087581832561,37.84911419521869]]]}},{"type":"Feature","properties":{"kind":"sunset","strength":1.0,"hard":true,"sector":"r2c4"},"geometry":{"type":"Polygon","coordinates":[[[-83.55089827360261,37.846579283150845],[-83.55092072887963,37.84652610224413],[-83.55096563943367,37.8465438292173],[-83.55094318415664,37.846614737067355],[-83.55089827360261,37.846579283150845]]]}},{"type":"Feature","properties":{"kind":"sunset","strength":1.0,"hard":true,"sector":"r2c4"},"geometry":{"type":"Polygon","coordinates":[[[-83.551482110805,37.84794424663123],[-83.55152702135901,37.84794424663123],[-83.55152702135901,37.84797969989146],[-83.551504566082,37.84797969989146],[-83.551482110805,37.848032879749866],[-83.55143720025096,37.848032879749866],[-83.551482110805,37.84794424663123]]]}},{"type":"Feature","properties":{"kind":"sunset","strength":1.0,"hard":true,"sector":"r2c4"},"geometry":{"type":"Polygon","coordinates":[[[-83.55159438719004,37.84764289323099],[-83.55163929774407,37.84764289323099],[-83.55161684246707,37.8477138000242],[-83.55157193191303,37.847696073332294],[-83.55159438719004,37.84764289323099]]]}},{"type":"Feature","properties":{"kind":"sunset","strength":1.0,"hard":true,"sector":"r2c4"},"geometry":{"type":"Polygon","coordinates":[[[-83.56073368493466,37.82663375378576],[-83.56071122965763,37.82666921728967],[-83.5606438638266,37.82665148553985],[-83.5606438638266,37.82663375378576],[-83.56073368493466,37.82663375378576]]]}},{"type":"Feature","properties":{"kind":"sunset","strength":1.0,"hard":true,"sector":"r2c4"},"geometry":{"type":"Polygon","coordinates":[[[-83.5609806929818,37.82674014424636],[-83.56089087187375,37.82668694903523],[-83.56089087187375,37.82665148553985],[-83.56093578242776,37.82665148553985],[-83.56095823770478,37.82668694903523],[-83.5610031482588,37.82668694903523],[-83.56104805881283,37.82672241251358],[-83.56109296936687,37.82672241251358],[-83.56109296936687,37.82675787597488],[-83.5609806929818,37.82674014424636]]]}},{"type":"Feature","properties":{"kind":"sunset","strength":1.0,"hard":true,"sector":"r2c4"},"geometry":{"type":"Polygon","coordinates":[[[-83.56221573321756,37.8264209724044],[-83.56219327794055,37.826385508781186],[-83.56210345683249,37.82636777696318],[-83.56208100155547,37.8262968496486],[-83.56214836738653,37.82631458148363],[-83.56217082266353,37.826350045140934],[-83.56221573321756,37.826350045140934],[-83.56223818849458,37.826385508781186],[-83.56232800960261,37.82640324059492],[-83.56232800960261,37.8264209724044],[-83.5622606437716,37.8264209724044],[-83.5622606437716,37.82640324059492],[-83.56221573321756,37.8264209724044]]]}},{"type":"Feature","properties":{"kind":"sunset","strength":1.0,"hard":true,"sector":"r2c4"},"geometry":{"type":"Polygon","coordinates":[[[-83.56235046487964,37.8264387042096],[-83.56244028598769,37.82645643601056],[-83.56241783071067,37.82649189959968],[-83.56235046487964,37.82647416780725],[-83.56235046487964,37.8264387042096]]]}},{"type":"Feature","properties":{"kind":"sunset","strength":1.0,"hard":true,"sector":"r2c4"},"geometry":{"type":"Polygon","coordinates":[[[-83.56340586289927,37.82709477800726],[-83.5634283181763,37.82704158305177],[-83.56345077345331,37.82704158305177],[-83.56345077345331,37.82713024128962],[-83.56340586289927,37.82709477800726]]]}},{"type":"Feature","properties":{"kind":"sunset","strength":1.0,"hard":true,"sector":"r2c4"},"geometry":{"type":"Polygon","coordinates":[[[-83.5635630498384,37.82675787597488],[-83.5635855051154,37.82675787597488],[-83.56363041566944,37.82665148553985],[-83.56369778150045,37.826598290264805],[-83.56369778150045,37.82665148553985],[-83.56365287094644,37.82666921728967],[-83.56365287094644,37.82670468077654],[-83.5636079603924,37.82674014424636],[-83.5635855051154,37.82682880284636],[-83.56354059456137,37.826811071134884],[-83.5635630498384,37.82675787597488]]]}},{"type":"Feature","properties":{"kind":"sunset","strength":1.0,"hard":true,"sector":"r2c4"},"geometry":{"type":"Polygon","coordinates":[[[-83.56448371619594,37.82743167850153],[-83.56448371619594,37.82739621536405],[-83.56450617147296,37.82739621536405],[-83.56459599258102,37.827449410063885],[-83.56455108202698,37.82746714162198],[-83.56455108202698,37.827449410063885],[-83.56448371619594,37.82743167850153]]]}},{"type":"Feature","properties":{"kind":"sunset","strength":1.0,"hard":true,"sector":"r2c4"},"geometry":{"type":"Polygon","coordinates":[[[-83.56497773229025,37.82762672545308],[-83.56486545590518,37.827538067811744],[-83.56482054535115,37.827538067811744],[-83.56477563479712,37.827449410063885],[-83.56484300062817,37.82746714162198],[-83.56484300062817,37.82750260472538],[-83.56500000000001,37.827591262409335],[-83.56500000000001,37.827679919986764],[-83.56497773229025,37.827679919986764],[-83.56497773229025,37.82762672545308]]]}}]}
