{"type":"FeatureCollection","name":"RRG LiDAR sunrise/sunset r3c4","features":[{"type":"Feature","properties":{"kind":"sunrise","strength":0.25,"hard":false,"sector":"r3c4"},"geometry":{"type":"Polygon","coordinates":[[[-83.56383251316254,37.771757246035506],[-83.56372023677747,37.77170399393731],[-83.56372023677747,37.77166849251719],[-83.56383251316254,37.771757246035506]]]}},{"type":"Feature","properties":{"kind":"sunrise","strength":0.25,"hard":false,"sector":"r3c4"},"geometry":{"type":"Polygon","coordinates":[[[-83.56403461065567,37.7719170021],[-83.5639223342706,37.77182824877346],[-83.56401215537866,37.771881500782165],[-83.56414688704074,37.771881500782165],[-83.5642367081488,37.77181049809535],[-83.5642591634258,37.77154423741259],[-83.56414688704074,37.771437732871014],[-83.56416934231775,37.771402231323066],[-83.56434898453386,37.77157973889235],[-83.56437143981087,37.771757246035506],[-83.56414688704074,37.7719170021],[-83.56403461065567,37.7719170021]]]}},{"type":"Feature","properties":{"kind":"sunrise","strength":0.25,"hard":false,"sector":"r3c4"},"geometry":{"type":"Polygon","coordinates":[[[-83.56403461065567,37.77133122817604],[-83.56401215537866,37.77124247414636],[-83.56414688704074,37.77115372001017],[-83.56414688704074,37.77118922167742],[-83.56403461065567,37.77126022496083],[-83.56407952120969,37.77134897896919],[-83.56403461065567,37.77133122817604]]]}},{"type":"Feature","properties":{"kind":"sunrise","strength":0.25,"hard":false,"sector":"r3c4"},"geometry":{"type":"Polygon","coordinates":[[[-83.56428161870284,37.77104721490609],[-83.56446126091893,37.770869706058406],[-83.56450617147296,37.770869706058406],[-83.56450617147296,37.770780951474755],[-83.56439389508789,37.77072769867344],[-83.56419179759477,37.77049693609119],[-83.56448371619594,37.77072769867344],[-83.56473072424309,37.77069219678458],[-83.56473072424309,37.77079870240001],[-83.56461844785804,37.77090520786203],[-83.56446126091893,37.77090520786203],[-83.56428161870284,37.77104721490609]]]}},{"type":"Feature","properties":{"kind":"sunrise","strength":0.5,"hard":false,"sector":"r3c4"},"geometry":{"type":"Polygon","coordinates":[[[-83.56378760260851,37.77051468708463],[-83.56376514733151,37.770461434091544],[-83.56369778150045,37.77042593207484],[-83.56376514733151,37.77042593207484],[-83.56387742371658,37.77049693609119],[-83.56387742371658,37.7705324380738],[-83.56378760260851,37.77051468708463]]]}},{"type":"Feature","properties":{"kind":"sunrise","strength":0.5,"hard":false,"sector":"r3c4"},"geometry":{"type":"Polygon","coordinates":[[[-83.56398970010166,37.77186375011686],[-83.56385496843957,37.771757246035506],[-83.56396724482464,37.77181049809535],[-83.56405706593267,37.77181049809535],[-83.56412443176372,37.77173949534037],[-83.56414688704074,37.771455483638604],[-83.56407952120969,37.771402231323066],[-83.56410197648671,37.77136672975807],[-83.5642591634258,37.77154423741259],[-83.5642591634258,37.77173949534037],[-83.5642367081488,37.77181049809535],[-83.56414688704074,37.771881500782165],[-83.56398970010166,37.77186375011686]]]}},{"type":"Feature","properties":{"kind":"sunrise","strength":0.5,"hard":false,"sector":"r3c4"},"geometry":{"type":"Polygon","coordinates":[[[-83.56414688704074,37.77113596917014],[-83.5642591634258,37.771011713170644],[-83.56428161870284,37.77074544961147],[-83.56416934231775,37.77063894391934],[-83.56416934231775,37.7705324380738],[-83.56410197648671,37.770461434091544],[-83.56410197648671,37.770319425922494],[-83.56412443176372,37.77044368308533],[-83.56419179759477,37.7705324380738],[-83.56432652925686,37.77062119295573],[-83.56439389508789,37.77072769867344],[-83.56450617147296,37.770780951474755],[-83.56450617147296,37.770869706058406],[-83.56446126091893,37.770869706058406],[-83.56414688704074,37.77113596917014]]]}},{"type":"Feature","properties":{"kind":"sunrise","strength":0.75,"hard":false,"sector":"r3c4"},"geometry":{"type":"Polygon","coordinates":[[[-83.56403461065567,37.77120697250467],[-83.56410197648671,37.77104721490609],[-83.56410197648671,37.77069219678458],[-83.56403461065567,37.77067444583377],[-83.56401215537866,37.77060344198787],[-83.56381005788553,37.770567940039356],[-83.56378760260851,37.77051468708463],[-83.56387742371658,37.7705324380738],[-83.56383251316254,37.770461434091544],[-83.56398970010166,37.77049693609119],[-83.56407952120969,37.770266172788794],[-83.56416934231775,37.77063894391934],[-83.56428161870284,37.77074544961147],[-83.56428161870284,37.77092295875746],[-83.5642367081488,37.77104721490609],[-83.56403461065567,37.77120697250467]]]}},{"type":"Feature","properties":{"kind":"sunrise","strength":0.75,"hard":false,"sector":"r3c4"},"geometry":{"type":"Polygon","coordinates":[[[-83.5639223342706,37.771792747413],[-83.56381005788553,37.77170399393731],[-83.56394478954763,37.77172174464097],[-83.56403461065567,37.77165074180075],[-83.56405706593267,37.77157973889235],[-83.56405706593267,37.7713844805427],[-83.56401215537866,37.77136672975807],[-83.56403461065567,37.77133122817604],[-83.56414688704074,37.771455483638604],[-83.56414688704074,37.77165074180075],[-83.56405706593267,37.77181049809535],[-83.5639223342706,37.771792747413]]]}},{"type":"Feature","properties":{"kind":"sunrise","strength":1.0,"hard":false,"sector":"r3c4"},"geometry":{"type":"Polygon","coordinates":[[[-83.56398970010166,37.77170399393731],[-83.56381005788553,37.77170399393731],[-83.56374269205449,37.77163299108005],[-83.56387742371658,37.77152648666631],[-83.5638998789936,37.771455483638604],[-83.5638998789936,37.77131347737863],[-83.56381005788553,37.7710827166245],[-83.56387742371658,37.77095846053551],[-83.56387742371658,37.77083420423773],[-83.56376514733151,37.77076320054524],[-83.56363041566944,37.77076320054524],[-83.5636079603924,37.77067444583377],[-83.56354059456137,37.77062119295573],[-83.56354059456137,37.7705324380738],[-83.56367532622345,37.77044368308533],[-83.56381005788553,37.770567940039356],[-83.56401215537866,37.77060344198787],[-83.56403461065567,37.77067444583377],[-83.56410197648671,37.77069219678458],[-83.56407952120969,37.77115372001017],[-83.56396724482464,37.77124247414636],[-83.56396724482464,37.77131347737863],[-83.56405706593267,37.7713844805427],[-83.56405706593267,37.77157973889235],[-83.56398970010166,37.77170399393731]]]}},{"type":"Feature","properties":{"kind":"sunrise","strength":1.0,"hard":false,"sector":"r3c4"},"geometry":{"type":"Polygon","coordinates":[[[-83.56398970010166,37.77049693609119],[-83.56378760260851,37.77042593207484],[-83.56378760260851,37.770248421735694],[-83.56394478954763,37.770177417480724],[-83.56401215537866,37.77019516855086],[-83.56405706593267,37.770266172788794],[-83.56405706593267,37.77039043004111],[-83.56401215537866,37.77040818106011],[-83.56398970010166,37.77049693609119]]]}},{"type":"Feature","properties":{"kind":"sunrise","strength":1.0,"hard":true,"sector":"r3c4"},"geometry":{"type":"Polygon","coordinates":[[[-83.5636079603924,37.77072769867344],[-83.5636079603924,37.77067444583377],[-83.56354059456137,37.77062119295573],[-83.56354059456137,37.7705324380738],[-83.5636079603924,37.7704791850935],[-83.56365287094644,37.7704791850935],[-83.56365287094644,37.77051468708463],[-83.5636079603924,37.77051468708463],[-83.5635630498384,37.770567940039356],[-83.5635855051154,37.770567940039356],[-83.5635855051154,37.77062119295573],[-83.56365287094644,37.77069219678458],[-83.56367532622345,37.77076320054524],[-83.56363041566944,37.77076320054524],[-83.56363041566944,37.77072769867344],[-83.5636079603924,37.77072769867344]]]}},{"type":"Feature","properties":{"kind":"sunrise","strength":1.0,"hard":true,"sector":"r3c4"},"geometry":{"type":"Polygon","coordinates":[[[-83.56369778150045,37.77076320054524],[-83.56369778150045,37.77074544961147],[-83.56376514733151,37.77072769867344],[-83.56383251316254,37.770780951474755],[-83.56369778150045,37.77076320054524]]]}},{"type":"Feature","properties":{"kind":"sunrise","strength":1.0,"hard":true,"sector":"r3c4"},"geometry":{"type":"Polygon","coordinates":[[[-83.56378760260851,37.770248421735694],[-83.56383251316254,37.77021291961673],[-83.56394478954763,37.770177417480724],[-83.56394478954763,37.77021291961673],[-83.5638998789936,37.77021291961673],[-83.56381005788553,37.770266172788794],[-83.56381005788553,37.770354927990326],[-83.56378760260851,37.770354927990326],[-83.56378760260851,37.770248421735694]]]}},{"type":"Feature","properties":{"kind":"sunrise","strength":1.0,"hard":true,"sector":"r3c4"},"geometry":{"type":"Polygon","coordinates":[[[-83.56381005788553,37.7715619881546],[-83.56385496843957,37.7715619881546],[-83.56387742371658,37.77149098516099],[-83.5638998789936,37.77149098516099],[-83.56387742371658,37.771473234401924],[-83.5638998789936,37.771455483638604],[-83.56387742371658,37.77134897896919],[-83.5638998789936,37.77134897896919],[-83.5639223342706,37.771402231323066],[-83.56394478954763,37.771402231323066],[-83.5639223342706,37.77152648666631],[-83.56385496843957,37.77159748962584],[-83.56378760260851,37.77161524035508],[-83.56381005788553,37.7715619881546]]]}},{"type":"Feature","properties":{"kind":"sunrise","strength":1.0,"hard":true,"sector":"r3c4"},"geometry":{"type":"Polygon","coordinates":[[[-83.5638998789936,37.77124247414636],[-83.56383251316254,37.77120697250467],[-83.56383251316254,37.771011713170644],[-83.56387742371658,37.77097621141815],[-83.56387742371658,37.77090520786203],[-83.5638998789936,37.77090520786203],[-83.56387742371658,37.77083420423773],[-83.5638998789936,37.77083420423773],[-83.5639223342706,37.7708519551502],[-83.5639223342706,37.77097621141815],[-83.5638998789936,37.77097621141815],[-83.5638998789936,37.771029464040495],[-83.56387742371658,37.771029464040495],[-83.56387742371658,37.7711004674773],[-83.5638998789936,37.7711004674773],[-83.56387742371658,37.77120697250467],[-83.5638998789936,37.77120697250467],[-83.5638998789936,37.77124247414636]]]}},{"type":"Feature","properties":{"kind":"sunset","strength":0.25,"hard":false,"sector":"r3c4"},"geometry":{"type":"Polygon","coordinates":[[[-83.56167680656922,37.77168624322939],[-83.5616318960152,37.77161524035508],[-83.56169926184624,37.77166849251719],[-83.56183399350833,37.77166849251719],[-83.56190135933937,37.7715619881546],[-83.56190135933937,37.77163299108005],[-83.56183399350833,37.77170399393731],[-83.56167680656922,37.77168624322939]]]}},{"type":"Feature","properties":{"kind":"sunset","strength":0.25,"hard":false,"sector":"r3c4"},"geometry":{"type":"Polygon","coordinates":[[[-83.56500000000001,37.77074544961147],[-83.56473072424309,37.77079870240001],[-83.56459599258102,37.770869706058406],[-83.564573537304,37.77120697250467],[-83.56466335841206,37.77126022496083],[-83.56464090313504,37.771295726576945],[-83.56452862674998,37.77118922167742],[-83.56455108202698,37.77083420423773],[-83.5647082689661,37.77067444583377],[-83.5648879111822,37.77063894391934],[-83.5648879111822,37.770461434091544],[-83.56500000000001,37.77037267901785],[-83.56500000000001,37.77074544961147]]]}},{"type":"Feature","properties":{"kind":"sunset","strength":0.25,"hard":false,"sector":"r3c4"},"geometry":{"type":"Polygon","coordinates":[[[-83.56497773229025,37.77154423741259],[-83.56479809007413,37.771437732871014],[-83.56479809007413,37.771402231323066],[-83.56497773229025,37.77154423741259]]]}},{"type":"Feature","properties":{"kind":"sunset","strength":0.5,"hard":false,"sector":"r3c4"},"geometry":{"type":"Polygon","coordinates":[[[-83.56183399350833,37.77166849251719],[-83.56167680656922,37.77163299108005],[-83.56178908295429,37.77165074180075],[-83.56185644878533,37.77161524035508],[-83.56183399350833,37.77166849251719]]]}},{"type":"Feature","properties":{"kind":"sunset","strength":0.5,"hard":false,"sector":"r3c4"},"geometry":{"type":"Polygon","coordinates":[[[-83.56500000000001,37.77090520786203],[-83.56468581368908,37.7710827166245],[-83.56468581368908,37.77126022496083],[-83.56479809007413,37.77134897896919],[-83.56477563479712,37.7713844805427],[-83.564573537304,37.77120697250467],[-83.56459599258102,37.770869706058406],[-83.56473072424309,37.77079870240001],[-83.56500000000001,37.77074544961147],[-83.56500000000001,37.77090520786203]]]}},{"type":"Feature","properties":{"kind":"sunset","strength":0.75,"hard":false,"sector":"r3c4"},"geometry":{"type":"Polygon","coordinates":[[[-83.56178908295429,37.77165074180075],[-83.56167680656922,37.77163299108005],[-83.5616543512922,37.77157973889235],[-83.56169926184624,37.77161524035508],[-83.56183399350833,37.77161524035508],[-83.56178908295429,37.77165074180075]]]}},{"type":"Feature","properties":{"kind":"sunset","strength":0.75,"hard":false,"sector":"r3c4"},"geometry":{"type":"Polygon","coordinates":[[[-83.56497773229025,37.77113596917014],[-83.56486545590518,37.77122472332765],[-83.56486545590518,37.771402231323066],[-83.5649103664592,37.77141998209918],[-83.5648879111822,37.771455483638604],[-83.56468581368908,37.77126022496083],[-83.56468581368908,37.7710827166245],[-83.56473072424309,37.771029464040495],[-83.56500000000001,37.77090520786203],[-83.56497773229025,37.77113596917014]]]}},{"type":"Feature","properties":{"kind":"sunset","strength":1.0,"hard":false,"sector":"r3c4"},"geometry":{"type":"Polygon","coordinates":[[[-83.56183399350833,37.77161524035508],[-83.5616543512922,37.77157973889235],[-83.5616543512922,37.77152648666631],[-83.56185644878533,37.77154423741259],[-83.56183399350833,37.77161524035508]]]}},{"type":"Feature","properties":{"kind":"sunset","strength":1.0,"hard":false,"sector":"r3c4"},"geometry":{"type":"Polygon","coordinates":[[[-83.56500000000001,37.77150873591577],[-83.56486545590518,37.771402231323066],[-83.56486545590518,37.77122472332765],[-83.56500000000001,37.7711004674773],[-83.56500000000001,37.77150873591577]]]}},{"type":"Feature","properties":{"kind":"sunset","strength":1.0,"hard":true,"sector":"r3c4"},"geometry":{"type":"Polygon","coordinates":[[[-83.56176662767729,37.7715619881546],[-83.56176662767729,37.77154423741259],[-83.56172171712326,37.77154423741259],[-83.56172171712326,37.77152648666631],[-83.56181153823131,37.77154423741259],[-83.56181153823131,37.7715619881546],[-83.56176662767729,37.7715619881546]]]}}]}
