{"type":"FeatureCollection","name":"RRG LiDAR sunrise/sunset ring-r3c6","features":[{"type":"Feature","properties":{"kind":"sunset","strength":0.2,"hard":false,"sector":"ring-r3c6"},"geometry":{"type":"Polygon","coordinates":[[[-83.51647470907433,37.8218460243074],[-83.51633997741227,37.82195242167018],[-83.51618279047321,37.82195242167018],[-83.51618279047321,37.82188149011204],[-83.51604805881115,37.821828291398695],[-83.51604805881115,37.82168642797565],[-83.51609296936518,37.821792825568494],[-83.51631752213527,37.82175735972127],[-83.51629506685826,37.82188149011204],[-83.51640734324332,37.82188149011204],[-83.51642979852032,37.8218460243074],[-83.51647470907433,37.8218460243074]]]}},{"type":"Feature","properties":{"kind":"sunset","strength":0.36,"hard":false,"sector":"ring-r3c6"},"geometry":{"type":"Polygon","coordinates":[[[-83.51629506685826,37.82188149011204],[-83.51631752213527,37.82175735972127],[-83.51609296936518,37.821792825568494],[-83.51607051408817,37.82165096207728],[-83.5161378799192,37.82173962679125],[-83.51627261158126,37.82173962679125],[-83.51642979852032,37.8216686950286],[-83.51640734324332,37.821792825568494],[-83.51649716435135,37.821792825568494],[-83.51660944073639,37.82173962679125],[-83.51640734324332,37.82188149011204],[-83.51629506685826,37.82188149011204]]]}},{"type":"Feature","properties":{"kind":"sunset","strength":0.52,"hard":false,"sector":"ring-r3c6"},"geometry":{"type":"Polygon","coordinates":[[[-83.51640734324332,37.821792825568494],[-83.51642979852032,37.8216686950286],[-83.5163848879663,37.8216686950286],[-83.51627261158126,37.82173962679125],[-83.5161378799192,37.82173962679125],[-83.51609296936518,37.82170416091844],[-83.51609296936518,37.82163322912171],[-83.5161378799192,37.821597763197786],[-83.5161378799192,37.8216686950286],[-83.51631752213527,37.82168642797565],[-83.51654207490537,37.82158003022942],[-83.51651961962837,37.82170416091844],[-83.51665435129041,37.82168642797565],[-83.51649716435135,37.821792825568494],[-83.51640734324332,37.821792825568494]]]}},{"type":"Feature","properties":{"kind":"sunset","strength":0.68,"hard":false,"sector":"ring-r3c6"},"geometry":{"type":"Polygon","coordinates":[[[-83.5161378799192,37.8216686950286],[-83.5161378799192,37.82150909831339],[-83.51622770102725,37.821615496161876],[-83.51642979852032,37.821615496161876],[-83.51631752213527,37.82168642797565],[-83.5161378799192,37.8216686950286]]]}},{"type":"Feature","properties":{"kind":"sunset","strength":0.68,"hard":false,"sector":"ring-r3c6"},"geometry":{"type":"Polygon","coordinates":[[[-83.51651961962837,37.82170416091844],[-83.51654207490537,37.82158003022942],[-83.51649716435135,37.82158003022942],[-83.51651961962837,37.82154456427994],[-83.51660944073639,37.82154456427994],[-83.51663189601341,37.821615496161876],[-83.51676662767547,37.821597763197786],[-83.51660944073639,37.82170416091844],[-83.51651961962837,37.82170416091844]]]}},{"type":"Feature","properties":{"kind":"sunset","strength":0.84,"hard":false,"sector":"ring-r3c6"},"geometry":{"type":"Polygon","coordinates":[[[-83.5163848879663,37.82163322912171],[-83.51618279047321,37.821597763197786],[-83.51616033519622,37.821562297256804],[-83.51622770102725,37.8214381663292],[-83.51627261158126,37.82154456427994],[-83.5163848879663,37.82158003022942],[-83.51649716435135,37.821562297256804],[-83.5163848879663,37.82163322912171]]]}},{"type":"Feature","properties":{"kind":"sunset","strength":0.84,"hard":false,"sector":"ring-r3c6"},"geometry":{"type":"Polygon","coordinates":[[[-83.51663189601341,37.821597763197786],[-83.51660944073639,37.82154456427994],[-83.51651961962837,37.821526831298804],[-83.5165869854594,37.82150909831339],[-83.51669926184444,37.82154456427994],[-83.51674417239845,37.821455899331646],[-83.51678908295247,37.82150909831339],[-83.51676662767547,37.821597763197786],[-83.51663189601341,37.821597763197786]]]}},{"type":"Feature","properties":{"kind":"sunset","strength":1.0,"hard":false,"sector":"ring-r3c6"},"geometry":{"type":"Polygon","coordinates":[[[-83.51665435129041,37.821402700311545],[-83.51674417239845,37.82149136532374],[-83.51669926184444,37.82154456427994],[-83.51656453018238,37.82150909831339],[-83.51649716435135,37.821562297256804],[-83.5163848879663,37.82158003022942],[-83.51625015630424,37.821526831298804],[-83.51625015630424,37.8214381663292],[-83.51631752213527,37.82136723427684],[-83.5163848879663,37.82136723427684],[-83.51656453018238,37.821455899331646],[-83.51665435129041,37.8214381663292],[-83.51665435129041,37.821402700311545]],[[-83.51663189601341,37.821455899331646],[-83.51660944073639,37.82147363232983],[-83.51663189601341,37.82147363232983],[-83.51663189601341,37.821455899331646]]]}},{"type":"Feature","properties":{"kind":"sunset","strength":1.0,"hard":false,"sector":"ring-r3c6"},"geometry":{"type":"Polygon","coordinates":[[[-83.51665435129041,37.821402700311545],[-83.51656453018238,37.82136723427684],[-83.51660944073639,37.82142043332251],[-83.51656453018238,37.8214381663292],[-83.51651961962837,37.82138496729633],[-83.51642979852032,37.82136723427684],[-83.51645225379733,37.8213317682251],[-83.51640734324332,37.82129630215631],[-83.51660944073639,37.8213317682251],[-83.51665435129041,37.821402700311545]],[[-83.51649716435135,37.8213317682251],[-83.51647470907433,37.8213495012531],[-83.51649716435135,37.8213495012531],[-83.51649716435135,37.8213317682251]],[[-83.51654207490537,37.8213495012531],[-83.51651961962837,37.82136723427684],[-83.51654207490537,37.82136723427684],[-83.51654207490537,37.8213495012531]]]}},{"type":"Feature","properties":{"kind":"sunset","strength":1.0,"hard":true,"sector":"ring-r3c6"},"geometry":{"type":"Polygon","coordinates":[[[-83.51651961962837,37.82147363232983],[-83.51640734324332,37.8214381663292],[-83.5163848879663,37.82138496729633],[-83.51654207490537,37.8214381663292],[-83.51651961962837,37.82147363232983]]]}},{"type":"Feature","properties":{"kind":"sunset","strength":1.0,"hard":true,"sector":"ring-r3c6"},"geometry":{"type":"Polygon","coordinates":[[[-83.51654207490537,37.821402700311545],[-83.51642979852032,37.82136723427684],[-83.51642979852032,37.8213495012531],[-83.51647470907433,37.8213317682251],[-83.51647470907433,37.8213495012531],[-83.51656453018238,37.82136723427684],[-83.5165869854594,37.82142043332251],[-83.51654207490537,37.82142043332251],[-83.51654207490537,37.821402700311545]]]}}]}
