{"type":"FeatureCollection","name":"RRG LiDAR sunrise/sunset ring-r5c6","features":[{"type":"Feature","properties":{"kind":"sunrise","strength":0.2,"hard":false,"sector":"ring-r5c6"},"geometry":{"type":"Polygon","coordinates":[[[-83.49413170844983,37.733320665164726],[-83.49417661900384,37.7332673902631],[-83.4943113506659,37.733249631954045],[-83.4943338059429,37.733409456582244],[-83.49426644011189,37.73333842345675],[-83.49417661900384,37.73333842345675],[-83.49413170844983,37.73349824789329],[-83.49413170844983,37.733320665164726]]]}},{"type":"Feature","properties":{"kind":"sunrise","strength":0.36,"hard":false,"sector":"ring-r5c6"},"geometry":{"type":"Polygon","coordinates":[[[-83.49437871649691,37.73349824789329],[-83.49426644011189,37.73342721485297],[-83.49422152955786,37.73342721485297],[-83.49415416372682,37.73349824789329],[-83.49417661900384,37.73333842345675],[-83.49428889538889,37.73335618174452],[-83.49437871649691,37.73349824789329]]]}},{"type":"Feature","properties":{"kind":"sunrise","strength":0.52,"hard":false,"sector":"ring-r5c6"},"geometry":{"type":"Polygon","coordinates":[[[-83.4943113506659,37.73367583019594],[-83.4943113506659,37.73353376438789],[-83.49410925317281,37.73355152262881],[-83.49422152955786,37.73342721485297],[-83.49437871649691,37.73349824789329],[-83.49437871649691,37.73364031376948],[-83.4943113506659,37.73367583019594]]]}},{"type":"Feature","properties":{"kind":"sunrise","strength":0.68,"hard":false,"sector":"ring-r5c6"},"geometry":{"type":"Polygon","coordinates":[[[-83.49417661900384,37.73378237937308],[-83.49422152955786,37.73372910480368],[-83.49419907428084,37.73364031376948],[-83.49404188734178,37.73362255554987],[-83.49401943206476,37.73365807198484],[-83.49397452151075,37.73364031376948],[-83.49415416372682,37.73353376438789],[-83.4943113506659,37.73353376438789],[-83.4943338059429,37.73364031376948],[-83.49417661900384,37.73378237937308]]]}},{"type":"Feature","properties":{"kind":"sunrise","strength":0.84,"hard":false,"sector":"ring-r5c6"},"geometry":{"type":"Polygon","coordinates":[[[-83.49408679789579,37.73374686299774],[-83.49401943206476,37.73371134660537],[-83.49390715567974,37.73374686299774],[-83.49386224512571,37.73372910480368],[-83.49404188734178,37.73362255554987],[-83.49415416372682,37.73362255554987],[-83.49422152955786,37.73365807198484],[-83.49422152955786,37.73372910480368],[-83.49410925317281,37.733835653904165],[-83.49408679789579,37.73374686299774]]]}},{"type":"Feature","properties":{"kind":"sunrise","strength":1.0,"hard":false,"sector":"ring-r5c6"},"geometry":{"type":"Polygon","coordinates":[[[-83.4938847004027,37.73397771913297],[-83.49383978984869,37.733888928396915],[-83.49374996874066,37.733871170236924],[-83.49377242401768,37.733817895731406],[-83.49395206623375,37.73371134660537],[-83.4940643426188,37.73372910480368],[-83.49408679789579,37.733835653904165],[-83.49404188734178,37.733888928396915],[-83.49392961095674,37.73397771913297],[-83.4938847004027,37.73397771913297]]]}},{"type":"Feature","properties":{"kind":"sunrise","strength":1.0,"hard":false,"sector":"ring-r5c6"},"geometry":{"type":"Polygon","coordinates":[[[-83.49377242401768,37.73395996099429],[-83.49374996874066,37.73390668655264],[-83.49379487929468,37.73390668655264],[-83.49381733457169,37.73395996099429],[-83.49377242401768,37.73395996099429]]]}},{"type":"Feature","properties":{"kind":"sunrise","strength":1.0,"hard":true,"sector":"ring-r5c6"},"geometry":{"type":"Polygon","coordinates":[[[-83.49377242401768,37.73395996099429],[-83.49374996874066,37.73390668655264],[-83.49379487929468,37.73390668655264],[-83.49381733457169,37.73395996099429],[-83.49377242401768,37.73395996099429]]]}},{"type":"Feature","properties":{"kind":"sunrise","strength":1.0,"hard":true,"sector":"ring-r5c6"},"geometry":{"type":"Polygon","coordinates":[[[-83.49386224512571,37.73390668655264],[-83.49381733457169,37.733888928396915],[-83.49381733457169,37.73385341207268],[-83.4938847004027,37.733871170236924],[-83.49390715567974,37.73392444470412],[-83.49386224512571,37.733942202851324],[-83.49386224512571,37.73390668655264]]]}},{"type":"Feature","properties":{"kind":"sunset","strength":0.2,"hard":false,"sector":"ring-r5c6"},"geometry":{"type":"Polygon","coordinates":[[[-83.49222300990401,37.751786987630794],[-83.49233528628905,37.75175147989365],[-83.49238019684307,37.751573940952326],[-83.49255983905915,37.751591694865624],[-83.49240265212008,37.751609448774666],[-83.49235774156607,37.751786987630794],[-83.49222300990401,37.751786987630794]]]}},{"type":"Feature","properties":{"kind":"sunset","strength":0.36,"hard":false,"sector":"ring-r5c6"},"geometry":{"type":"Polygon","coordinates":[[[-83.492200554627,37.75182249535091],[-83.49235774156607,37.751786987630794],[-83.49240265212008,37.751609448774666],[-83.49255983905915,37.751609448774666],[-83.4924251073971,37.75164495657997],[-83.49235774156607,37.75182249535091],[-83.49224546518101,37.75182249535091],[-83.492200554627,37.75185800305398],[-83.492200554627,37.75182249535091]]]}},{"type":"Feature","properties":{"kind":"sunset","strength":0.52,"hard":false,"sector":"ring-r5c6"},"geometry":{"type":"Polygon","coordinates":[[[-83.492200554627,37.751964526060945],[-83.492200554627,37.75185800305398],[-83.49238019684307,37.75180474149298],[-83.4924251073971,37.75164495657997],[-83.49260474961316,37.75164495657997],[-83.4924700179511,37.75166271047624],[-83.49240265212008,37.75184024920458],[-83.49226792045802,37.75185800305398],[-83.492200554627,37.751964526060945]]]}},{"type":"Feature","properties":{"kind":"sunset","strength":0.68,"hard":false,"sector":"ring-r5c6"},"geometry":{"type":"Polygon","coordinates":[[[-83.49224546518101,37.75200003369585],[-83.49222300990401,37.751893510740004],[-83.49231283101204,37.75184024920458],[-83.49240265212008,37.75184024920458],[-83.4924700179511,37.75166271047624],[-83.49260474961316,37.75166271047624],[-83.49249247322813,37.75169821825598],[-83.4924475626741,37.75184024920458],[-83.49226792045802,37.75191126457663],[-83.49224546518101,37.75200003369585]]]}},{"type":"Feature","properties":{"kind":"sunset","strength":0.84,"hard":false,"sector":"ring-r5c6"},"geometry":{"type":"Polygon","coordinates":[[[-83.49229037573504,37.75201778750692],[-83.49226792045802,37.75191126457663],[-83.4924475626741,37.75184024920458],[-83.49249247322813,37.75169821825598],[-83.49264966016719,37.75169821825598],[-83.49251492850512,37.75173372601869],[-83.4924700179511,37.75185800305398],[-83.49231283101204,37.75192901840899],[-83.49229037573504,37.75201778750692]]]}},{"type":"Feature","properties":{"kind":"sunset","strength":1.0,"hard":false,"sector":"ring-r5c6"},"geometry":{"type":"Polygon","coordinates":[[[-83.49233528628905,37.752035541313724],[-83.49231283101204,37.75192901840899],[-83.4924700179511,37.75185800305398],[-83.49251492850512,37.75173372601869],[-83.49264966016719,37.751715972139465],[-83.49271702599823,37.75175147989365],[-83.49271702599823,37.75180474149298],[-83.4926721154442,37.75180474149298],[-83.49260474961316,37.75191126457663],[-83.49240265212008,37.75207104891456],[-83.49233528628905,37.752035541313724]],[[-83.49255983905915,37.75184024920458],[-83.49258229433617,37.75180474149298],[-83.49255983905915,37.75180474149298],[-83.49255983905915,37.75184024920458]],[[-83.49255983905915,37.75184024920458],[-83.49253738378215,37.75184024920458],[-83.49253738378215,37.75185800305398],[-83.49255983905915,37.75185800305398],[-83.49255983905915,37.75184024920458]],[[-83.49253738378215,37.75185800305398],[-83.4924475626741,37.75191126457663],[-83.4924475626741,37.751946772237105],[-83.49253738378215,37.751893510740004],[-83.49253738378215,37.75185800305398]],[[-83.4924475626741,37.751964526060945],[-83.4924251073971,37.751946772237105],[-83.4924251073971,37.751964526060945],[-83.4924475626741,37.751964526060945]],[[-83.4924251073971,37.75198227988053],[-83.49240265212008,37.751964526060945],[-83.49240265212008,37.75198227988053],[-83.4924251073971,37.75198227988053]],[[-83.49240265212008,37.75200003369585],[-83.49238019684307,37.75198227988053],[-83.49238019684307,37.75200003369585],[-83.49240265212008,37.75200003369585]],[[-83.49238019684307,37.75201778750692],[-83.49235774156607,37.75200003369585],[-83.49235774156607,37.75201778750692],[-83.49238019684307,37.75201778750692]],[[-83.49235774156607,37.752035541313724],[-83.49233528628905,37.75201778750692],[-83.49233528628905,37.752035541313724],[-83.49235774156607,37.752035541313724]]]}},{"type":"Feature","properties":{"kind":"sunset","strength":1.0,"hard":true,"sector":"ring-r5c6"},"geometry":{"type":"Polygon","coordinates":[[[-83.49240265212008,37.752035541313724],[-83.4924700179511,37.751946772237105],[-83.49253738378215,37.75192901840899],[-83.49253738378215,37.751964526060945],[-83.4924475626741,37.752035541313724],[-83.49240265212008,37.752035541313724]]]}},{"type":"Feature","properties":{"kind":"sunset","strength":1.0,"hard":true,"sector":"ring-r5c6"},"geometry":{"type":"Polygon","coordinates":[[[-83.49258229433617,37.75192901840899],[-83.49253738378215,37.751893510740004],[-83.49260474961316,37.75184024920458],[-83.49260474961316,37.75180474149298],[-83.4926721154442,37.751786987630794],[-83.49260474961316,37.75191126457663],[-83.49258229433617,37.75192901840899]]]}}]}
