{"type":"FeatureCollection","name":"RRG LiDAR sunrise/sunset ring-r2c6","features":[{"type":"Feature","properties":{"kind":"sunset","strength":0.2,"hard":false,"sector":"ring-r2c6"},"geometry":{"type":"Polygon","coordinates":[[[-83.48038907891997,37.8639500665475],[-83.48038907891997,37.86380827088549],[-83.4802768025349,37.863825995358155],[-83.48025434725793,37.86386144429071],[-83.48023189198089,37.863825995358155],[-83.48036662364295,37.863719648458186],[-83.48050135530501,37.863719648458186],[-83.48050135530501,37.86380827088549],[-83.48038907891997,37.8639500665475]]]}},{"type":"Feature","properties":{"kind":"sunset","strength":0.36,"hard":false,"sector":"ring-r2c6"},"geometry":{"type":"Polygon","coordinates":[[[-83.48032171308894,37.8640209642762],[-83.48032171308894,37.86391461765758],[-83.48023189198089,37.86391461765758],[-83.48018698142688,37.863967790986074],[-83.48016452614988,37.86393234210467],[-83.4802768025349,37.863825995358155],[-83.48038907891997,37.86380827088549],[-83.48041153419696,37.86389689320622],[-83.48032171308894,37.8640209642762]]]}},{"type":"Feature","properties":{"kind":"sunset","strength":0.52,"hard":false,"sector":"ring-r2c6"},"geometry":{"type":"Polygon","coordinates":[[[-83.4802768025349,37.864074137527965],[-83.48023189198089,37.864003239850426],[-83.48014207087286,37.864038688697725],[-83.48011961559584,37.864003239850426],[-83.48023189198089,37.86391461765758],[-83.48032171308894,37.86391461765758],[-83.48032171308894,37.8640209642762],[-83.4802768025349,37.864074137527965]]]}},{"type":"Feature","properties":{"kind":"sunset","strength":0.68,"hard":false,"sector":"ring-r2c6"},"geometry":{"type":"Polygon","coordinates":[[[-83.48018698142688,37.86426910578952],[-83.48009716031885,37.86416275952898],[-83.48009716031885,37.864074137527965],[-83.48014207087286,37.8640209642762],[-83.48023189198089,37.864003239850426],[-83.48036662364295,37.8641450351373],[-83.48029925781194,37.86410958634116],[-83.48018698142688,37.86410958634116],[-83.48018698142688,37.86426910578952]]]}},{"type":"Feature","properties":{"kind":"sunset","strength":0.84,"hard":false,"sector":"ring-r2c6"},"geometry":{"type":"Polygon","coordinates":[[[-83.48043398947398,37.864215932678434],[-83.48029925781194,37.864215932678434],[-83.48029925781194,37.86432227886225],[-83.48034416836595,37.864357727556076],[-83.48032171308894,37.86439317623286],[-83.48016452614988,37.86419820829954],[-83.48016452614988,37.86412731074137],[-83.48029925781194,37.86410958634116],[-83.48043398947398,37.864215932678434]]]}},{"type":"Feature","properties":{"kind":"sunset","strength":1.0,"hard":false,"sector":"ring-r2c6"},"geometry":{"type":"Polygon","coordinates":[[[-83.48041153419696,37.86446407353527],[-83.48029925781194,37.86432227886225],[-83.48029925781194,37.864215932678434],[-83.48043398947398,37.864215932678434],[-83.48059117641304,37.86432227886225],[-83.480456444751,37.86446407353527],[-83.48041153419696,37.86446407353527]]]}},{"type":"Feature","properties":{"kind":"sunset","strength":1.0,"hard":true,"sector":"ring-r2c6"},"geometry":{"type":"Polygon","coordinates":[[[-83.480456444751,37.86442862489259],[-83.480478900028,37.86437545189659],[-83.48054626585902,37.864357727556076],[-83.48052381058203,37.86439317623286],[-83.480456444751,37.86442862489259]]]}}]}
