{
  "type": "FeatureCollection",
  "features": [
    {
      "type": "Feature",
      "properties": {
        "routeId": "RTE-0002",
        "title": "Princess Arch",
        "publicationClass": "A",
        "version": "1"
      },
      "geometry": {
        "type": "LineString",
        "coordinates": [
          [
            -83.617846,
            37.825104
          ],
          [
            -83.617762,
            37.825222
          ],
          [
            -83.617706,
            37.825224
          ],
          [
            -83.617718,
            37.825192
          ],
          [
            -83.617839,
            37.825211
          ],
          [
            -83.617872,
            37.825268
          ],
          [
            -83.617815,
            37.825316
          ],
          [
            -83.617762,
            37.825378
          ],
          [
            -83.61771,
            37.825598
          ],
          [
            -83.617708,
            37.825728
          ],
          [
            -83.617743,
            37.825808
          ],
          [
            -83.617795,
            37.825856
          ],
          [
            -83.61792,
            37.825935
          ],
          [
            -83.618104,
            37.826006
          ],
          [
            -83.618142,
            37.82603
          ],
          [
            -83.618376,
            37.826108
          ],
          [
            -83.618512,
            37.826189
          ],
          [
            -83.618797,
            37.826391
          ],
          [
            -83.618976,
            37.826472
          ],
          [
            -83.619084,
            37.826495
          ],
          [
            -83.619418,
            37.826531
          ],
          [
            -83.619489,
            37.82653
          ],
          [
            -83.619562,
            37.826562
          ],
          [
            -83.619557,
            37.826609
          ],
          [
            -83.619483,
            37.826704
          ],
          [
            -83.619227,
            37.826951
          ],
          [
            -83.619203,
            37.827039
          ],
          [
            -83.619331,
            37.82713
          ],
          [
            -83.619297,
            37.827109
          ],
          [
            -83.619403,
            37.826991
          ],
          [
            -83.619492,
            37.826967
          ],
          [
            -83.619538,
            37.827087
          ],
          [
            -83.619559,
            37.827113
          ],
          [
            -83.619568,
            37.827167
          ],
          [
            -83.61959,
            37.827211
          ],
          [
            -83.619566,
            37.827266
          ],
          [
            -83.619659,
            37.827297
          ],
          [
            -83.619682,
            37.827325
          ],
          [
            -83.619927,
            37.827347
          ],
          [
            -83.619997,
            37.827371
          ],
          [
            -83.619889,
            37.827333
          ],
          [
            -83.619747,
            37.827329
          ],
          [
            -83.619653,
            37.827266
          ],
          [
            -83.619618,
            37.827254
          ],
          [
            -83.619584,
            37.827266
          ],
          [
            -83.619511,
            37.827237
          ],
          [
            -83.619486,
            37.827218
          ],
          [
            -83.619487,
            37.827181
          ],
          [
            -83.619531,
            37.827054
          ],
          [
            -83.619508,
            37.827033
          ],
          [
            -83.619477,
            37.826967
          ],
          [
            -83.619426,
            37.827018
          ],
          [
            -83.619343,
            37.827131
          ],
          [
            -83.619308,
            37.827094
          ],
          [
            -83.619208,
            37.82705
          ],
          [
            -83.619195,
            37.827019
          ],
          [
            -83.619248,
            37.826909
          ],
          [
            -83.619332,
            37.826851
          ],
          [
            -83.619537,
            37.826648
          ],
          [
            -83.619569,
            37.826587
          ],
          [
            -83.619552,
            37.826553
          ],
          [
            -83.619509,
            37.826531
          ],
          [
            -83.619471,
            37.826534
          ],
          [
            -83.619113,
            37.826499
          ],
          [
            -83.619081,
            37.826504
          ],
          [
            -83.618938,
            37.826457
          ],
          [
            -83.618842,
            37.826415
          ],
          [
            -83.618705,
            37.826327
          ],
          [
            -83.61851,
            37.826181
          ],
          [
            -83.618405,
            37.826121
          ],
          [
            -83.618361,
            37.826113
          ],
          [
            -83.618088,
            37.826001
          ],
          [
            -83.618053,
            37.825998
          ],
          [
            -83.61787,
            37.825906
          ],
          [
            -83.617782,
            37.825846
          ],
          [
            -83.617721,
            37.825774
          ],
          [
            -83.617713,
            37.825664
          ],
          [
            -83.617724,
            37.82557
          ],
          [
            -83.617772,
            37.82539
          ],
          [
            -83.61785,
            37.825264
          ],
          [
            -83.617758,
            37.825257
          ],
          [
            -83.617724,
            37.825222
          ]
        ]
      }
    },
    {
      "type": "Feature",
      "properties": {
        "waypointId": "WP-0003",
        "routeId": "RTE-0002",
        "name": "Princess Arch",
        "type": "Landmark",
        "description": "Princess Arch landmark along the route."
      },
      "geometry": {
        "type": "Point",
        "coordinates": [
          -83.61963,
          37.82733
        ]
      }
    }
  ]
}
