{
  "type": "FeatureCollection",
  "features": [
    {
      "type": "Feature",
      "properties": {
        "routeId": "RTE-0001",
        "title": "Skybridge Arch",
        "publicationClass": "A",
        "version": "1"
      },
      "geometry": {
        "type": "LineString",
        "coordinates": [
          [
            -83.582622,
            37.817648
          ],
          [
            -83.582582,
            37.817637
          ],
          [
            -83.582557,
            37.817586
          ],
          [
            -83.582507,
            37.817586
          ],
          [
            -83.582357,
            37.817634
          ],
          [
            -83.582154,
            37.817811
          ],
          [
            -83.582013,
            37.817869
          ],
          [
            -83.581945,
            37.817937
          ],
          [
            -83.581902,
            37.818014
          ],
          [
            -83.581786,
            37.818028
          ],
          [
            -83.581757,
            37.818015
          ],
          [
            -83.58175,
            37.817936
          ],
          [
            -83.581761,
            37.817779
          ],
          [
            -83.581731,
            37.817645
          ],
          [
            -83.581653,
            37.817523
          ],
          [
            -83.581597,
            37.817535
          ],
          [
            -83.581561,
            37.817564
          ],
          [
            -83.581514,
            37.817661
          ],
          [
            -83.581395,
            37.817959
          ],
          [
            -83.581102,
            37.818083
          ],
          [
            -83.580986,
            37.818158
          ],
          [
            -83.580767,
            37.818226
          ],
          [
            -83.580658,
            37.818235
          ],
          [
            -83.580469,
            37.818218
          ],
          [
            -83.580318,
            37.818237
          ],
          [
            -83.580159,
            37.818298
          ],
          [
            -83.580106,
            37.818286
          ],
          [
            -83.5801,
            37.818317
          ],
          [
            -83.580031,
            37.818348
          ],
          [
            -83.57997,
            37.818336
          ],
          [
            -83.579845,
            37.818365
          ],
          [
            -83.579834,
            37.818381
          ],
          [
            -83.579772,
            37.818402
          ],
          [
            -83.579671,
            37.818471
          ],
          [
            -83.579508,
            37.818542
          ],
          [
            -83.579422,
            37.818558
          ],
          [
            -83.579269,
            37.81861
          ],
          [
            -83.579176,
            37.818694
          ],
          [
            -83.579092,
            37.818747
          ],
          [
            -83.579037,
            37.818768
          ],
          [
            -83.579062,
            37.818804
          ],
          [
            -83.579028,
            37.818818
          ],
          [
            -83.579017,
            37.818848
          ],
          [
            -83.579044,
            37.818858
          ],
          [
            -83.579008,
            37.818865
          ],
          [
            -83.578944,
            37.818835
          ],
          [
            -83.578906,
            37.818828
          ],
          [
            -83.57881,
            37.81885
          ],
          [
            -83.578672,
            37.818854
          ],
          [
            -83.578263,
            37.818924
          ],
          [
            -83.57804,
            37.81898
          ],
          [
            -83.577793,
            37.81899
          ],
          [
            -83.577611,
            37.818979
          ],
          [
            -83.577473,
            37.818985
          ],
          [
            -83.577315,
            37.819015
          ],
          [
            -83.577167,
            37.819007
          ],
          [
            -83.576932,
            37.819073
          ],
          [
            -83.576887,
            37.819103
          ],
          [
            -83.576882,
            37.819146
          ],
          [
            -83.577035,
            37.819147
          ],
          [
            -83.577206,
            37.819088
          ],
          [
            -83.577504,
            37.819109
          ],
          [
            -83.577649,
            37.819074
          ],
          [
            -83.577732,
            37.819064
          ],
          [
            -83.577936,
            37.819088
          ],
          [
            -83.578084,
            37.819041
          ],
          [
            -83.578236,
            37.819048
          ],
          [
            -83.578407,
            37.819024
          ],
          [
            -83.578518,
            37.818969
          ],
          [
            -83.578896,
            37.8189
          ],
          [
            -83.579071,
            37.818852
          ],
          [
            -83.579347,
            37.81874
          ],
          [
            -83.579655,
            37.818661
          ],
          [
            -83.579751,
            37.818646
          ],
          [
            -83.580218,
            37.818612
          ],
          [
            -83.580287,
            37.818616
          ],
          [
            -83.580588,
            37.818587
          ],
          [
            -83.580927,
            37.818511
          ],
          [
            -83.581211,
            37.818432
          ],
          [
            -83.581283,
            37.818398
          ],
          [
            -83.581599,
            37.818286
          ],
          [
            -83.581954,
            37.818114
          ],
          [
            -83.581975,
            37.81807
          ],
          [
            -83.581956,
            37.817987
          ],
          [
            -83.581959,
            37.817942
          ],
          [
            -83.582013,
            37.817879
          ],
          [
            -83.582149,
            37.817793
          ],
          [
            -83.582256,
            37.817764
          ],
          [
            -83.582389,
            37.817646
          ],
          [
            -83.582475,
            37.817621
          ],
          [
            -83.582498,
            37.817605
          ],
          [
            -83.582473,
            37.81751
          ],
          [
            -83.582449,
            37.817543
          ],
          [
            -83.582437,
            37.817516
          ],
          [
            -83.582451,
            37.817546
          ],
          [
            -83.582477,
            37.817526
          ],
          [
            -83.582447,
            37.817543
          ],
          [
            -83.582451,
            37.817576
          ],
          [
            -83.58249,
            37.81758
          ],
          [
            -83.582609,
            37.81754
          ]
        ]
      }
    },
    {
      "type": "Feature",
      "properties": {
        "waypointId": "WP-0001",
        "routeId": "RTE-0001",
        "name": "Skybridge Arch",
        "type": "Landmark",
        "description": "Natural arch landmark along the route."
      },
      "geometry": {
        "type": "Point",
        "coordinates": [
          -83.57903,
          37.81886
        ]
      }
    },
    {
      "type": "Feature",
      "properties": {
        "waypointId": "WP-0002",
        "routeId": "RTE-0001",
        "name": "Turnaround Overlook",
        "type": "Viewpoint",
        "description": "Scenic overlook at the route turnaround."
      },
      "geometry": {
        "type": "Point",
        "coordinates": [
          -83.57684,
          37.81913
        ]
      }
    }
  ]
}
