{"type":"FeatureCollection","features":[{"type":"Feature","properties":{"osm_id":16216478,"highway":"residential","name":"Brushy Ridge Road","alt_name":null,"official_name":null,"surface":"asphalt","tracktype":null,"service":null,"access":null,"motor_vehicle":null,"foot":null,"tiger_reviewed":"no","rrgh_part":0,"rrgh_tile_part":0},"geometry":{"type":"LineString","coordinates":[[-83.8799195,37.4545237],[-83.8801122,37.4543426],[-83.880194,37.4542381],[-83.880245,37.4541212],[-83.8804084,37.4537794],[-83.8805687,37.4535795],[-83.8809421,37.4532483],[-83.880988,37.453214],[-83.881258,37.453112],[-83.881405,37.453045],[-83.881537,37.452974],[-83.881765,37.452815],[-83.881852,37.452733],[-83.881887,37.452678],[-83.881908,37.452619],[-83.881931,37.452485],[-83.881972,37.452185],[-83.881982,37.452052],[-83.881984,37.451941],[-83.881973,37.451813],[-83.881956,37.4517],[-83.881852,37.451384],[-83.881828,37.451265],[-83.8818234,37.451068],[-83.8818333,37.4509569],[-83.8818518,37.4508927],[-83.8818815,37.4508155],[-83.882373,37.450277],[-83.88265554,37.45]]}},{"type":"Feature","properties":{"osm_id":16216478,"highway":"residential","name":"Brushy Ridge Road","alt_name":null,"official_name":null,"surface":"asphalt","tracktype":null,"service":null,"access":null,"motor_vehicle":null,"foot":null,"tiger_reviewed":"no","rrgh_part":1,"rrgh_tile_part":0},"geometry":{"type":"LineString","coordinates":[[-83.89147125000001,37.45],[-83.891536,37.450042],[-83.891603,37.450103],[-83.891709,37.450256],[-83.891796,37.450425],[-83.891864,37.450595],[-83.891903,37.450789],[-83.891933,37.450971],[-83.891993,37.451669],[-83.891994,37.451799],[-83.891986,37.452053],[-83.891991,37.452174],[-83.892003,37.452287],[-83.89215,37.453015],[-83.892164,37.453051],[-83.892188,37.453084],[-83.89222,37.453107],[-83.892255,37.453119],[-83.892301,37.453125],[-83.892358,37.453126]]}},{"type":"Feature","properties":{"osm_id":16212805,"highway":"residential","name":"Turkey Foot Road","alt_name":null,"official_name":null,"surface":"gravel","tracktype":null,"service":null,"access":null,"motor_vehicle":null,"foot":null,"tiger_reviewed":"no","rrgh_part":0,"rrgh_tile_part":0},"geometry":{"type":"LineString","coordinates":[[-83.9180258,37.4640616],[-83.9180822,37.4641134],[-83.91836,37.464335],[-83.918731,37.464643],[-83.918917,37.46476],[-83.919183,37.464915],[-83.919361,37.465003],[-83.919526,37.465068],[-83.919681,37.465106],[-83.919842,37.465132],[-83.920526,37.465193],[-83.921371,37.465339],[-83.921999,37.46543],[-83.92218,37.465463],[-83.922503,37.465503],[-83.922729,37.465516],[-83.923007,37.4655],[-83.92337,37.465454],[-83.923825,37.465354],[-83.924044,37.465286],[-83.924569,37.465053],[-83.924773,37.464937],[-83.924905,37.464836],[-83.924975,37.464803],[-83.925069,37.464774],[-83.925576,37.464658],[-83.925803,37.464611],[-83.926238,37.464548],[-83.926845,37.464515],[-83.927459,37.464535],[-83.927751,37.464521],[-83.927857,37.464507],[-83.927963,37.46448],[-83.928055,37.464438],[-83.928132,37.464375],[-83.928582,37.463961],[-83.928865,37.463723],[-83.929238,37.46345],[-83.929408,37.463341],[-83.929845,37.46311],[-83.93,37.46303938888889]]}},{"type":"Feature","properties":{"osm_id":16216774,"highway":"residential","name":"Lime Kiln Ridge Road","alt_name":"Forest Road 376","official_name":null,"surface":null,"tracktype":null,"service":null,"access":null,"motor_vehicle":null,"foot":null,"tiger_reviewed":"no","rrgh_part":0,"rrgh_tile_part":0},"geometry":{"type":"LineString","coordinates":[[-83.929648,37.474931],[-83.929691,37.474948],[-83.929748,37.474988],[-83.93,37.47519488888889]]}},{"type":"Feature","properties":{"osm_id":16211921,"highway":"residential","name":"Steer Fork","alt_name":null,"official_name":null,"surface":"gravel","tracktype":null,"service":null,"access":null,"motor_vehicle":null,"foot":null,"tiger_reviewed":"no","rrgh_part":0,"rrgh_tile_part":0},"geometry":{"type":"LineString","coordinates":[[-83.917125,37.462945],[-83.917661,37.462933],[-83.917919,37.462899],[-83.918047,37.46287],[-83.918389,37.462755],[-83.91852,37.462701],[-83.918626,37.462638],[-83.918685,37.462597],[-83.918749,37.462536],[-83.918782,37.46247],[-83.91879,37.462431],[-83.918785,37.462392],[-83.918766,37.462351],[-83.918678,37.462219],[-83.918652,37.462167],[-83.918635,37.462109],[-83.918626,37.462034],[-83.918636,37.461975],[-83.918669,37.461909],[-83.918726,37.461839],[-83.918799,37.461775],[-83.919626,37.461226],[-83.920183,37.460896],[-83.92055,37.460704],[-83.92088,37.460446],[-83.9211576,37.4601134],[-83.9214172,37.4598955],[-83.9219386,37.4596597],[-83.922915,37.4593539],[-83.9237687,37.4590246],[-83.9245963,37.4586165],[-83.9250841,37.4583087],[-83.9252901,37.4578696],[-83.925461,37.4574032],[-83.9257355,37.4572099],[-83.9261184,37.4569867],[-83.9263429,37.4567196],[-83.9264666,37.4564636],[-83.9264708,37.4559732],[-83.9265393,37.4556044],[-83.9266701,37.4554354],[-83.9267811,37.4553443],[-83.9271026,37.4550804],[-83.9272503,37.454733],[-83.9275905,37.4545368],[-83.927829,37.4543379],[-83.9282269,37.4541686],[-83.9286351,37.4540783]]}},{"type":"Feature","properties":{"osm_id":16213351,"highway":"residential","name":"Big Buck Lick","alt_name":"Forest Road 345;CR 1001","official_name":null,"surface":"gravel","tracktype":null,"service":null,"access":null,"motor_vehicle":null,"foot":null,"tiger_reviewed":"no","rrgh_part":0,"rrgh_tile_part":0},"geometry":{"type":"LineString","coordinates":[[-83.9180822,37.4641134],[-83.9179383,37.4641477],[-83.917719,37.464118],[-83.917644,37.464122],[-83.917593,37.464131],[-83.917526,37.464165],[-83.917398,37.464264],[-83.917355,37.464304],[-83.917303,37.464362],[-83.917255,37.464429],[-83.916919,37.465097],[-83.916795,37.465314],[-83.91678,37.465358],[-83.916769,37.465413],[-83.916764,37.465471],[-83.916766,37.465535],[-83.916779,37.465625],[-83.9168,37.465686],[-83.916833,37.465747],[-83.916892,37.465825],[-83.917015,37.465929],[-83.9172026,37.4660199],[-83.917355,37.46611],[-83.9175741,37.4662242],[-83.917662,37.466273],[-83.917699,37.46631],[-83.917727,37.466352],[-83.917739,37.466379],[-83.917767,37.46645],[-83.917782,37.466513],[-83.917789,37.466554],[-83.917811,37.466804],[-83.917831,37.467284],[-83.917952,37.468382],[-83.917952,37.468499],[-83.917939,37.468619],[-83.917915,37.468726],[-83.917878,37.468839],[-83.917811,37.469004],[-83.917754,37.469114],[-83.917622,37.469326],[-83.917577,37.469384],[-83.917466,37.469496],[-83.916856,37.469901],[-83.916676,37.470036],[-83.916569,37.470134],[-83.916472,37.470243],[-83.916374,37.470375],[-83.916286,37.470537],[-83.916119,37.470922],[-83.916067,37.471007],[-83.916018,37.471067],[-83.915953,37.471134],[-83.915871,37.471207],[-83.915794,37.471262],[-83.915568,37.471401],[-83.915299,37.471537],[-83.914923,37.471705],[-83.91471,37.471781],[-83.91447,37.471852],[-83.914304,37.47189],[-83.914145,37.471913],[-83.913952,37.471923],[-83.913791,37.471922],[-83.913351,37.471884],[-83.912914,37.471863],[-83.912695,37.471866],[-83.912616,37.471871],[-83.912537,37.471881],[-83.912452,37.471899],[-83.912372,37.471922],[-83.912104,37.472023],[-83.911921,37.472112],[-83.911753,37.472206],[-83.911588,37.472308],[-83.911482,37.472398],[-83.911323,37.472588],[-83.911154,37.472867],[-83.911051,37.473075],[-83.910954,37.473302],[-83.910872,37.473554],[-83.910828,37.473734],[-83.910786,37.474036],[-83.910785,37.47421],[-83.910822,37.474715],[-83.910873,37.475052],[-83.910919,37.47525],[-83.910947,37.475313],[-83.910966,37.475341],[-83.910991,37.475367],[-83.911042,37.475408],[-83.911073,37.475426],[-83.91111,37.475441],[-83.91115,37.475452],[-83.911286,37.475469],[-83.911534,37.475487],[-83.912098,37.475505],[-83.912291,37.475524],[-83.912425,37.475545],[-83.912563,37.475572],[-83.912676,37.475605],[-83.912792,37.475646],[-83.913377,37.47591],[-83.913608,37.475993],[-83.913926,37.476087],[-83.914368,37.476189],[-83.915321,37.476367],[-83.916289,37.476609],[-83.916769,37.476701],[-83.917612,37.476873],[-83.917951,37.476917],[-83.918071,37.476947],[-83.91819,37.477],[-83.918223,37.477021],[-83.918246,37.477041],[-83.918283,37.477102],[-83.918306,37.477177],[-83.918306,37.477228],[-83.918297,37.477268],[-83.918282,37.477307],[-83.918258,37.477338],[-83.9182334,37.4773599],[-83.918194,37.477382],[-83.918112,37.477404],[-83.918031,37.477405],[-83.9178905,37.4773878],[-83.917819,37.477379],[-83.917734,37.477373],[-83.917498,37.477377],[-83.917443,37.477384],[-83.917346,37.477406],[-83.917142,37.477472],[-83.916728,37.477627],[-83.916329,37.47782],[-83.916089,37.477966],[-83.915862,37.478117],[-83.915781,37.478181],[-83.915097,37.478779],[-83.914819,37.478976],[-83.91437,37.479257],[-83.914169,37.479403],[-83.91392,37.479607],[-83.913644,37.479892],[-83.913261,37.480381],[-83.913165,37.48049],[-83.91299,37.480665],[-83.91274,37.480884],[-83.911757,37.48198],[-83.911287,37.482445],[-83.911135,37.482608],[-83.910745,37.483107],[-83.910436,37.483456],[-83.910274,37.48359],[-83.909788,37.483859],[-83.909373,37.484127],[-83.909103,37.484369],[-83.90898,37.484505],[-83.908879,37.484647],[-83.90882,37.4847574],[-83.908797,37.48485],[-83.908797,37.484901],[-83.908806,37.484943],[-83.908824,37.484988],[-83.9088532,37.4850438],[-83.908908,37.4851],[-83.908949,37.48513],[-83.909011,37.485168],[-83.909085,37.4852],[-83.909197,37.48524],[-83.909556,37.485325],[-83.909745,37.485354],[-83.910661,37.4854353],[-83.911352,37.485511],[-83.911433,37.485516],[-83.911568,37.48551],[-83.911706,37.485482],[-83.911779,37.485454],[-83.912229,37.485227],[-83.912298,37.485186],[-83.912361,37.485132],[-83.912429,37.485063],[-83.912487,37.484981],[-83.912643,37.484689],[-83.912668,37.484653],[-83.9127,37.484617],[-83.912746,37.484578],[-83.91282,37.484538],[-83.912854,37.484526],[-83.9129,37.484517],[-83.912963,37.484511],[-83.912999,37.484512],[-83.913034,37.484518],[-83.913068,37.484532],[-83.913151,37.484591],[-83.913191,37.48463],[-83.913449,37.484918],[-83.91348,37.484943],[-83.91354,37.484977],[-83.913574,37.484988],[-83.913648,37.484994],[-83.913686,37.48499],[-83.913739,37.484978],[-83.913954,37.484905],[-83.914357,37.484787],[-83.914498,37.48476],[-83.914652,37.48475],[-83.916147,37.484762],[-83.916449,37.48478],[-83.91661,37.484808],[-83.916819,37.484869],[-83.916915,37.484907],[-83.917013,37.484963],[-83.917089,37.485012],[-83.917272,37.485176],[-83.917433,37.485378],[-83.917516,37.485451],[-83.917604,37.485513],[-83.917722,37.485584],[-83.918399,37.485895],[-83.919,37.486132],[-83.919356,37.486239],[-83.91956,37.486287],[-83.919792,37.486309],[-83.920047,37.486317],[-83.920261,37.4863],[-83.920584,37.486252],[-83.920754,37.486223],[-83.920909,37.486182],[-83.921372,37.486029],[-83.921496,37.486002],[-83.921624,37.485989],[-83.921752,37.48599],[-83.921873,37.485999],[-83.92202,37.486018],[-83.922206,37.486056],[-83.922444,37.486135],[-83.922896,37.486309],[-83.923943,37.486776],[-83.924073,37.48682],[-83.924203,37.486844],[-83.924295,37.486851],[-83.924396,37.48684],[-83.924487,37.486825],[-83.924749,37.486762],[-83.924902,37.486733],[-83.925059,37.486713],[-83.925281,37.4867],[-83.925761,37.486719],[-83.926029,37.486741],[-83.926177,37.486759],[-83.926339,37.486784],[-83.926547,37.486834],[-83.927329,37.48704],[-83.927975,37.48723],[-83.928257,37.487298],[-83.928986,37.487506],[-83.929208,37.487583],[-83.929527,37.487709],[-83.929649,37.487766],[-83.93,37.48794985714286]]}},{"type":"Feature","properties":{"osm_id":16213351,"highway":"residential","name":"Big Buck Lick","alt_name":"Forest Road 345;CR 1001","official_name":null,"surface":"gravel","tracktype":null,"service":null,"access":null,"motor_vehicle":null,"foot":null,"tiger_reviewed":"no","rrgh_part":1,"rrgh_tile_part":0},"geometry":{"type":"LineString","coordinates":[[-83.93,37.49067502290077],[-83.929677,37.490569],[-83.929602,37.490529],[-83.92956,37.490492],[-83.929431,37.490299],[-83.929388,37.490264],[-83.929342,37.490244],[-83.929317,37.490237],[-83.929268,37.490238],[-83.929199,37.490259],[-83.929154,37.490285],[-83.929129,37.490304],[-83.92907,37.490361],[-83.928693,37.490886],[-83.928628,37.490986],[-83.928579,37.491091],[-83.928454,37.491403],[-83.928394,37.491492],[-83.928352,37.491537],[-83.928255,37.491617],[-83.928206,37.491649],[-83.927894,37.491826],[-83.92783,37.491867],[-83.92775,37.49194],[-83.927462,37.492303],[-83.92743,37.492357],[-83.927352,37.492536],[-83.927126,37.493093],[-83.9270519,37.493184],[-83.926937,37.4932791],[-83.926884,37.4933151],[-83.926828,37.4933471],[-83.926776,37.4933711],[-83.926457,37.4934771],[-83.926397,37.4934941],[-83.926186,37.4935361],[-83.926111,37.4935621],[-83.926069,37.4935831],[-83.926032,37.4936101],[-83.9259888,37.4936543],[-83.9259111,37.493844],[-83.925821,37.494104],[-83.925799,37.494262],[-83.925796,37.49432],[-83.925801,37.494378],[-83.925825,37.494466],[-83.9259164,37.4945374],[-83.9259914,37.4945894],[-83.9260304,37.4946104],[-83.9260764,37.4946264],[-83.9261274,37.4946384],[-83.9261894,37.4946464],[-83.9262844,37.4946474],[-83.9263794,37.4946384],[-83.9264484,37.4946214],[-83.9265374,37.4945904],[-83.926886,37.494398],[-83.92695,37.49437],[-83.927183,37.494348],[-83.927229,37.494336],[-83.927569,37.494166],[-83.927984,37.493927],[-83.928117,37.493863],[-83.92823,37.493822],[-83.928382,37.493787],[-83.928513,37.493773],[-83.928601,37.493768],[-83.929176,37.493775],[-83.929244,37.493783],[-83.929523,37.4938386],[-83.929595,37.493853],[-83.929698,37.493858],[-83.929765,37.493856],[-83.93,37.493833646341464]]}},{"type":"Feature","properties":{"osm_id":1390277690,"highway":"residential","name":"Turkey Foot Road","alt_name":null,"official_name":null,"surface":"gravel","tracktype":null,"service":null,"access":null,"motor_vehicle":null,"foot":null,"tiger_reviewed":"no","rrgh_part":0,"rrgh_tile_part":0},"geometry":{"type":"LineString","coordinates":[[-83.909205,37.459598],[-83.909366,37.459643],[-83.909723,37.459725],[-83.909934,37.459762],[-83.910231,37.459795],[-83.910704,37.459831],[-83.910837,37.459852],[-83.911219,37.459974],[-83.911512,37.460044],[-83.911709,37.460063],[-83.912081,37.460072],[-83.912233,37.460091],[-83.912457,37.460134],[-83.912665,37.460202],[-83.912968,37.460361],[-83.913286,37.460594],[-83.913544,37.460798],[-83.913681,37.460882],[-83.913803,37.460932],[-83.91501,37.461369],[-83.915351,37.461505],[-83.915692,37.461658],[-83.915946,37.461815],[-83.916176,37.461979],[-83.916433,37.462189],[-83.916853,37.462614],[-83.917125,37.462945],[-83.917568,37.4635],[-83.9179341,37.4639417]]}},{"type":"Feature","properties":{"osm_id":16211270,"highway":"service","name":null,"alt_name":null,"official_name":null,"surface":null,"tracktype":null,"service":null,"access":null,"motor_vehicle":null,"foot":null,"tiger_reviewed":"no","rrgh_part":0,"rrgh_tile_part":0},"geometry":{"type":"LineString","coordinates":[[-83.929648,37.474931],[-83.9294608,37.4749117],[-83.9290018,37.475149],[-83.9280506,37.4754515],[-83.9277909,37.4755053],[-83.9273073,37.4755236]]}},{"type":"Feature","properties":{"osm_id":1163652422,"highway":"residential","name":"Turkey Foot","alt_name":null,"official_name":null,"surface":"gravel","tracktype":null,"service":null,"access":null,"motor_vehicle":null,"foot":null,"tiger_reviewed":"no","rrgh_part":0,"rrgh_tile_part":0},"geometry":{"type":"LineString","coordinates":[[-83.9175741,37.4662242],[-83.9175521,37.466296],[-83.9174785,37.4664448]]}},{"type":"Feature","properties":{"osm_id":1163652423,"highway":"residential","name":"Turkey Foot","alt_name":null,"official_name":null,"surface":null,"tracktype":null,"service":null,"access":null,"motor_vehicle":null,"foot":null,"tiger_reviewed":"no","rrgh_part":0,"rrgh_tile_part":0},"geometry":{"type":"LineString","coordinates":[[-83.9174785,37.4664448],[-83.9173795,37.4666243]]}},{"type":"Feature","properties":{"osm_id":1163659453,"highway":"residential","name":"Turkey Foot","alt_name":null,"official_name":null,"surface":"gravel","tracktype":null,"service":null,"access":null,"motor_vehicle":null,"foot":null,"tiger_reviewed":null,"rrgh_part":0,"rrgh_tile_part":0},"geometry":{"type":"LineString","coordinates":[[-83.9170312,37.4672237],[-83.9172517,37.4670406]]}},{"type":"Feature","properties":{"osm_id":1163659454,"highway":"residential","name":"Turkey Foot","alt_name":null,"official_name":null,"surface":"gravel","tracktype":null,"service":null,"access":null,"motor_vehicle":null,"foot":null,"tiger_reviewed":"no","rrgh_part":0,"rrgh_tile_part":0},"geometry":{"type":"LineString","coordinates":[[-83.9173795,37.4666243],[-83.9173616,37.4666572],[-83.9173468,37.4666901],[-83.9173253,37.4667839],[-83.9173073,37.4668455],[-83.9172663,37.4669552],[-83.9172517,37.4670406],[-83.9172085,37.4672932]]}},{"type":"Feature","properties":{"osm_id":1163659458,"highway":"residential","name":"Turkey Foot Road","alt_name":null,"official_name":null,"surface":null,"tracktype":null,"service":null,"access":null,"motor_vehicle":null,"foot":null,"tiger_reviewed":"no","rrgh_part":0,"rrgh_tile_part":0},"geometry":{"type":"LineString","coordinates":[[-83.9179341,37.4639417],[-83.9180258,37.4640616]]}},{"type":"Feature","properties":{"osm_id":16216324,"highway":"residential","name":"Turkey Foot","alt_name":null,"official_name":null,"surface":"gravel","tracktype":null,"service":null,"access":null,"motor_vehicle":null,"foot":null,"tiger_reviewed":"no","rrgh_part":0,"rrgh_tile_part":0},"geometry":{"type":"LineString","coordinates":[[-83.9172085,37.4672932],[-83.9172065,37.4673399],[-83.9171799,37.4675752],[-83.9171269,37.4679199],[-83.917017,37.468157],[-83.916986,37.468213],[-83.916947,37.468263],[-83.91665,37.468551],[-83.916491,37.468719],[-83.916196,37.46909],[-83.915385,37.470047],[-83.915194,37.470291],[-83.914962,37.470548],[-83.91492,37.470588],[-83.914882,37.470615],[-83.914808,37.47065],[-83.914729,37.47067],[-83.914692,37.470673],[-83.914662,37.470669],[-83.914635,37.47066],[-83.914618,37.470648],[-83.914598,37.47061],[-83.914594,37.470581],[-83.914603,37.470538],[-83.914686,37.470366],[-83.914694,37.470325],[-83.91469,37.470302],[-83.914662,37.470266],[-83.914615,37.470239],[-83.914539,37.470218],[-83.914435,37.470204],[-83.914327,37.470196],[-83.914208,37.470199],[-83.914159,37.470206],[-83.914118,37.470217],[-83.914035,37.470251],[-83.91401,37.470258],[-83.913985,37.470258],[-83.913927,37.470245],[-83.913871,37.470216],[-83.913839,37.470185],[-83.913828,37.470168],[-83.913821,37.470131],[-83.913829,37.47009],[-83.913868,37.47005],[-83.914066,37.469962],[-83.914284,37.469849],[-83.914828,37.469538],[-83.915191,37.469303],[-83.91537,37.469171],[-83.915728,37.468869],[-83.9158,37.468791],[-83.915861,37.468703],[-83.915904,37.468626],[-83.915945,37.468541],[-83.916006,37.468363],[-83.91605,37.468144],[-83.916101,37.467994],[-83.916185,37.467833],[-83.916233,37.467769],[-83.916283,37.467722],[-83.916476,37.467587],[-83.9165696,37.4675277],[-83.916746,37.467416],[-83.9168864,37.4672658],[-83.9170312,37.4672237],[-83.9171166,37.4672473],[-83.9172085,37.4672932]]}},{"type":"Feature","properties":{"osm_id":1163659457,"highway":"residential","name":"Turkey Foot Road","alt_name":null,"official_name":null,"surface":"gravel","tracktype":null,"service":null,"access":null,"motor_vehicle":null,"foot":null,"tiger_reviewed":"no","rrgh_part":0,"rrgh_tile_part":0},"geometry":{"type":"LineString","coordinates":[[-83.895727,37.45717],[-83.895864,37.457024],[-83.896485,37.456238],[-83.897001,37.455479],[-83.897161,37.455205],[-83.897278,37.454883],[-83.897372,37.454673],[-83.897719,37.454127],[-83.897972,37.453686],[-83.898123,37.453496],[-83.898208,37.453431],[-83.898288,37.453397],[-83.898372,37.453375],[-83.898464,37.453361],[-83.898554,37.45336],[-83.898837,37.453375],[-83.899046,37.453397],[-83.899329,37.453454],[-83.899506,37.453508],[-83.899796,37.45362],[-83.899955,37.453668],[-83.900125,37.4537],[-83.900373,37.453732],[-83.900873,37.45377],[-83.901376,37.453837],[-83.901486,37.453861],[-83.901589,37.45389],[-83.90168,37.453928],[-83.901757,37.453976],[-83.90183,37.454031],[-83.901885,37.454089],[-83.902149,37.454465],[-83.902186,37.454504],[-83.902252,37.454552],[-83.902635,37.454752],[-83.902739,37.45482],[-83.903077,37.455079],[-83.904064,37.456037],[-83.90421,37.456167],[-83.904525,37.456423],[-83.904781,37.456606],[-83.905326,37.456954],[-83.905699,37.457243],[-83.906219,37.457681],[-83.906548,37.45797],[-83.906944,37.45838],[-83.907253,37.45866],[-83.907522,37.45885],[-83.90799,37.459126],[-83.908304,37.459292],[-83.908584,37.459396],[-83.9090057,37.4595373]]}},{"type":"Feature","properties":{"osm_id":1390277691,"highway":"residential","name":"Turkey Foot Road","alt_name":null,"official_name":null,"surface":"gravel","tracktype":null,"service":null,"access":null,"motor_vehicle":null,"foot":null,"tiger_reviewed":"no","rrgh_part":0,"rrgh_tile_part":0},"geometry":{"type":"LineString","coordinates":[[-83.9090057,37.4595373],[-83.909205,37.459598]]}},{"type":"Feature","properties":{"osm_id":16214427,"highway":"residential","name":"Turkey Foot Forest Road","alt_name":null,"official_name":null,"surface":null,"tracktype":null,"service":null,"access":null,"motor_vehicle":null,"foot":null,"tiger_reviewed":"no","rrgh_part":0,"rrgh_tile_part":0},"geometry":{"type":"LineString","coordinates":[[-83.894188,37.458287],[-83.894084,37.458315],[-83.893967,37.458338],[-83.893755,37.458365],[-83.893591,37.458374],[-83.893528,37.458373]]}},{"type":"Feature","properties":{"osm_id":1390277687,"highway":"residential","name":"Turkey Foot Road","alt_name":null,"official_name":null,"surface":null,"tracktype":null,"service":null,"access":null,"motor_vehicle":null,"foot":null,"tiger_reviewed":"no","rrgh_part":0,"rrgh_tile_part":0},"geometry":{"type":"LineString","coordinates":[[-83.893862,37.458777],[-83.894027,37.458475],[-83.894121,37.458353],[-83.894188,37.458287],[-83.895506,37.457366],[-83.8956027,37.4572954],[-83.895727,37.45717]]}},{"type":"Feature","properties":{"osm_id":16215271,"highway":"residential","name":"New Zion Post Office Road","alt_name":null,"official_name":null,"surface":null,"tracktype":null,"service":null,"access":null,"motor_vehicle":null,"foot":null,"tiger_reviewed":"no","rrgh_part":0,"rrgh_tile_part":0},"geometry":{"type":"LineString","coordinates":[[-83.900058,37.472338],[-83.900153,37.472429],[-83.900423,37.472628],[-83.900768,37.472844],[-83.90088,37.472927],[-83.900991,37.473037],[-83.901088,37.473174],[-83.901206,37.473421],[-83.901236,37.473506],[-83.901265,37.473685],[-83.90126,37.473777],[-83.901238,37.473871],[-83.901112,37.474145],[-83.90091,37.474476],[-83.900638,37.474809],[-83.900525,37.474925],[-83.9004522,37.474981],[-83.900399,37.475022],[-83.900343,37.475076],[-83.900254,37.475188],[-83.9002219,37.475215],[-83.900074,37.475339],[-83.900017,37.475399],[-83.899735,37.475724],[-83.898784,37.476752],[-83.898704,37.476832],[-83.898534,37.476964],[-83.897954,37.477269],[-83.897688,37.477461],[-83.897521,37.477601],[-83.897211,37.477912],[-83.897088,37.478073],[-83.896778,37.478516],[-83.896651,37.478666]]}},{"type":"Feature","properties":{"osm_id":16217329,"highway":"residential","name":"New Zion Post Office Road","alt_name":null,"official_name":null,"surface":null,"tracktype":null,"service":null,"access":null,"motor_vehicle":null,"foot":null,"tiger_reviewed":"no","rrgh_part":0,"rrgh_tile_part":0},"geometry":{"type":"LineString","coordinates":[[-83.896305,37.47142],[-83.896521,37.471543],[-83.896848,37.471711],[-83.896975,37.471766],[-83.89711,37.471807],[-83.8971272,37.4718095],[-83.897247,37.471827],[-83.8973375,37.471832],[-83.897576,37.471845],[-83.8978942,37.4718384],[-83.898346,37.471829],[-83.89868,37.471835],[-83.899082,37.47186],[-83.899232,37.471879],[-83.899379,37.471907],[-83.89949,37.47194],[-83.899614,37.471997],[-83.899739,37.472069],[-83.899892,37.472184],[-83.900058,37.472338]]}},{"type":"Feature","properties":{"osm_id":16217338,"highway":"residential","name":"Brewer Fee Road","alt_name":null,"official_name":null,"surface":null,"tracktype":null,"service":null,"access":null,"motor_vehicle":null,"foot":null,"tiger_reviewed":"no","rrgh_part":0,"rrgh_tile_part":0},"geometry":{"type":"LineString","coordinates":[[-83.906062,37.470087],[-83.906101,37.470036],[-83.906123,37.469988],[-83.906128,37.469966],[-83.906138,37.469819],[-83.90614,37.469621],[-83.906136,37.469574],[-83.906123,37.469525],[-83.906105,37.46948],[-83.90607,37.469435],[-83.906028,37.469393],[-83.905979,37.469358],[-83.905921,37.469325],[-83.90586,37.469301],[-83.90579,37.46928],[-83.905726,37.469268],[-83.905653,37.469262],[-83.905585,37.469264],[-83.905513,37.469271],[-83.905192,37.469316],[-83.905083,37.469325],[-83.90475,37.469319],[-83.904488,37.469333],[-83.904352,37.469329]]}},{"type":"Feature","properties":{"osm_id":16217950,"highway":"residential","name":"Atlas Road","alt_name":null,"official_name":null,"surface":null,"tracktype":null,"service":null,"access":null,"motor_vehicle":null,"foot":null,"tiger_reviewed":"no","rrgh_part":0,"rrgh_tile_part":0},"geometry":{"type":"LineString","coordinates":[[-83.900433,37.472072],[-83.90052,37.471964],[-83.900632,37.471858],[-83.900756,37.471762],[-83.901064,37.471553],[-83.901322,37.471422],[-83.901908,37.471199],[-83.902106,37.471084],[-83.902337,37.47092],[-83.902556,37.470804],[-83.902837,37.470679],[-83.903604,37.470396],[-83.904161,37.470227],[-83.904644,37.470116],[-83.905036,37.470049],[-83.905287,37.470022],[-83.905638,37.470025],[-83.905934,37.470052],[-83.906062,37.470087]]}},{"type":"Feature","properties":{"osm_id":16217975,"highway":"residential","name":"Brewer Fee Road","alt_name":null,"official_name":null,"surface":null,"tracktype":null,"service":null,"access":null,"motor_vehicle":null,"foot":null,"tiger_reviewed":"no","rrgh_part":0,"rrgh_tile_part":0},"geometry":{"type":"LineString","coordinates":[[-83.900058,37.472338],[-83.900433,37.472072],[-83.900673,37.471925],[-83.900757,37.471884],[-83.900836,37.471854],[-83.900971,37.471822],[-83.901043,37.471817],[-83.901115,37.471823],[-83.901184,37.471839],[-83.901254,37.471865],[-83.901306,37.471893],[-83.901361,37.47193],[-83.901404,37.471967],[-83.901599,37.472185],[-83.901917,37.472496],[-83.901982,37.472539],[-83.902059,37.472579],[-83.90215,37.472615],[-83.90224,37.47264],[-83.902327,37.472659],[-83.902477,37.47268],[-83.902633,37.472686],[-83.902767,37.472681],[-83.902931,37.472666],[-83.903196,37.472631],[-83.903583,37.47256],[-83.903698,37.472526],[-83.903756,37.4725],[-83.903821,37.472463],[-83.903879,37.47242],[-83.903926,37.472376],[-83.903969,37.472327],[-83.904028,37.47223],[-83.904047,37.472184],[-83.904059,37.472122],[-83.904056,37.472064],[-83.904039,37.472011],[-83.904015,37.471961],[-83.903983,37.471912],[-83.9037,37.471592],[-83.903663,37.471533],[-83.903642,37.471474],[-83.903641,37.471417],[-83.903646,37.471388],[-83.903721,37.471227],[-83.903774,37.471144],[-83.903817,37.47109],[-83.903873,37.471034],[-83.904031,37.470917],[-83.904134,37.470848],[-83.904521,37.470607],[-83.905074,37.4704],[-83.905391,37.470267],[-83.905561,37.470219],[-83.90598,37.470139],[-83.906026,37.470118],[-83.906062,37.470087]]}},{"type":"Feature","properties":{"osm_id":1390277692,"highway":"track","name":null,"alt_name":null,"official_name":null,"surface":null,"tracktype":null,"service":null,"access":null,"motor_vehicle":null,"foot":null,"tiger_reviewed":null,"rrgh_part":0,"rrgh_tile_part":0},"geometry":{"type":"LineString","coordinates":[[-83.9112099,37.463874],[-83.9107127,37.4640666],[-83.9102083,37.4642999],[-83.9098885,37.4647018],[-83.9095424,37.4648678],[-83.9093326,37.4651163],[-83.9089932,37.4653394],[-83.908908,37.4655529],[-83.908194,37.4657758],[-83.9076363,37.4656867],[-83.9072139,37.4655378],[-83.9064109,37.4653599],[-83.9057086,37.4654722],[-83.9054487,37.4657944],[-83.9054651,37.4660702],[-83.9053351,37.4661852],[-83.905325,37.4664338],[-83.905465,37.4666408],[-83.905459,37.4668816],[-83.905261,37.4671096],[-83.9048635,37.4673182],[-83.9046128,37.4675228],[-83.9045279,37.4677365],[-83.9048258,37.4679637],[-83.9051664,37.4682374],[-83.9055746,37.4683605],[-83.9059744,37.4686719],[-83.9063142,37.4690697],[-83.9064256,37.4694631],[-83.9063627,37.4697787],[-83.9062048,37.4700132],[-83.906062,37.470087]]}},{"type":"Feature","properties":{"osm_id":16209931,"highway":"residential","name":"Flannery Road","alt_name":null,"official_name":null,"surface":null,"tracktype":null,"service":null,"access":null,"motor_vehicle":null,"foot":null,"tiger_reviewed":"no","rrgh_part":0,"rrgh_tile_part":0},"geometry":{"type":"LineString","coordinates":[[-83.893162,37.471923],[-83.893109,37.471859],[-83.89308,37.4718],[-83.893069,37.471756],[-83.893068,37.471715],[-83.893075,37.471688],[-83.893111,37.471637],[-83.893165,37.471584],[-83.893331,37.471471],[-83.893372,37.471434],[-83.893413,37.471389],[-83.89345,37.471324],[-83.893464,37.471258],[-83.893403,37.470901],[-83.893354,37.470728],[-83.893331,37.470709],[-83.893307,37.470701],[-83.893283,37.470698],[-83.89326,37.470699],[-83.89322,37.47071],[-83.893006,37.470818],[-83.892982,37.470817],[-83.892942,37.470793],[-83.892928,37.470756],[-83.892942,37.470548],[-83.892922,37.470457],[-83.892904,37.470414],[-83.892838,37.470299],[-83.892762,37.470201],[-83.892501,37.469973],[-83.892432,37.469907],[-83.892405,37.469865],[-83.892381,37.46978],[-83.892365,37.469616],[-83.892339,37.469547],[-83.892316,37.46951],[-83.892219,37.469394],[-83.892058,37.46924],[-83.891858,37.469015],[-83.891493,37.468713],[-83.891373,37.468633]]}},{"type":"Feature","properties":{"osm_id":16216258,"highway":"service","name":"Big Wild Dog Road","alt_name":null,"official_name":null,"surface":null,"tracktype":null,"service":null,"access":null,"motor_vehicle":null,"foot":null,"tiger_reviewed":"no","rrgh_part":0,"rrgh_tile_part":0},"geometry":{"type":"LineString","coordinates":[[-83.896777,37.471844],[-83.896493,37.471841],[-83.896429,37.471832],[-83.896382,37.471812],[-83.8963055,37.4717639],[-83.896269,37.471741],[-83.896175,37.471697],[-83.896032,37.471643],[-83.895954,37.471624],[-83.895698,37.471586],[-83.89541,37.471557],[-83.89525,37.47155],[-83.895101,37.471549],[-83.894891,37.471566],[-83.89365,37.471765],[-83.893517,37.471795],[-83.893417,37.471823],[-83.893305,37.47186],[-83.893162,37.471923],[-83.893054,37.471981],[-83.89291,37.47207],[-83.89248,37.472398],[-83.89221,37.472626],[-83.89182,37.473008],[-83.891581,37.473282],[-83.89133,37.473593],[-83.89111,37.473837],[-83.890389,37.474499],[-83.890207,37.474644],[-83.889863,37.474902],[-83.889715,37.474985],[-83.889582,37.475047],[-83.88944,37.475097],[-83.889196,37.475168],[-83.889089,37.475206],[-83.888969,37.475256],[-83.888755,37.475353],[-83.888615,37.47543],[-83.88852,37.475505],[-83.888412,37.475608],[-83.888343,37.475686],[-83.888291,37.475764],[-83.888244,37.47586],[-83.888135,37.476105],[-83.887965,37.476339],[-83.88792,37.476425],[-83.887875,37.476479],[-83.887828,37.476526],[-83.887668,37.476635],[-83.887579,37.47668],[-83.8867742,37.4769592],[-83.8854733,37.4771512],[-83.8847196,37.477217],[-83.884592,37.4772323],[-83.8843198,37.4772649],[-83.8839836,37.4773682]]}},{"type":"Feature","properties":{"osm_id":968559248,"highway":"service","name":null,"alt_name":null,"official_name":null,"surface":null,"tracktype":null,"service":null,"access":null,"motor_vehicle":null,"foot":null,"tiger_reviewed":null,"rrgh_part":0,"rrgh_tile_part":0},"geometry":{"type":"LineString","coordinates":[[-83.8971272,37.4718095],[-83.8970363,37.4718703],[-83.8969927,37.4719992],[-83.8970006,37.4722099],[-83.8969907,37.4722963],[-83.8968593,37.4723882]]}},{"type":"Feature","properties":{"osm_id":16210231,"highway":"track","name":"Cr-1001","alt_name":null,"official_name":null,"surface":null,"tracktype":null,"service":null,"access":null,"motor_vehicle":null,"foot":null,"tiger_reviewed":"no","rrgh_part":0,"rrgh_tile_part":0},"geometry":{"type":"LineString","coordinates":[[-83.93,37.49873375912762],[-83.929926,37.4987811],[-83.9296962,37.4990387],[-83.9296043,37.4993039],[-83.9295994,37.499434],[-83.9297783,37.4997207],[-83.9298637,37.4999051],[-83.9298595,37.5002078],[-83.9299378,37.5005643],[-83.93,37.50072480939599]]}},{"type":"Feature","properties":{"osm_id":968723213,"highway":"track","name":"Reece Ridge","alt_name":null,"official_name":null,"surface":null,"tracktype":null,"service":null,"access":null,"motor_vehicle":null,"foot":null,"tiger_reviewed":null,"rrgh_part":0,"rrgh_tile_part":0},"geometry":{"type":"LineString","coordinates":[[-83.929523,37.4938386],[-83.929551,37.4938935],[-83.929869,37.4942167],[-83.9299763,37.4944295],[-83.929969,37.4946113],[-83.9298007,37.4947429],[-83.9292497,37.4949112],[-83.9288107,37.4950389],[-83.9284645,37.4952052],[-83.9282621,37.4953561],[-83.9281841,37.4955438],[-83.928245,37.4957605],[-83.9287083,37.4963022],[-83.9288595,37.4965807],[-83.9288668,37.4967587],[-83.9287742,37.4969367],[-83.9286035,37.4970895],[-83.9284157,37.4971669],[-83.9277574,37.4972965],[-83.9272258,37.4974784],[-83.926643,37.4978111],[-83.9260725,37.4980955],[-83.9257872,37.4983683],[-83.9255775,37.4987184],[-83.9254824,37.4988635],[-83.9250044,37.4994516],[-83.9246753,37.4999449],[-83.923578,37.5012932],[-83.9228562,37.5021425],[-83.9225856,37.5022817],[-83.9222564,37.5023282],[-83.9217614,37.5022237],[-83.9209397,37.5020844],[-83.9206788,37.5020399],[-83.9204374,37.5018852],[-83.9203496,37.5016995],[-83.9203033,37.5015428],[-83.920513,37.5010514],[-83.9204618,37.5008019],[-83.9203569,37.5006007],[-83.9202009,37.5004904],[-83.9197205,37.5003531],[-83.9193938,37.5003125]]}},{"type":"Feature","properties":{"osm_id":1220668597,"highway":"track","name":null,"alt_name":null,"official_name":null,"surface":null,"tracktype":null,"service":null,"access":null,"motor_vehicle":null,"foot":null,"tiger_reviewed":null,"rrgh_part":0,"rrgh_tile_part":0},"geometry":{"type":"LineString","coordinates":[[-83.908908,37.4851],[-83.9087079,37.4852],[-83.9080682,37.4854359],[-83.9077106,37.4855346],[-83.9073299,37.4857068],[-83.9069095,37.4858747],[-83.9065496,37.4860643],[-83.905976,37.4862497],[-83.9057502,37.4863194],[-83.9054607,37.4862503]]}},{"type":"Feature","properties":{"osm_id":16213449,"highway":"residential","name":"Calvary Church Road","alt_name":null,"official_name":null,"surface":null,"tracktype":null,"service":null,"access":null,"motor_vehicle":null,"foot":null,"tiger_reviewed":"no","rrgh_part":0,"rrgh_tile_part":0},"geometry":{"type":"LineString","coordinates":[[-83.882125,37.489641],[-83.882985,37.489391],[-83.88319,37.489351],[-83.883246,37.489346],[-83.883347,37.489345],[-83.883416,37.489354],[-83.8835,37.489383],[-83.883553,37.48941],[-83.8836,37.489441],[-83.883679,37.489502],[-83.883767,37.489578],[-83.884208,37.490048],[-83.884576,37.490398],[-83.88487,37.490636],[-83.885388,37.490981],[-83.885672,37.491204],[-83.885933,37.491436],[-83.886157,37.491662],[-83.886516,37.491981]]}},{"type":"Feature","properties":{"osm_id":16214439,"highway":"residential","name":"Wild Dog Trail Road","alt_name":null,"official_name":null,"surface":null,"tracktype":null,"service":null,"access":null,"motor_vehicle":null,"foot":null,"tiger_reviewed":"no","rrgh_part":0,"rrgh_tile_part":0},"geometry":{"type":"LineString","coordinates":[[-83.892323,37.487505],[-83.892068,37.487537],[-83.891751,37.487604],[-83.891686,37.487608],[-83.89163,37.487599],[-83.891598,37.48758],[-83.891424,37.487447],[-83.891324,37.48741],[-83.891281,37.487402],[-83.891199,37.487403],[-83.891155,37.487409],[-83.891036,37.487454],[-83.890707,37.487642],[-83.890229,37.487884],[-83.890145,37.487936],[-83.890081,37.487984],[-83.890013,37.488043],[-83.889952,37.488106],[-83.8899,37.488174],[-83.889859,37.488256],[-83.889832,37.488323],[-83.889822,37.4884],[-83.889829,37.488477],[-83.889955,37.488836],[-83.889963,37.488879],[-83.889961,37.488953],[-83.889937,37.489063],[-83.889847,37.489224],[-83.889433,37.48983],[-83.889249,37.490071],[-83.889176,37.490148],[-83.889005,37.490297],[-83.8887712,37.4904569],[-83.887002,37.491658],[-83.886564,37.491936],[-83.886516,37.491981],[-83.886449,37.492072],[-83.886405,37.492147],[-83.88637,37.492224],[-83.88634,37.492314],[-83.8863,37.492458],[-83.886224,37.492824],[-83.886168,37.492953],[-83.886126,37.493016],[-83.886034,37.493122],[-83.88575,37.493396],[-83.885592,37.493525],[-83.885482,37.493599],[-83.885368,37.493656],[-83.8852566,37.4936743],[-83.8851576,37.4936783],[-83.8851066,37.4936733],[-83.8850616,37.4936633],[-83.8849556,37.4936313],[-83.8846826,37.4935143],[-83.8845076,37.4934563],[-83.8844486,37.4934423],[-83.8843926,37.4934363],[-83.8843566,37.4934393],[-83.8842946,37.4934583],[-83.884175,37.493537],[-83.884051,37.493656],[-83.883745,37.494001],[-83.883655,37.494083],[-83.883563,37.49415],[-83.8835,37.494185],[-83.883438,37.494213],[-83.883364,37.494239],[-83.882975,37.494332],[-83.882792,37.494358],[-83.882608,37.494377],[-83.882458,37.494379],[-83.882046,37.494356],[-83.881921,37.49436],[-83.881778,37.494372],[-83.881543,37.494405],[-83.881426,37.494435]]}},{"type":"Feature","properties":{"osm_id":16216222,"highway":"residential","name":"White Spot Road","alt_name":null,"official_name":null,"surface":null,"tracktype":null,"service":null,"access":null,"motor_vehicle":null,"foot":null,"tiger_reviewed":"no","rrgh_part":0,"rrgh_tile_part":0},"geometry":{"type":"LineString","coordinates":[[-83.893756,37.482666],[-83.89361,37.482933],[-83.893601,37.482993],[-83.893611,37.483045],[-83.893629,37.48307],[-83.89365,37.483088],[-83.893678,37.483103],[-83.893719,37.483114],[-83.893768,37.48312],[-83.893815,37.483118],[-83.89389,37.483107],[-83.894127,37.483041],[-83.894246,37.483018],[-83.894355,37.48301],[-83.894477,37.483013],[-83.894651,37.483033],[-83.894835,37.483064],[-83.89493,37.483089],[-83.895029,37.48312],[-83.895218,37.483189],[-83.895382,37.483266],[-83.895527,37.483341],[-83.89568,37.483438]]}},{"type":"Feature","properties":{"osm_id":848756857,"highway":"service","name":null,"alt_name":null,"official_name":null,"surface":null,"tracktype":null,"service":null,"access":"private","motor_vehicle":null,"foot":null,"tiger_reviewed":"no","rrgh_part":0,"rrgh_tile_part":0},"geometry":{"type":"LineString","coordinates":[[-83.893501,37.486183],[-83.8930102,37.4854384],[-83.8928073,37.4850456],[-83.8924453,37.4847212],[-83.8920092,37.4845892],[-83.8918485,37.484537],[-83.8916675,37.484357],[-83.8916543,37.4841489],[-83.8916955,37.4839421],[-83.8916175,37.4837844]]}},{"type":"Feature","properties":{"osm_id":968775891,"highway":"service","name":null,"alt_name":null,"official_name":null,"surface":null,"tracktype":null,"service":null,"access":null,"motor_vehicle":null,"foot":null,"tiger_reviewed":null,"rrgh_part":0,"rrgh_tile_part":0},"geometry":{"type":"LineString","coordinates":[[-83.884592,37.4772323],[-83.884566,37.4774477],[-83.884629,37.477733],[-83.8847471,37.4780871],[-83.8851486,37.4785619],[-83.8852021,37.4786388],[-83.8853428,37.478841],[-83.885718,37.479245],[-83.8859175,37.4795012],[-83.8861274,37.4798781],[-83.886605,37.4806007],[-83.8869829,37.4807194],[-83.8872112,37.4809194],[-83.8874133,37.4811734],[-83.8874579,37.481567]]}},{"type":"Feature","properties":{"osm_id":1242101401,"highway":"track","name":null,"alt_name":null,"official_name":null,"surface":null,"tracktype":null,"service":null,"access":null,"motor_vehicle":null,"foot":null,"tiger_reviewed":null,"rrgh_part":0,"rrgh_tile_part":0},"geometry":{"type":"LineString","coordinates":[[-83.9063323,37.5070733],[-83.9061982,37.5072137],[-83.90571,37.5074137],[-83.9054096,37.5075797],[-83.9038435,37.508773],[-83.9030707,37.5088052],[-83.9021588,37.5086733],[-83.901971,37.508652],[-83.9018101,37.508652],[-83.9012736,37.5087456],[-83.9011288,37.5087626],[-83.9009732,37.5087626],[-83.9003939,37.5085882],[-83.9003241,37.5085541],[-83.9001793,37.5084478],[-83.8998359,37.5081073],[-83.8996375,37.5078775],[-83.8993263,37.507269],[-83.8989669,37.5067626],[-83.8988435,37.5064137],[-83.8986933,37.5060733],[-83.8986021,37.5057924],[-83.8986558,37.5057158],[-83.8986719,37.5054988],[-83.8987577,37.5053967],[-83.8988435,37.5053371],[-83.8991117,37.5052094],[-83.8991493,37.5051626],[-83.8991332,37.5051073],[-83.8990045,37.5050009],[-83.8987899,37.5049456],[-83.8987148,37.5049116],[-83.8985485,37.5047754],[-83.898409,37.5046137],[-83.89835,37.504486],[-83.8983393,37.5043882],[-83.898409,37.5041626],[-83.8985753,37.5039116],[-83.8985968,37.503852],[-83.8985968,37.5037797],[-83.8985378,37.5037116],[-83.8983768,37.5036137],[-83.8982695,37.5035669],[-83.8980657,37.5035158],[-83.8979423,37.5034988],[-83.8977975,37.5035243],[-83.8976955,37.5035754],[-83.897497,37.5037414],[-83.8973147,37.5038307],[-83.896451,37.504035],[-83.8956624,37.5041073],[-83.8951066,37.5040904],[-83.8947673,37.5039764],[-83.8944095,37.5038345],[-83.8942606,37.5037978],[-83.893912,37.5038575],[-83.8935124,37.5038452],[-83.8932234,37.5037318],[-83.8930165,37.5035207],[-83.8927561,37.503262],[-83.8922247,37.5029995],[-83.8918325,37.5028206],[-83.8916389,37.5026478],[-83.8915322,37.5024475],[-83.891211,37.502244]]}},{"type":"Feature","properties":{"osm_id":968559256,"highway":"service","name":null,"alt_name":null,"official_name":null,"surface":null,"tracktype":null,"service":null,"access":null,"motor_vehicle":null,"foot":null,"tiger_reviewed":null,"rrgh_part":0,"rrgh_tile_part":0},"geometry":{"type":"LineString","coordinates":[[-83.8887712,37.4904569],[-83.8887862,37.4905004],[-83.8886512,37.4907637],[-83.8885486,37.4909644],[-83.8885144,37.4910608],[-83.8884939,37.4912249],[-83.8885281,37.4914651],[-83.888499,37.4916062],[-83.88834,37.4917934],[-83.8881707,37.4919874],[-83.8880954,37.4921149],[-83.8880493,37.4923781],[-83.888051,37.4925097],[-83.8879929,37.4925694],[-83.8877894,37.4926196],[-83.8874799,37.492678]]}},{"type":"Feature","properties":{"osm_id":16333383,"highway":"residential","name":"Wild Dog Creek Road","alt_name":null,"official_name":null,"surface":null,"tracktype":null,"service":null,"access":null,"motor_vehicle":null,"foot":null,"tiger_reviewed":"no","rrgh_part":0,"rrgh_tile_part":0},"geometry":{"type":"LineString","coordinates":[[-83.8853,37.500106],[-83.8852205,37.5008386],[-83.885578,37.5013579],[-83.8858541,37.5021599],[-83.8864173,37.502622],[-83.8866183,37.5028633],[-83.8866267,37.5030129],[-83.8864651,37.5033245],[-83.886665,37.505118],[-83.886673,37.505215],[-83.886711,37.505282],[-83.886737,37.505406],[-83.886728,37.505557],[-83.886733,37.50574],[-83.886701,37.50624],[-83.886699,37.506422],[-83.886679,37.506608],[-83.886653,37.506704],[-83.886603,37.506781],[-83.886513,37.506873],[-83.886368,37.506987],[-83.886161,37.507107],[-83.886008,37.507186],[-83.88586,37.507289],[-83.885639,37.507456],[-83.885544,37.507547],[-83.885483,37.507636],[-83.885442,37.507721],[-83.885421,37.507841],[-83.885426,37.508003],[-83.885415,37.508065],[-83.885388,37.508135],[-83.885278,37.508284],[-83.885172,37.508407],[-83.885169,37.508449],[-83.885177,37.508523],[-83.885205,37.508566],[-83.885267,37.508602],[-83.885384,37.508623],[-83.885548,37.508668],[-83.885703,37.508729],[-83.88587,37.508821],[-83.886097,37.508937],[-83.886132,37.508972],[-83.8861366,37.5090076],[-83.8861754,37.5090668],[-83.8861344,37.5091558],[-83.8859474,37.5095218],[-83.8858914,37.5096408],[-83.8857304,37.5098518],[-83.8856264,37.5099508],[-83.8855154,37.5100498],[-83.8854124,37.5101178],[-83.8853134,37.5101938],[-83.8852384,37.5102628],[-83.8851254,37.5103808],[-83.8850544,37.5104958],[-83.8850256,37.5106354],[-83.8850255,37.5106716]]}},{"type":"Feature","properties":{"osm_id":16212494,"highway":"residential","name":"Wind Cave Road","alt_name":null,"official_name":null,"surface":null,"tracktype":null,"service":null,"access":null,"motor_vehicle":null,"foot":null,"tiger_reviewed":"no","rrgh_part":0,"rrgh_tile_part":0},"geometry":{"type":"LineString","coordinates":[[-83.929323,37.511898],[-83.929568,37.511985],[-83.929756,37.512033],[-83.93,37.51206769194313]]}},{"type":"Feature","properties":{"osm_id":16212145,"highway":"residential","name":"Forest Road","alt_name":null,"official_name":null,"surface":null,"tracktype":null,"service":null,"access":null,"motor_vehicle":null,"foot":null,"tiger_reviewed":"no","rrgh_part":0,"rrgh_tile_part":0},"geometry":{"type":"LineString","coordinates":[[-83.9289485,37.5152677],[-83.9291,37.5153878],[-83.9290922,37.5154633],[-83.9289633,37.5154781],[-83.9288204,37.5154449],[-83.928664,37.5154405],[-83.9285515,37.5154742],[-83.9284272,37.5155297],[-83.9282805,37.5156305],[-83.9281428,37.5157985],[-83.9280131,37.5160042],[-83.9279015,37.5162447],[-83.9278053,37.5165467],[-83.9277431,37.5167697],[-83.9277355,37.516976],[-83.9277378,37.5172317],[-83.9277111,37.5174832],[-83.9276761,37.5176629],[-83.927611,37.5177641],[-83.9274291,37.5179846],[-83.9272702,37.5181591],[-83.9271921,37.5182046],[-83.9270938,37.5182192],[-83.9269925,37.5181963],[-83.9268829,37.5180977],[-83.9268305,37.5179852],[-83.926785,37.5178551],[-83.9266678,37.5176261],[-83.9262635,37.5172469],[-83.9258277,37.5168297],[-83.9257235,37.5167599],[-83.9256407,37.5167474],[-83.9255868,37.5167775],[-83.9255414,37.5168678],[-83.9255457,37.5169505],[-83.9255829,37.5170339],[-83.9257022,37.517167],[-83.9259247,37.5173788],[-83.9260044,37.5174706],[-83.9261212,37.5176928],[-83.9262204,37.5180216],[-83.9263802,37.5185903],[-83.9264369,37.5187362],[-83.9265698,37.5189278],[-83.9268428,37.5192667],[-83.9270422,37.5194511],[-83.9274008,37.5195933],[-83.9276257,37.5196776],[-83.9277203,37.5197456],[-83.9277694,37.5198045],[-83.9277744,37.5199436],[-83.9276731,37.5200823],[-83.9275779,37.5201431],[-83.9274844,37.5201737],[-83.9268502,37.5202083],[-83.9264277,37.5202004],[-83.9258352,37.5205817],[-83.9248448,37.5213695],[-83.9229666,37.5208301],[-83.922266,37.520419],[-83.921847,37.520267],[-83.9215255,37.519734],[-83.9212946,37.5195412],[-83.9210264,37.5194753],[-83.9208388,37.5194736],[-83.920459,37.5195154],[-83.9202273,37.5195401],[-83.919747,37.5194377],[-83.9192801,37.5194647],[-83.918988,37.5195026],[-83.9188462,37.5195593],[-83.9185238,37.5198075],[-83.9181497,37.5201026],[-83.9174022,37.5203522],[-83.9163893,37.5207372],[-83.914651,37.521045],[-83.914665,37.521441],[-83.915292,37.522031],[-83.915807,37.5222776],[-83.9161463,37.522319],[-83.9165314,37.5223177],[-83.9169789,37.5224627],[-83.9173484,37.5225011],[-83.9176751,37.5225123],[-83.9181735,37.5226629],[-83.918217,37.522708],[-83.9179607,37.5228667],[-83.9177147,37.5230313],[-83.9175609,37.5231736],[-83.9174428,37.5234214],[-83.9173214,37.5235456],[-83.9171638,37.5235895],[-83.9167402,37.5235873],[-83.9163391,37.5236275],[-83.9162038,37.5237147],[-83.9160601,37.523957],[-83.9159725,37.5242089],[-83.91599448208984,37.525000000000006]]}},{"type":"Feature","properties":{"osm_id":16216269,"highway":"track","name":"Wind Cave Branch Road","alt_name":null,"official_name":null,"surface":null,"tracktype":null,"service":null,"access":null,"motor_vehicle":null,"foot":null,"tiger_reviewed":"no","rrgh_part":0,"rrgh_tile_part":0},"geometry":{"type":"LineString","coordinates":[[-83.93,37.50895045550847],[-83.929971,37.508966],[-83.929669,37.509109],[-83.929568,37.509151],[-83.929471,37.509182],[-83.928986,37.509306],[-83.928816,37.509364],[-83.928715,37.509406],[-83.928638,37.509443],[-83.928561,37.50949],[-83.928497,37.509542],[-83.92838,37.50969],[-83.928345,37.509763],[-83.928317,37.509834],[-83.928297,37.50996],[-83.928308,37.510091],[-83.928322,37.510166],[-83.928459,37.510561],[-83.928531,37.511075],[-83.928564,37.511205],[-83.928617,37.511325],[-83.928716,37.511474],[-83.928802,37.511567],[-83.929002,37.511716],[-83.929143,37.511805],[-83.929323,37.511898]]}},{"type":"Feature","properties":{"osm_id":16209943,"highway":"residential","name":"Wind Cave Church Road","alt_name":null,"official_name":null,"surface":null,"tracktype":null,"service":null,"access":null,"motor_vehicle":null,"foot":null,"tiger_reviewed":"no","rrgh_part":0,"rrgh_tile_part":0},"geometry":{"type":"LineString","coordinates":[[-83.929323,37.511898],[-83.929183,37.512033],[-83.929139,37.512089],[-83.929105,37.512145],[-83.929082,37.512193],[-83.92906,37.512253],[-83.929042,37.512322],[-83.929017,37.512576],[-83.929024,37.512692],[-83.929042,37.512759],[-83.929069,37.512831],[-83.929333,37.513284],[-83.929358,37.513336],[-83.929381,37.51344],[-83.929369,37.513553],[-83.929333,37.513647],[-83.929182,37.513922],[-83.928946,37.51432],[-83.928572,37.514784],[-83.928551,37.514819],[-83.92853,37.514881],[-83.92852,37.514929],[-83.928521,37.515021],[-83.928542,37.515081],[-83.928569,37.515119],[-83.928594,37.51514],[-83.928619,37.51516],[-83.928682,37.515192],[-83.928724,37.515208],[-83.928774,37.515218],[-83.9289485,37.5152677]]}},{"type":"Feature","properties":{"osm_id":1242101405,"highway":"track","name":null,"alt_name":null,"official_name":null,"surface":null,"tracktype":null,"service":null,"access":null,"motor_vehicle":null,"foot":null,"tiger_reviewed":null,"rrgh_part":0,"rrgh_tile_part":0},"geometry":{"type":"LineString","coordinates":[[-83.9081612,37.5133136],[-83.908183,37.5131254],[-83.9081351,37.512966],[-83.9080078,37.5127463],[-83.907951,37.5126621],[-83.9077588,37.5124276],[-83.907506,37.5121921],[-83.9071925,37.5120722],[-83.9068907,37.5118972],[-83.9065593,37.5116891],[-83.9063958,37.5115054],[-83.9062415,37.5113767],[-83.9059594,37.5112432],[-83.905708,37.5110062],[-83.9054338,37.5106312],[-83.9052668,37.5103592],[-83.9052246,37.5101178],[-83.9051583,37.5099261],[-83.9050438,37.5098371],[-83.9049136,37.5097741],[-83.9045728,37.5095944],[-83.9043871,37.5093996],[-83.9040453,37.5089032],[-83.9038435,37.508773]]}},{"type":"Feature","properties":{"osm_id":16211740,"highway":"track","name":"Polly Sparks Road","alt_name":null,"official_name":null,"surface":null,"tracktype":null,"service":null,"access":null,"motor_vehicle":null,"foot":null,"tiger_reviewed":"no","rrgh_part":0,"rrgh_tile_part":0},"geometry":{"type":"LineString","coordinates":[[-83.887886,37.509761],[-83.887891,37.509801],[-83.887879,37.509856],[-83.887855,37.50991],[-83.88774,37.510049],[-83.887575,37.510218],[-83.887396,37.510421],[-83.887185,37.510719],[-83.887085,37.510828],[-83.886966,37.510936],[-83.886525,37.511297],[-83.886419,37.511401],[-83.886326,37.511512],[-83.88602,37.512033],[-83.885567,37.512698],[-83.885483,37.512873],[-83.8853991,37.5131069],[-83.885273,37.513414],[-83.88524,37.513524],[-83.885241,37.513624],[-83.885267,37.513784],[-83.8853193,37.514316]]}},{"type":"Feature","properties":{"osm_id":886811476,"highway":"track","name":"Forest Road 3022","alt_name":null,"official_name":null,"surface":"ground","tracktype":"grade5","service":null,"access":null,"motor_vehicle":null,"foot":null,"tiger_reviewed":"no","rrgh_part":0,"rrgh_tile_part":0},"geometry":{"type":"LineString","coordinates":[[-83.8853241,37.5144109],[-83.885562,37.514828],[-83.885597,37.514879],[-83.885887,37.515206],[-83.885989,37.515298],[-83.886064,37.515344],[-83.886248,37.515419]]}},{"type":"Feature","properties":{"osm_id":968565400,"highway":"service","name":"Old Orchard Church Road","alt_name":null,"official_name":null,"surface":null,"tracktype":null,"service":null,"access":null,"motor_vehicle":null,"foot":null,"tiger_reviewed":null,"rrgh_part":0,"rrgh_tile_part":0},"geometry":{"type":"LineString","coordinates":[[-83.8877555,37.5098361],[-83.8875265,37.509624],[-83.8871889,37.5094317],[-83.8866769,37.5091783],[-83.8865138,37.5090273],[-83.8863416,37.508977],[-83.8861366,37.5090076]]}},{"type":"Feature","properties":{"osm_id":1242101398,"highway":"track","name":null,"alt_name":null,"official_name":null,"surface":null,"tracktype":null,"service":null,"access":null,"motor_vehicle":null,"foot":null,"tiger_reviewed":null,"rrgh_part":0,"rrgh_tile_part":0},"geometry":{"type":"LineString","coordinates":[[-83.886248,37.515419],[-83.8863998,37.5154411],[-83.8867429,37.5154326],[-83.887102,37.5153985],[-83.8873057,37.5153985],[-83.8876305,37.5154317],[-83.8883511,37.5155006],[-83.8886727,37.5155006],[-83.8887746,37.5154921],[-83.8893857,37.5153475],[-83.889509,37.5153433],[-83.8896162,37.5153603],[-83.8901737,37.5155219],[-83.8908974,37.5158025],[-83.8910314,37.5158833],[-83.891144,37.5159768],[-83.8914154,37.516158],[-83.8916295,37.5163332],[-83.8918652,37.5164712],[-83.8919327,37.5166266],[-83.8920848,37.5167774],[-83.8923281,37.5169072],[-83.892691,37.5170241],[-83.8929483,37.5170318],[-83.8931024,37.5170072],[-83.8933625,37.5169085],[-83.8936837,37.5168483],[-83.8938868,37.5168955],[-83.8943963,37.516887],[-83.8948415,37.5167806],[-83.894938,37.5167849],[-83.8955333,37.5169082],[-83.8961608,37.5169848],[-83.8970189,37.5171378],[-83.8972227,37.5171974],[-83.897389,37.5173079],[-83.8974802,37.5176907],[-83.8972657,37.5181286],[-83.8971959,37.5185794],[-83.8972496,37.5187282],[-83.8973836,37.5188983],[-83.8976464,37.5190812],[-83.8978449,37.5191705],[-83.8978449,37.51923]]}},{"type":"Feature","properties":{"osm_id":16212267,"highway":"residential","name":"Mary Kay Isaacs Road","alt_name":null,"official_name":null,"surface":null,"tracktype":null,"service":null,"access":null,"motor_vehicle":null,"foot":null,"tiger_reviewed":"no","rrgh_part":0,"rrgh_tile_part":0},"geometry":{"type":"LineString","coordinates":[[-83.89727702678572,37.525000000000006],[-83.89746,37.524901],[-83.897894,37.524707],[-83.897938,37.524693],[-83.898027,37.524677],[-83.898103,37.524676],[-83.898172,37.52469],[-83.898239,37.524725],[-83.898328,37.524798],[-83.898497,37.524991],[-83.89850666666668,37.525000000000006]]}},{"type":"Feature","properties":{"osm_id":1242101397,"highway":"track","name":null,"alt_name":null,"official_name":null,"surface":null,"tracktype":null,"service":null,"access":null,"motor_vehicle":null,"foot":null,"tiger_reviewed":null,"rrgh_part":0,"rrgh_tile_part":0},"geometry":{"type":"LineString","coordinates":[[-83.91131217390182,37.525000000000006],[-83.9111871,37.5247656],[-83.910935,37.5246593],[-83.9102591,37.5246678],[-83.9096208,37.5244679],[-83.908961,37.5241787],[-83.9087733,37.5241234],[-83.9085373,37.5240979],[-83.9083978,37.5240426],[-83.9078936,37.523898],[-83.9076791,37.5237832],[-83.9074431,37.5236301],[-83.9073465,37.5235493],[-83.9071588,37.5233452],[-83.9068316,37.5229199],[-83.9064132,37.5225201],[-83.9060699,37.5220991],[-83.905791,37.521895],[-83.9055979,37.5217206],[-83.9054638,37.5216271],[-83.9052331,37.5213932],[-83.9051634,37.5212953],[-83.9051527,37.5212315],[-83.9052921,37.5208275],[-83.9052975,37.5207425],[-83.905276,37.5206447],[-83.9052385,37.5205851],[-83.9050508,37.520381],[-83.9046753,37.5199047],[-83.9044393,37.5198154],[-83.9041657,37.5197728],[-83.9039726,37.5197814],[-83.9034201,37.5198919],[-83.9031787,37.5198919],[-83.9030822,37.5198664],[-83.9029696,37.5198579],[-83.9026906,37.5197856],[-83.9025244,37.5197261],[-83.9023205,37.5196112],[-83.9020791,37.5194241],[-83.902047,37.5193688],[-83.901752,37.5190754],[-83.9014891,37.5189393],[-83.9013657,37.5188202],[-83.9011351,37.5187394],[-83.900824,37.5186841],[-83.9007221,37.5186799],[-83.9005075,37.5187182],[-83.9002146,37.5187727],[-83.8999324,37.5189077],[-83.8996493,37.5191052],[-83.8994991,37.5191477],[-83.8982064,37.5191647],[-83.8978449,37.51923],[-83.8973053,37.5193433],[-83.8966026,37.5194114],[-83.8963559,37.5195219],[-83.8952187,37.5204831]]}},{"type":"Feature","properties":{"osm_id":1242101399,"highway":"track","name":null,"alt_name":null,"official_name":null,"surface":null,"tracktype":null,"service":null,"access":null,"motor_vehicle":null,"foot":null,"tiger_reviewed":null,"rrgh_part":0,"rrgh_tile_part":0},"geometry":{"type":"LineString","coordinates":[[-83.8974802,37.5176907],[-83.8975821,37.5177714],[-83.8976572,37.517916],[-83.8977859,37.5180181],[-83.8980058,37.5180138],[-83.8980541,37.5180011],[-83.8981452,37.5179458],[-83.898408,37.5177247],[-83.8997274,37.5168274]]}},{"type":"Feature","properties":{"osm_id":16268228,"highway":"residential","name":"Arvel Post Office Road","alt_name":null,"official_name":null,"surface":"gravel","tracktype":null,"service":null,"access":null,"motor_vehicle":null,"foot":null,"tiger_reviewed":"no","rrgh_part":0,"rrgh_tile_part":0},"geometry":{"type":"LineString","coordinates":[[-83.885132,37.517388],[-83.885123,37.51748],[-83.885145,37.517544],[-83.885385,37.517836],[-83.885479,37.517985],[-83.885597,37.518355],[-83.885677,37.518539],[-83.885767,37.518683],[-83.886295,37.519368],[-83.886484,37.519602],[-83.886638,37.519749],[-83.886905,37.519956],[-83.8873097,37.5203015],[-83.887489,37.52039]]}},{"type":"Feature","properties":{"osm_id":16269291,"highway":"residential","name":"Cr-1240","alt_name":null,"official_name":null,"surface":null,"tracktype":null,"service":null,"access":null,"motor_vehicle":null,"foot":null,"tiger_reviewed":"no","rrgh_part":0,"rrgh_tile_part":0},"geometry":{"type":"LineString","coordinates":[[-83.8886399,37.521693],[-83.8883,37.522544],[-83.888205,37.522699]]}},{"type":"Feature","properties":{"osm_id":286005364,"highway":"residential","name":"Old Orchard Cemetery Road","alt_name":null,"official_name":null,"surface":null,"tracktype":null,"service":null,"access":null,"motor_vehicle":null,"foot":null,"tiger_reviewed":"no","rrgh_part":0,"rrgh_tile_part":0},"geometry":{"type":"LineString","coordinates":[[-83.888205,37.522699],[-83.888111,37.5228],[-83.887928,37.522944],[-83.887714,37.523097],[-83.887548,37.523191],[-83.887458,37.523228],[-83.887271,37.523276],[-83.886149,37.523415],[-83.88564,37.523489],[-83.885318,37.523523],[-83.884926,37.523523],[-83.884414,37.523491],[-83.884335,37.523491],[-83.884182,37.523515],[-83.884109,37.523542],[-83.884041,37.523581],[-83.883918,37.523676],[-83.883861,37.523732],[-83.883474,37.524244],[-83.8833418,37.5244028],[-83.883172,37.524619],[-83.883077,37.524791],[-83.88299269747898,37.525000000000006]]}},{"type":"Feature","properties":{"osm_id":968559237,"highway":"track","name":null,"alt_name":null,"official_name":null,"surface":null,"tracktype":null,"service":null,"access":null,"motor_vehicle":null,"foot":null,"tiger_reviewed":null,"rrgh_part":0,"rrgh_tile_part":0},"geometry":{"type":"LineString","coordinates":[[-83.87593906104486,37.45],[-83.8760214,37.4500529],[-83.8762958,37.4502106],[-83.8765022,37.4502736],[-83.8767305,37.4502678],[-83.8771756,37.4501371],[-83.8774943,37.4500269],[-83.87763731992882,37.45]]}},{"type":"Feature","properties":{"osm_id":968559237,"highway":"track","name":null,"alt_name":null,"official_name":null,"surface":null,"tracktype":null,"service":null,"access":null,"motor_vehicle":null,"foot":null,"tiger_reviewed":null,"rrgh_part":1,"rrgh_tile_part":0},"geometry":{"type":"LineString","coordinates":[[-83.87782738571491,37.45],[-83.877858,37.4500002],[-83.8781171,37.4500611],[-83.8784904,37.450261],[-83.8786842,37.4504723],[-83.8788051,37.450634],[-83.8790449,37.4507934],[-83.8791753,37.4509752],[-83.879296,37.4511381],[-83.8795884,37.4513161]]}},{"type":"Feature","properties":{"osm_id":968559238,"highway":"track","name":null,"alt_name":null,"official_name":null,"surface":null,"tracktype":null,"service":null,"access":null,"motor_vehicle":null,"foot":null,"tiger_reviewed":null,"rrgh_part":0,"rrgh_tile_part":0},"geometry":{"type":"LineString","coordinates":[[-83.8799122,37.4513393],[-83.8797033,37.4511467],[-83.8795797,37.4509284],[-83.8795051,37.4506611],[-83.8794283,37.4504546],[-83.8793814,37.4502025],[-83.8793814,37.45]]}},{"type":"Feature","properties":{"osm_id":968559243,"highway":"service","name":null,"alt_name":null,"official_name":null,"surface":null,"tracktype":null,"service":null,"access":null,"motor_vehicle":null,"foot":null,"tiger_reviewed":null,"rrgh_part":0,"rrgh_tile_part":0},"geometry":{"type":"LineString","coordinates":[[-83.8799195,37.4545237],[-83.8799097,37.4546205],[-83.879927,37.45504],[-83.8799739,37.4551968],[-83.8800974,37.455381],[-83.8803196,37.4557201],[-83.8803912,37.4557906],[-83.880485,37.4558318],[-83.8806109,37.4558435],[-83.880769,37.4558298],[-83.8810356,37.455722],[-83.8814529,37.4554613],[-83.8816849,37.4553163],[-83.8819639,37.4551909],[-83.8821442,37.455134],[-83.8824034,37.4551066],[-83.8828799,37.4551027],[-83.883033,37.4551654],[-83.883312,37.4552673],[-83.8834898,37.4552712],[-83.8837564,37.4551968],[-83.8841194,37.4549694]]}},{"type":"Feature","properties":{"osm_id":1311401293,"highway":"residential","name":null,"alt_name":null,"official_name":null,"surface":null,"tracktype":null,"service":null,"access":null,"motor_vehicle":null,"foot":null,"tiger_reviewed":null,"rrgh_part":0,"rrgh_tile_part":0},"geometry":{"type":"LineString","coordinates":[[-83.875413,37.453586],[-83.8751824,37.4537186],[-83.8750483,37.4537654],[-83.8745441,37.4538888],[-83.87441,37.4539058],[-83.8740506,37.4539143],[-83.8737341,37.4538675],[-83.8734874,37.4536718],[-83.8734498,37.4533951]]}},{"type":"Feature","properties":{"osm_id":16211993,"highway":"residential","name":"Brushy Ridge Cemetery Road","alt_name":null,"official_name":null,"surface":"gravel","tracktype":null,"service":null,"access":null,"motor_vehicle":null,"foot":null,"tiger_reviewed":"no","rrgh_part":0,"rrgh_tile_part":0},"geometry":{"type":"LineString","coordinates":[[-83.8818815,37.4508155],[-83.881689,37.450922],[-83.881501,37.450991],[-83.880775,37.45121],[-83.880337,37.451316],[-83.880145,37.451338],[-83.879978,37.451341],[-83.8799122,37.4513393],[-83.879819,37.451337],[-83.879693,37.451328],[-83.8795884,37.4513161],[-83.879517,37.451308],[-83.87937,37.451304],[-83.879228,37.45131],[-83.879146,37.451321],[-83.878868,37.451392],[-83.878457,37.451471],[-83.878241,37.451528],[-83.878178,37.451551],[-83.878125,37.451577],[-83.878087,37.451606],[-83.878056,37.451637],[-83.877891,37.451867],[-83.877859,37.451902],[-83.877815,37.451941],[-83.877696,37.452029],[-83.877217,37.452313],[-83.8769723,37.4524627],[-83.876648,37.452705],[-83.876182,37.452972],[-83.87607,37.45306],[-83.875918,37.453208],[-83.875696,37.45337],[-83.875485,37.453545],[-83.875413,37.453586]]}},{"type":"Feature","properties":{"osm_id":1315924078,"highway":"track","name":null,"alt_name":null,"official_name":null,"surface":null,"tracktype":null,"service":null,"access":null,"motor_vehicle":null,"foot":null,"tiger_reviewed":"no","rrgh_part":0,"rrgh_tile_part":0},"geometry":{"type":"LineString","coordinates":[[-83.8709335,37.4592985],[-83.871613,37.459159],[-83.8720074,37.4591129],[-83.8723219,37.4590393],[-83.873683,37.4584498],[-83.8745661,37.4579583],[-83.8749846,37.4578353],[-83.875573,37.457515],[-83.878047,37.455962],[-83.878197,37.455756],[-83.878508,37.455572],[-83.879224,37.455114],[-83.8799195,37.4545237]]}},{"type":"Feature","properties":{"osm_id":16331805,"highway":"track","name":null,"alt_name":null,"official_name":null,"surface":null,"tracktype":null,"service":null,"access":null,"motor_vehicle":null,"foot":null,"tiger_reviewed":"no","rrgh_part":0,"rrgh_tile_part":0},"geometry":{"type":"LineString","coordinates":[[-83.845,37.46599784925189],[-83.8453462,37.4659778],[-83.8456729,37.4658887],[-83.8461289,37.4656836],[-83.8463094,37.4655133],[-83.8465313,37.4652539],[-83.8468556,37.4647836],[-83.8473481,37.4645262],[-83.8477773,37.4643307],[-83.848182,37.4642572],[-83.8485429,37.4642243],[-83.8491037,37.4641585],[-83.8494768,37.4641062],[-83.8498206,37.4640482],[-83.8500791,37.4639495],[-83.8505863,37.4637133],[-83.8509496,37.4637153],[-83.8517469,37.4640811],[-83.8520278,37.4641799],[-83.8521474,37.4642116],[-83.8523604,37.4641715],[-83.8528128,37.4639071],[-83.8529992,37.4637948],[-83.8532781,37.463477],[-83.8532894,37.4632611],[-83.8534528,37.4629709],[-83.8535213,37.46293],[-83.8537091,37.4628792],[-83.8537837,37.462821],[-83.8539049,37.4625692],[-83.8541073,37.4625172],[-83.8545267,37.4625172],[-83.8549656,37.462583],[-83.8553167,37.4628327],[-83.8554971,37.4630921],[-83.8557556,37.4632933],[-83.8559702,37.4635508],[-83.8561945,37.4635798],[-83.8564774,37.4634501],[-83.8571747,37.4632604],[-83.8576892,37.4631443],[-83.8579355,37.4630959],[-83.8583135,37.4629198],[-83.8587402,37.4627456],[-83.8590889,37.462583],[-83.859395,37.4624356],[-83.859445,37.462332],[-83.859672,37.462148],[-83.860065,37.461623],[-83.860777,37.460844],[-83.86149,37.460545],[-83.861664,37.460362],[-83.861746,37.460043],[-83.862459,37.459469],[-83.8628,37.459377],[-83.863711,37.459355],[-83.864797,37.459607],[-83.8657306,37.459461],[-83.865997,37.459537],[-83.866172,37.459626],[-83.867485,37.459807],[-83.867941,37.45974],[-83.8691783,37.4592643],[-83.8694969,37.4593117],[-83.8702456,37.4594034],[-83.8705667,37.4593625],[-83.8707024,37.4593518],[-83.8709335,37.4592985]]}},{"type":"Feature","properties":{"osm_id":16333166,"highway":"residential","name":"FR 402","alt_name":null,"official_name":null,"surface":"gravel","tracktype":null,"service":null,"access":null,"motor_vehicle":null,"foot":null,"tiger_reviewed":"no","rrgh_part":0,"rrgh_tile_part":0},"geometry":{"type":"LineString","coordinates":[[-83.881426,37.494435],[-83.881188,37.49447],[-83.8804756,37.4946637],[-83.8800266,37.494884],[-83.8798709,37.494902],[-83.8795696,37.4948136],[-83.879343,37.4947254],[-83.8791165,37.4946717],[-83.8788466,37.4946399],[-83.8786544,37.4946211],[-83.8783799,37.4945763],[-83.8775804,37.4945785],[-83.877378,37.494601],[-83.876974,37.494844],[-83.876427,37.495037],[-83.876074,37.495204],[-83.875669,37.495514],[-83.875512,37.495531],[-83.875344,37.4955],[-83.8752098,37.4954196],[-83.8751105,37.4953687],[-83.8749336,37.4952471],[-83.874696,37.4951852],[-83.874371,37.4951819],[-83.8739192,37.4952074],[-83.8736263,37.4951478],[-83.8732607,37.4951305],[-83.8730728,37.495182],[-83.8724198,37.4953867],[-83.8721463,37.4953846],[-83.87187,37.4954298],[-83.8715662,37.4955494],[-83.8713173,37.4956517],[-83.8711317,37.4956677],[-83.8707961,37.4955982],[-83.8702733,37.4955166],[-83.8697738,37.4954854],[-83.8693672,37.4955046],[-83.8691,37.4956091],[-83.868766,37.4957237],[-83.8684751,37.4957799],[-83.8676074,37.4958987],[-83.867119,37.4960085],[-83.8666255,37.4962186],[-83.8660822,37.4965297],[-83.8658152,37.4966748],[-83.8643424,37.4969813],[-83.8617475,37.4970999],[-83.8611588,37.4970421],[-83.8605705,37.4970463],[-83.8600549,37.4971061],[-83.8594393,37.497224],[-83.8590484,37.4973786],[-83.8588742,37.4973827],[-83.8586944,37.497308],[-83.8585322,37.4971544],[-83.858407,37.496954],[-83.8583677,37.4968167],[-83.8583208,37.4966744],[-83.8582178,37.4965694],[-83.8581023,37.4965095],[-83.8576621,37.4963991],[-83.8574681,37.4963166],[-83.8569699,37.4961222],[-83.8566527,37.4959556],[-83.8563058,37.4957581],[-83.855966,37.4955999],[-83.855681,37.4955204],[-83.8554926,37.4955697],[-83.8553903,37.495661],[-83.8553112,37.496023],[-83.855058,37.4964055],[-83.854851,37.4966544],[-83.8545608,37.4970139],[-83.8544417,37.49708],[-83.854298,37.497185],[-83.8541054,37.4973123],[-83.8540157,37.497464],[-83.8537542,37.4980079],[-83.8535255,37.4981542]]}},{"type":"Feature","properties":{"osm_id":16334629,"highway":"track","name":"Wild Dog Trail Road","alt_name":null,"official_name":null,"surface":null,"tracktype":null,"service":null,"access":null,"motor_vehicle":null,"foot":null,"tiger_reviewed":"no","rrgh_part":0,"rrgh_tile_part":0},"geometry":{"type":"LineString","coordinates":[[-83.882125,37.489641],[-83.881707,37.489734],[-83.881469,37.489773],[-83.8812704,37.4897592],[-83.8811294,37.4897612],[-83.8809794,37.4897542],[-83.8808514,37.4897242],[-83.8807834,37.4896912],[-83.8805084,37.4895172],[-83.8800784,37.4891402],[-83.8799464,37.4890002],[-83.8798594,37.4888932],[-83.8797624,37.4887892],[-83.8796734,37.4887282],[-83.8793514,37.4885602],[-83.8791764,37.4884642],[-83.8788869,37.4882554],[-83.8788091,37.4882048],[-83.8786042,37.4880713],[-83.8784092,37.4879753],[-83.8779992,37.4878323],[-83.8777612,37.4877333],[-83.8776572,37.4876573],[-83.8774982,37.4875493],[-83.8773832,37.4874623],[-83.8770602,37.4871913],[-83.8769162,37.4870583],[-83.8767402,37.4869063],[-83.8760702,37.4863683],[-83.8757432,37.4861263],[-83.8754687,37.4859307],[-83.875222,37.485816],[-83.874983,37.485655],[-83.874679,37.485456],[-83.874549,37.485378],[-83.874407,37.485301],[-83.874246,37.48523],[-83.874087,37.485177],[-83.873732,37.485078],[-83.873521,37.485024],[-83.873049,37.484919],[-83.872247,37.484756],[-83.871784,37.484689],[-83.871305,37.48464],[-83.870187,37.484534],[-83.869325,37.484456],[-83.869058,37.484457],[-83.86892,37.484474],[-83.86876,37.484519],[-83.868557,37.484583],[-83.867694,37.48492],[-83.867432,37.485035],[-83.86716,37.485132],[-83.866864,37.485227],[-83.866528,37.485327],[-83.866139,37.485435],[-83.865761,37.485547],[-83.865311,37.485671],[-83.8652056,37.4857032],[-83.865088,37.485739],[-83.864865,37.485757],[-83.864649,37.485765],[-83.864436,37.485755],[-83.864251,37.485733],[-83.864,37.485688],[-83.863547,37.485593],[-83.863347,37.485537],[-83.863163,37.485472],[-83.862922,37.485399],[-83.862425,37.485236],[-83.862185,37.48515],[-83.861989,37.485073],[-83.861802,37.485008],[-83.861561,37.484911],[-83.861083,37.484731],[-83.860854,37.484649],[-83.860372,37.484512],[-83.860139,37.48447],[-83.859921,37.484448],[-83.859692,37.484451],[-83.859461,37.484488],[-83.859115,37.484524],[-83.858984,37.484534],[-83.858714,37.484537],[-83.858578,37.484537],[-83.858448,37.484512],[-83.858045,37.484487],[-83.857511,37.484412],[-83.857267,37.484366],[-83.857039,37.484328],[-83.856818,37.484308],[-83.856714,37.484304],[-83.856612,37.484307],[-83.856511,37.484314],[-83.856415,37.484331],[-83.856321,37.484355],[-83.856148,37.48441],[-83.855957,37.484469],[-83.855866,37.484494],[-83.855394,37.484572],[-83.855296,37.484571],[-83.855199,37.484565],[-83.855103,37.484549],[-83.855009,37.484527],[-83.854924,37.484485],[-83.85485,37.484433],[-83.854788,37.484369],[-83.854736,37.484302],[-83.854663,37.48353],[-83.854671,37.483395],[-83.854669,37.48326],[-83.854642,37.483109],[-83.854609,37.482886],[-83.854551,37.482446],[-83.854484,37.482139],[-83.854422,37.482013],[-83.854349,37.481922],[-83.854246,37.481831],[-83.854104,37.481748],[-83.853968,37.481705],[-83.852824,37.481476],[-83.852581,37.481455],[-83.852465,37.48145],[-83.852239,37.48145],[-83.852011,37.481455],[-83.851899,37.481462],[-83.851681,37.481484],[-83.851367,37.481529],[-83.851266,37.481548],[-83.851166,37.481571],[-83.851067,37.4816],[-83.850871,37.48167],[-83.850576,37.481782],[-83.850189,37.481934],[-83.849718,37.482103],[-83.849235,37.482281],[-83.848849,37.482431],[-83.848559,37.48255],[-83.84839,37.482624],[-83.848236,37.482681],[-83.848067,37.482707],[-83.847851,37.482709],[-83.847705,37.482682],[-83.84756,37.482618],[-83.847424,37.482525],[-83.84731,37.482397],[-83.847203,37.482259],[-83.84708,37.482046],[-83.847005,37.481902],[-83.846941,37.481695],[-83.846899,37.481439],[-83.846844,37.480915],[-83.84681,37.480699],[-83.846768,37.480522],[-83.846627,37.480083],[-83.846513,37.479764],[-83.846467,37.479663],[-83.846412,37.479567],[-83.846349,37.479474],[-83.846104,37.47918],[-83.846022,37.479102],[-83.845919,37.479017],[-83.845839,37.478968],[-83.845738,37.478926],[-83.845637,37.478903],[-83.84552,37.478894],[-83.8454,37.478913],[-83.845247,37.478949],[-83.845061,37.479018],[-83.845,37.479046268292684]]}},{"type":"Feature","properties":{"osm_id":968565385,"highway":"service","name":"Big Wild Dog","alt_name":null,"official_name":null,"surface":null,"tracktype":null,"service":null,"access":null,"motor_vehicle":null,"foot":null,"tiger_reviewed":null,"rrgh_part":0,"rrgh_tile_part":0},"geometry":{"type":"LineString","coordinates":[[-83.8652056,37.4857032],[-83.865184,37.485587],[-83.8653464,37.4847128],[-83.8653245,37.4844168],[-83.8651972,37.4841869],[-83.8646968,37.4834416],[-83.8641833,37.4822226],[-83.8633713,37.480805],[-83.8625506,37.4794048],[-83.8622872,37.478952],[-83.8616859,37.4783982],[-83.8601937,37.4775344],[-83.8593948,37.476378],[-83.8588243,37.4755385],[-83.8588243,37.4752669],[-83.8589164,37.4750509],[-83.859171,37.4747688],[-83.8594519,37.4745632],[-83.8598469,37.4743682],[-83.8604219,37.4742254],[-83.8616464,37.4738805]]}},{"type":"Feature","properties":{"osm_id":16332355,"highway":"track","name":null,"alt_name":null,"official_name":null,"surface":null,"tracktype":null,"service":null,"access":null,"motor_vehicle":null,"foot":null,"tiger_reviewed":"no","rrgh_part":0,"rrgh_tile_part":0},"geometry":{"type":"LineString","coordinates":[[-83.859395,37.4624356],[-83.859324,37.462583],[-83.8588441,37.4630182],[-83.858445,37.463271],[-83.858272,37.463796],[-83.8582636,37.4640644],[-83.8585518,37.464415],[-83.8585565,37.4647222],[-83.858492,37.4649721],[-83.857712,37.46549],[-83.857257,37.465742],[-83.856946,37.466041],[-83.856518,37.46723],[-83.856584,37.4677986],[-83.8564966,37.4679233],[-83.8564258,37.4680243],[-83.8561461,37.468187],[-83.8558786,37.4685393],[-83.8555977,37.4688003],[-83.8554252,37.4689479],[-83.8552753,37.4691785],[-83.8551216,37.469435],[-83.8549785,37.4696363],[-83.8545861,37.4698977],[-83.8544724,37.4700791],[-83.8541411,37.4703024],[-83.853574,37.4704962],[-83.8531571,37.4705749],[-83.8526391,37.4704902],[-83.8522576,37.4703604],[-83.8519449,37.4700806],[-83.851809,37.4699146],[-83.8517113,37.4693666],[-83.8515571,37.4690399],[-83.8513757,37.468894],[-83.8512143,37.4686896],[-83.8509675,37.4685395],[-83.8506664,37.4685136],[-83.8501913,37.4688775],[-83.8500445,37.4689229],[-83.8499184,37.4687353],[-83.8494739,37.4687373],[-83.8489345,37.4687015],[-83.8483284,37.46865],[-83.847881,37.4686896],[-83.8474036,37.4689776],[-83.8468378,37.4694217],[-83.8458532,37.4699762],[-83.8450207,37.4702949],[-83.845,37.47029155836377]]}},{"type":"Feature","properties":{"osm_id":968565386,"highway":"track","name":null,"alt_name":null,"official_name":null,"surface":null,"tracktype":null,"service":null,"access":null,"motor_vehicle":null,"foot":null,"tiger_reviewed":null,"rrgh_part":0,"rrgh_tile_part":0},"geometry":{"type":"LineString","coordinates":[[-83.858714,37.484537],[-83.8586398,37.4840743],[-83.8578586,37.4818278],[-83.8578015,37.4815388],[-83.857841,37.4813089],[-83.8578322,37.4812079],[-83.8577927,37.4810093],[-83.8578235,37.4806645],[-83.8578322,37.4804451],[-83.8577181,37.4802152],[-83.8576567,37.4801038],[-83.8575864,37.4793758],[-83.8575557,37.4790275],[-83.8574767,37.4786687],[-83.857345,37.4784702],[-83.8572222,37.478317],[-83.8567745,37.4778955],[-83.8562961,37.4774288],[-83.8559142,37.476962],[-83.8555675,37.4762758],[-83.855427,37.4760843],[-83.8553436,37.475938],[-83.8553041,37.4751925],[-83.8553524,37.4749278],[-83.8555183,37.4746697],[-83.8554964,37.4743794]]}},{"type":"Feature","properties":{"osm_id":1311397877,"highway":"track","name":null,"alt_name":null,"official_name":null,"surface":null,"tracktype":null,"service":null,"access":null,"motor_vehicle":null,"foot":null,"tiger_reviewed":null,"rrgh_part":0,"rrgh_tile_part":0},"geometry":{"type":"LineString","coordinates":[[-83.8499184,37.4687353],[-83.8501139,37.4687757],[-83.8503193,37.4686772],[-83.850495,37.4684266],[-83.8509476,37.4680893],[-83.8512589,37.4679399],[-83.8517634,37.4680081],[-83.8525539,37.4680973],[-83.853794,37.4683934],[-83.8544617,37.4683974],[-83.8549494,37.4686759],[-83.8554247,37.4687528],[-83.8558786,37.4685393]]}},{"type":"Feature","properties":{"osm_id":1311397878,"highway":"track","name":null,"alt_name":null,"official_name":null,"surface":null,"tracktype":null,"service":null,"access":null,"motor_vehicle":null,"foot":null,"tiger_reviewed":null,"rrgh_part":0,"rrgh_tile_part":0},"geometry":{"type":"LineString","coordinates":[[-83.8564966,37.4679233],[-83.8568571,37.4678962],[-83.8571813,37.4679544],[-83.8575996,37.4682732],[-83.8580732,37.4686927],[-83.8583362,37.4688874],[-83.8585169,37.4693612],[-83.8586809,37.4696284],[-83.8587921,37.4702435],[-83.8586893,37.4707811],[-83.8586177,37.4711399],[-83.8584662,37.4715563],[-83.8583276,37.4718271],[-83.8584644,37.4720574],[-83.8591842,37.4724626],[-83.859295,37.4726471],[-83.8588977,37.4729501],[-83.8581831,37.473106],[-83.8579577,37.473256],[-83.8578879,37.4736255],[-83.8577442,37.4737293],[-83.8573974,37.4737046],[-83.85679,37.4740269],[-83.8559209,37.4739227]]}},{"type":"Feature","properties":{"osm_id":16332205,"highway":"service","name":null,"alt_name":null,"official_name":null,"surface":null,"tracktype":null,"service":null,"access":null,"motor_vehicle":null,"foot":null,"tiger_reviewed":"no","rrgh_part":0,"rrgh_tile_part":0},"geometry":{"type":"LineString","coordinates":[[-83.8839836,37.4773682],[-83.8837274,37.4772979],[-83.8833882,37.477137],[-83.8829745,37.4771151],[-83.8827388,37.4772546],[-83.8825237,37.4774648],[-83.8823325,37.4775681],[-83.8820245,37.4772244]]}},{"type":"Feature","properties":{"osm_id":968559257,"highway":"service","name":null,"alt_name":null,"official_name":null,"surface":null,"tracktype":null,"service":null,"access":null,"motor_vehicle":null,"foot":null,"tiger_reviewed":null,"rrgh_part":0,"rrgh_tile_part":0},"geometry":{"type":"LineString","coordinates":[[-83.8788091,37.4882048],[-83.8787991,37.4880535],[-83.8787139,37.4878665],[-83.8787416,37.4877376],[-83.8788367,37.4876119],[-83.8790645,37.4873479],[-83.8792011,37.4871561],[-83.8793695,37.4869267],[-83.8794705,37.4868198],[-83.8796388,37.4864144],[-83.8798666,37.4857826]]}},{"type":"Feature","properties":{"osm_id":968565387,"highway":"service","name":null,"alt_name":null,"official_name":null,"surface":null,"tracktype":null,"service":null,"access":null,"motor_vehicle":null,"foot":null,"tiger_reviewed":null,"rrgh_part":0,"rrgh_tile_part":0},"geometry":{"type":"LineString","coordinates":[[-83.8574292,37.4880358],[-83.8574785,37.4880896],[-83.857559,37.4882521],[-83.8575151,37.4885539],[-83.8575029,37.4886971],[-83.8575321,37.4887319],[-83.8576858,37.4887358],[-83.8578101,37.4887803],[-83.8580649,37.4889301],[-83.8580722,37.4890558],[-83.8581307,37.4892609],[-83.8582112,37.4894505],[-83.8582941,37.4895453],[-83.8584307,37.4896905],[-83.8585087,37.4898665],[-83.8586721,37.4900194],[-83.8589159,37.4902457],[-83.8592158,37.4905321],[-83.8593134,37.4907159],[-83.8595157,37.4909384],[-83.8598035,37.4912673],[-83.8600522,37.4915149],[-83.8602887,37.4917509],[-83.8603887,37.4920489],[-83.8605155,37.4924881],[-83.8608105,37.4929833]]}},{"type":"Feature","properties":{"osm_id":1311401308,"highway":"track","name":null,"alt_name":null,"official_name":null,"surface":null,"tracktype":null,"service":null,"access":null,"motor_vehicle":null,"foot":null,"tiger_reviewed":null,"rrgh_part":0,"rrgh_tile_part":0},"geometry":{"type":"LineString","coordinates":[[-83.8617378,37.4934795],[-83.8609709,37.491778],[-83.8607456,37.491425],[-83.8602576,37.4908082],[-83.8600216,37.4905572],[-83.8592975,37.4899872],[-83.8580649,37.4889301]]}},{"type":"Feature","properties":{"osm_id":1227071040,"highway":"track","name":null,"alt_name":null,"official_name":null,"surface":null,"tracktype":null,"service":null,"access":null,"motor_vehicle":null,"foot":null,"tiger_reviewed":"no","rrgh_part":0,"rrgh_tile_part":0},"geometry":{"type":"LineString","coordinates":[[-83.8800266,37.494884],[-83.880259,37.494944],[-83.880415,37.494994],[-83.8812186,37.495409],[-83.8823961,37.4957601],[-83.8829095,37.4959372],[-83.883746,37.496393],[-83.884579,37.49726],[-83.884549,37.497671],[-83.884176,37.498124],[-83.884253,37.498489],[-83.884353,37.498901],[-83.884841,37.499664],[-83.8853,37.500106]]}},{"type":"Feature","properties":{"osm_id":968565389,"highway":"service","name":null,"alt_name":null,"official_name":null,"surface":null,"tracktype":null,"service":null,"access":null,"motor_vehicle":null,"foot":null,"tiger_reviewed":null,"rrgh_part":0,"rrgh_tile_part":0},"geometry":{"type":"LineString","coordinates":[[-83.850189,37.481934],[-83.8502111,37.4819762],[-83.8501075,37.482155],[-83.8500657,37.4823454],[-83.8500948,37.4824824],[-83.8501548,37.482605],[-83.8503129,37.4827679],[-83.8505273,37.4829742],[-83.8507327,37.4831097],[-83.8510762,37.4833059],[-83.8514252,37.4835424],[-83.8515524,37.4836232],[-83.8516669,37.4836462],[-83.8517596,37.4836333],[-83.8518886,37.4835842],[-83.852054,37.4835294],[-83.8522067,37.4834934],[-83.8523702,37.4834862],[-83.8524557,37.4834602],[-83.8524993,37.4833967],[-83.8524666,37.4833189],[-83.8523484,37.4832842]]}},{"type":"Feature","properties":{"osm_id":1311408194,"highway":"track","name":null,"alt_name":null,"official_name":null,"surface":null,"tracktype":null,"service":null,"access":null,"motor_vehicle":null,"foot":null,"tiger_reviewed":null,"rrgh_part":0,"rrgh_tile_part":0},"geometry":{"type":"LineString","coordinates":[[-83.8553903,37.495661],[-83.8552801,37.4954613],[-83.8552316,37.4950476],[-83.8550045,37.4947058],[-83.8550709,37.4942614],[-83.8550093,37.4938106],[-83.8549117,37.4932537],[-83.8549216,37.4927033],[-83.8550055,37.4923291],[-83.8552583,37.4918999],[-83.8552977,37.4914299],[-83.8552626,37.4909863],[-83.8555196,37.4903878],[-83.855582,37.4897005],[-83.8556035,37.4891543],[-83.8556345,37.4887784]]}},{"type":"Feature","properties":{"osm_id":16331865,"highway":"residential","name":"Bradshaw School Road","alt_name":null,"official_name":null,"surface":null,"tracktype":null,"service":null,"access":null,"motor_vehicle":null,"foot":null,"tiger_reviewed":"no","rrgh_part":0,"rrgh_tile_part":0},"geometry":{"type":"LineString","coordinates":[[-83.856148,37.48441],[-83.856129,37.48444],[-83.856057,37.484548],[-83.856042,37.484569],[-83.855941,37.484673],[-83.855794,37.484862],[-83.855712,37.484954],[-83.855668,37.485025],[-83.855622,37.485191],[-83.855616,37.485292],[-83.855638,37.485388],[-83.855663,37.485462],[-83.855701,37.485494],[-83.855757,37.485523],[-83.855841,37.48553],[-83.855952,37.485527],[-83.856096,37.48551],[-83.856239,37.4855],[-83.856691,37.485517],[-83.856868,37.485536],[-83.856936,37.485554],[-83.857217,37.485719],[-83.857315,37.485789],[-83.857417,37.485868],[-83.857508,37.485941],[-83.857587,37.486014],[-83.857637,37.486072],[-83.857688,37.486175],[-83.857728,37.486267],[-83.857767,37.486373],[-83.857859,37.486558],[-83.857884,37.486745],[-83.857882,37.486833],[-83.857871,37.486917],[-83.857852,37.486988],[-83.857835,37.487088],[-83.857835,37.487191],[-83.857839,37.487243],[-83.857817,37.487322],[-83.857775,37.48741],[-83.8574663,37.487848],[-83.8573927,37.4879948],[-83.8574292,37.4880358]]}},{"type":"Feature","properties":{"osm_id":1311408195,"highway":"track","name":null,"alt_name":null,"official_name":null,"surface":null,"tracktype":null,"service":null,"access":null,"motor_vehicle":null,"foot":null,"tiger_reviewed":null,"rrgh_part":0,"rrgh_tile_part":0},"geometry":{"type":"LineString","coordinates":[[-83.846997,37.4938844],[-83.8471513,37.4934504],[-83.8473714,37.493021],[-83.8475245,37.4926642],[-83.847545,37.4925653],[-83.8477073,37.4923366],[-83.847801,37.4920544],[-83.8478731,37.4916896],[-83.847855,37.4914259],[-83.8479061,37.491146],[-83.8477999,37.4909615],[-83.8477476,37.4907131],[-83.8478012,37.4901478]]}},{"type":"Feature","properties":{"osm_id":16333373,"highway":"residential","name":"Brushy Mountain Road","alt_name":null,"official_name":null,"surface":"gravel","tracktype":null,"service":null,"access":null,"motor_vehicle":null,"foot":null,"tiger_reviewed":"no","rrgh_part":0,"rrgh_tile_part":0},"geometry":{"type":"LineString","coordinates":[[-83.845,37.4946310887372],[-83.8451544,37.4948976],[-83.8453123,37.4950997],[-83.8455912,37.4953355],[-83.845918,37.495567],[-83.846597,37.495897],[-83.8469707,37.4959618],[-83.8487276,37.4953541],[-83.8489746,37.4953035],[-83.8490996,37.4953166],[-83.8493011,37.4953987],[-83.8494868,37.4954357],[-83.8502879,37.4951695],[-83.8506768,37.4951861],[-83.8517588,37.4954557],[-83.8522108,37.4957209],[-83.8523088,37.4960003],[-83.8521899,37.4964207],[-83.8518724,37.497015],[-83.8517968,37.497262],[-83.8519776,37.4974907],[-83.8525308,37.4979239],[-83.8529067,37.4980694],[-83.8534188,37.4981827],[-83.8535255,37.4981542]]}},{"type":"Feature","properties":{"osm_id":16332212,"highway":"track","name":null,"alt_name":null,"official_name":null,"surface":null,"tracktype":null,"service":null,"access":null,"motor_vehicle":null,"foot":null,"tiger_reviewed":"no","rrgh_part":0,"rrgh_tile_part":0},"geometry":{"type":"LineString","coordinates":[[-83.8535255,37.4981542],[-83.8544057,37.4981634],[-83.855628,37.498268],[-83.856376,37.498496],[-83.856658,37.498723],[-83.856772,37.498952],[-83.8570893,37.4997739],[-83.8569768,37.5002513],[-83.8570122,37.5006706],[-83.8572495,37.5009087],[-83.8576515,37.5010031],[-83.8582667,37.500868],[-83.8586639,37.5009741],[-83.8591732,37.5009397]]}},{"type":"Feature","properties":{"osm_id":1311397883,"highway":"track","name":null,"alt_name":null,"official_name":null,"surface":null,"tracktype":null,"service":null,"access":null,"motor_vehicle":null,"foot":null,"tiger_reviewed":null,"rrgh_part":0,"rrgh_tile_part":0},"geometry":{"type":"LineString","coordinates":[[-83.845,37.50202584335664],[-83.8450855,37.5021332],[-83.8451392,37.5022566],[-83.8451606,37.5023842],[-83.8451606,37.5028352],[-83.845166,37.5032393],[-83.8452679,37.5034733]]}},{"type":"Feature","properties":{"osm_id":1311397884,"highway":"track","name":null,"alt_name":null,"official_name":null,"surface":null,"tracktype":null,"service":null,"access":null,"motor_vehicle":null,"foot":null,"tiger_reviewed":null,"rrgh_part":0,"rrgh_tile_part":0},"geometry":{"type":"LineString","coordinates":[[-83.8451544,37.4948976],[-83.8450975,37.4949155],[-83.845,37.49496086062378]]}},{"type":"Feature","properties":{"osm_id":16269069,"highway":"service","name":"Reece Lane","alt_name":null,"official_name":null,"surface":null,"tracktype":null,"service":null,"access":"private","motor_vehicle":null,"foot":null,"tiger_reviewed":"no","rrgh_part":0,"rrgh_tile_part":0},"geometry":{"type":"LineString","coordinates":[[-83.880246,37.515732],[-83.880264,37.515848],[-83.880287,37.516216],[-83.880254,37.516421],[-83.880244,37.516631],[-83.880202,37.517061],[-83.880176,37.517167],[-83.880142,37.517202],[-83.880076,37.517216],[-83.879774,37.51719],[-83.879656,37.517232],[-83.879552,37.517303],[-83.879499,37.517361],[-83.879433,37.517457],[-83.879299,37.517706],[-83.879207,37.517894],[-83.879143,37.518129]]}},{"type":"Feature","properties":{"osm_id":886811475,"highway":"track","name":"Sheltowee Trace","alt_name":null,"official_name":null,"surface":null,"tracktype":null,"service":null,"access":null,"motor_vehicle":null,"foot":"yes","tiger_reviewed":null,"rrgh_part":0,"rrgh_tile_part":0},"geometry":{"type":"LineString","coordinates":[[-83.8853813,37.5176307],[-83.8854288,37.5171054],[-83.8854444,37.5163115],[-83.8854324,37.515603],[-83.8853267,37.5150994],[-83.8853241,37.5144109],[-83.8853193,37.514316]]}},{"type":"Feature","properties":{"osm_id":16269677,"highway":"residential","name":"Hale Ridge Road","alt_name":null,"official_name":null,"surface":null,"tracktype":null,"service":null,"access":null,"motor_vehicle":null,"foot":null,"tiger_reviewed":"no","rrgh_part":0,"rrgh_tile_part":0},"geometry":{"type":"LineString","coordinates":[[-83.875504,37.516669],[-83.875392,37.516697],[-83.875169,37.516727],[-83.874636,37.516749],[-83.874331,37.516806],[-83.874144,37.516885],[-83.87398,37.516972],[-83.873816,37.5171],[-83.873741,37.517176],[-83.873604,37.517347],[-83.873487,37.517536],[-83.873295,37.517932],[-83.873132,37.518211],[-83.873008,37.518383],[-83.872792,37.518718],[-83.87267,37.518863],[-83.872602,37.518927],[-83.872448,37.519036],[-83.872181,37.519168],[-83.871992,37.519241],[-83.871683,37.519342],[-83.871584,37.519384],[-83.871488,37.519439],[-83.871335,37.519574],[-83.871126,37.519805],[-83.870831,37.520089],[-83.870597,37.520265],[-83.87034,37.520433],[-83.870253,37.520481],[-83.870069,37.52055],[-83.869239,37.520723],[-83.868518,37.520956],[-83.868232,37.521027],[-83.86796,37.521079],[-83.867784,37.521094],[-83.867614,37.521085],[-83.867442,37.52106],[-83.86673,37.520896],[-83.86647,37.520859],[-83.866297,37.520854],[-83.866074,37.520861],[-83.865525,37.520878],[-83.865175,37.520875],[-83.863627,37.520748],[-83.863339,37.520752],[-83.862881,37.520798],[-83.86271,37.520798],[-83.862626,37.520788],[-83.862463,37.520748],[-83.862239,37.520658],[-83.862031,37.520555],[-83.861799,37.520406],[-83.861539,37.520176],[-83.86147,37.52013],[-83.861295,37.520057],[-83.861198,37.52003],[-83.860713,37.519945],[-83.859793,37.519732],[-83.859509,37.519707],[-83.859322,37.519718],[-83.859138,37.519747],[-83.858795,37.51983],[-83.858505,37.519922],[-83.858337,37.51999],[-83.858252,37.520035],[-83.858089,37.520142],[-83.857949,37.520261],[-83.857817,37.520393],[-83.857643,37.52061],[-83.857493,37.520843],[-83.857334,37.521124],[-83.857094,37.521484],[-83.857066,37.521547],[-83.8570503,37.521626],[-83.857043,37.521756],[-83.857067,37.521971],[-83.857065,37.522118],[-83.857027,37.522253],[-83.856861,37.522644],[-83.856803,37.522854],[-83.856774,37.52292],[-83.856729,37.523192],[-83.856657,37.523483],[-83.856516,37.523838],[-83.856343,37.524187],[-83.85599,37.524852],[-83.855905,37.52497],[-83.8558678,37.525000000000006]]}},{"type":"Feature","properties":{"osm_id":16269677,"highway":"residential","name":"Hale Ridge Road","alt_name":null,"official_name":null,"surface":null,"tracktype":null,"service":null,"access":null,"motor_vehicle":null,"foot":null,"tiger_reviewed":"no","rrgh_part":0,"rrgh_tile_part":1},"geometry":{"type":"LineString","coordinates":[[-83.85513477379311,37.525000000000006],[-83.854771,37.524856],[-83.854472,37.524783],[-83.854169,37.524764],[-83.853968,37.524772],[-83.853176,37.524837],[-83.852928,37.524871],[-83.852847,37.524891],[-83.85268,37.524958],[-83.85260905699481,37.525000000000006]]}},{"type":"Feature","properties":{"osm_id":16269677,"highway":"residential","name":"Hale Ridge Road","alt_name":null,"official_name":null,"surface":null,"tracktype":null,"service":null,"access":null,"motor_vehicle":null,"foot":null,"tiger_reviewed":"no","rrgh_part":0,"rrgh_tile_part":2},"geometry":{"type":"LineString","coordinates":[[-83.8505426666667,37.525000000000006],[-83.850313,37.524922],[-83.850137,37.524878],[-83.85004,37.52487],[-83.849842,37.524866],[-83.849746,37.524874],[-83.849652,37.524889],[-83.849563,37.524916],[-83.849382,37.524993],[-83.84937059793815,37.525000000000006]]}},{"type":"Feature","properties":{"osm_id":613714179,"highway":"service","name":null,"alt_name":null,"official_name":null,"surface":null,"tracktype":null,"service":null,"access":null,"motor_vehicle":null,"foot":null,"tiger_reviewed":null,"rrgh_part":0,"rrgh_tile_part":0},"geometry":{"type":"LineString","coordinates":[[-83.8854111,37.5176597],[-83.8854754,37.5174233]]}},{"type":"Feature","properties":{"osm_id":16269542,"highway":"service","name":"Reece Lane","alt_name":null,"official_name":null,"surface":null,"tracktype":null,"service":null,"access":null,"motor_vehicle":null,"foot":null,"tiger_reviewed":"no","rrgh_part":0,"rrgh_tile_part":0},"geometry":{"type":"LineString","coordinates":[[-83.879149,37.518181],[-83.879143,37.518129],[-83.879072,37.518315],[-83.8791,37.518359],[-83.879145,37.518366],[-83.879179,37.518343],[-83.87919,37.518299],[-83.879149,37.518181]]}},{"type":"Feature","properties":{"osm_id":886711543,"highway":"residential","name":null,"alt_name":null,"official_name":null,"surface":null,"tracktype":null,"service":null,"access":null,"motor_vehicle":null,"foot":null,"tiger_reviewed":null,"rrgh_part":0,"rrgh_tile_part":0},"geometry":{"type":"LineString","coordinates":[[-83.8759166,37.5164897],[-83.8758319,37.5163025]]}},{"type":"Feature","properties":{"osm_id":886811470,"highway":"residential","name":"Hale Ridge Road","alt_name":null,"official_name":null,"surface":null,"tracktype":null,"service":null,"access":null,"motor_vehicle":null,"foot":null,"tiger_reviewed":"no","rrgh_part":0,"rrgh_tile_part":0},"geometry":{"type":"LineString","coordinates":[[-83.876564,37.516298],[-83.8759166,37.5164897],[-83.875865,37.516505],[-83.875707,37.516587],[-83.875504,37.516669]]}},{"type":"Feature","properties":{"osm_id":16268708,"highway":"track","name":null,"alt_name":null,"official_name":null,"surface":null,"tracktype":null,"service":null,"access":null,"motor_vehicle":null,"foot":null,"tiger_reviewed":"no","rrgh_part":0,"rrgh_tile_part":0},"geometry":{"type":"LineString","coordinates":[[-83.866074,37.520861],[-83.865933,37.520524],[-83.865771,37.520397],[-83.865548,37.520272],[-83.865387,37.520021],[-83.865234,37.519678],[-83.865022,37.519467],[-83.86491,37.519224],[-83.86486,37.519094],[-83.864717,37.519013],[-83.864566,37.518933]]}},{"type":"Feature","properties":{"osm_id":16269705,"highway":"residential","name":"C Creech Road","alt_name":null,"official_name":null,"surface":null,"tracktype":null,"service":null,"access":null,"motor_vehicle":null,"foot":null,"tiger_reviewed":"no","rrgh_part":0,"rrgh_tile_part":0},"geometry":{"type":"LineString","coordinates":[[-83.848083,37.50371],[-83.848104,37.50431],[-83.84858,37.50514],[-83.848778,37.505302],[-83.848915,37.505764],[-83.848937,37.506271],[-83.8493,37.507033],[-83.8497911,37.5074174],[-83.8498146,37.5077511],[-83.849513,37.508233],[-83.849163,37.50842],[-83.8487544,37.5087336],[-83.8485673,37.5094493],[-83.848252,37.509944],[-83.847118,37.510433]]}},{"type":"Feature","properties":{"osm_id":886711542,"highway":"track","name":"Forest Road 3047","alt_name":null,"official_name":null,"surface":"ground","tracktype":"grade5","service":null,"access":null,"motor_vehicle":null,"foot":null,"tiger_reviewed":null,"rrgh_part":0,"rrgh_tile_part":0},"geometry":{"type":"LineString","coordinates":[[-83.845,37.51748076735189],[-83.8450062,37.517485],[-83.8453072,37.5176786],[-83.8454078,37.5178129],[-83.8454295,37.5179937],[-83.8452847,37.5182206],[-83.8450356,37.5184246],[-83.845,37.51844686062053]]}},{"type":"Feature","properties":{"osm_id":886711542,"highway":"track","name":"Forest Road 3047","alt_name":null,"official_name":null,"surface":"ground","tracktype":"grade5","service":null,"access":null,"motor_vehicle":null,"foot":null,"tiger_reviewed":null,"rrgh_part":0,"rrgh_tile_part":1},"geometry":{"type":"LineString","coordinates":[[-83.845,37.52056132560306],[-83.845573,37.5205802],[-83.8458643,37.5205842],[-83.8466575,37.5206805],[-83.8468751,37.5207666],[-83.847659,37.5209118],[-83.848624,37.5209205],[-83.8491247,37.5209487],[-83.8494774,37.5210154],[-83.849727,37.5211193],[-83.8506369,37.5214581],[-83.8508573,37.5214964],[-83.8512314,37.5215253],[-83.8514956,37.5215348],[-83.8518492,37.5215654],[-83.8523243,37.5215437],[-83.8528433,37.5214492],[-83.8531619,37.5213889],[-83.8536929,37.521435],[-83.8538584,37.5214149],[-83.8544002,37.5215276],[-83.8547798,37.5216465],[-83.85493,37.5217407],[-83.8552028,37.5220119],[-83.8553465,37.5220879],[-83.8555356,37.5221375],[-83.8562284,37.5220632],[-83.8565998,37.5218902],[-83.8567966,37.5216611],[-83.8569489,37.5216298],[-83.8570503,37.521626]]}}],"rrgh_tile":{"id":"r1c1","bounds":[37.45,-83.93,37.525000000000006,-83.845]}}
