{"type":"FeatureCollection","features":[{"type":"Feature","properties":{"osm_id":16333359,"highway":"residential","name":"Moores Branch Road","alt_name":null,"official_name":null,"surface":null,"tracktype":null,"service":null,"access":null,"motor_vehicle":null,"foot":null,"tiger_reviewed":"no","rrgh_part":0,"rrgh_tile_part":0},"geometry":{"type":"LineString","coordinates":[[-83.59,37.49778562264151],[-83.589901,37.497785],[-83.589586,37.49777],[-83.589275,37.497743],[-83.588971,37.497721],[-83.588826,37.497714],[-83.588683,37.497718],[-83.588413,37.497711],[-83.588279,37.497719],[-83.588147,37.497739],[-83.588018,37.497766],[-83.587893,37.497797],[-83.587773,37.497831],[-83.587567,37.497901],[-83.587499,37.497928],[-83.587412,37.497968],[-83.58736,37.497998],[-83.587284,37.498062],[-83.587028,37.498309],[-83.586839,37.498472],[-83.586774,37.498523],[-83.586639,37.498619],[-83.586432,37.49876],[-83.58637,37.498807],[-83.586314,37.498855],[-83.586264,37.498903],[-83.586221,37.49895],[-83.586181,37.498999],[-83.586113,37.499093],[-83.586079,37.499132],[-83.586041,37.499159],[-83.586002,37.499175],[-83.585969,37.499185],[-83.58592,37.499193]]}},{"type":"Feature","properties":{"osm_id":16268276,"highway":"residential","name":null,"alt_name":null,"official_name":null,"surface":null,"tracktype":null,"service":null,"access":null,"motor_vehicle":null,"foot":null,"tiger_reviewed":"no","rrgh_part":0,"rrgh_tile_part":0},"geometry":{"type":"LineString","coordinates":[[-83.59,37.51470412903226],[-83.589368,37.514908],[-83.588874,37.514888],[-83.588322,37.514773],[-83.587712,37.514771],[-83.586926,37.515122],[-83.585407,37.516356],[-83.583486,37.517246],[-83.583046,37.517586],[-83.582145,37.517932],[-83.581332,37.518014],[-83.580692,37.518214],[-83.580402,37.518202],[-83.579529,37.517937],[-83.578687,37.517901],[-83.578429,37.51831],[-83.578107,37.518568],[-83.577526,37.51912],[-83.577282,37.519292],[-83.57736,37.519811],[-83.577552,37.520374],[-83.577445,37.521869],[-83.577529,37.521911],[-83.57749,37.522561],[-83.577121,37.523072],[-83.576557,37.523214],[-83.575966,37.524158]]}},{"type":"Feature","properties":{"osm_id":16332729,"highway":"residential","name":"Poletown Fork-Reynolds Branch Road","alt_name":null,"official_name":null,"surface":null,"tracktype":null,"service":null,"access":null,"motor_vehicle":null,"foot":null,"tiger_reviewed":"no","rrgh_part":0,"rrgh_tile_part":0},"geometry":{"type":"LineString","coordinates":[[-83.58616608450704,37.45],[-83.58616,37.450024],[-83.586133,37.450093],[-83.586096,37.450159],[-83.58605,37.45022],[-83.585837,37.450444],[-83.585793,37.450499],[-83.58572,37.450618],[-83.585664,37.450771],[-83.58558,37.450881],[-83.585495,37.450955],[-83.585386,37.451038],[-83.585265,37.451121],[-83.585192,37.451214],[-83.585086,37.45129],[-83.584877,37.451534],[-83.584754,37.45166],[-83.584531,37.451809],[-83.584449,37.451893],[-83.584251,37.452016],[-83.584144,37.452063],[-83.583975,37.452096],[-83.583881,37.452073],[-83.583799,37.452062],[-83.583624,37.452057],[-83.583452,37.452061],[-83.583257,37.452089],[-83.583034,37.452149],[-83.582807,37.452221],[-83.582654,37.452237],[-83.582378,37.452289],[-83.582247,37.452295],[-83.582033,37.45231],[-83.581806,37.452363],[-83.581591,37.452406],[-83.581455,37.452449],[-83.581195,37.452513],[-83.581109,37.452529],[-83.581025,37.452538],[-83.58078,37.452546],[-83.580707,37.452539],[-83.580642,37.452529],[-83.580079,37.452471],[-83.579762,37.452429],[-83.579375,37.452439],[-83.578997,37.452337],[-83.578928,37.452335],[-83.578856,37.452338],[-83.578786,37.452346],[-83.578535,37.452395],[-83.578472,37.452404],[-83.578403,37.45241],[-83.578212,37.452418],[-83.578087,37.452428],[-83.57803,37.452438],[-83.57789,37.45247],[-83.577852,37.452469],[-83.577818,37.452474],[-83.577802,37.452504],[-83.577785,37.452558],[-83.577766,37.452591],[-83.577602,37.452827],[-83.577508,37.452974],[-83.577295,37.453356],[-83.577211,37.453489],[-83.577124,37.453614],[-83.57703,37.453741],[-83.576858,37.45396],[-83.576819,37.453995],[-83.576713,37.454133],[-83.576692,37.454164],[-83.576675,37.454197],[-83.576658,37.454271],[-83.576656,37.454309],[-83.576664,37.454378],[-83.57668,37.454445],[-83.576732,37.454585],[-83.576764,37.454628]]}},{"type":"Feature","properties":{"osm_id":16333728,"highway":"residential","name":"Poletown Fork-Reynolds Branch Spur","alt_name":null,"official_name":null,"surface":null,"tracktype":null,"service":null,"access":null,"motor_vehicle":null,"foot":null,"tiger_reviewed":"no","rrgh_part":0,"rrgh_tile_part":0},"geometry":{"type":"LineString","coordinates":[[-83.577818,37.452474],[-83.577801,37.452435],[-83.577777,37.452327],[-83.577732,37.452154],[-83.577656,37.451812],[-83.577361,37.451229],[-83.577104,37.450791],[-83.576907,37.450487]]}},{"type":"Feature","properties":{"osm_id":16333682,"highway":"residential","name":"Split Popular Fork Road","alt_name":null,"official_name":null,"surface":null,"tracktype":null,"service":null,"access":null,"motor_vehicle":null,"foot":null,"tiger_reviewed":"no","rrgh_part":0,"rrgh_tile_part":0},"geometry":{"type":"LineString","coordinates":[[-83.566345,37.4533],[-83.566868,37.453609],[-83.567076,37.453724],[-83.567235,37.453787],[-83.56753,37.453893],[-83.567681,37.453939],[-83.567811,37.453975],[-83.567932,37.454001],[-83.568456,37.454063],[-83.568629,37.454096],[-83.568719,37.454139],[-83.568785,37.454179],[-83.568983,37.454309],[-83.569059,37.454343],[-83.569138,37.454366],[-83.569298,37.454385],[-83.56946,37.454369],[-83.570117,37.454239],[-83.570445,37.454182],[-83.570771,37.454154],[-83.570882,37.454148],[-83.571211,37.454136],[-83.571336,37.454134],[-83.571507,37.454091],[-83.572002,37.453874],[-83.572131,37.453831],[-83.572283,37.453797],[-83.57256,37.453761],[-83.572702,37.453748],[-83.572984,37.453737],[-83.573106,37.453743],[-83.573225,37.453751],[-83.573342,37.453765],[-83.573701,37.453786],[-83.574036,37.453837],[-83.57415,37.453835],[-83.574261,37.453817],[-83.574365,37.453793],[-83.574469,37.453774],[-83.57466,37.453756],[-83.574859,37.453769],[-83.575097,37.453797],[-83.57522,37.453817],[-83.575321,37.453853],[-83.575538,37.453943],[-83.575707,37.454029],[-83.575772,37.454058],[-83.575871,37.454078],[-83.575973,37.454094],[-83.576151,37.454164],[-83.57624,37.454218],[-83.576319,37.45428],[-83.576389,37.45435],[-83.576452,37.454423],[-83.576521,37.454488],[-83.576598,37.454543],[-83.576682,37.454589],[-83.576764,37.454628],[-83.576819,37.454666],[-83.576901,37.454747],[-83.577074,37.454976],[-83.577348,37.455354],[-83.577391,37.455426],[-83.577431,37.455479],[-83.577547,37.455596],[-83.577616,37.455675],[-83.57766,37.455748],[-83.577702,37.45583],[-83.577882,37.456222],[-83.577955,37.45634],[-83.57801,37.456392],[-83.578058,37.456451],[-83.578119,37.456517],[-83.578225,37.456606],[-83.578264,37.456649],[-83.578433,37.456864],[-83.578543,37.457012],[-83.578617,37.457119],[-83.57871,37.457221],[-83.578795,37.457305],[-83.578886,37.457379],[-83.579034,37.457532],[-83.579088,37.457601],[-83.579192,37.457751],[-83.579236,37.457825],[-83.579259,37.45788],[-83.579277,37.457935],[-83.57928,37.457986],[-83.579272,37.458039],[-83.57922,37.45818],[-83.579211,37.458281],[-83.57922,37.458339],[-83.579237,37.458404],[-83.579332,37.458627],[-83.579359,37.458703],[-83.579379,37.458775],[-83.579386,37.458839],[-83.579391,37.458981],[-83.579321,37.459271],[-83.579322,37.459391],[-83.579341,37.459493],[-83.579369,37.459599],[-83.579393,37.459646],[-83.579427,37.459689],[-83.579468,37.459728],[-83.57966,37.45987],[-83.579745,37.459941],[-83.579859,37.460082],[-83.579886,37.460134],[-83.579895,37.460164]]}},{"type":"Feature","properties":{"osm_id":16332943,"highway":"residential","name":"Young Cemetery Road","alt_name":null,"official_name":null,"surface":null,"tracktype":null,"service":null,"access":null,"motor_vehicle":null,"foot":null,"tiger_reviewed":"no","rrgh_part":0,"rrgh_tile_part":0},"geometry":{"type":"LineString","coordinates":[[-83.577242,37.461266],[-83.577215,37.4612],[-83.577195,37.46116],[-83.577148,37.461088],[-83.577042,37.460973],[-83.577027,37.460951]]}},{"type":"Feature","properties":{"osm_id":16334251,"highway":"residential","name":"Right Fork Spencer Fork Road","alt_name":null,"official_name":null,"surface":null,"tracktype":null,"service":null,"access":null,"motor_vehicle":null,"foot":null,"tiger_reviewed":"no","rrgh_part":0,"rrgh_tile_part":0},"geometry":{"type":"LineString","coordinates":[[-83.589341,37.480429],[-83.589358,37.4803501],[-83.5893554,37.4803192],[-83.589318,37.480135],[-83.589301,37.480072],[-83.589235,37.479871],[-83.589204,37.479736],[-83.589178,37.479652],[-83.589126,37.47943],[-83.589101,37.47936],[-83.589066,37.479294],[-83.58902,37.479233],[-83.58896,37.47918],[-83.588883,37.479135],[-83.588794,37.479102],[-83.588694,37.479074],[-83.588597,37.479053],[-83.58849,37.479024],[-83.588384,37.478984],[-83.588284,37.478939],[-83.588193,37.478887],[-83.588003,37.478757],[-83.587931,37.478684],[-83.587805,37.478537],[-83.587769,37.478476],[-83.587688,37.478417],[-83.587595,37.478363],[-83.587465,37.478309],[-83.587272,37.478217],[-83.58706,37.478108],[-83.586839,37.47798],[-83.586733,37.477915],[-83.586605,37.477849],[-83.586512,37.477782],[-83.586135,37.477607],[-83.586039,37.477558],[-83.585821,37.477471],[-83.585212,37.477286],[-83.584823,37.477196],[-83.584694,37.477172],[-83.584432,37.477135],[-83.584308,37.477138],[-83.584183,37.477136],[-83.584058,37.477122],[-83.583937,37.477094],[-83.58359,37.476986],[-83.583475,37.476959],[-83.583242,37.476924],[-83.583126,37.476902],[-83.583016,37.476869],[-83.582731,37.476746],[-83.582586,37.476695],[-83.582535,37.47668],[-83.582482,37.476674],[-83.582364,37.476675],[-83.582216,37.476683],[-83.582052,37.476696],[-83.581887,37.476701],[-83.581805,37.476697],[-83.581724,37.476687],[-83.581645,37.476672],[-83.581495,37.476636],[-83.581302,37.476584],[-83.581247,37.476563],[-83.580898,37.476485],[-83.580707,37.476438],[-83.580504,37.476377],[-83.579764,37.476139],[-83.579433,37.47601],[-83.57898,37.475826],[-83.578873,37.475776],[-83.578761,37.47573],[-83.578382,37.475553],[-83.578307,37.475522],[-83.5782,37.475486],[-83.578132,37.475469],[-83.578034,37.475559],[-83.577949,37.475644],[-83.577898,37.475688],[-83.57772,37.475828],[-83.577533,37.475982],[-83.577467,37.476033],[-83.576698,37.47659],[-83.576381,37.476777],[-83.576307,37.47683],[-83.576151,37.47692],[-83.576057,37.476968],[-83.575877,37.477023],[-83.575785,37.477048],[-83.575702,37.477079],[-83.575654,37.477077],[-83.575613,37.477068],[-83.575579,37.477054],[-83.575531,37.477006],[-83.575482,37.476973],[-83.575339,37.47692],[-83.575272,37.476904],[-83.575182,37.476892],[-83.575114,37.476898],[-83.575073,37.476915],[-83.575032,37.47694],[-83.574994,37.476997],[-83.574979,37.477029],[-83.574971,37.477169],[-83.574993,37.477349],[-83.574969,37.477471],[-83.574958,37.477568],[-83.574945,37.477621],[-83.574919,37.477677],[-83.574875,37.477733],[-83.574815,37.477791],[-83.574378,37.478179],[-83.574167,37.478381],[-83.573961,37.478634],[-83.5739,37.478749],[-83.573867,37.478796],[-83.57383,37.478832],[-83.573782,37.47887],[-83.57377,37.478894],[-83.573769,37.478926],[-83.573789,37.47901],[-83.573836,37.47912],[-83.573869,37.479178],[-83.573907,37.479234],[-83.574035,37.4794],[-83.574097,37.479519],[-83.574138,37.479624],[-83.574149,37.479667],[-83.574148,37.479702],[-83.574142,37.47973],[-83.574131,37.479751],[-83.574125,37.479778],[-83.574125,37.479805]]}},{"type":"Feature","properties":{"osm_id":16332200,"highway":"service","name":null,"alt_name":null,"official_name":null,"surface":null,"tracktype":null,"service":null,"access":"private","motor_vehicle":null,"foot":null,"tiger_reviewed":"no","rrgh_part":0,"rrgh_tile_part":0},"geometry":{"type":"LineString","coordinates":[[-83.576689,37.473677],[-83.576839,37.473182],[-83.576998,37.472734],[-83.577035,37.472466],[-83.576919,37.472112],[-83.576872,37.471678],[-83.576771,37.471264],[-83.576649,37.471141],[-83.576166,37.470858],[-83.575807,37.470599],[-83.575477,37.470257],[-83.575308,37.470059],[-83.575207,37.469547],[-83.5751,37.469327]]}},{"type":"Feature","properties":{"osm_id":16334063,"highway":"track","name":"Rose Fork Road","alt_name":null,"official_name":null,"surface":null,"tracktype":null,"service":null,"access":null,"motor_vehicle":null,"foot":null,"tiger_reviewed":"no","rrgh_part":0,"rrgh_tile_part":0},"geometry":{"type":"LineString","coordinates":[[-83.567757,37.472],[-83.568173,37.47203],[-83.569746,37.472198],[-83.570381,37.472438],[-83.57097,37.472865],[-83.572526,37.473468],[-83.573534,37.473737],[-83.576689,37.473677]]}},{"type":"Feature","properties":{"osm_id":16334066,"highway":"residential","name":"Rose Fork Road","alt_name":null,"official_name":null,"surface":null,"tracktype":null,"service":null,"access":null,"motor_vehicle":null,"foot":null,"tiger_reviewed":"no","rrgh_part":0,"rrgh_tile_part":0},"geometry":{"type":"LineString","coordinates":[[-83.576689,37.473677],[-83.576691,37.4737],[-83.576712,37.473907],[-83.576714,37.473957],[-83.576723,37.474004],[-83.576742,37.474044],[-83.576792,37.47412],[-83.576876,37.474207],[-83.576981,37.474328],[-83.577041,37.474412],[-83.577136,37.474559],[-83.577212,37.474661],[-83.577307,37.474754],[-83.577352,37.474803],[-83.577402,37.474842],[-83.577445,37.474888],[-83.577487,37.474927],[-83.57753,37.474958],[-83.577561,37.474998],[-83.577596,37.475033],[-83.577639,37.475062],[-83.577682,37.475099],[-83.577723,37.475141],[-83.57784,37.475287],[-83.577883,37.475331],[-83.577972,37.475391],[-83.578013,37.475414],[-83.578132,37.475469]]}},{"type":"Feature","properties":{"osm_id":16333846,"highway":"residential","name":"Spencer Fork Road","alt_name":null,"official_name":null,"surface":null,"tracktype":null,"service":null,"access":null,"motor_vehicle":null,"foot":null,"tiger_reviewed":"no","rrgh_part":0,"rrgh_tile_part":0},"geometry":{"type":"LineString","coordinates":[[-83.589341,37.480429],[-83.589298,37.480417],[-83.589182,37.4804],[-83.589083,37.48043],[-83.588981,37.480482],[-83.58883,37.480587],[-83.588548,37.480802],[-83.588421,37.480905],[-83.588342,37.481],[-83.588287,37.48109],[-83.588157,37.481235],[-83.588005,37.481468],[-83.587873,37.481606],[-83.587757,37.481745],[-83.587601,37.481876],[-83.587413,37.482019],[-83.587157,37.482161],[-83.587075,37.482221],[-83.586923,37.48232],[-83.586791,37.482431],[-83.586741,37.482496],[-83.586706,37.482569],[-83.586663,37.482723],[-83.586607,37.482866],[-83.586565,37.482935],[-83.586516,37.483],[-83.586454,37.483067],[-83.586379,37.483126],[-83.586296,37.483183],[-83.586203,37.483231],[-83.586103,37.483267],[-83.586008,37.483294],[-83.585912,37.483316],[-83.585821,37.483346],[-83.585735,37.483383],[-83.585656,37.483428],[-83.585584,37.483481],[-83.585445,37.483594],[-83.585372,37.483648],[-83.585145,37.483806],[-83.584591,37.484268],[-83.584562,37.484293],[-83.584514,37.48435],[-83.584475,37.484416],[-83.584446,37.48449],[-83.584433,37.484568],[-83.584425,37.484652],[-83.584433,37.484737],[-83.584449,37.484825],[-83.584453,37.485018],[-83.584469,37.485434],[-83.58444,37.485546],[-83.584413,37.485754],[-83.584394,37.485852],[-83.584308,37.48614],[-83.584297,37.486232],[-83.584298,37.486327],[-83.584305,37.486426],[-83.584299,37.486532],[-83.584275,37.486638],[-83.584176,37.486956],[-83.584151,37.487051],[-83.584065,37.48725],[-83.584015,37.487337],[-83.583885,37.487493],[-83.583738,37.487605],[-83.583673,37.487671],[-83.583623,37.487747],[-83.583582,37.487831],[-83.583472,37.488101],[-83.583368,37.488267],[-83.583232,37.488416],[-83.583089,37.488584],[-83.582866,37.488864],[-83.582705,37.489055],[-83.582623,37.489148],[-83.582463,37.48932],[-83.582396,37.4894],[-83.582225,37.489742],[-83.582184,37.489832],[-83.582025,37.490143],[-83.582014,37.490215],[-83.582047,37.490438],[-83.582044,37.49051],[-83.582011,37.490632],[-83.58198,37.490773],[-83.581967,37.490816],[-83.581941,37.490856],[-83.581903,37.490892],[-83.581855,37.490923],[-83.581794,37.490943],[-83.581727,37.490953],[-83.581598,37.490957],[-83.581415,37.490957],[-83.581272,37.490962],[-83.58119,37.490967],[-83.581107,37.490976],[-83.581019,37.490988],[-83.580671,37.49105],[-83.580403,37.491084],[-83.580317,37.491105],[-83.580227,37.491118],[-83.580148,37.491137],[-83.580065,37.491164],[-83.57999,37.491197],[-83.579844,37.491275],[-83.579708,37.49136],[-83.579585,37.491446],[-83.579536,37.491493],[-83.579382,37.491624],[-83.579285,37.491727],[-83.579053,37.492019],[-83.578928,37.492184],[-83.578893,37.492237],[-83.578784,37.492434],[-83.578741,37.492503],[-83.578707,37.492591],[-83.57871,37.49267],[-83.57873,37.492733]]}},{"type":"Feature","properties":{"osm_id":16332606,"highway":"residential","name":"Ten Acre Road","alt_name":null,"official_name":null,"surface":null,"tracktype":null,"service":null,"access":null,"motor_vehicle":null,"foot":null,"tiger_reviewed":"no","rrgh_part":0,"rrgh_tile_part":0},"geometry":{"type":"LineString","coordinates":[[-83.584591,37.484268],[-83.584554,37.484251],[-83.584422,37.484189],[-83.584193,37.484093],[-83.5841,37.484065],[-83.584043,37.484054],[-83.583976,37.484045],[-83.583832,37.484032],[-83.5836,37.484015],[-83.583521,37.48401],[-83.583352,37.484009],[-83.583265,37.483997],[-83.582993,37.483976],[-83.582801,37.483949],[-83.582403,37.483872],[-83.582304,37.483849],[-83.582126,37.483801],[-83.582039,37.48377],[-83.581868,37.483697],[-83.581679,37.483624],[-83.581508,37.483562],[-83.581334,37.483506],[-83.580919,37.483382]]}},{"type":"Feature","properties":{"osm_id":16109263,"highway":"residential","name":"Right Fork Jetts Creek Road","alt_name":null,"official_name":null,"surface":null,"tracktype":null,"service":null,"access":null,"motor_vehicle":null,"foot":null,"tiger_reviewed":"no","rrgh_part":0,"rrgh_tile_part":0},"geometry":{"type":"LineString","coordinates":[[-83.57873,37.492733],[-83.578534,37.493888],[-83.578221,37.494244],[-83.577897,37.494403],[-83.576507,37.494649],[-83.576042,37.494631],[-83.575783,37.494634],[-83.575757,37.494631],[-83.575493,37.494671],[-83.572937,37.494526],[-83.570991,37.494646],[-83.569887,37.494429],[-83.5687204,37.4941272]]}},{"type":"Feature","properties":{"osm_id":16269225,"highway":"residential","name":"Cr-1136","alt_name":null,"official_name":null,"surface":null,"tracktype":null,"service":null,"access":null,"motor_vehicle":null,"foot":null,"tiger_reviewed":"no","rrgh_part":0,"rrgh_tile_part":0},"geometry":{"type":"LineString","coordinates":[[-83.573221,37.523953],[-83.573351,37.524015],[-83.573557,37.52409],[-83.573956,37.524226],[-83.574096,37.524264],[-83.57424,37.524277],[-83.574443,37.524262],[-83.574552,37.524241],[-83.574603,37.524244],[-83.574656,37.524261],[-83.574716,37.524294],[-83.574849,37.524389],[-83.574925,37.524429],[-83.575096,37.524461],[-83.575175,37.524451],[-83.575246,37.524429],[-83.575367,37.524371],[-83.575476,37.524305],[-83.575634,37.524181],[-83.575698,37.524145],[-83.575852,37.524146],[-83.575966,37.524158],[-83.576072,37.52417],[-83.576301,37.524182],[-83.576492,37.524368],[-83.57668,37.524487],[-83.576984,37.524593],[-83.57711,37.524648],[-83.577221,37.524724],[-83.577307,37.524819],[-83.577377,37.524936],[-83.57740580000001,37.525000000000006]]}},{"type":"Feature","properties":{"osm_id":16268655,"highway":"residential","name":null,"alt_name":null,"official_name":null,"surface":null,"tracktype":null,"service":null,"access":null,"motor_vehicle":null,"foot":null,"tiger_reviewed":"no","rrgh_part":0,"rrgh_tile_part":0},"geometry":{"type":"LineString","coordinates":[[-83.572437,37.523413],[-83.573221,37.523953]]}},{"type":"Feature","properties":{"osm_id":16112494,"highway":"residential","name":"Bryants Creek Road","alt_name":null,"official_name":null,"surface":null,"tracktype":null,"service":null,"access":null,"motor_vehicle":null,"foot":null,"tiger_reviewed":"no","rrgh_part":0,"rrgh_tile_part":0},"geometry":{"type":"LineString","coordinates":[[-83.541866,37.501701],[-83.541897,37.501723],[-83.541952,37.501753],[-83.542075,37.501812],[-83.542463,37.502054],[-83.542662,37.502194],[-83.542841,37.502335],[-83.542888,37.502408],[-83.542929,37.502508],[-83.543122,37.502798],[-83.543164,37.502873],[-83.543236,37.503142],[-83.543252,37.503232],[-83.543261,37.503326],[-83.543258,37.503614],[-83.543264,37.503696],[-83.543279,37.50378],[-83.543297,37.503844],[-83.543321,37.503899],[-83.543328,37.503984],[-83.543318,37.504085],[-83.543292,37.504259],[-83.543333,37.504596],[-83.543317,37.504816],[-83.543276,37.505028],[-83.54325,37.505214],[-83.543191,37.505398],[-83.543174,37.50548],[-83.543158,37.505641],[-83.543137,37.505729],[-83.542947,37.506127],[-83.542889,37.506219],[-83.542823,37.506308],[-83.54275,37.506383],[-83.542685,37.506458],[-83.542587,37.50662],[-83.542528,37.506699],[-83.542452,37.506776],[-83.542083,37.507029],[-83.541903,37.507162],[-83.541819,37.507231],[-83.541653,37.507375],[-83.541568,37.50746],[-83.541497,37.507546],[-83.541406,37.507624],[-83.541304,37.50768],[-83.541181,37.507729],[-83.541063,37.507781],[-83.540951,37.507834],[-83.540844,37.50789],[-83.540536,37.508066],[-83.540344,37.508167],[-83.540261,37.508204],[-83.54018,37.508246],[-83.540011,37.508354],[-83.539839,37.508473],[-83.539741,37.508528],[-83.539634,37.508575],[-83.539417,37.508657],[-83.539318,37.508706],[-83.539225,37.508755],[-83.539057,37.50887],[-83.538966,37.508918],[-83.538872,37.508954],[-83.538773,37.508984],[-83.538678,37.509023],[-83.538486,37.509118],[-83.538152,37.509266],[-83.538076,37.509297],[-83.537997,37.509319],[-83.537857,37.509347],[-83.537793,37.509366],[-83.537733,37.509394],[-83.537674,37.509433],[-83.537555,37.509522],[-83.537479,37.509555],[-83.537309,37.509598],[-83.537032,37.509707],[-83.536811,37.509784],[-83.536689,37.509808],[-83.536556,37.509821],[-83.536441,37.509856],[-83.536221,37.509948],[-83.536121,37.510009],[-83.536013,37.510067],[-83.535549,37.510236],[-83.535439,37.510271],[-83.534989,37.510382],[-83.534877,37.510419],[-83.534413,37.510555],[-83.534303,37.510591],[-83.534075,37.510672],[-83.533957,37.510711],[-83.533718,37.510784],[-83.533366,37.510909],[-83.533134,37.510983],[-83.533028,37.511022],[-83.532651,37.511189],[-83.532556,37.511228],[-83.532373,37.511312],[-83.532286,37.511358],[-83.532205,37.511408],[-83.532133,37.511463],[-83.532068,37.511521],[-83.532015,37.511586],[-83.531917,37.511718],[-83.531877,37.511796],[-83.531772,37.512061],[-83.531742,37.512146],[-83.531722,37.512227],[-83.53171,37.512304],[-83.531687,37.51253],[-83.53166,37.51258],[-83.531613,37.512616],[-83.531576,37.512635],[-83.531515,37.512645],[-83.531365,37.512652],[-83.531296,37.51266],[-83.531228,37.512675],[-83.531163,37.512697],[-83.531044,37.512757],[-83.530997,37.512796],[-83.53096,37.512837],[-83.530933,37.512885],[-83.530916,37.51294],[-83.530869,37.513219],[-83.530838,37.513295],[-83.53079,37.513367],[-83.530731,37.513436],[-83.53053,37.513611],[-83.530478,37.513669],[-83.530436,37.513731],[-83.530399,37.513796],[-83.530285,37.514025],[-83.530234,37.514103],[-83.530124,37.514247],[-83.530078,37.514325],[-83.530036,37.514406],[-83.529999,37.51449],[-83.529972,37.514576],[-83.529968,37.514602],[-83.529961,37.514662],[-83.529958,37.514746],[-83.529976,37.51491],[-83.529958,37.514985],[-83.529915,37.51505],[-83.529851,37.515105],[-83.529639,37.515246],[-83.52941,37.515407],[-83.529202,37.515578],[-83.529155,37.51564],[-83.529123,37.515707],[-83.529085,37.51577],[-83.528905,37.516118],[-83.528877,37.516193],[-83.528854,37.51627],[-83.528815,37.516337],[-83.528793,37.516413],[-83.528768,37.516482],[-83.528734,37.516615],[-83.528715,37.516748],[-83.528718,37.516818],[-83.528749,37.516967],[-83.528775,37.517041],[-83.528812,37.517166],[-83.528825,37.517269],[-83.528782,37.517634],[-83.528782,37.517741],[-83.528816,37.517844],[-83.528846,37.517899],[-83.528889,37.517961],[-83.52888,37.518051],[-83.528843,37.518232],[-83.528801,37.518492],[-83.5288,37.518651],[-83.528812,37.518882],[-83.52882,37.518956],[-83.528857,37.519043],[-83.528912,37.519277],[-83.528943,37.519516],[-83.52897,37.519603],[-83.528983,37.519685],[-83.528987,37.519824],[-83.528999,37.519897],[-83.529033,37.519984],[-83.529071,37.520069],[-83.529159,37.520222],[-83.529198,37.520302],[-83.529251,37.520474],[-83.529282,37.520561],[-83.529394,37.520797],[-83.529459,37.520926],[-83.529507,37.521046],[-83.529529,37.521111],[-83.529546,37.521181],[-83.529589,37.521411],[-83.529597,37.521488],[-83.529597,37.521569],[-83.529606,37.521715],[-83.529635,37.521864],[-83.529654,37.521943],[-83.529701,37.522094],[-83.5298,37.522341],[-83.529826,37.522422],[-83.529848,37.52251],[-83.529873,37.522677],[-83.529892,37.522759],[-83.529898,37.522826],[-83.529921,37.522896],[-83.529954,37.522965],[-83.529997,37.523033],[-83.530049,37.523105],[-83.530174,37.523262],[-83.530235,37.523346],[-83.530283,37.523434],[-83.530321,37.52352],[-83.530363,37.523603],[-83.530414,37.523688],[-83.53047,37.523771],[-83.53059,37.523939],[-83.530715,37.524107],[-83.530772,37.524177],[-83.530844,37.524277],[-83.531067,37.524572],[-83.531117,37.524632],[-83.531222,37.524738],[-83.531285,37.52479],[-83.531357,37.524843],[-83.53144,37.524897],[-83.531529,37.524948],[-83.53162978350517,37.525000000000006]]}},{"type":"Feature","properties":{"osm_id":16104481,"highway":"residential","name":null,"alt_name":null,"official_name":null,"surface":null,"tracktype":null,"service":null,"access":null,"motor_vehicle":null,"foot":null,"tiger_reviewed":"no","rrgh_part":0,"rrgh_tile_part":0},"geometry":{"type":"LineString","coordinates":[[-83.533197,37.464847],[-83.533184,37.464704],[-83.533183,37.46462],[-83.533189,37.464591],[-83.533203,37.464558],[-83.533339,37.464398],[-83.533446,37.464291],[-83.533461,37.464269],[-83.533457,37.464226],[-83.533443,37.464198],[-83.533417,37.464166],[-83.533389,37.464095],[-83.533365,37.463971],[-83.533343,37.46379],[-83.533334,37.463753],[-83.533305,37.463707],[-83.533275,37.463685],[-83.533239,37.463665],[-83.533143,37.463621],[-83.533095,37.463603],[-83.532955,37.46356],[-83.532909,37.463552],[-83.53288,37.463543]]}},{"type":"Feature","properties":{"osm_id":16108794,"highway":"residential","name":"Abe Johnson Road","alt_name":null,"official_name":null,"surface":null,"tracktype":null,"service":null,"access":null,"motor_vehicle":null,"foot":null,"tiger_reviewed":"no","rrgh_part":0,"rrgh_tile_part":0},"geometry":{"type":"LineString","coordinates":[[-83.537515,37.465047],[-83.537574,37.465001],[-83.537611,37.464963],[-83.537697,37.46483],[-83.537788,37.464711],[-83.537912,37.464583],[-83.538226,37.464281],[-83.53828,37.464223],[-83.538429,37.46404],[-83.538486,37.463983],[-83.538547,37.463932],[-83.538672,37.463836],[-83.538736,37.463791],[-83.538796,37.463738],[-83.538974,37.463555],[-83.539176,37.463374],[-83.539239,37.463313],[-83.539296,37.463249],[-83.539482,37.462996],[-83.539532,37.462937],[-83.539589,37.462881],[-83.539655,37.462826],[-83.539732,37.462774],[-83.539906,37.462667],[-83.540284,37.462443],[-83.540472,37.462325],[-83.540636,37.462211],[-83.540768,37.462128],[-83.540884,37.462068],[-83.541095,37.461971],[-83.541185,37.461946],[-83.541657,37.461726],[-83.541928,37.461588],[-83.541997,37.461549],[-83.542126,37.461468],[-83.54219,37.461432],[-83.542257,37.461401],[-83.542405,37.461357],[-83.542485,37.461339],[-83.542571,37.461314],[-83.542652,37.461297],[-83.542819,37.461252],[-83.543061,37.46118],[-83.543136,37.461152],[-83.543206,37.461119],[-83.543272,37.461081],[-83.543333,37.461039],[-83.543442,37.460953],[-83.543509,37.460908],[-83.543581,37.46087],[-83.543657,37.46084],[-83.543736,37.460818],[-83.54398,37.460766],[-83.544375,37.460669],[-83.544725,37.460559],[-83.5450147,37.4604375]]}},{"type":"Feature","properties":{"osm_id":16105848,"highway":"residential","name":null,"alt_name":null,"official_name":null,"surface":null,"tracktype":null,"service":null,"access":null,"motor_vehicle":null,"foot":null,"tiger_reviewed":"no","rrgh_part":0,"rrgh_tile_part":0},"geometry":{"type":"LineString","coordinates":[[-83.518804,37.469456],[-83.5192627,37.470193],[-83.519488,37.470619],[-83.519551,37.470725],[-83.519763,37.470856],[-83.520102,37.471023],[-83.520454,37.471387],[-83.520957,37.472187],[-83.521241,37.472514],[-83.521524,37.47312],[-83.521605,37.473533],[-83.521683,37.474023],[-83.521824,37.474435],[-83.522147,37.474776],[-83.522186,37.475041],[-83.522576,37.475443],[-83.522791,37.475762]]}},{"type":"Feature","properties":{"osm_id":16107583,"highway":"residential","name":"McIntosh Fork","alt_name":null,"official_name":null,"surface":null,"tracktype":null,"service":null,"access":null,"motor_vehicle":null,"foot":null,"tiger_reviewed":"no","rrgh_part":0,"rrgh_tile_part":0},"geometry":{"type":"LineString","coordinates":[[-83.551102,37.48259],[-83.551212,37.482531],[-83.551338,37.482469],[-83.551384,37.482455],[-83.551528,37.482425],[-83.552465,37.482285],[-83.552516,37.48228],[-83.552593,37.482264]]}},{"type":"Feature","properties":{"osm_id":16112990,"highway":"residential","name":"East S Little Road","alt_name":null,"official_name":null,"surface":null,"tracktype":null,"service":null,"access":null,"motor_vehicle":null,"foot":null,"tiger_reviewed":"no","rrgh_part":0,"rrgh_tile_part":0},"geometry":{"type":"LineString","coordinates":[[-83.557011,37.488124],[-83.556675,37.48818],[-83.556586,37.488203],[-83.555859,37.488238],[-83.555765,37.488237],[-83.555571,37.488269],[-83.555477,37.488301],[-83.555115,37.488434],[-83.554531,37.488619],[-83.554337,37.488695],[-83.554235,37.488726],[-83.554142,37.488763],[-83.553953,37.488828],[-83.553782,37.488893],[-83.553682,37.48892],[-83.553591,37.488954],[-83.553488,37.489002],[-83.553365,37.489071],[-83.553255,37.48914],[-83.553206,37.489164],[-83.553156,37.489176],[-83.5531,37.489179],[-83.552966,37.489169],[-83.552899,37.489167],[-83.552743,37.489171],[-83.552651,37.489167]]}},{"type":"Feature","properties":{"osm_id":16115612,"highway":"residential","name":"Johnson & Little Cemetery Road","alt_name":null,"official_name":null,"surface":null,"tracktype":null,"service":null,"access":null,"motor_vehicle":null,"foot":null,"tiger_reviewed":"no","rrgh_part":0,"rrgh_tile_part":0},"geometry":{"type":"LineString","coordinates":[[-83.553488,37.489002],[-83.553474,37.489044],[-83.553457,37.489071],[-83.553288,37.489221],[-83.553223,37.48929],[-83.553197,37.489323],[-83.55316,37.489381],[-83.553129,37.48945]]}},{"type":"Feature","properties":{"osm_id":1176579547,"highway":"unclassified","name":null,"alt_name":null,"official_name":null,"surface":null,"tracktype":null,"service":null,"access":null,"motor_vehicle":null,"foot":null,"tiger_reviewed":null,"rrgh_part":0,"rrgh_tile_part":0},"geometry":{"type":"LineString","coordinates":[[-83.5598003,37.4934299],[-83.5598542,37.4935018],[-83.5599499,37.4936006],[-83.5600257,37.493622],[-83.5600942,37.4936249],[-83.5602133,37.4936134],[-83.5603324,37.493612],[-83.5604389,37.4936034],[-83.5605994,37.4935848],[-83.5607348,37.4935648],[-83.5608466,37.4936206],[-83.5609459,37.4936421],[-83.5610848,37.4936478],[-83.561166,37.4936406]]}},{"type":"Feature","properties":{"osm_id":1176579547,"highway":"unclassified","name":null,"alt_name":null,"official_name":null,"surface":null,"tracktype":null,"service":null,"access":null,"motor_vehicle":null,"foot":null,"tiger_reviewed":null,"rrgh_part":1,"rrgh_tile_part":0},"geometry":{"type":"LineString","coordinates":[[-83.561166,37.4936406],[-83.561258,37.4936392],[-83.5612924,37.4936623],[-83.5612861,37.4936896],[-83.5612503,37.4937017],[-83.5612235,37.4937027],[-83.5611967,37.4936967],[-83.5611699,37.4936744],[-83.561166,37.4936406]]}},{"type":"Feature","properties":{"osm_id":16109277,"highway":"residential","name":"Right Fork Jetts Creek Road","alt_name":null,"official_name":null,"surface":null,"tracktype":null,"service":null,"access":null,"motor_vehicle":null,"foot":null,"tiger_reviewed":"no","rrgh_part":0,"rrgh_tile_part":0},"geometry":{"type":"LineString","coordinates":[[-83.5522472,37.4943451],[-83.5523074,37.4943685],[-83.5523925,37.4943863],[-83.5525394,37.4943905],[-83.5527128,37.4943709],[-83.5529623,37.4943119],[-83.5531039,37.4942852],[-83.5531871,37.4942796],[-83.5532543,37.4942698],[-83.5533003,37.4942459],[-83.5533499,37.4941813],[-83.5533711,37.4941111],[-83.5533711,37.4939427],[-83.5533782,37.4938809],[-83.553414,37.4938305],[-83.5534771,37.4937998],[-83.5535555,37.4937949],[-83.5537162,37.4938053],[-83.5542994,37.4938816],[-83.55464,37.493917],[-83.555552,37.493941],[-83.556487,37.493916],[-83.557037,37.493929],[-83.55717,37.493942],[-83.557236,37.493945],[-83.557305,37.493944],[-83.55738,37.493939],[-83.557459,37.493927],[-83.557737,37.493844],[-83.557895,37.493828],[-83.558055,37.493816],[-83.558272,37.493767],[-83.558477,37.493716],[-83.558815,37.493672],[-83.559041,37.493609],[-83.559105,37.493587],[-83.5598003,37.4934299],[-83.559853,37.493418],[-83.560051,37.493345],[-83.560341,37.493269],[-83.561293,37.4930543],[-83.5613912,37.4930768],[-83.5614513,37.4932877],[-83.5614902,37.493478],[-83.5615077,37.4935024],[-83.561547,37.493511],[-83.561594,37.493494],[-83.56163,37.493469],[-83.561699,37.493416],[-83.561812,37.493322],[-83.561904,37.493255],[-83.562014,37.49319],[-83.56207,37.493162],[-83.562134,37.493139],[-83.562337,37.49308],[-83.562489,37.49304],[-83.562566,37.493025],[-83.562779,37.492991],[-83.562843,37.492975],[-83.562962,37.492937],[-83.563165,37.49288],[-83.563244,37.492866],[-83.563395,37.492849],[-83.563774,37.492855],[-83.563837,37.49286],[-83.56397,37.492884],[-83.564065,37.492892],[-83.564147,37.492907],[-83.56438,37.492935],[-83.564447,37.492951],[-83.564509,37.492974],[-83.564689,37.493059],[-83.564826,37.493115],[-83.56489,37.493138],[-83.565043,37.493176],[-83.565115,37.493197],[-83.565276,37.49323],[-83.565355,37.493255],[-83.565442,37.493271],[-83.565745,37.493315],[-83.565892,37.493361],[-83.565965,37.49339],[-83.566034,37.49343],[-83.5661,37.493452],[-83.566164,37.493469],[-83.56635,37.493535],[-83.566665,37.49366],[-83.566819,37.493667],[-83.567054,37.493694],[-83.567215,37.493719],[-83.567286,37.493718],[-83.56737,37.493731],[-83.567527,37.493745],[-83.567666,37.493763],[-83.5679,37.493834],[-83.568054,37.493892],[-83.568122,37.493922],[-83.568182,37.493956],[-83.568354,37.494044],[-83.568411,37.494065],[-83.568447,37.494082],[-83.568624,37.494119],[-83.5687204,37.4941272]]}},{"type":"Feature","properties":{"osm_id":16114766,"highway":"residential","name":"Moland Cemetery Road","alt_name":null,"official_name":null,"surface":null,"tracktype":null,"service":null,"access":null,"motor_vehicle":null,"foot":null,"tiger_reviewed":"no","rrgh_part":0,"rrgh_tile_part":0},"geometry":{"type":"LineString","coordinates":[[-83.542037,37.501187],[-83.542093,37.501255],[-83.542154,37.501304],[-83.542259,37.501399],[-83.542496,37.501553],[-83.542843,37.501713],[-83.543271,37.501874],[-83.543474,37.50194],[-83.543544,37.501959],[-83.543748,37.502006],[-83.543819,37.502054],[-83.543913,37.502174],[-83.543988,37.502262],[-83.544014,37.502306],[-83.544034,37.502349],[-83.544119,37.502465],[-83.544773,37.503145],[-83.544893,37.503226],[-83.545054,37.503329],[-83.545194,37.503403],[-83.545318,37.503501],[-83.545328,37.503521],[-83.545327,37.503531],[-83.545309,37.503541],[-83.545287,37.503545],[-83.545261,37.503543],[-83.54516,37.503522],[-83.54499,37.503494],[-83.544889,37.503474],[-83.544837,37.503455],[-83.544784,37.503429],[-83.544627,37.503327],[-83.544524,37.503256],[-83.544384,37.503148]]}},{"type":"Feature","properties":{"osm_id":16117160,"highway":"residential","name":"Jetts Creek Road","alt_name":null,"official_name":null,"surface":null,"tracktype":null,"service":null,"access":null,"motor_vehicle":null,"foot":null,"tiger_reviewed":"no","rrgh_part":0,"rrgh_tile_part":0},"geometry":{"type":"LineString","coordinates":[[-83.541759,37.501362],[-83.541786,37.501354],[-83.541834,37.501333],[-83.541894,37.501301],[-83.542019,37.501204],[-83.542037,37.501187],[-83.542084,37.50114],[-83.542139,37.501065],[-83.542286,37.500815],[-83.542391,37.500647],[-83.542595,37.500306],[-83.542728,37.500145],[-83.54295,37.499902],[-83.543091,37.499731],[-83.54317,37.499652],[-83.543251,37.499579],[-83.543336,37.499514],[-83.543428,37.499456],[-83.543633,37.499343],[-83.543732,37.49928],[-83.543933,37.499143],[-83.544043,37.499082],[-83.544338,37.498895],[-83.54452,37.49879],[-83.5446,37.498738],[-83.544786,37.498579],[-83.544839,37.498525],[-83.544871,37.498461],[-83.544892,37.498399],[-83.544888,37.498335],[-83.544876,37.498266],[-83.544881,37.498193],[-83.544904,37.498115],[-83.544942,37.498033],[-83.544996,37.497951],[-83.545205,37.497703],[-83.545259,37.49761],[-83.545295,37.497513],[-83.545321,37.497414],[-83.54535,37.497321],[-83.545368,37.497224],[-83.545394,37.497131],[-83.545432,37.49705],[-83.545474,37.496974],[-83.545528,37.496909],[-83.545593,37.496853],[-83.545669,37.496805],[-83.545749,37.496763],[-83.545914,37.496698],[-83.546077,37.496644],[-83.546229,37.496601],[-83.546314,37.496583],[-83.546465,37.496553],[-83.546579,37.496536],[-83.546645,37.496531],[-83.546903,37.496473],[-83.546974,37.496469],[-83.547311,37.496464],[-83.547405,37.496456],[-83.547487,37.49644],[-83.547682,37.496412],[-83.547862,37.496391],[-83.548074,37.496379],[-83.548177,37.49637],[-83.548277,37.496352],[-83.548375,37.49633],[-83.54858,37.496293],[-83.548912,37.496219],[-83.549141,37.496176],[-83.549252,37.496152],[-83.549454,37.496096],[-83.549545,37.496066],[-83.549633,37.496031],[-83.549708,37.495983],[-83.549847,37.495901],[-83.550611,37.495564],[-83.550823,37.495491],[-83.550922,37.495452],[-83.551014,37.495411],[-83.551105,37.495357],[-83.551378,37.495218],[-83.551462,37.495162],[-83.551636,37.495057],[-83.551716,37.495003],[-83.551791,37.494946],[-83.551862,37.494885],[-83.551929,37.494821],[-83.551988,37.494751],[-83.55204,37.494678],[-83.552086,37.494604],[-83.552163,37.494468],[-83.5522472,37.4943451],[-83.552351,37.494158],[-83.552451,37.493987],[-83.552506,37.49388],[-83.552549,37.493775],[-83.552576,37.493681],[-83.552592,37.493584],[-83.5526006,37.4933544]]}},{"type":"Feature","properties":{"osm_id":16104529,"highway":"track","name":null,"alt_name":null,"official_name":null,"surface":null,"tracktype":null,"service":null,"access":null,"motor_vehicle":null,"foot":null,"tiger_reviewed":"no","rrgh_part":0,"rrgh_tile_part":0},"geometry":{"type":"LineString","coordinates":[[-83.522724,37.500309],[-83.522241,37.499979],[-83.521164,37.499403],[-83.520403,37.499184],[-83.520211,37.498508],[-83.52,37.498316],[-83.519232,37.497991],[-83.518533,37.496767],[-83.518049,37.495931],[-83.517813,37.495107],[-83.517623,37.493681],[-83.517534,37.493232],[-83.517068,37.492492],[-83.516737,37.491888],[-83.516775,37.491568],[-83.516784,37.491463],[-83.516977,37.490837],[-83.517328,37.490399],[-83.517814,37.489233],[-83.517878,37.489056],[-83.518321,37.488362],[-83.518888,37.488023],[-83.519835,37.487593],[-83.520047,37.487507],[-83.520874,37.487236],[-83.520938,37.487129],[-83.52111,37.486748],[-83.521338,37.486486],[-83.521562,37.486187],[-83.521505,37.485352],[-83.521715,37.485194],[-83.52191,37.484908],[-83.522148,37.484442],[-83.5223,37.484031],[-83.522715,37.483995]]}},{"type":"Feature","properties":{"osm_id":16104557,"highway":"residential","name":null,"alt_name":null,"official_name":null,"surface":null,"tracktype":null,"service":null,"access":null,"motor_vehicle":null,"foot":null,"tiger_reviewed":"no","rrgh_part":0,"rrgh_tile_part":0},"geometry":{"type":"LineString","coordinates":[[-83.522412,37.483814],[-83.522456,37.483841],[-83.522509,37.483862],[-83.522715,37.483995],[-83.522795,37.484044],[-83.523626,37.484891],[-83.524137,37.484917],[-83.524407,37.484982],[-83.525048,37.484984],[-83.525215,37.48529],[-83.525392,37.485523],[-83.526049,37.48592],[-83.526472,37.486524],[-83.526613,37.48715],[-83.526947,37.487794],[-83.527391,37.488302],[-83.527742,37.489075],[-83.52798,37.489951],[-83.527962,37.490497],[-83.5278,37.491234],[-83.527663,37.49174],[-83.52764,37.492106],[-83.528175,37.492861],[-83.529474,37.494257],[-83.53057,37.495058],[-83.530655,37.49509],[-83.530936,37.495182]]}},{"type":"Feature","properties":{"osm_id":16106036,"highway":"residential","name":null,"alt_name":null,"official_name":null,"surface":null,"tracktype":null,"service":null,"access":null,"motor_vehicle":null,"foot":null,"tiger_reviewed":"no","rrgh_part":0,"rrgh_tile_part":0},"geometry":{"type":"LineString","coordinates":[[-83.507817,37.479034],[-83.508308,37.479236],[-83.508687,37.479418],[-83.508997,37.479645],[-83.509202,37.479711],[-83.509474,37.479715],[-83.51014,37.479627],[-83.510329,37.479593],[-83.51071,37.479669],[-83.51104,37.479715],[-83.51135,37.479797],[-83.511859,37.480077],[-83.512151,37.480263],[-83.512821,37.480542],[-83.513151,37.480813],[-83.513325,37.480935],[-83.5136415,37.4811254],[-83.5141826,37.481661],[-83.515116,37.4824528],[-83.5158348,37.482904],[-83.5172296,37.4833978],[-83.5184848,37.4837043],[-83.5195363,37.4839171],[-83.520577,37.4840022],[-83.5213924,37.4840022],[-83.5217786,37.483883],[-83.5219717,37.4837894],[-83.522412,37.483814]]}},{"type":"Feature","properties":{"osm_id":16116573,"highway":"residential","name":"Lick Branch Middle Fork Road","alt_name":null,"official_name":null,"surface":null,"tracktype":null,"service":null,"access":null,"motor_vehicle":null,"foot":null,"tiger_reviewed":"no","rrgh_part":0,"rrgh_tile_part":0},"geometry":{"type":"LineString","coordinates":[[-83.534,37.49013],[-83.533988,37.490176],[-83.533966,37.490302],[-83.533928,37.490623],[-83.533902,37.490808]]}},{"type":"Feature","properties":{"osm_id":16105817,"highway":"residential","name":null,"alt_name":null,"official_name":null,"surface":null,"tracktype":null,"service":null,"access":null,"motor_vehicle":null,"foot":null,"tiger_reviewed":"no","rrgh_part":0,"rrgh_tile_part":0},"geometry":{"type":"LineString","coordinates":[[-83.533902,37.490808],[-83.533889,37.49096],[-83.533881,37.491042],[-83.533857,37.491201],[-83.533842,37.491277],[-83.533822,37.491349],[-83.533801,37.491415],[-83.533775,37.491479],[-83.533713,37.49159],[-83.533649,37.491675],[-83.53362,37.491706],[-83.533531,37.491781],[-83.533501,37.491815],[-83.533455,37.491892],[-83.533414,37.491979],[-83.533382,37.492036],[-83.533289,37.492166],[-83.533071,37.492388],[-83.532921,37.492553],[-83.532848,37.492641],[-83.532676,37.492887],[-83.532618,37.492964],[-83.53256,37.493032],[-83.532498,37.4931],[-83.532431,37.493167],[-83.532363,37.493231],[-83.53229,37.493294],[-83.532117,37.493428],[-83.532027,37.493502],[-83.531854,37.493653],[-83.531685,37.493784],[-83.531595,37.493837],[-83.531222,37.494042],[-83.531145,37.494098],[-83.530922,37.494239],[-83.530915,37.494415],[-83.530916,37.494659],[-83.530918,37.494744],[-83.53094,37.494985],[-83.530943,37.495056],[-83.530936,37.495182],[-83.530922,37.495274],[-83.530887,37.495449],[-83.530858,37.495686],[-83.53084,37.495759],[-83.530809,37.495828],[-83.530767,37.495893],[-83.530716,37.495955],[-83.53058,37.496092],[-83.530518,37.496178],[-83.530455,37.496258],[-83.530401,37.496344],[-83.530355,37.496429],[-83.53033,37.496534],[-83.530297,37.496623],[-83.53027,37.496722],[-83.530234,37.496812],[-83.530193,37.496897],[-83.530145,37.496978],[-83.530037,37.497126],[-83.529807,37.497469],[-83.529755,37.497536],[-83.529637,37.497661],[-83.529581,37.497733],[-83.529533,37.497815],[-83.529466,37.497996],[-83.529425,37.498084],[-83.529378,37.498168],[-83.529325,37.498252],[-83.529144,37.498502],[-83.529033,37.498676],[-83.52899,37.498762],[-83.528958,37.498847],[-83.528938,37.49893],[-83.528934,37.499013],[-83.528951,37.499174],[-83.528983,37.499338],[-83.529014,37.499587],[-83.529018,37.499664],[-83.529012,37.499808],[-83.529019,37.499886],[-83.529034,37.499966],[-83.529129,37.500337],[-83.529177,37.500495],[-83.529184,37.500572],[-83.529238,37.500737],[-83.529275,37.500819],[-83.529319,37.500895],[-83.529466,37.501103],[-83.529506,37.501174],[-83.529536,37.501247],[-83.529557,37.501319],[-83.529586,37.501451],[-83.52959,37.501597],[-83.5296,37.501696],[-83.529599,37.501883],[-83.529602,37.501967],[-83.529615,37.50205],[-83.529639,37.502123],[-83.529744,37.502322],[-83.529819,37.502429],[-83.529908,37.502566],[-83.529951,37.502639],[-83.530063,37.502857],[-83.530169,37.502999],[-83.530345,37.503194],[-83.530445,37.503313],[-83.530531,37.503423],[-83.530602,37.5035],[-83.530654,37.503548]]}},{"type":"Feature","properties":{"osm_id":16109246,"highway":"residential","name":"Snake Branch Road","alt_name":null,"official_name":null,"surface":null,"tracktype":null,"service":null,"access":null,"motor_vehicle":null,"foot":null,"tiger_reviewed":"no","rrgh_part":0,"rrgh_tile_part":0},"geometry":{"type":"LineString","coordinates":[[-83.541759,37.501362],[-83.541706,37.50137],[-83.541637,37.501376],[-83.541351,37.501368],[-83.541285,37.50137],[-83.541135,37.501381],[-83.541099,37.501381],[-83.540935,37.50137],[-83.540845,37.501371],[-83.54077,37.50136],[-83.54066,37.501329],[-83.540584,37.501313],[-83.540418,37.501307],[-83.539671,37.501346],[-83.539255,37.501378],[-83.538839,37.501423],[-83.538373,37.50148],[-83.537757,37.501588],[-83.537123,37.501708],[-83.536421,37.501906],[-83.535337,37.502124],[-83.534703,37.502257],[-83.534169,37.502379],[-83.533695,37.502483],[-83.533383,37.502589],[-83.533151,37.502684],[-83.532962,37.502767],[-83.532547,37.502926],[-83.532463,37.502953],[-83.532283,37.503],[-83.532186,37.503022],[-83.532081,37.503043],[-83.53199,37.503044],[-83.531898,37.503035],[-83.531807,37.503022],[-83.53136,37.502953],[-83.531293,37.502948],[-83.531231,37.502955],[-83.531173,37.502976],[-83.531117,37.503011],[-83.531061,37.50306],[-83.531005,37.50312],[-83.53073,37.503466],[-83.530654,37.503548]]}},{"type":"Feature","properties":{"osm_id":16104473,"highway":"residential","name":null,"alt_name":null,"official_name":null,"surface":null,"tracktype":null,"service":null,"access":null,"motor_vehicle":null,"foot":null,"tiger_reviewed":"no","rrgh_part":0,"rrgh_tile_part":0},"geometry":{"type":"LineString","coordinates":[[-83.541866,37.501701],[-83.541852,37.501691],[-83.541813,37.501655],[-83.541778,37.501594],[-83.541768,37.501559],[-83.541763,37.501522],[-83.541748,37.501477],[-83.541749,37.501418],[-83.541759,37.501362]]}},{"type":"Feature","properties":{"osm_id":16105472,"highway":"track","name":null,"alt_name":null,"official_name":null,"surface":null,"tracktype":null,"service":null,"access":null,"motor_vehicle":null,"foot":null,"tiger_reviewed":"no","rrgh_part":0,"rrgh_tile_part":0},"geometry":{"type":"LineString","coordinates":[[-83.530654,37.503548],[-83.530611,37.503592],[-83.530549,37.503651],[-83.53048,37.503705],[-83.530144,37.503884],[-83.529906,37.504017],[-83.529831,37.504063],[-83.529367,37.504292],[-83.529334,37.504306],[-83.529151,37.504401],[-83.528853,37.504514],[-83.52877,37.504549],[-83.52869,37.504588],[-83.528611,37.504629],[-83.528473,37.504725],[-83.52824,37.504851],[-83.528017,37.504987],[-83.527898,37.505057],[-83.527839,37.505088],[-83.527638,37.50518],[-83.527485,37.505241],[-83.527336,37.505306],[-83.527131,37.505405],[-83.52601,37.505857],[-83.525959,37.50588],[-83.525906,37.505896],[-83.525748,37.505935],[-83.525702,37.505953],[-83.525677,37.50597],[-83.525234,37.505898],[-83.524732,37.505763],[-83.524399,37.505556],[-83.524248,37.505368],[-83.524169,37.505089],[-83.524211,37.504539],[-83.524222,37.504144],[-83.524131,37.503882],[-83.524072,37.503734],[-83.52411,37.503538],[-83.524271,37.503044],[-83.524602,37.50247],[-83.524798,37.502014],[-83.524829,37.501519],[-83.524853,37.50136],[-83.524677,37.500887],[-83.524464,37.500485],[-83.524269,37.500368],[-83.523423,37.499895]]}},{"type":"Feature","properties":{"osm_id":16105507,"highway":"residential","name":null,"alt_name":null,"official_name":null,"surface":null,"tracktype":null,"service":null,"access":null,"motor_vehicle":null,"foot":null,"tiger_reviewed":"no","rrgh_part":0,"rrgh_tile_part":0},"geometry":{"type":"LineString","coordinates":[[-83.513748,37.454927],[-83.513423,37.454885],[-83.513363,37.454884],[-83.513304,37.454889],[-83.513248,37.454901],[-83.513195,37.454924],[-83.513147,37.454956],[-83.513041,37.455038],[-83.512973,37.455076],[-83.512898,37.455104],[-83.512735,37.455136],[-83.512651,37.455146],[-83.512566,37.45515],[-83.51249,37.455157],[-83.512249,37.455149],[-83.511839,37.455152],[-83.511602,37.45517],[-83.511438,37.455169],[-83.511147,37.455159],[-83.511045,37.455168],[-83.510944,37.455185],[-83.510857,37.455207],[-83.510765,37.455239],[-83.510576,37.455325],[-83.510342,37.45541],[-83.509963,37.455559],[-83.509866,37.455593],[-83.509686,37.455665],[-83.509534,37.455741],[-83.509471,37.455777],[-83.509362,37.455849],[-83.509302,37.455883],[-83.509235,37.455914],[-83.509084,37.455994],[-83.509008,37.45604],[-83.508933,37.456094],[-83.508862,37.456133],[-83.50871,37.45618],[-83.508619,37.456213],[-83.508526,37.456251],[-83.508437,37.456279],[-83.50836,37.456312],[-83.508288,37.456347],[-83.508174,37.456418],[-83.50804,37.456547],[-83.507968,37.456596],[-83.507875,37.456647],[-83.507488,37.456769],[-83.507397,37.456795],[-83.507217,37.456859],[-83.506762,37.45699],[-83.506677,37.457024],[-83.506596,37.457062],[-83.506436,37.457148],[-83.506352,37.457188],[-83.506266,37.457234],[-83.506172,37.457269],[-83.506074,37.457298],[-83.505645,37.457518],[-83.505572,37.457571],[-83.505463,37.457687],[-83.505418,37.457747],[-83.505315,37.457947],[-83.505229,37.458059],[-83.505156,37.458174],[-83.505071,37.458293],[-83.505,37.45841457534247]]}},{"type":"Feature","properties":{"osm_id":16107062,"highway":"residential","name":"Terry Cemetery 2 Road","alt_name":null,"official_name":null,"surface":null,"tracktype":null,"service":null,"access":null,"motor_vehicle":null,"foot":null,"tiger_reviewed":"no","rrgh_part":0,"rrgh_tile_part":0},"geometry":{"type":"LineString","coordinates":[[-83.513643,37.471722],[-83.513743,37.471742],[-83.513775,37.471744],[-83.51382,37.471737],[-83.514079,37.471663],[-83.514336,37.471608],[-83.51472,37.471546],[-83.514837,37.47154],[-83.514897,37.471542],[-83.515018,37.471553],[-83.515074,37.471561],[-83.515264,37.471571],[-83.515408,37.471592],[-83.515462,37.471619],[-83.515504,37.471656],[-83.515499,37.47183],[-83.515562,37.47183],[-83.515722,37.471808]]}},{"type":"Feature","properties":{"osm_id":16110649,"highway":"residential","name":"Johnson Branch Road","alt_name":null,"official_name":null,"surface":null,"tracktype":null,"service":null,"access":null,"motor_vehicle":null,"foot":null,"tiger_reviewed":"no","rrgh_part":0,"rrgh_tile_part":0},"geometry":{"type":"LineString","coordinates":[[-83.505962,37.482579],[-83.505987,37.482627],[-83.505995,37.482647],[-83.505998,37.482678],[-83.505987,37.482712],[-83.505917,37.482819],[-83.505892,37.482866],[-83.505722,37.483346],[-83.505669,37.483853],[-83.505691,37.483909],[-83.505717,37.483959],[-83.505751,37.484015],[-83.505804,37.484078],[-83.506043,37.484308],[-83.506107,37.484352],[-83.506169,37.484385],[-83.5063,37.484439],[-83.506383,37.484477],[-83.506498,37.48452],[-83.506616,37.484571],[-83.507028,37.484721],[-83.507123,37.484771],[-83.50722,37.484828],[-83.507807,37.485355],[-83.507935,37.485502],[-83.508005,37.485568],[-83.508083,37.485628],[-83.508358,37.485779],[-83.508621,37.485947],[-83.508711,37.485997],[-83.509043,37.486139],[-83.509103,37.486184],[-83.509152,37.486239],[-83.50939,37.486568],[-83.509448,37.486639],[-83.509517,37.486714],[-83.509794,37.487146],[-83.509835,37.48725],[-83.509867,37.487354],[-83.509906,37.48746],[-83.509973,37.48763],[-83.510053,37.48774],[-83.510101,37.487778],[-83.510157,37.487807],[-83.510496,37.487917],[-83.510613,37.48796],[-83.51073,37.487994],[-83.510955,37.488017],[-83.511065,37.488036],[-83.51117,37.488068],[-83.511269,37.488103],[-83.51137,37.488144],[-83.511468,37.488194],[-83.51156,37.48825],[-83.511729,37.488365],[-83.51189,37.488483],[-83.511958,37.488543],[-83.512086,37.48868],[-83.512136,37.488729],[-83.512291,37.488861],[-83.512378,37.488931],[-83.512424,37.488965],[-83.512524,37.489021],[-83.512577,37.489048],[-83.512637,37.489071],[-83.512692,37.489098],[-83.512739,37.489135],[-83.512825,37.489212],[-83.512949,37.489331],[-83.513784,37.489944],[-83.514305,37.490332],[-83.514759,37.490677],[-83.514804,37.490706],[-83.51501,37.490861],[-83.515116,37.490955],[-83.515322,37.491206],[-83.515407,37.491319],[-83.515561,37.491575],[-83.51565,37.491698],[-83.515774,37.491892],[-83.515868,37.492098],[-83.515942,37.492237],[-83.515993,37.492386],[-83.516009,37.492546],[-83.516004,37.492694],[-83.515987,37.492809],[-83.515962,37.49294],[-83.515906,37.493059],[-83.515783,37.493189],[-83.515655,37.493318],[-83.515534,37.493459],[-83.515419,37.493627],[-83.515283,37.493794],[-83.515157,37.493881],[-83.515111,37.493929],[-83.515035,37.494028],[-83.514993,37.494072],[-83.514933,37.494103],[-83.514896,37.49412],[-83.514842,37.494123],[-83.514787,37.494105],[-83.514697,37.494054],[-83.514642,37.494091],[-83.514537,37.494217],[-83.514507,37.494287],[-83.514469,37.494352],[-83.514411,37.494398],[-83.514352,37.494434],[-83.514294,37.494465],[-83.514233,37.494491],[-83.51418,37.494518],[-83.514135,37.494551],[-83.514089,37.49459],[-83.513935,37.494737],[-83.513879,37.494784],[-83.513822,37.494821],[-83.513767,37.494847],[-83.513726,37.494879],[-83.513665,37.494958],[-83.513572,37.495118],[-83.51353,37.495179],[-83.513428,37.495296],[-83.513371,37.49535],[-83.513189,37.495481],[-83.512944,37.495627],[-83.512891,37.495668],[-83.512857,37.495716],[-83.512832,37.495767],[-83.512816,37.495822],[-83.512794,37.49588],[-83.512732,37.496004],[-83.512707,37.496064],[-83.512684,37.496187],[-83.512665,37.496247],[-83.51263,37.496307],[-83.512595,37.49636],[-83.51255,37.496415],[-83.51214,37.496993],[-83.5121,37.497039],[-83.512022,37.497116],[-83.511961,37.497192],[-83.511936,37.497236],[-83.511915,37.497289],[-83.511887,37.497413],[-83.511897,37.497548],[-83.511886,37.497609],[-83.511789,37.49791],[-83.511697,37.498292],[-83.511684,37.49838],[-83.511686,37.498425],[-83.511694,37.498467],[-83.511705,37.49863],[-83.511712,37.498668],[-83.511733,37.498736],[-83.51175,37.498763]]}},{"type":"Feature","properties":{"osm_id":16110867,"highway":"residential","name":"Mullins Road","alt_name":null,"official_name":null,"surface":null,"tracktype":null,"service":null,"access":null,"motor_vehicle":null,"foot":null,"tiger_reviewed":"no","rrgh_part":0,"rrgh_tile_part":0},"geometry":{"type":"LineString","coordinates":[[-83.505,37.48558041968912],[-83.505001,37.485581],[-83.505085,37.485645],[-83.505154,37.48572],[-83.505246,37.485782],[-83.505553,37.485933],[-83.505663,37.485977],[-83.505914,37.486048],[-83.506396,37.486163],[-83.506495,37.486195],[-83.506588,37.486237],[-83.506779,37.486334],[-83.506877,37.486378],[-83.507084,37.486485],[-83.507175,37.486555],[-83.507398,37.486784],[-83.507464,37.486858],[-83.507519,37.486936],[-83.507574,37.487027],[-83.507631,37.487156],[-83.507646,37.487315],[-83.507634,37.4874],[-83.507533,37.48763],[-83.507518,37.487685],[-83.507465,37.487938],[-83.507351,37.488362],[-83.507327,37.488469],[-83.50731,37.488578],[-83.507273,37.488911],[-83.507212,37.489252],[-83.507189,37.48948],[-83.507188,37.489592],[-83.507195,37.489703],[-83.50721,37.489816],[-83.507234,37.489928],[-83.507293,37.490143],[-83.507318,37.490249],[-83.507359,37.490457],[-83.507413,37.490664],[-83.507443,37.490759],[-83.507462,37.490844],[-83.50746,37.490916],[-83.50743,37.490976],[-83.507381,37.491023],[-83.507318,37.491056],[-83.507249,37.491076],[-83.507176,37.491086],[-83.507105,37.491082],[-83.507031,37.491071],[-83.506961,37.491048],[-83.506839,37.490994],[-83.50678,37.490973],[-83.506721,37.490958],[-83.506662,37.490948],[-83.506601,37.490943],[-83.506541,37.490942],[-83.506422,37.490951],[-83.506349,37.490958],[-83.506314,37.490966],[-83.506212,37.490979],[-83.506162,37.490979],[-83.506113,37.490974],[-83.506067,37.490973],[-83.506026,37.490978],[-83.505993,37.490994],[-83.505972,37.491016],[-83.505963,37.491039],[-83.505965,37.491066],[-83.505973,37.491099],[-83.506043,37.491304],[-83.5061,37.491426],[-83.506132,37.49151],[-83.506136,37.491555],[-83.506145,37.491598],[-83.506144,37.491642],[-83.506136,37.491689],[-83.506118,37.491734],[-83.506086,37.491777],[-83.506052,37.491815],[-83.506011,37.491848],[-83.505963,37.491876],[-83.505862,37.491926],[-83.505816,37.491952],[-83.505693,37.492035],[-83.505648,37.492062],[-83.505408,37.492193],[-83.505306,37.492257],[-83.505223,37.492319],[-83.505156,37.492386],[-83.50511,37.492457],[-83.50509,37.492493],[-83.505,37.49268206976744]]}},{"type":"Feature","properties":{"osm_id":16110923,"highway":"residential","name":"Terry Cemetery 1 Road","alt_name":null,"official_name":null,"surface":null,"tracktype":null,"service":null,"access":null,"motor_vehicle":null,"foot":null,"tiger_reviewed":"no","rrgh_part":0,"rrgh_tile_part":0},"geometry":{"type":"LineString","coordinates":[[-83.507518,37.487685],[-83.507457,37.487694],[-83.507401,37.487722],[-83.507293,37.48785],[-83.507216,37.487917],[-83.507141,37.487963],[-83.507117,37.487969],[-83.506978,37.487979],[-83.506807,37.487981],[-83.506726,37.487977],[-83.506639,37.487969],[-83.506542,37.487956],[-83.506473,37.487944],[-83.506414,37.487925],[-83.506381,37.487875],[-83.506362,37.487812],[-83.506358,37.48773],[-83.506369,37.487602],[-83.506393,37.487472],[-83.506379,37.487265],[-83.50638,37.487218],[-83.506389,37.487165],[-83.506418,37.487086],[-83.506449,37.487052],[-83.50648,37.487029],[-83.506537,37.487011]]}},{"type":"Feature","properties":{"osm_id":16112423,"highway":"residential","name":"Zeke Jett Cemetery Road","alt_name":null,"official_name":null,"surface":null,"tracktype":null,"service":null,"access":null,"motor_vehicle":null,"foot":null,"tiger_reviewed":"no","rrgh_part":0,"rrgh_tile_part":0},"geometry":{"type":"LineString","coordinates":[[-83.509533,37.493249],[-83.509523,37.49328],[-83.509498,37.493311],[-83.509452,37.493351],[-83.509376,37.493395],[-83.509254,37.493497],[-83.509242,37.493519],[-83.509072,37.494169],[-83.50905,37.494353],[-83.509054,37.494466],[-83.509065,37.494516]]}},{"type":"Feature","properties":{"osm_id":16108536,"highway":"residential","name":"Gabbard Cemetery 1 Road","alt_name":null,"official_name":null,"surface":null,"tracktype":null,"service":null,"access":null,"motor_vehicle":null,"foot":null,"tiger_reviewed":"no","rrgh_part":0,"rrgh_tile_part":0},"geometry":{"type":"LineString","coordinates":[[-83.531613,37.512616],[-83.531697,37.512618],[-83.531723,37.51262],[-83.531757,37.512618],[-83.531793,37.512604],[-83.531877,37.512531],[-83.531909,37.512508],[-83.532048,37.512427],[-83.532074,37.512408],[-83.532132,37.512311],[-83.53216,37.512284],[-83.532191,37.512261],[-83.532224,37.512242],[-83.53226,37.51223],[-83.532345,37.512223],[-83.532504,37.512195],[-83.532617,37.51216]]}},{"type":"Feature","properties":{"osm_id":16104542,"highway":"residential","name":null,"alt_name":null,"official_name":null,"surface":null,"tracktype":null,"service":null,"access":null,"motor_vehicle":null,"foot":null,"tiger_reviewed":"no","rrgh_part":0,"rrgh_tile_part":0},"geometry":{"type":"LineString","coordinates":[[-83.521503,37.507451],[-83.521463,37.507486],[-83.521437,37.507505],[-83.521312,37.507582],[-83.521131,37.50767],[-83.521059,37.507702],[-83.520796,37.507848],[-83.520684,37.507922],[-83.520626,37.507954],[-83.520568,37.507982],[-83.520511,37.508003],[-83.520293,37.50807],[-83.520241,37.508093],[-83.520196,37.508123],[-83.520154,37.508159],[-83.520116,37.508197],[-83.52008,37.508238],[-83.520049,37.50828],[-83.520024,37.508321],[-83.520006,37.50836],[-83.519993,37.5084],[-83.519985,37.508441],[-83.519979,37.508484],[-83.51997,37.508673],[-83.519952,37.508766],[-83.519923,37.50887],[-83.519885,37.508977],[-83.51983,37.50908],[-83.519806,37.509133],[-83.519787,37.509187],[-83.519735,37.509359],[-83.519723,37.50942],[-83.519726,37.509479],[-83.519744,37.509534],[-83.519835,37.509683],[-83.519884,37.509787],[-83.519912,37.509837],[-83.520005,37.509968],[-83.520031,37.510011],[-83.520048,37.510053],[-83.520058,37.510086],[-83.520059,37.51011],[-83.520055,37.510131],[-83.520033,37.510162],[-83.519991,37.510192]]}},{"type":"Feature","properties":{"osm_id":16106644,"highway":"track","name":null,"alt_name":null,"official_name":null,"surface":null,"tracktype":null,"service":null,"access":null,"motor_vehicle":null,"foot":null,"tiger_reviewed":"no","rrgh_part":0,"rrgh_tile_part":0},"geometry":{"type":"LineString","coordinates":[[-83.524434,37.506707],[-83.524779,37.506679],[-83.524914,37.506661],[-83.524986,37.506655],[-83.525059,37.50665],[-83.525335,37.506641],[-83.525386,37.506636],[-83.525431,37.506628],[-83.525468,37.506612],[-83.525496,37.50659],[-83.525516,37.506558],[-83.525523,37.506515],[-83.525527,37.50639],[-83.52554,37.506247],[-83.525552,37.50618],[-83.525569,37.506119],[-83.525592,37.506065],[-83.525622,37.506018],[-83.525661,37.505979],[-83.525677,37.50597]]}},{"type":"Feature","properties":{"osm_id":16107587,"highway":"residential","name":"Belcher Cemetery 1 Road","alt_name":null,"official_name":null,"surface":null,"tracktype":null,"service":null,"access":null,"motor_vehicle":null,"foot":null,"tiger_reviewed":"no","rrgh_part":0,"rrgh_tile_part":0},"geometry":{"type":"LineString","coordinates":[[-83.529597,37.521569],[-83.529633,37.521537],[-83.529655,37.521511],[-83.529678,37.521462],[-83.529702,37.521381],[-83.52976,37.521239],[-83.529789,37.521209],[-83.529827,37.521196],[-83.529843,37.521193],[-83.529857,37.521194],[-83.529892,37.521207],[-83.529934,37.52124],[-83.529979,37.52129],[-83.530023,37.521329],[-83.530098,37.521374],[-83.530134,37.521416],[-83.530189,37.521489],[-83.530254,37.521617],[-83.530279,37.521686],[-83.530352,37.521853],[-83.530396,37.521933],[-83.530423,37.521972],[-83.530442,37.522007],[-83.530452,37.522038],[-83.53047,37.522069],[-83.53049,37.5221],[-83.530539,37.522161],[-83.53062,37.522233],[-83.530638,37.522252],[-83.530667,37.522292]]}},{"type":"Feature","properties":{"osm_id":16104550,"highway":"residential","name":null,"alt_name":null,"official_name":null,"surface":null,"tracktype":null,"service":null,"access":null,"motor_vehicle":null,"foot":null,"tiger_reviewed":"no","rrgh_part":0,"rrgh_tile_part":0},"geometry":{"type":"LineString","coordinates":[[-83.505,37.512079221374044],[-83.505204,37.512182],[-83.505266,37.512217],[-83.505323,37.512254],[-83.505568,37.512457],[-83.50565,37.512516],[-83.505767,37.512609],[-83.505801,37.512632]]}}],"rrgh_tile":{"id":"r1c5","bounds":[37.45,-83.59,37.525000000000006,-83.505]}}
