{"type":"FeatureCollection","features":[{"type":"Feature","properties":{"osm_id":16105507,"highway":"residential","name":null,"alt_name":null,"official_name":null,"surface":null,"tracktype":null,"service":null,"access":null,"motor_vehicle":null,"foot":null,"tiger_reviewed":"no","rrgh_part":0,"rrgh_tile_part":0},"geometry":{"type":"LineString","coordinates":[[-83.505,37.45841457534247],[-83.504998,37.458418],[-83.504972,37.458481],[-83.504923,37.458669],[-83.50472,37.458969],[-83.504685,37.45903],[-83.504603,37.459216],[-83.504541,37.459385],[-83.504509,37.459443],[-83.504486,37.459502],[-83.504444,37.459635],[-83.50439,37.459772],[-83.504368,37.459838],[-83.504347,37.459905],[-83.50433,37.459975],[-83.504305,37.460103],[-83.504289,37.460162],[-83.504279,37.460252],[-83.504264,37.460794],[-83.504243,37.460907],[-83.504206,37.461049],[-83.504191,37.46109],[-83.504168,37.461127],[-83.504136,37.461161],[-83.504095,37.461188],[-83.503968,37.461224],[-83.503892,37.461251],[-83.503815,37.461292],[-83.503737,37.461341],[-83.503655,37.461382],[-83.503568,37.461417],[-83.503485,37.461442],[-83.503385,37.461452],[-83.503327,37.461463],[-83.503252,37.461494],[-83.503178,37.46153],[-83.503095,37.461561],[-83.502936,37.461631],[-83.502752,37.461736],[-83.502702,37.461771],[-83.502648,37.461815],[-83.502518,37.461903],[-83.502428,37.461961],[-83.502306,37.462029],[-83.502177,37.462116],[-83.502055,37.462193],[-83.501958,37.462252],[-83.501832,37.462318],[-83.501727,37.462384],[-83.501668,37.462417],[-83.501601,37.462442],[-83.501449,37.462488],[-83.501365,37.462517],[-83.50128,37.462531],[-83.501201,37.462536],[-83.501126,37.46255],[-83.500995,37.46259],[-83.500939,37.462616],[-83.500878,37.462639],[-83.500693,37.462731],[-83.500507,37.462841],[-83.500446,37.462873],[-83.500377,37.462904],[-83.50024,37.462956],[-83.50017,37.462986],[-83.500035,37.463049],[-83.499939,37.463106],[-83.499882,37.463127],[-83.499696,37.463222],[-83.499633,37.463257],[-83.499524,37.463327],[-83.499425,37.463406],[-83.499379,37.463452],[-83.499308,37.463552],[-83.49928,37.463601],[-83.499156,37.46388]]}},{"type":"Feature","properties":{"osm_id":16105262,"highway":"residential","name":null,"alt_name":null,"official_name":null,"surface":null,"tracktype":null,"service":null,"access":null,"motor_vehicle":null,"foot":null,"tiger_reviewed":"no","rrgh_part":0,"rrgh_tile_part":0},"geometry":{"type":"LineString","coordinates":[[-83.467301,37.497261],[-83.467216,37.497232],[-83.467075,37.497181],[-83.466999,37.497159],[-83.466809,37.497114],[-83.466709,37.497085],[-83.466516,37.497018],[-83.466265,37.496936],[-83.466215,37.49691],[-83.466161,37.496869],[-83.466101,37.49681],[-83.466082,37.496784],[-83.466068,37.496748],[-83.465924,37.496491],[-83.465894,37.49645],[-83.465857,37.496411],[-83.465814,37.496374],[-83.465618,37.49626],[-83.465449,37.496178],[-83.465239,37.496069],[-83.465063,37.495993],[-83.464968,37.495957],[-83.464873,37.495925],[-83.464694,37.495878],[-83.46454,37.49585],[-83.464161,37.495798],[-83.464065,37.495788],[-83.463931,37.49578],[-83.463769,37.495765],[-83.463579,37.495728],[-83.463149,37.495657],[-83.462916,37.495647],[-83.462619,37.495647],[-83.462336,37.495642],[-83.46216,37.495621],[-83.461956,37.495578],[-83.46176,37.495506],[-83.461599,37.495458],[-83.461395,37.495387],[-83.461206,37.495344],[-83.460993,37.495345],[-83.460738,37.495374],[-83.459941,37.4955],[-83.459714,37.495541],[-83.459144,37.495626],[-83.459026,37.49564],[-83.458905,37.495644],[-83.458788,37.495639],[-83.458556,37.495616],[-83.458211,37.495559],[-83.45787,37.495518],[-83.457445,37.495446],[-83.457355,37.495433],[-83.457194,37.495418],[-83.45711,37.49542],[-83.457026,37.495429],[-83.456849,37.495463],[-83.456754,37.495476],[-83.456658,37.495483],[-83.456572,37.495481],[-83.456472,37.495494],[-83.456297,37.495509],[-83.456215,37.495521],[-83.456139,37.495542],[-83.455811,37.495678],[-83.455645,37.49573],[-83.455472,37.495795],[-83.455369,37.495808],[-83.45522,37.495868],[-83.455005,37.495996],[-83.454832,37.496064],[-83.454684,37.496115],[-83.454552,37.496149],[-83.45441,37.496196],[-83.454348,37.496224],[-83.454234,37.496287],[-83.454176,37.496315],[-83.454113,37.496341],[-83.454047,37.496361],[-83.453908,37.496392],[-83.453684,37.496447],[-83.453529,37.496502],[-83.453366,37.496551],[-83.453281,37.496573],[-83.453197,37.496589],[-83.453114,37.496601],[-83.452909,37.496622],[-83.452802,37.496638],[-83.452694,37.496659],[-83.452634,37.496677],[-83.452572,37.496699],[-83.452452,37.496754],[-83.452318,37.496806],[-83.452049,37.49689],[-83.451897,37.496947],[-83.451846,37.49697],[-83.451744,37.497028],[-83.451689,37.497062],[-83.45158,37.497138],[-83.451524,37.49717],[-83.45146,37.49719],[-83.451393,37.497194],[-83.45126,37.49719],[-83.451135,37.497195],[-83.451075,37.497205],[-83.451021,37.497218],[-83.450975,37.497232],[-83.450909,37.497257]]}},{"type":"Feature","properties":{"osm_id":16110405,"highway":"residential","name":"Old Buck Road","alt_name":null,"official_name":null,"surface":null,"tracktype":null,"service":null,"access":null,"motor_vehicle":null,"foot":null,"tiger_reviewed":"no","rrgh_part":0,"rrgh_tile_part":0},"geometry":{"type":"LineString","coordinates":[[-83.44636,37.487562],[-83.44641,37.487556],[-83.446462,37.487555],[-83.446525,37.48756],[-83.446599,37.487559],[-83.446679,37.487553],[-83.446766,37.487541],[-83.446947,37.487509],[-83.447038,37.487497],[-83.44721,37.487482],[-83.447287,37.487469],[-83.447351,37.487444],[-83.447395,37.487408],[-83.447427,37.487365],[-83.447462,37.487286],[-83.44749,37.487253],[-83.447577,37.487203],[-83.447711,37.487111],[-83.447753,37.487088],[-83.447792,37.487069],[-83.447894,37.487039],[-83.447959,37.487024],[-83.448292,37.486965],[-83.448354,37.486947],[-83.448418,37.486919],[-83.448475,37.486877],[-83.44869,37.486634],[-83.448754,37.486572],[-83.448828,37.486514],[-83.448913,37.486459],[-83.449101,37.486347],[-83.44919,37.486283],[-83.449273,37.486213],[-83.449346,37.486136],[-83.449531,37.485897],[-83.449648,37.485734],[-83.44987,37.48537],[-83.449914,37.485308],[-83.449968,37.485248],[-83.450035,37.485192],[-83.450114,37.485142],[-83.450287,37.485046],[-83.450373,37.484994],[-83.450529,37.484879],[-83.450597,37.484821],[-83.450654,37.48476],[-83.4507,37.484696],[-83.450733,37.484628],[-83.450754,37.484553],[-83.450777,37.484398],[-83.4508,37.484319],[-83.450841,37.484241],[-83.450901,37.484168],[-83.450972,37.484101],[-83.451125,37.483966],[-83.451289,37.483833],[-83.451437,37.483708],[-83.451497,37.483636],[-83.451545,37.483565],[-83.451649,37.483341],[-83.451692,37.483273],[-83.451744,37.483211],[-83.451809,37.483157],[-83.451829,37.483144],[-83.451883,37.483111],[-83.451965,37.483073],[-83.452053,37.483038],[-83.452222,37.482964],[-83.45238,37.482889],[-83.452453,37.482851],[-83.452589,37.482771],[-83.452728,37.482673],[-83.45303,37.482429],[-83.453109,37.482375],[-83.453186,37.482327],[-83.453261,37.482288],[-83.453335,37.482258],[-83.453422,37.48224],[-83.453505,37.482233],[-83.453599,37.482234],[-83.453707,37.482247],[-83.453938,37.482246],[-83.454061,37.482242],[-83.454429,37.482245],[-83.454546,37.482251],[-83.454765,37.482272],[-83.454868,37.482279],[-83.454965,37.482276],[-83.455515,37.482201],[-83.455646,37.482177],[-83.45575,37.482142],[-83.455857,37.482081],[-83.455994,37.48198],[-83.456053,37.481929],[-83.456181,37.481782],[-83.456228,37.481748],[-83.456283,37.481722],[-83.456348,37.481705],[-83.456419,37.481699],[-83.456489,37.481702],[-83.456557,37.481716],[-83.456707,37.481757],[-83.45679,37.481776],[-83.457074,37.481857],[-83.457128,37.481866],[-83.457181,37.481866],[-83.457232,37.481854],[-83.457282,37.481828],[-83.457324,37.481786],[-83.457391,37.481686],[-83.457473,37.481507],[-83.457509,37.481446],[-83.45755,37.481392],[-83.457594,37.481349],[-83.457642,37.481313],[-83.457698,37.481283],[-83.457766,37.481255],[-83.457935,37.481169],[-83.458124,37.481056],[-83.458309,37.480938],[-83.458394,37.480876],[-83.458468,37.480812],[-83.458527,37.480743],[-83.458599,37.480686],[-83.458678,37.480633],[-83.45876,37.480583],[-83.459074,37.480427],[-83.459214,37.480362],[-83.459292,37.480331],[-83.459377,37.480305],[-83.459477,37.480293],[-83.459686,37.480262],[-83.459803,37.480249],[-83.460174,37.480221],[-83.460294,37.480206],[-83.461039,37.480075],[-83.461246,37.480025],[-83.461797,37.479923],[-83.462114,37.479856],[-83.462232,37.479826],[-83.46242,37.479762],[-83.462511,37.479757],[-83.462581,37.479759],[-83.462661,37.479776],[-83.462737,37.479809],[-83.4629,37.479909],[-83.462995,37.479957],[-83.463096,37.479998],[-83.4632,37.480031],[-83.463307,37.480058],[-83.463418,37.480076],[-83.463531,37.480088],[-83.463643,37.480084],[-83.463754,37.480076],[-83.463866,37.480059],[-83.463973,37.480024],[-83.464074,37.479974],[-83.464263,37.479863],[-83.464364,37.47982],[-83.464472,37.479792],[-83.464585,37.479778],[-83.464701,37.47977],[-83.464819,37.47977],[-83.465057,37.479791],[-83.465303,37.479826],[-83.465419,37.479846],[-83.465527,37.479871],[-83.465626,37.479905],[-83.465722,37.479942],[-83.465831,37.479976],[-83.46594,37.479994],[-83.466049,37.480004],[-83.466169,37.479999],[-83.466469,37.479965],[-83.46687,37.4799],[-83.466985,37.479888],[-83.467097,37.479886],[-83.467314,37.479914],[-83.467422,37.479939],[-83.467533,37.479972],[-83.467643,37.480012],[-83.467749,37.48006],[-83.468047,37.480221],[-83.468142,37.480282],[-83.468232,37.48035],[-83.468317,37.480427],[-83.468394,37.480515],[-83.468462,37.480613],[-83.468519,37.48072],[-83.468622,37.480936],[-83.468681,37.481036],[-83.468728,37.481091],[-83.468758,37.481125],[-83.468854,37.481201],[-83.468967,37.481266],[-83.469092,37.481325],[-83.469224,37.481379],[-83.4695,37.481478],[-83.469644,37.481521],[-83.469791,37.481557],[-83.46994,37.481586],[-83.470555,37.481673],[-83.47101,37.481747],[-83.471155,37.481777],[-83.471725,37.481918],[-83.471859,37.481956],[-83.471988,37.482014],[-83.472112,37.482085],[-83.472236,37.482163],[-83.47236,37.482246],[-83.472477,37.482335],[-83.472581,37.482433],[-83.472674,37.482537],[-83.472762,37.482642],[-83.472856,37.482744],[-83.47296,37.482835],[-83.473073,37.482916],[-83.473192,37.482993],[-83.473304,37.483077],[-83.473405,37.483166],[-83.473493,37.483264],[-83.473564,37.48337],[-83.473617,37.483485],[-83.473657,37.483606],[-83.473692,37.483733],[-83.473739,37.483858],[-83.473806,37.483978],[-83.47389,37.48409],[-83.473988,37.484195],[-83.47456,37.484657],[-83.474673,37.484742],[-83.474785,37.48482],[-83.474999,37.48496],[-83.475094,37.485027],[-83.475172,37.485098],[-83.475233,37.485172],[-83.475273,37.485251],[-83.475292,37.485335],[-83.475289,37.485423],[-83.475264,37.485517],[-83.47519,37.485723],[-83.475165,37.485835],[-83.475155,37.485952],[-83.475156,37.486185],[-83.475164,37.486298],[-83.475181,37.486408],[-83.475212,37.486518],[-83.47526,37.486626],[-83.475326,37.486733],[-83.475404,37.486837],[-83.475576,37.487048],[-83.475778,37.487242],[-83.475881,37.48733],[-83.475988,37.487408],[-83.476098,37.487476],[-83.476421,37.487647],[-83.476509,37.487709],[-83.476586,37.487779],[-83.476649,37.487858],[-83.476701,37.487941],[-83.476741,37.488022],[-83.476762,37.488105],[-83.476764,37.488188],[-83.476748,37.488269],[-83.476724,37.488346],[-83.476707,37.488418],[-83.476711,37.488492],[-83.476744,37.488563],[-83.476794,37.488624],[-83.477001,37.488831]]}},{"type":"Feature","properties":{"osm_id":16113849,"highway":"residential","name":"Mill Creek Road","alt_name":null,"official_name":null,"surface":null,"tracktype":null,"service":null,"access":null,"motor_vehicle":null,"foot":null,"tiger_reviewed":"no","rrgh_part":0,"rrgh_tile_part":0},"geometry":{"type":"LineString","coordinates":[[-83.471145,37.466855],[-83.47105,37.466951],[-83.470921,37.467116],[-83.470863,37.467184],[-83.470794,37.467256],[-83.470716,37.467331],[-83.470543,37.46749],[-83.47035,37.467651],[-83.469568,37.468263],[-83.469393,37.468419],[-83.469225,37.468586],[-83.468949,37.468807],[-83.468847,37.468863],[-83.468745,37.46891],[-83.46853,37.468997],[-83.468411,37.469037],[-83.468293,37.469095],[-83.468065,37.469228],[-83.467958,37.469298],[-83.467861,37.469366],[-83.467685,37.469502],[-83.467589,37.469564],[-83.467481,37.469622],[-83.467364,37.46967],[-83.467248,37.469707],[-83.467031,37.469764],[-83.46693,37.469798],[-83.466724,37.469878],[-83.466617,37.469916],[-83.4664,37.469981],[-83.466042,37.470097],[-83.46592,37.470142],[-83.465794,37.470193],[-83.465541,37.470308],[-83.465406,37.470364],[-83.465269,37.470415],[-83.465131,37.470456],[-83.464994,37.470484],[-83.46486,37.47049],[-83.464732,37.470476],[-83.464608,37.470456],[-83.464487,37.47045],[-83.464376,37.470458],[-83.464279,37.470469],[-83.464193,37.470483],[-83.464021,37.47052],[-83.463719,37.470594],[-83.463483,37.470657],[-83.463084,37.470749],[-83.462674,37.470851],[-83.462532,37.470884],[-83.462388,37.470911],[-83.462244,37.470931],[-83.462102,37.470944],[-83.461576,37.470965],[-83.461335,37.470964],[-83.461218,37.470967],[-83.461115,37.470974],[-83.461009,37.470995],[-83.4609,37.471025],[-83.46079,37.471064],[-83.460486,37.471195],[-83.460338,37.471259],[-83.460224,37.471299],[-83.459998,37.471365],[-83.459889,37.471404],[-83.459783,37.471449],[-83.45968,37.471501],[-83.459578,37.471561],[-83.459372,37.471714],[-83.459275,37.471802],[-83.459089,37.471992],[-83.458986,37.472082],[-83.458877,37.47216],[-83.458745,37.472233],[-83.458622,37.47232],[-83.458118,37.472632],[-83.457904,37.472774],[-83.4578,37.472847],[-83.457617,37.472992],[-83.457544,37.473062],[-83.457464,37.473123],[-83.457372,37.473182],[-83.457259,37.47323],[-83.457133,37.473273],[-83.456988,37.473304],[-83.456833,37.47333],[-83.456325,37.473399],[-83.456154,37.473417],[-83.455986,37.473432],[-83.45552,37.473461],[-83.455355,37.473473],[-83.455194,37.473489],[-83.454865,37.473536],[-83.454528,37.473593],[-83.454359,37.473614],[-83.454194,37.473631],[-83.454032,37.473639],[-83.453872,37.473637],[-83.453712,37.473628],[-83.453384,37.473598],[-83.453223,37.473593],[-83.453068,37.473581],[-83.452787,37.473568],[-83.452654,37.473567],[-83.452523,37.473573],[-83.452264,37.4736],[-83.452129,37.473603],[-83.451987,37.473591],[-83.451719,37.473535],[-83.451591,37.473512],[-83.451467,37.473494],[-83.451219,37.473472],[-83.450975,37.473456],[-83.450757,37.473438],[-83.450651,37.473425],[-83.450537,37.4734],[-83.450286,37.473384],[-83.450162,37.473369],[-83.449914,37.47332],[-83.449817,37.473289],[-83.449722,37.473264],[-83.44964,37.473246],[-83.449572,37.473235],[-83.449527,37.473237],[-83.449508,37.473238],[-83.449443,37.473256],[-83.449372,37.473286],[-83.449301,37.473332],[-83.449224,37.473399],[-83.449141,37.473462],[-83.449046,37.473523],[-83.448829,37.473642],[-83.448707,37.473695],[-83.448475,37.473805],[-83.448248,37.473898],[-83.448046,37.473974],[-83.447965,37.474017],[-83.447894,37.474066],[-83.44783,37.474127],[-83.447773,37.474203],[-83.447405,37.474486],[-83.44716,37.474757],[-83.447114,37.474819],[-83.447063,37.474878],[-83.446991,37.474922],[-83.446903,37.474949],[-83.446715,37.474972],[-83.446547,37.475001],[-83.446459,37.475012],[-83.446366,37.47501],[-83.446272,37.475002],[-83.446053,37.474998],[-83.445854,37.474984],[-83.445749,37.474985],[-83.445641,37.474992],[-83.445297,37.475049],[-83.445077,37.475079],[-83.44497,37.475088],[-83.444859,37.475091],[-83.444749,37.47509],[-83.444485,37.475073],[-83.444292,37.475051],[-83.444207,37.475056],[-83.444128,37.475075],[-83.444052,37.475106],[-83.44398,37.475144],[-83.443902,37.47518],[-83.443816,37.475208],[-83.443493,37.47527],[-83.443405,37.475284],[-83.443308,37.475293],[-83.443104,37.475299],[-83.442995,37.475311],[-83.442886,37.475336],[-83.442773,37.475367],[-83.442662,37.475405],[-83.442457,37.475494],[-83.442356,37.475529],[-83.442162,37.47557],[-83.441984,37.475618],[-83.441891,37.475638],[-83.441792,37.475644],[-83.441291,37.475619],[-83.441206,37.47562],[-83.441127,37.475629],[-83.441051,37.475646],[-83.440911,37.475695],[-83.440842,37.475726],[-83.440775,37.475766],[-83.440631,37.475868],[-83.440547,37.475923],[-83.440452,37.475972],[-83.440355,37.476011],[-83.440266,37.476041],[-83.440191,37.47607],[-83.440151,37.476091],[-83.440125,37.476104],[-83.440074,37.476148],[-83.440035,37.476199],[-83.439999,37.476256],[-83.439959,37.476311],[-83.439906,37.476362],[-83.439837,37.476406],[-83.439699,37.476483],[-83.439643,37.476525],[-83.439599,37.476566],[-83.439567,37.476606],[-83.439546,37.476639],[-83.439508,37.476713],[-83.439474,37.476764]]}},{"type":"Feature","properties":{"osm_id":16114008,"highway":"residential","name":"Gabbard Road","alt_name":null,"official_name":null,"surface":null,"tracktype":null,"service":null,"access":null,"motor_vehicle":null,"foot":null,"tiger_reviewed":"no","rrgh_part":0,"rrgh_tile_part":0},"geometry":{"type":"LineString","coordinates":[[-83.50064,37.455279],[-83.500589,37.455271],[-83.500564,37.455272],[-83.500534,37.455281],[-83.500408,37.455335],[-83.500361,37.455349],[-83.500243,37.455375],[-83.500153,37.455399],[-83.5001,37.455416],[-83.499983,37.455462],[-83.499922,37.455488],[-83.499802,37.455548],[-83.499622,37.455651],[-83.499497,37.455716],[-83.499432,37.455746],[-83.499302,37.455794],[-83.499176,37.455833],[-83.499116,37.455845],[-83.499052,37.455865],[-83.498939,37.455886],[-83.498775,37.455901],[-83.498717,37.455903],[-83.498677,37.455896],[-83.498634,37.455882],[-83.498593,37.455863],[-83.49848,37.455779],[-83.498402,37.455706],[-83.498107,37.455445],[-83.497913,37.45529],[-83.497866,37.455247],[-83.49782,37.455201],[-83.497607,37.454961],[-83.497561,37.454919],[-83.497509,37.454881],[-83.497451,37.454853],[-83.497389,37.454835],[-83.497326,37.454825],[-83.497205,37.454818],[-83.497151,37.454809],[-83.497105,37.454792],[-83.49707,37.454768],[-83.497046,37.454743],[-83.497017,37.454699]]}},{"type":"Feature","properties":{"osm_id":16108689,"highway":"residential","name":"Thomas Griffith Cemetery Road","alt_name":null,"official_name":null,"surface":null,"tracktype":null,"service":null,"access":null,"motor_vehicle":null,"foot":null,"tiger_reviewed":"no","rrgh_part":0,"rrgh_tile_part":0},"geometry":{"type":"LineString","coordinates":[[-83.496159,37.462929],[-83.496089,37.462941],[-83.496007,37.462962],[-83.495917,37.462995],[-83.4959,37.463004],[-83.495871,37.463026],[-83.495861,37.463041]]}},{"type":"Feature","properties":{"osm_id":16109540,"highway":"residential","name":"Spicewood Creek Road","alt_name":null,"official_name":null,"surface":null,"tracktype":null,"service":null,"access":null,"motor_vehicle":null,"foot":null,"tiger_reviewed":"no","rrgh_part":0,"rrgh_tile_part":0},"geometry":{"type":"LineString","coordinates":[[-83.478187,37.460369],[-83.478349,37.460331],[-83.478491,37.460301],[-83.478675,37.460275],[-83.478877,37.460255],[-83.479204,37.460189],[-83.479395,37.46011],[-83.479474,37.460056],[-83.479614,37.459974],[-83.479941,37.459863],[-83.480057,37.459837],[-83.480266,37.459803],[-83.48072,37.459671],[-83.480815,37.459636],[-83.481203,37.459558],[-83.481312,37.459558],[-83.481493,37.459563],[-83.481613,37.45956]]}},{"type":"Feature","properties":{"osm_id":16115046,"highway":"residential","name":"Beech Grove Road","alt_name":null,"official_name":null,"surface":null,"tracktype":null,"service":null,"access":null,"motor_vehicle":null,"foot":null,"tiger_reviewed":"no","rrgh_part":0,"rrgh_tile_part":0},"geometry":{"type":"LineString","coordinates":[[-83.470495,37.46468],[-83.470439,37.464644],[-83.47014,37.464507],[-83.470069,37.464471],[-83.470001,37.46443],[-83.469947,37.46438],[-83.469864,37.464276],[-83.469818,37.464232],[-83.469764,37.46419],[-83.469699,37.464142],[-83.469624,37.464097],[-83.469541,37.464054],[-83.469452,37.464017],[-83.469356,37.463987],[-83.46925,37.46396],[-83.468884,37.463877],[-83.468386,37.463739],[-83.468053,37.463653],[-83.46764,37.46356],[-83.467543,37.46354],[-83.467442,37.463525],[-83.467338,37.463515],[-83.466895,37.463493],[-83.466792,37.463475],[-83.466697,37.463442],[-83.466508,37.463355],[-83.466414,37.463316],[-83.466323,37.463283],[-83.466237,37.463258],[-83.466156,37.46324],[-83.466001,37.463213],[-83.465918,37.463207],[-83.465735,37.46321],[-83.465676,37.463202],[-83.465544,37.463208],[-83.465461,37.463193],[-83.465323,37.463153],[-83.465177,37.463138],[-83.465077,37.463157],[-83.465011,37.463159],[-83.464937,37.463166],[-83.464719,37.463166],[-83.464631,37.46318]]}},{"type":"Feature","properties":{"osm_id":16105627,"highway":"residential","name":null,"alt_name":null,"official_name":null,"surface":null,"tracktype":null,"service":null,"access":null,"motor_vehicle":null,"foot":null,"tiger_reviewed":"no","rrgh_part":0,"rrgh_tile_part":0},"geometry":{"type":"LineString","coordinates":[[-83.476616,37.45734],[-83.476406,37.457343],[-83.476355,37.457349],[-83.476321,37.457347],[-83.47604,37.457306],[-83.475805,37.457268],[-83.475614,37.457229],[-83.475415,37.457198]]}},{"type":"Feature","properties":{"osm_id":16117035,"highway":"residential","name":"Short-Gross Cemetery Road","alt_name":null,"official_name":null,"surface":null,"tracktype":null,"service":null,"access":null,"motor_vehicle":null,"foot":null,"tiger_reviewed":"no","rrgh_part":0,"rrgh_tile_part":0},"geometry":{"type":"LineString","coordinates":[[-83.471684,37.463372],[-83.471596,37.463319],[-83.471572,37.463309],[-83.471546,37.463306],[-83.471522,37.463311],[-83.471503,37.463322],[-83.471492,37.463337],[-83.47148,37.463391],[-83.47147,37.46341],[-83.471453,37.463427],[-83.471432,37.463439],[-83.471411,37.463445],[-83.471389,37.463447],[-83.471364,37.463445],[-83.471313,37.463432],[-83.471166,37.463365],[-83.470795,37.463184],[-83.470606,37.463072],[-83.470428,37.462979],[-83.470312,37.46291],[-83.470062,37.462743],[-83.469877,37.462628],[-83.469804,37.462589],[-83.469737,37.462571]]}},{"type":"Feature","properties":{"osm_id":16106715,"highway":"service","name":null,"alt_name":null,"official_name":null,"surface":null,"tracktype":null,"service":null,"access":"private","motor_vehicle":null,"foot":null,"tiger_reviewed":"no","rrgh_part":0,"rrgh_tile_part":0},"geometry":{"type":"LineString","coordinates":[[-83.479862,37.470128],[-83.479814,37.470152]]}},{"type":"Feature","properties":{"osm_id":16107985,"highway":"residential","name":"Pennington Lane","alt_name":null,"official_name":null,"surface":null,"tracktype":null,"service":null,"access":null,"motor_vehicle":null,"foot":null,"tiger_reviewed":"no","rrgh_part":0,"rrgh_tile_part":0},"geometry":{"type":"LineString","coordinates":[[-83.479814,37.470152],[-83.479768,37.470181],[-83.479635,37.47027],[-83.479487,37.470362],[-83.479442,37.470394],[-83.479409,37.470426],[-83.479374,37.470471],[-83.479327,37.470551],[-83.479267,37.470629],[-83.479114,37.470796],[-83.47877,37.471147],[-83.478706,37.471218],[-83.478662,37.47128]]}},{"type":"Feature","properties":{"osm_id":16111123,"highway":"residential","name":"Pennington Cemetery 1 Road","alt_name":null,"official_name":null,"surface":null,"tracktype":null,"service":null,"access":null,"motor_vehicle":null,"foot":null,"tiger_reviewed":"no","rrgh_part":0,"rrgh_tile_part":0},"geometry":{"type":"LineString","coordinates":[[-83.480879,37.471119],[-83.480865,37.471195],[-83.480847,37.471267],[-83.480842,37.471304],[-83.480845,37.471515],[-83.480854,37.471604],[-83.480864,37.47165],[-83.480869,37.471748],[-83.480863,37.4718],[-83.480851,37.471854],[-83.480827,37.471904],[-83.480795,37.471952],[-83.480717,37.472046],[-83.480669,37.472092],[-83.480498,37.472211],[-83.480358,37.472275],[-83.480235,37.472322],[-83.480031,37.472387],[-83.479837,37.472442],[-83.47965,37.472485],[-83.479365,37.472519],[-83.478984,37.472582],[-83.478811,37.472617],[-83.478757,37.472638],[-83.478656,37.472661],[-83.478552,37.472674],[-83.478526,37.472667],[-83.478507,37.472654],[-83.478498,37.472631],[-83.478503,37.472608],[-83.478522,37.472586],[-83.478607,37.47253],[-83.478674,37.472498],[-83.478711,37.472475],[-83.478747,37.47245],[-83.478915,37.472319],[-83.478968,37.472285]]}},{"type":"Feature","properties":{"osm_id":16116712,"highway":"residential","name":"Anderson Cemetery 1 Road","alt_name":null,"official_name":null,"surface":null,"tracktype":null,"service":null,"access":null,"motor_vehicle":null,"foot":null,"tiger_reviewed":"no","rrgh_part":0,"rrgh_tile_part":0},"geometry":{"type":"LineString","coordinates":[[-83.481503,37.472759],[-83.481427,37.472774],[-83.481321,37.472815],[-83.48122,37.472864],[-83.481185,37.472884],[-83.481083,37.472956],[-83.48105,37.472973],[-83.480946,37.473003],[-83.480891,37.473025],[-83.480835,37.473041],[-83.480745,37.473055],[-83.480711,37.473057],[-83.480467,37.47304],[-83.480428,37.473042],[-83.480309,37.473058],[-83.480129,37.473088],[-83.480069,37.473092]]}},{"type":"Feature","properties":{"osm_id":16108923,"highway":"residential","name":"Keene Cemetery Road","alt_name":null,"official_name":null,"surface":null,"tracktype":null,"service":null,"access":null,"motor_vehicle":null,"foot":null,"tiger_reviewed":"no","rrgh_part":0,"rrgh_tile_part":0},"geometry":{"type":"LineString","coordinates":[[-83.477618,37.468264],[-83.477778,37.46845],[-83.477802,37.468475],[-83.478066,37.468799],[-83.478101,37.46886],[-83.478135,37.468911],[-83.478278,37.469084],[-83.478307,37.469127],[-83.478334,37.469179],[-83.478358,37.469242],[-83.478381,37.46929],[-83.478456,37.46952],[-83.478499,37.469632],[-83.478542,37.469715],[-83.478593,37.469777],[-83.47862,37.469823],[-83.478623,37.469891],[-83.478615,37.469912],[-83.478596,37.469931],[-83.478553,37.46996],[-83.478491,37.469968],[-83.478458,37.469961],[-83.478397,37.469942],[-83.478256,37.469883],[-83.478033,37.469784],[-83.478009,37.46977],[-83.477958,37.469747]]}},{"type":"Feature","properties":{"osm_id":16110867,"highway":"residential","name":"Mullins Road","alt_name":null,"official_name":null,"surface":null,"tracktype":null,"service":null,"access":null,"motor_vehicle":null,"foot":null,"tiger_reviewed":"no","rrgh_part":0,"rrgh_tile_part":0},"geometry":{"type":"LineString","coordinates":[[-83.500057,37.482639],[-83.500065,37.482648],[-83.500246,37.482865],[-83.500319,37.482938],[-83.500401,37.48301],[-83.500494,37.483076],[-83.500597,37.483134],[-83.500708,37.483184],[-83.50094,37.48327],[-83.501057,37.483317],[-83.501628,37.483573],[-83.501745,37.483614],[-83.501866,37.483646],[-83.502262,37.483703],[-83.502398,37.483729],[-83.502789,37.483826],[-83.503049,37.483887],[-83.503175,37.483923],[-83.503292,37.483961],[-83.503449,37.484042],[-83.503559,37.484157],[-83.503655,37.484301],[-83.503716,37.484371],[-83.503849,37.484516],[-83.503928,37.484589],[-83.504002,37.484669],[-83.504074,37.484757],[-83.504321,37.485027],[-83.50449,37.485203],[-83.504667,37.485335],[-83.504808,37.485469],[-83.505,37.48558041968912]]}},{"type":"Feature","properties":{"osm_id":16110867,"highway":"residential","name":"Mullins Road","alt_name":null,"official_name":null,"surface":null,"tracktype":null,"service":null,"access":null,"motor_vehicle":null,"foot":null,"tiger_reviewed":"no","rrgh_part":0,"rrgh_tile_part":1},"geometry":{"type":"LineString","coordinates":[[-83.505,37.49268206976744],[-83.504961,37.492764],[-83.504916,37.492826],[-83.50489,37.492849],[-83.504859,37.492869],[-83.504747,37.492928],[-83.5047,37.492948],[-83.504652,37.492965],[-83.504601,37.492979],[-83.504552,37.492988],[-83.50449,37.492989],[-83.504383,37.492974],[-83.504327,37.492969],[-83.504267,37.492973],[-83.504203,37.492987]]}},{"type":"Feature","properties":{"osm_id":16104380,"highway":"residential","name":null,"alt_name":null,"official_name":null,"surface":null,"tracktype":null,"service":null,"access":null,"motor_vehicle":null,"foot":null,"tiger_reviewed":"no","rrgh_part":0,"rrgh_tile_part":0},"geometry":{"type":"LineString","coordinates":[[-83.499834,37.482411],[-83.499953,37.482527],[-83.500008,37.482583],[-83.500057,37.482639]]}},{"type":"Feature","properties":{"osm_id":16104697,"highway":"residential","name":null,"alt_name":null,"official_name":null,"surface":null,"tracktype":null,"service":null,"access":null,"motor_vehicle":null,"foot":null,"tiger_reviewed":"no","rrgh_part":0,"rrgh_tile_part":0},"geometry":{"type":"LineString","coordinates":[[-83.500057,37.482639],[-83.500093,37.48245]]}},{"type":"Feature","properties":{"osm_id":16105883,"highway":"residential","name":null,"alt_name":null,"official_name":null,"surface":null,"tracktype":null,"service":null,"access":null,"motor_vehicle":null,"foot":null,"tiger_reviewed":"no","rrgh_part":0,"rrgh_tile_part":0},"geometry":{"type":"LineString","coordinates":[[-83.502241,37.493401],[-83.502453,37.493383],[-83.502763,37.493375],[-83.502811,37.493365],[-83.502909,37.493333],[-83.503015,37.493293],[-83.503135,37.493252],[-83.503264,37.493216],[-83.503328,37.4932],[-83.503707,37.49312],[-83.503965,37.493059],[-83.504091,37.493025],[-83.504203,37.492987]]}},{"type":"Feature","properties":{"osm_id":16109029,"highway":"residential","name":"Gilbert Cemetery 1 Road","alt_name":null,"official_name":null,"surface":null,"tracktype":null,"service":null,"access":null,"motor_vehicle":null,"foot":null,"tiger_reviewed":"no","rrgh_part":0,"rrgh_tile_part":0},"geometry":{"type":"LineString","coordinates":[[-83.491424,37.491175],[-83.491327,37.491189],[-83.491261,37.491227],[-83.490769,37.491662],[-83.490545,37.491879],[-83.490401,37.492025],[-83.49034,37.492098],[-83.490224,37.492261],[-83.490097,37.492366],[-83.489997,37.492412],[-83.489852,37.492457],[-83.489739,37.492512],[-83.489548,37.492684],[-83.48944,37.492794],[-83.489361,37.49285],[-83.489289,37.492895],[-83.489214,37.492935],[-83.489169,37.492952],[-83.48903,37.492993],[-83.488891,37.493044],[-83.488818,37.493082],[-83.48863,37.49316]]}},{"type":"Feature","properties":{"osm_id":16115111,"highway":"residential","name":"Country Lane","alt_name":null,"official_name":null,"surface":null,"tracktype":null,"service":null,"access":null,"motor_vehicle":null,"foot":null,"tiger_reviewed":"no","rrgh_part":0,"rrgh_tile_part":0},"geometry":{"type":"LineString","coordinates":[[-83.480911,37.495452],[-83.480802,37.495406],[-83.480763,37.495391],[-83.480718,37.495378],[-83.480567,37.495343],[-83.480522,37.49533],[-83.48049,37.495314],[-83.480467,37.495292],[-83.480453,37.495266],[-83.480449,37.495238],[-83.48045,37.495208],[-83.480459,37.495106]]}},{"type":"Feature","properties":{"osm_id":16105843,"highway":"residential","name":null,"alt_name":null,"official_name":null,"surface":null,"tracktype":null,"service":null,"access":null,"motor_vehicle":null,"foot":null,"tiger_reviewed":"no","rrgh_part":0,"rrgh_tile_part":0},"geometry":{"type":"LineString","coordinates":[[-83.478271,37.498851],[-83.478325,37.499115],[-83.478894,37.499886],[-83.478957,37.500005],[-83.479124,37.500727],[-83.479119,37.501359],[-83.478725,37.502226],[-83.478746,37.503491],[-83.47851,37.504008],[-83.477945,37.504854],[-83.476909,37.505961],[-83.476168,37.506599],[-83.474852,37.507107],[-83.473596,37.50765]]}},{"type":"Feature","properties":{"osm_id":16105997,"highway":"residential","name":null,"alt_name":null,"official_name":null,"surface":null,"tracktype":null,"service":null,"access":null,"motor_vehicle":null,"foot":null,"tiger_reviewed":"no","rrgh_part":0,"rrgh_tile_part":0},"geometry":{"type":"LineString","coordinates":[[-83.468702,37.495563],[-83.468738,37.495602],[-83.468751,37.495619],[-83.468761,37.495644],[-83.468762,37.495674],[-83.468752,37.495709],[-83.468655,37.495874],[-83.468582,37.495978],[-83.468494,37.496093],[-83.468454,37.496154],[-83.468416,37.496216],[-83.468386,37.496277],[-83.468362,37.496338],[-83.468343,37.496399],[-83.46833,37.496459],[-83.468323,37.496517],[-83.468324,37.496572],[-83.468333,37.496624],[-83.468355,37.496671],[-83.468392,37.496708],[-83.468441,37.496733],[-83.468499,37.496745],[-83.468562,37.496745],[-83.468784,37.496727],[-83.469187,37.496714],[-83.46927,37.496709],[-83.469435,37.496688],[-83.469603,37.496652],[-83.46969,37.49663],[-83.469785,37.496604],[-83.469851,37.496579],[-83.46991,37.496544],[-83.469994,37.49646],[-83.470043,37.496437],[-83.470091,37.496438],[-83.470127,37.496458],[-83.470144,37.496489],[-83.470142,37.496525],[-83.470118,37.496558],[-83.470085,37.49659],[-83.469943,37.496678],[-83.469808,37.496778],[-83.469758,37.496835],[-83.469724,37.496891]]}},{"type":"Feature","properties":{"osm_id":16109970,"highway":"residential","name":"Twin Cedar Road","alt_name":null,"official_name":null,"surface":null,"tracktype":null,"service":null,"access":null,"motor_vehicle":null,"foot":null,"tiger_reviewed":"no","rrgh_part":0,"rrgh_tile_part":0},"geometry":{"type":"LineString","coordinates":[[-83.46768,37.496962],[-83.467542,37.496935],[-83.467445,37.496932],[-83.467317,37.496948],[-83.467101,37.496992],[-83.46703,37.496999],[-83.466958,37.496998],[-83.466888,37.496991],[-83.466821,37.496978],[-83.466697,37.49694],[-83.466575,37.496887],[-83.466456,37.496824],[-83.466399,37.496786],[-83.466346,37.496744],[-83.4663,37.496695],[-83.46626,37.496642],[-83.466168,37.496468],[-83.466133,37.496415],[-83.466052,37.496317],[-83.466004,37.496271],[-83.465954,37.496228],[-83.465902,37.496191],[-83.465854,37.496163],[-83.465721,37.496099],[-83.465679,37.496075],[-83.465623,37.496037],[-83.465525,37.495952],[-83.465466,37.495906],[-83.465396,37.495862],[-83.465316,37.49582],[-83.465227,37.49578],[-83.465034,37.495708],[-83.464733,37.495609],[-83.464635,37.495574],[-83.464351,37.495456],[-83.46426,37.495428],[-83.464161,37.495414],[-83.463943,37.495411],[-83.463826,37.495405],[-83.463714,37.495391],[-83.463201,37.495344],[-83.46198,37.495286],[-83.46187,37.495272],[-83.461765,37.49525],[-83.461482,37.495167],[-83.461362,37.49511],[-83.461315,37.495074],[-83.461285,37.495034],[-83.461265,37.494994],[-83.461253,37.494954],[-83.46125,37.494915],[-83.461258,37.494876],[-83.461283,37.494843]]}},{"type":"Feature","properties":{"osm_id":16104714,"highway":"track","name":null,"alt_name":null,"official_name":null,"surface":null,"tracktype":null,"service":null,"access":null,"motor_vehicle":null,"foot":null,"tiger_reviewed":"no","rrgh_part":0,"rrgh_tile_part":0},"geometry":{"type":"LineString","coordinates":[[-83.450878,37.509703],[-83.450895,37.50972],[-83.451169,37.509953],[-83.451606,37.51011],[-83.451898,37.510359],[-83.45196,37.510586],[-83.451851,37.510971],[-83.451913,37.511221],[-83.452204,37.511424],[-83.452331,37.512195],[-83.452479,37.512376],[-83.453003,37.5126],[-83.453182,37.513054],[-83.453015,37.513326],[-83.453019,37.513598],[-83.453137,37.513779],[-83.452998,37.514029],[-83.452547,37.514413],[-83.45261,37.514799],[-83.452758,37.515026],[-83.45337,37.515363],[-83.454736,37.515377],[-83.455697,37.515667],[-83.455446,37.516075],[-83.455479,37.516369],[-83.455715,37.516687],[-83.45653,37.516955],[-83.457693,37.517038],[-83.458013,37.517195],[-83.457629,37.518284],[-83.457527,37.519101],[-83.457825,37.519712],[-83.458088,37.519893],[-83.458349,37.5198],[-83.458732,37.519199],[-83.459308,37.519017],[-83.460198,37.51895],[-83.460658,37.518699],[-83.460687,37.518563],[-83.461061,37.51822],[-83.461061,37.517924],[-83.461147,37.517832],[-83.461176,37.51749],[-83.461606,37.517217],[-83.462699,37.517516],[-83.462699,37.517791],[-83.462354,37.518181],[-83.462356,37.51887],[-83.462126,37.519191],[-83.462126,37.519512],[-83.462385,37.519764],[-83.462444,37.521278],[-83.462589,37.521921],[-83.463077,37.522288],[-83.463364,37.522426],[-83.463738,37.522426],[-83.464083,37.52213],[-83.464083,37.521195],[-83.464313,37.520943],[-83.464601,37.520806],[-83.465348,37.520762],[-83.465664,37.520671],[-83.465865,37.52042],[-83.465952,37.519621],[-83.466153,37.519279],[-83.466497,37.519257],[-83.466727,37.519532],[-83.46713,37.519532],[-83.467533,37.519327],[-83.467561,37.519214],[-83.467935,37.518985],[-83.468538,37.51885],[-83.468539,37.518462],[-83.468768,37.518096],[-83.469085,37.517913],[-83.469631,37.518075],[-83.469947,37.517961],[-83.469833,37.517368],[-83.470005,37.51714],[-83.469976,37.516751],[-83.469603,37.5165],[-83.469631,37.516296],[-83.469977,37.516159],[-83.471729,37.516185],[-83.472161,37.516025],[-83.472448,37.516255],[-83.472449,37.516736],[-83.472047,37.517127],[-83.472048,37.517356],[-83.472306,37.51754],[-83.47291,37.517724],[-83.473743,37.517749],[-83.473916,37.517932],[-83.473916,37.518207],[-83.473428,37.518759],[-83.473629,37.518942],[-83.474262,37.519011],[-83.474751,37.518992],[-83.474839,37.518973],[-83.474974,37.518894],[-83.475009,37.51887]]}},{"type":"Feature","properties":{"osm_id":16113404,"highway":"residential","name":"Puncheon Creek Road","alt_name":null,"official_name":null,"surface":null,"tracktype":null,"service":null,"access":null,"motor_vehicle":null,"foot":null,"tiger_reviewed":"no","rrgh_part":0,"rrgh_tile_part":0},"geometry":{"type":"LineString","coordinates":[[-83.487638,37.507596],[-83.487525,37.507609],[-83.487191,37.507641],[-83.487023,37.507651],[-83.486861,37.507654],[-83.486703,37.507649],[-83.486419,37.507619],[-83.486296,37.50761],[-83.486011,37.507728],[-83.485581,37.507951],[-83.485458,37.508012],[-83.485331,37.508073],[-83.485194,37.508127],[-83.485051,37.508178],[-83.484749,37.508265],[-83.484121,37.508419],[-83.483964,37.50846],[-83.483813,37.508503],[-83.483666,37.508553],[-83.483521,37.50861],[-83.483376,37.508672],[-83.482946,37.508879],[-83.4828,37.508945],[-83.482651,37.509003],[-83.482502,37.509054],[-83.482205,37.50914],[-83.482054,37.509179],[-83.481904,37.509211],[-83.481761,37.509231],[-83.48163,37.509229],[-83.4814,37.509196],[-83.481286,37.509186],[-83.481164,37.509181],[-83.481036,37.509186],[-83.480907,37.509205],[-83.480776,37.509236],[-83.480646,37.509275],[-83.480519,37.509322],[-83.480397,37.509377],[-83.480158,37.509516],[-83.479852,37.509799],[-83.47937,37.510153],[-83.47924,37.510254],[-83.478412,37.510862],[-83.478284,37.510967],[-83.478158,37.511077],[-83.477917,37.511303],[-83.477796,37.511404],[-83.47767,37.511483],[-83.477412,37.511599],[-83.477299,37.511668],[-83.477197,37.511748],[-83.477107,37.511839],[-83.476935,37.512045],[-83.476842,37.512151],[-83.476733,37.512253],[-83.476495,37.512447],[-83.47635,37.512532],[-83.476237,37.512627],[-83.47614,37.512719],[-83.476081,37.512815],[-83.476055,37.512915],[-83.476036,37.513015],[-83.476002,37.513112],[-83.475956,37.513205],[-83.475894,37.513293],[-83.475809,37.513375],[-83.475717,37.513456],[-83.475522,37.513607],[-83.475438,37.513686],[-83.475368,37.513771],[-83.475327,37.513854],[-83.475301,37.514015],[-83.475302,37.514074],[-83.475305,37.514163],[-83.475331,37.514276],[-83.475392,37.514403],[-83.475432,37.514523],[-83.475458,37.514651],[-83.475476,37.514784],[-83.475486,37.514921],[-83.475484,37.515061],[-83.475465,37.515495],[-83.475452,37.515636],[-83.475419,37.515773],[-83.475377,37.515906],[-83.475331,37.51604],[-83.475099,37.516534],[-83.475059,37.516655],[-83.475037,37.516777],[-83.475039,37.516896],[-83.475066,37.517012],[-83.475157,37.517248],[-83.475195,37.517373],[-83.475218,37.517501],[-83.475228,37.51763],[-83.47523,37.517757],[-83.475226,37.518002],[-83.475214,37.518114],[-83.475185,37.518219],[-83.475138,37.518315],[-83.475033,37.518482],[-83.474995,37.518552],[-83.474969,37.518614],[-83.47496,37.518678],[-83.474967,37.518744],[-83.474988,37.518816],[-83.475009,37.51887],[-83.475047,37.518982],[-83.475075,37.519079],[-83.475095,37.519182],[-83.475111,37.519292],[-83.475098,37.519396],[-83.475101,37.519628],[-83.475118,37.519746],[-83.475146,37.519859],[-83.47516,37.51997],[-83.47515,37.52008],[-83.475011,37.520522],[-83.474983,37.520637],[-83.47496,37.52075],[-83.474901,37.521089],[-83.474878,37.521198],[-83.474834,37.5213],[-83.474768,37.521393],[-83.474687,37.521478],[-83.474597,37.521563],[-83.474295,37.521832],[-83.474202,37.521928],[-83.47404,37.522116],[-83.473962,37.522188],[-83.473883,37.522241],[-83.473723,37.522307],[-83.47365,37.522345],[-83.473587,37.522395],[-83.47353,37.522459],[-83.473481,37.522536],[-83.473392,37.522702],[-83.473331,37.522776],[-83.473247,37.522832],[-83.4729,37.522932],[-83.472625,37.523003],[-83.472484,37.523047],[-83.472049,37.523193],[-83.4719,37.523245],[-83.471751,37.523301],[-83.471597,37.523349],[-83.471288,37.523428],[-83.470985,37.523522],[-83.470833,37.523581],[-83.470679,37.523645],[-83.470529,37.523719],[-83.470378,37.523799],[-83.470087,37.523973],[-83.469815,37.524146],[-83.469698,37.524237],[-83.469486,37.52443],[-83.469363,37.524518],[-83.469229,37.5246],[-83.469091,37.524678],[-83.46881,37.524813],[-83.468686,37.524878],[-83.468587,37.524957],[-83.468547,37.525000000000006]]}},{"type":"Feature","properties":{"osm_id":16113404,"highway":"residential","name":"Puncheon Creek Road","alt_name":null,"official_name":null,"surface":null,"tracktype":null,"service":null,"access":null,"motor_vehicle":null,"foot":null,"tiger_reviewed":"no","rrgh_part":0,"rrgh_tile_part":1},"geometry":{"type":"LineString","coordinates":[[-83.46265083333336,37.525000000000006],[-83.46221,37.524885],[-83.462041,37.524823],[-83.461541,37.524659],[-83.461376,37.52461],[-83.461057,37.524529],[-83.460726,37.524405],[-83.460598,37.524361],[-83.460488,37.524302],[-83.460397,37.524243],[-83.460311,37.524201],[-83.460226,37.524192],[-83.460148,37.524209],[-83.460075,37.524248],[-83.460008,37.524304],[-83.459723,37.524588],[-83.45964,37.524667],[-83.459453,37.524828],[-83.459351,37.524911],[-83.459243,37.524993],[-83.45923245333333,37.525000000000006]]}},{"type":"Feature","properties":{"osm_id":16109833,"highway":"residential","name":"Highland School Road","alt_name":null,"official_name":null,"surface":null,"tracktype":null,"service":null,"access":null,"motor_vehicle":null,"foot":null,"tiger_reviewed":"no","rrgh_part":0,"rrgh_tile_part":0},"geometry":{"type":"LineString","coordinates":[[-83.495538,37.506856],[-83.495349,37.506872],[-83.495137,37.50688],[-83.494971,37.506894],[-83.494914,37.506896],[-83.494864,37.506892],[-83.494816,37.506879],[-83.494479,37.506726],[-83.49434,37.506649],[-83.494235,37.506577],[-83.494127,37.506492],[-83.494061,37.50643],[-83.494005,37.506368],[-83.493972,37.506339],[-83.493933,37.506314],[-83.493885,37.506292],[-83.493829,37.506274],[-83.493773,37.506259],[-83.493655,37.506234]]}},{"type":"Feature","properties":{"osm_id":16113104,"highway":"residential","name":"Trash Bridge","alt_name":null,"official_name":null,"surface":null,"tracktype":null,"service":null,"access":null,"motor_vehicle":null,"foot":null,"tiger_reviewed":"no","rrgh_part":0,"rrgh_tile_part":0},"geometry":{"type":"LineString","coordinates":[[-83.494971,37.506894],[-83.494941,37.506923],[-83.494743,37.507105],[-83.494693,37.507175],[-83.494674,37.507214],[-83.494662,37.507257],[-83.494653,37.507343],[-83.494659,37.507492],[-83.494656,37.507521],[-83.494634,37.507579],[-83.494618,37.507648],[-83.4946,37.507831],[-83.494597,37.507894],[-83.494611,37.50799],[-83.494641,37.508072],[-83.49465,37.508115]]}},{"type":"Feature","properties":{"osm_id":16112172,"highway":"residential","name":"Highland-Big Rock Road","alt_name":null,"official_name":null,"surface":null,"tracktype":null,"service":null,"access":null,"motor_vehicle":null,"foot":null,"tiger_reviewed":"no","rrgh_part":0,"rrgh_tile_part":0},"geometry":{"type":"LineString","coordinates":[[-83.501834,37.506333],[-83.501798,37.506338],[-83.501722,37.506342],[-83.501463,37.50633],[-83.501218,37.506332],[-83.500946,37.506343],[-83.500804,37.506355],[-83.500658,37.506376],[-83.500509,37.506403],[-83.500354,37.506434],[-83.499688,37.506584],[-83.499517,37.506608],[-83.499344,37.506621],[-83.49882,37.506635],[-83.498648,37.506636],[-83.498471,37.506631],[-83.498302,37.506632],[-83.497976,37.506641],[-83.49782,37.506656],[-83.497506,37.506698],[-83.497341,37.506714],[-83.497026,37.506738],[-83.496843,37.506739],[-83.49668,37.506748],[-83.495624,37.506853],[-83.495538,37.506856],[-83.495498,37.506851],[-83.495456,37.506829],[-83.495429,37.506793],[-83.495423,37.506746],[-83.495437,37.506551],[-83.495429,37.50648],[-83.495402,37.506415],[-83.49535,37.506361],[-83.495282,37.506315],[-83.495203,37.506275],[-83.495112,37.506241],[-83.495012,37.506212],[-83.494905,37.506187],[-83.49479,37.50617],[-83.494115,37.506121],[-83.493968,37.506105],[-83.4937,37.506108],[-83.493555,37.506084],[-83.493269,37.506044],[-83.493133,37.506015],[-83.493002,37.505981],[-83.492876,37.505944],[-83.492756,37.505916],[-83.492637,37.505903],[-83.492519,37.505901],[-83.4924,37.505902],[-83.492283,37.505909],[-83.49217,37.505931],[-83.492068,37.505972],[-83.491978,37.506027],[-83.491707,37.506227],[-83.491608,37.506294],[-83.491502,37.506356],[-83.491387,37.506411],[-83.491241,37.506449],[-83.490829,37.50648],[-83.490684,37.506483],[-83.490407,37.506499],[-83.490277,37.506513],[-83.490162,37.506532],[-83.490058,37.506563],[-83.489961,37.506604],[-83.489864,37.506656],[-83.489654,37.50678],[-83.489179,37.507074],[-83.488919,37.50722],[-83.488782,37.507286],[-83.48864,37.507345],[-83.488493,37.507398],[-83.488182,37.50749],[-83.48802,37.50753],[-83.487861,37.507563],[-83.487691,37.50759],[-83.487638,37.507596]]}},{"type":"Feature","properties":{"osm_id":16104550,"highway":"residential","name":null,"alt_name":null,"official_name":null,"surface":null,"tracktype":null,"service":null,"access":null,"motor_vehicle":null,"foot":null,"tiger_reviewed":"no","rrgh_part":0,"rrgh_tile_part":0},"geometry":{"type":"LineString","coordinates":[[-83.503956,37.510822],[-83.50395,37.510886],[-83.503949,37.510948],[-83.503978,37.511195],[-83.503981,37.511255],[-83.503979,37.511318],[-83.503957,37.511444],[-83.503925,37.511567],[-83.503919,37.511626],[-83.503934,37.51168],[-83.503973,37.511727],[-83.504031,37.511758],[-83.504097,37.511775],[-83.504227,37.5118],[-83.504293,37.511818],[-83.50466,37.511938],[-83.504806,37.511991],[-83.504942,37.51205],[-83.505,37.512079221374044]]}},{"type":"Feature","properties":{"osm_id":16104490,"highway":"residential","name":null,"alt_name":null,"official_name":null,"surface":null,"tracktype":null,"service":null,"access":null,"motor_vehicle":null,"foot":null,"tiger_reviewed":"no","rrgh_part":0,"rrgh_tile_part":0},"geometry":{"type":"LineString","coordinates":[[-83.487638,37.507596],[-83.48782,37.507954],[-83.487989,37.508953],[-83.488014,37.509952],[-83.487694,37.512068],[-83.486906,37.513762],[-83.485496,37.515654],[-83.485601,37.516368],[-83.485529,37.518104],[-83.485746,37.518699],[-83.485855,37.51965],[-83.485568,37.520793],[-83.485961,37.522695],[-83.485971,37.522715],[-83.486255,37.52316],[-83.486817,37.523811],[-83.486926,37.523928],[-83.486992,37.524154],[-83.4871399883382,37.525000000000006]]}},{"type":"Feature","properties":{"osm_id":16105964,"highway":"residential","name":null,"alt_name":null,"official_name":null,"surface":null,"tracktype":null,"service":null,"access":null,"motor_vehicle":null,"foot":null,"tiger_reviewed":"no","rrgh_part":0,"rrgh_tile_part":0},"geometry":{"type":"LineString","coordinates":[[-83.475302,37.514074],[-83.475239,37.514038],[-83.475128,37.513989],[-83.475062,37.513951],[-83.474356,37.513664],[-83.473649,37.513519],[-83.472965,37.513478],[-83.472292,37.513461],[-83.471533,37.513534]]}},{"type":"Feature","properties":{"osm_id":16117268,"highway":"residential","name":"Joe Little Fork Road","alt_name":null,"official_name":null,"surface":null,"tracktype":null,"service":null,"access":null,"motor_vehicle":null,"foot":null,"tiger_reviewed":"no","rrgh_part":0,"rrgh_tile_part":0},"geometry":{"type":"LineString","coordinates":[[-83.44844783858268,37.45],[-83.448429,37.450087],[-83.448404,37.45017],[-83.448367,37.450252],[-83.448322,37.450332],[-83.448285,37.450414],[-83.448256,37.450501],[-83.448236,37.450589],[-83.448226,37.450678],[-83.448221,37.450845],[-83.44817,37.451056],[-83.448176,37.45112],[-83.448215,37.451258],[-83.448226,37.451335],[-83.448233,37.451507],[-83.448242,37.451601],[-83.44826,37.451696],[-83.448285,37.451789],[-83.448317,37.451878],[-83.448358,37.451966],[-83.448414,37.452054],[-83.448551,37.452234],[-83.448628,37.452323],[-83.44871,37.452407],[-83.44896,37.452619],[-83.449014,37.452688],[-83.449036,37.452759],[-83.449052,37.452842],[-83.449061,37.45293],[-83.449076,37.453023],[-83.449101,37.45312],[-83.449135,37.453219],[-83.449179,37.45332],[-83.449283,37.453517],[-83.449329,37.45362],[-83.449408,37.453829],[-83.449442,37.453933],[-83.449488,37.454141],[-83.449492,37.454243],[-83.449481,37.454344],[-83.449462,37.454444],[-83.449397,37.454727],[-83.449372,37.454809],[-83.449333,37.454885],[-83.449278,37.454955],[-83.449212,37.45502],[-83.449163,37.455085],[-83.44913,37.455157],[-83.449062,37.455248],[-83.449029,37.455337],[-83.449003,37.455423],[-83.44899,37.455515],[-83.44897,37.455602],[-83.448941,37.455691],[-83.448889,37.455774],[-83.448816,37.455844],[-83.44874,37.45591],[-83.448681,37.455982],[-83.448643,37.456061],[-83.448619,37.456145],[-83.448586,37.456219],[-83.448556,37.456309],[-83.448514,37.456401],[-83.448462,37.456495],[-83.448346,37.456676],[-83.448217,37.456849],[-83.448004,37.457108],[-83.447942,37.457199],[-83.447888,37.457292],[-83.447839,37.457387],[-83.447556,37.457734],[-83.447464,37.457802],[-83.447368,37.457868],[-83.447271,37.457928],[-83.447164,37.457973],[-83.446944,37.45803],[-83.446845,37.458065],[-83.446749,37.458112],[-83.446461,37.458299],[-83.446028,37.458528],[-83.445935,37.458588],[-83.44585,37.45865],[-83.445707,37.458765],[-83.445605,37.45884],[-83.445512,37.4589],[-83.445413,37.458953],[-83.445213,37.459038],[-83.445128,37.459085],[-83.444986,37.459187],[-83.444907,37.45923],[-83.444817,37.459263],[-83.444715,37.459288],[-83.444608,37.459309],[-83.444211,37.459376],[-83.444006,37.459419],[-83.443885,37.459441],[-83.443756,37.459458],[-83.443491,37.459484],[-83.443362,37.459502],[-83.443114,37.459559],[-83.44274,37.459651],[-83.44263,37.459684],[-83.442537,37.459731],[-83.442464,37.459795],[-83.442344,37.459953],[-83.442268,37.460032],[-83.442172,37.460097],[-83.441953,37.460214],[-83.44185,37.460287],[-83.441753,37.460368],[-83.441666,37.460456],[-83.44159,37.460549],[-83.441465,37.460736],[-83.441369,37.460849],[-83.441235,37.460952],[-83.441049,37.461077],[-83.44084,37.461204],[-83.44074,37.461274],[-83.440647,37.461348],[-83.440567,37.461425],[-83.440507,37.461503],[-83.44046,37.461584],[-83.440417,37.461667],[-83.440364,37.461746],[-83.440302,37.461819],[-83.440227,37.461882],[-83.440146,37.46193],[-83.440052,37.461964],[-83.439952,37.461984],[-83.43984,37.461992],[-83.439626,37.462015],[-83.439535,37.46203],[-83.439464,37.462054],[-83.439423,37.462084],[-83.439357,37.462155],[-83.439308,37.46219],[-83.439245,37.462228],[-83.438902,37.46241],[-83.438738,37.462484],[-83.438587,37.462534],[-83.438339,37.462582],[-83.437579,37.462759],[-83.437461,37.462787],[-83.437353,37.462821],[-83.43724,37.462851],[-83.437113,37.462877],[-83.436985,37.462908],[-83.43686,37.462943],[-83.436649,37.462979],[-83.436556,37.463015],[-83.436374,37.463114],[-83.436108,37.463238],[-83.436028,37.463283],[-83.435953,37.463336],[-83.435888,37.463395],[-83.43583,37.463455],[-83.435733,37.463564],[-83.435694,37.463619],[-83.435621,37.463754],[-83.435579,37.463824],[-83.435527,37.463887],[-83.435463,37.463942],[-83.435386,37.463993],[-83.435204,37.464099],[-83.435113,37.464156],[-83.434943,37.464283],[-83.434675,37.464499],[-83.434575,37.464567],[-83.434468,37.464626],[-83.434358,37.464677],[-83.434255,37.464731],[-83.433978,37.464925],[-83.433877,37.464986],[-83.43377,37.465042],[-83.433449,37.465195],[-83.433346,37.465251],[-83.433049,37.465423],[-83.432957,37.465481],[-83.432875,37.465545],[-83.432807,37.465618],[-83.43263,37.46584],[-83.432591,37.465907],[-83.432563,37.465977],[-83.432518,37.466043],[-83.43246,37.466113],[-83.432384,37.466181],[-83.432293,37.466245],[-83.432191,37.466306],[-83.431759,37.466547],[-83.431651,37.466603],[-83.431544,37.466654],[-83.431342,37.466743],[-83.43125,37.46679],[-83.431161,37.466844],[-83.430894,37.467032],[-83.430807,37.467099],[-83.430729,37.467169],[-83.430664,37.467243],[-83.430608,37.46732],[-83.430557,37.467396],[-83.43051,37.467474],[-83.430473,37.467592],[-83.430461,37.467715],[-83.430465,37.467799],[-83.4305,37.468075],[-83.430515,37.468149],[-83.430523,37.468233],[-83.430566,37.468405],[-83.430633,37.468645],[-83.430653,37.468733],[-83.430707,37.469027],[-83.430793,37.469436],[-83.430817,37.469524],[-83.430905,37.469749],[-83.430918,37.469813],[-83.43094,37.470076],[-83.430954,37.470141],[-83.430985,37.470368],[-83.430963,37.470629],[-83.430966,37.470747],[-83.430992,37.470866],[-83.431079,37.471128],[-83.431115,37.471194]]}},{"type":"Feature","properties":{"osm_id":16112680,"highway":"residential","name":"Spicer Branch Canoe Road","alt_name":null,"official_name":null,"surface":null,"tracktype":null,"service":null,"access":null,"motor_vehicle":null,"foot":null,"tiger_reviewed":"no","rrgh_part":0,"rrgh_tile_part":0},"geometry":{"type":"LineString","coordinates":[[-83.4604872463768,37.45],[-83.460484,37.450004],[-83.460346,37.450125],[-83.460303,37.450171],[-83.460266,37.450225],[-83.460234,37.450286],[-83.460205,37.450353],[-83.460155,37.450496],[-83.460124,37.450565],[-83.460089,37.450628],[-83.460045,37.450684],[-83.459999,37.450733],[-83.45995,37.450776],[-83.459898,37.450813],[-83.459846,37.450839],[-83.459796,37.450856],[-83.459704,37.450876],[-83.459664,37.45089],[-83.459592,37.450937],[-83.459472,37.451041],[-83.459356,37.451125],[-83.45915,37.451254],[-83.45907,37.451289],[-83.458995,37.451326],[-83.458932,37.451371],[-83.458778,37.451442],[-83.458693,37.45147],[-83.458617,37.4515],[-83.458435,37.45158],[-83.458311,37.451662],[-83.458282,37.451697],[-83.45825,37.451722],[-83.458188,37.45178]]}},{"type":"Feature","properties":{"osm_id":16111353,"highway":"residential","name":"Middle Fork Road","alt_name":null,"official_name":null,"surface":null,"tracktype":null,"service":null,"access":null,"motor_vehicle":null,"foot":null,"tiger_reviewed":"no","rrgh_part":0,"rrgh_tile_part":0},"geometry":{"type":"LineString","coordinates":[[-83.44648719047619,37.45],[-83.446437,37.450051],[-83.446367,37.450114],[-83.446208,37.450225],[-83.446138,37.450279],[-83.44608,37.450329],[-83.44603,37.45038],[-83.445947,37.450489],[-83.445894,37.450546],[-83.445831,37.450606],[-83.44568,37.450717],[-83.445363,37.450928],[-83.445282,37.450968],[-83.445193,37.450989],[-83.444537,37.451163],[-83.444284,37.451271],[-83.444121,37.451334],[-83.443795,37.451423],[-83.443729,37.451448],[-83.44367,37.451479],[-83.443617,37.451516],[-83.443574,37.451558],[-83.443492,37.451651],[-83.443404,37.451744],[-83.443361,37.451793],[-83.443321,37.451845],[-83.443268,37.451892],[-83.443218,37.451944],[-83.443158,37.451988],[-83.443088,37.452015],[-83.442884,37.452136],[-83.442834,37.452184],[-83.442784,37.452226],[-83.442641,37.452294],[-83.442587,37.452341],[-83.442537,37.452394],[-83.442505,37.452461],[-83.442443,37.452507],[-83.442097,37.45268],[-83.442009,37.452699],[-83.441928,37.452722],[-83.441852,37.452749],[-83.44178,37.452782],[-83.441711,37.452824],[-83.441626,37.452859],[-83.441537,37.452891],[-83.441365,37.452944],[-83.441281,37.452974],[-83.441212,37.453014],[-83.441146,37.453058],[-83.441017,37.453154],[-83.44096,37.453207],[-83.440905,37.453241],[-83.440843,37.453248],[-83.440625,37.453365],[-83.440548,37.453392],[-83.439883,37.453598],[-83.439822,37.453625],[-83.439654,37.453657],[-83.439613,37.453675]]}},{"type":"Feature","properties":{"osm_id":16110876,"highway":"residential","name":"Billy Hall Cemetery Road","alt_name":null,"official_name":null,"surface":null,"tracktype":null,"service":null,"access":null,"motor_vehicle":null,"foot":null,"tiger_reviewed":"no","rrgh_part":0,"rrgh_tile_part":0},"geometry":{"type":"LineString","coordinates":[[-83.466042,37.470097],[-83.46597,37.469967],[-83.465926,37.469913],[-83.465871,37.469868],[-83.465802,37.469833],[-83.46576,37.469818],[-83.465716,37.469807],[-83.465286,37.46979],[-83.465173,37.4698],[-83.465085,37.469814],[-83.465033,37.469818],[-83.464861,37.469824],[-83.4647,37.469814],[-83.464552,37.469825],[-83.46452,37.46982],[-83.464488,37.469806],[-83.464406,37.469737],[-83.464382,37.46971],[-83.464311,37.469642],[-83.464241,37.469603],[-83.464165,37.469586],[-83.464141,37.469589],[-83.464127,37.469596],[-83.464105,37.469648],[-83.464075,37.469685]]}},{"type":"Feature","properties":{"osm_id":16113816,"highway":"residential","name":"Hall Branch Road","alt_name":null,"official_name":null,"surface":null,"tracktype":null,"service":null,"access":null,"motor_vehicle":null,"foot":null,"tiger_reviewed":"no","rrgh_part":0,"rrgh_tile_part":0},"geometry":{"type":"LineString","coordinates":[[-83.460486,37.471195],[-83.46033,37.471202],[-83.460184,37.4712],[-83.460119,37.471196],[-83.459776,37.471187],[-83.459719,37.471193],[-83.459662,37.471185],[-83.459609,37.471171],[-83.459553,37.471147],[-83.459499,37.471108],[-83.45946,37.471067],[-83.459428,37.471015],[-83.459375,37.470835],[-83.459352,37.470775],[-83.459318,37.470717],[-83.459162,37.470473],[-83.459095,37.470358],[-83.459051,37.470305],[-83.458943,37.470198],[-83.458805,37.47011],[-83.458591,37.469967],[-83.458449,37.46988],[-83.458294,37.469824],[-83.458227,37.469791],[-83.458162,37.469754],[-83.458103,37.469713],[-83.457997,37.469617],[-83.457907,37.469516],[-83.457817,37.46943],[-83.457768,37.469393],[-83.457717,37.469361],[-83.457597,37.469315],[-83.457539,37.469301],[-83.45748,37.469293],[-83.457448,37.46928],[-83.457283,37.469229],[-83.457199,37.469163],[-83.457169,37.469121],[-83.457148,37.469067],[-83.457131,37.468944],[-83.457132,37.468897],[-83.457122,37.468854],[-83.457093,37.468818],[-83.457016,37.468768],[-83.456955,37.468754],[-83.456819,37.468735],[-83.456717,37.468716],[-83.456492,37.468626],[-83.456368,37.46857],[-83.45631,37.468547],[-83.456251,37.468532],[-83.45606,37.468558],[-83.456013,37.468559],[-83.455959,37.468553],[-83.455902,37.468539],[-83.455844,37.46852],[-83.455619,37.468435],[-83.455549,37.468419]]}},{"type":"Feature","properties":{"osm_id":16106625,"highway":"residential","name":null,"alt_name":null,"official_name":null,"surface":null,"tracktype":null,"service":null,"access":null,"motor_vehicle":null,"foot":null,"tiger_reviewed":"no","rrgh_part":0,"rrgh_tile_part":0},"geometry":{"type":"LineString","coordinates":[[-83.45552,37.473461],[-83.455522,37.473475],[-83.455675,37.473777],[-83.455951,37.47394],[-83.456668,37.474146],[-83.458164,37.473979],[-83.458642,37.473907]]}},{"type":"Feature","properties":{"osm_id":16105826,"highway":"residential","name":null,"alt_name":null,"official_name":null,"surface":null,"tracktype":null,"service":null,"access":null,"motor_vehicle":null,"foot":null,"tiger_reviewed":"no","rrgh_part":0,"rrgh_tile_part":0},"geometry":{"type":"LineString","coordinates":[[-83.440151,37.476091],[-83.440114,37.476029],[-83.440089,37.475986],[-83.440083,37.47596],[-83.440085,37.47593],[-83.440092,37.475902],[-83.440125,37.475837],[-83.440246,37.475636],[-83.440255,37.475611],[-83.440269,37.47554],[-83.440272,37.475474],[-83.440264,37.475411],[-83.440164,37.475112],[-83.440158,37.4751],[-83.440017,37.474936],[-83.439979,37.474897],[-83.439805,37.474698],[-83.439727,37.474619],[-83.43959,37.474515],[-83.43953,37.474475],[-83.439446,37.474413],[-83.439291,37.474346],[-83.439248,37.474333],[-83.439176,37.4743],[-83.438963,37.474216],[-83.438929,37.474204],[-83.438857,37.474186],[-83.438791,37.474174],[-83.438726,37.47417],[-83.438571,37.474171],[-83.43852,37.474181],[-83.438439,37.474188],[-83.438386,37.474199],[-83.438343,37.474215],[-83.438321,37.474218],[-83.438253,37.474239],[-83.438163,37.474274],[-83.438107,37.474292],[-83.437474,37.474461],[-83.437351,37.474497],[-83.437316,37.474511],[-83.437179,37.474547],[-83.436972,37.474596],[-83.43688,37.474601],[-83.436634,37.474582],[-83.436574,37.474575],[-83.436539,37.474558],[-83.436449,37.474461],[-83.436411,37.474409],[-83.436402,37.474382],[-83.436388,37.474273],[-83.436393,37.474241],[-83.436425,37.474149],[-83.436437,37.474074],[-83.436439,37.474025],[-83.436462,37.47398],[-83.436494,37.473842],[-83.436497,37.473679],[-83.436506,37.47362],[-83.436564,37.47348],[-83.436564,37.473451],[-83.436533,37.473331],[-83.436508,37.473176],[-83.436526,37.473088],[-83.436549,37.473048],[-83.436578,37.473006],[-83.43668,37.472898],[-83.436722,37.472873],[-83.436817,37.472835],[-83.437084,37.472808],[-83.437209,37.472773],[-83.437269,37.472754],[-83.437322,37.47273],[-83.43741,37.472676],[-83.437444,37.47265],[-83.4375,37.472596],[-83.437522,37.472563],[-83.437559,37.47242],[-83.437573,37.472319],[-83.437593,37.472212],[-83.437628,37.472076],[-83.437638,37.472047],[-83.437685,37.471964],[-83.437723,37.471829],[-83.437763,37.471758],[-83.437836,37.471688],[-83.437877,37.471654],[-83.437928,37.471627],[-83.438015,37.471552],[-83.438104,37.47147],[-83.438143,37.471427],[-83.438184,37.471389],[-83.438236,37.471358],[-83.438353,37.471297],[-83.438553,37.471235],[-83.438681,37.47118],[-83.438819,37.471151],[-83.43887,37.471158],[-83.439094,37.471237],[-83.439183,37.471279],[-83.439309,37.471355],[-83.439473,37.471474],[-83.439515,37.471514],[-83.439798,37.471721],[-83.440022,37.471865],[-83.440079,37.471905],[-83.440277,37.472023],[-83.440334,37.472064],[-83.440434,37.47216],[-83.440485,37.4722],[-83.440578,37.472248],[-83.440652,37.472258],[-83.440787,37.472249],[-83.440837,37.472242],[-83.440941,37.472208],[-83.441035,37.472163],[-83.441089,37.472144],[-83.441197,37.472122],[-83.441246,37.47212],[-83.441293,37.472125],[-83.441374,37.472145],[-83.441407,37.472159],[-83.44149,37.472237],[-83.441574,37.472333],[-83.441592,37.47236],[-83.441606,37.472389],[-83.441628,37.472452],[-83.441645,37.472485],[-83.441712,37.472662],[-83.441807,37.472939],[-83.441841,37.47302],[-83.441846,37.473059],[-83.44183,37.473089],[-83.441822,37.473118],[-83.441825,37.473156],[-83.441851,37.473294],[-83.441857,37.473419]]}},{"type":"Feature","properties":{"osm_id":16108278,"highway":"residential","name":"Alfred Combs Cemetery Road","alt_name":null,"official_name":null,"surface":null,"tracktype":null,"service":null,"access":null,"motor_vehicle":null,"foot":null,"tiger_reviewed":"no","rrgh_part":0,"rrgh_tile_part":0},"geometry":{"type":"LineString","coordinates":[[-83.449527,37.473237],[-83.449551,37.473183],[-83.449553,37.473153],[-83.449529,37.473082],[-83.449491,37.473015],[-83.449434,37.472804]]}},{"type":"Feature","properties":{"osm_id":16109348,"highway":"residential","name":"Howard Cemetery 1 Road","alt_name":null,"official_name":null,"surface":null,"tracktype":null,"service":null,"access":null,"motor_vehicle":null,"foot":null,"tiger_reviewed":"no","rrgh_part":0,"rrgh_tile_part":0},"geometry":{"type":"LineString","coordinates":[[-83.439464,37.462054],[-83.439454,37.462052],[-83.439432,37.462053],[-83.439401,37.462059],[-83.439299,37.462083],[-83.439275,37.462083],[-83.439249,37.462076],[-83.439223,37.462062],[-83.439199,37.462041],[-83.439179,37.462016],[-83.439162,37.461989],[-83.439131,37.461925]]}},{"type":"Feature","properties":{"osm_id":16105528,"highway":"residential","name":null,"alt_name":null,"official_name":null,"surface":null,"tracktype":null,"service":null,"access":null,"motor_vehicle":null,"foot":null,"tiger_reviewed":"no","rrgh_part":0,"rrgh_tile_part":0},"geometry":{"type":"LineString","coordinates":[[-83.462114,37.479856],[-83.462036,37.479841],[-83.461947,37.479805],[-83.461919,37.479787],[-83.461868,37.479747],[-83.46184,37.479716],[-83.46182,37.479684],[-83.461782,37.479609],[-83.461743,37.479518],[-83.461653,37.479338],[-83.461618,37.479256],[-83.461603,37.479217],[-83.461576,37.479099],[-83.461564,37.479065],[-83.461545,37.479037],[-83.461513,37.479016],[-83.461474,37.479005],[-83.461439,37.479005],[-83.461379,37.479024],[-83.461348,37.47904],[-83.461313,37.479065],[-83.461274,37.479099],[-83.46123,37.479131],[-83.461179,37.479155],[-83.461127,37.479169],[-83.461079,37.479174],[-83.461038,37.47917],[-83.460959,37.479142]]}},{"type":"Feature","properties":{"osm_id":16105896,"highway":"residential","name":null,"alt_name":null,"official_name":null,"surface":null,"tracktype":null,"service":null,"access":null,"motor_vehicle":null,"foot":null,"tiger_reviewed":"no","rrgh_part":0,"rrgh_tile_part":0},"geometry":{"type":"LineString","coordinates":[[-83.451605,37.482194],[-83.451708,37.482268],[-83.451734,37.482314],[-83.451741,37.482366],[-83.451746,37.48242],[-83.45174,37.482528],[-83.451633,37.482843],[-83.451625,37.482905],[-83.451633,37.482962],[-83.451656,37.483012],[-83.451687,37.483053],[-83.451721,37.483087],[-83.451754,37.48311],[-83.451829,37.483144]]}},{"type":"Feature","properties":{"osm_id":16110382,"highway":"residential","name":"Old Buck Road","alt_name":null,"official_name":null,"surface":null,"tracktype":null,"service":null,"access":null,"motor_vehicle":null,"foot":null,"tiger_reviewed":"no","rrgh_part":0,"rrgh_tile_part":0},"geometry":{"type":"LineString","coordinates":[[-83.451605,37.482194],[-83.451599,37.48219],[-83.451362,37.482004],[-83.451198,37.481884],[-83.451144,37.481851],[-83.451084,37.481823],[-83.451014,37.481799],[-83.450938,37.481781],[-83.450852,37.481771],[-83.450564,37.481765],[-83.450353,37.481748],[-83.450164,37.481751],[-83.449987,37.481762],[-83.449813,37.481758],[-83.44965,37.481734],[-83.449578,37.481715],[-83.449515,37.481695],[-83.449406,37.481648],[-83.449319,37.481629],[-83.449283,37.481618],[-83.449179,37.481607],[-83.449049,37.481601],[-83.448895,37.481584],[-83.448815,37.481571],[-83.448653,37.481553],[-83.448586,37.481538],[-83.448526,37.481521],[-83.448251,37.481411],[-83.448193,37.481396],[-83.448133,37.481388],[-83.448014,37.481382],[-83.447961,37.481373],[-83.4478,37.481335],[-83.447673,37.481309],[-83.447529,37.481273],[-83.447458,37.481245],[-83.447187,37.481122],[-83.447116,37.481101],[-83.447043,37.48109],[-83.446904,37.481081],[-83.446838,37.481081],[-83.446767,37.481084],[-83.446695,37.481092],[-83.44656,37.481113],[-83.446493,37.481119],[-83.446423,37.481122],[-83.446349,37.48112],[-83.446275,37.481109],[-83.446206,37.481094],[-83.446075,37.481058],[-83.446006,37.481043],[-83.445931,37.481032],[-83.445766,37.481015],[-83.4456,37.481006],[-83.445455,37.480982],[-83.445325,37.480964],[-83.445155,37.480951],[-83.44493,37.48091]]}},{"type":"Feature","properties":{"osm_id":16113363,"highway":"residential","name":"Raider Road","alt_name":null,"official_name":null,"surface":null,"tracktype":null,"service":null,"access":null,"motor_vehicle":null,"foot":null,"tiger_reviewed":"no","rrgh_part":0,"rrgh_tile_part":0},"geometry":{"type":"LineString","coordinates":[[-83.458797,37.500525],[-83.45892,37.500646],[-83.45933,37.50114],[-83.459381,37.501243],[-83.459453,37.501409],[-83.459643,37.501718],[-83.459676,37.501779],[-83.459732,37.501906],[-83.459799,37.502027],[-83.45984,37.50208],[-83.459885,37.502129],[-83.460031,37.502269],[-83.460072,37.50232],[-83.460105,37.50237],[-83.460131,37.502417],[-83.46015,37.502465],[-83.460158,37.502515],[-83.460159,37.502619],[-83.460148,37.502788],[-83.460154,37.502849],[-83.460144,37.502981],[-83.460134,37.503336],[-83.46014,37.503487],[-83.460152,37.503628],[-83.460162,37.503916],[-83.460155,37.503978],[-83.46014,37.504037],[-83.460102,37.504148],[-83.460088,37.504202],[-83.460081,37.504255],[-83.46009,37.504348],[-83.46011,37.504393],[-83.460194,37.504479],[-83.46024,37.504509]]}},{"type":"Feature","properties":{"osm_id":16116601,"highway":"residential","name":"Cane Creek Road","alt_name":null,"official_name":null,"surface":null,"tracktype":null,"service":null,"access":null,"motor_vehicle":null,"foot":null,"tiger_reviewed":"no","rrgh_part":0,"rrgh_tile_part":0},"geometry":{"type":"LineString","coordinates":[[-83.426581,37.485421],[-83.426666,37.485329],[-83.426749,37.485243],[-83.426911,37.485086],[-83.426953,37.485048],[-83.42703,37.484987],[-83.427222,37.484853],[-83.427321,37.484791],[-83.427425,37.48471],[-83.427867,37.484386],[-83.42802,37.484249],[-83.428131,37.484166],[-83.42826,37.484082],[-83.428396,37.484001],[-83.428537,37.483924],[-83.428607,37.483882],[-83.428669,37.483832],[-83.428783,37.483729],[-83.42899,37.483514],[-83.429044,37.483463],[-83.42915,37.483383],[-83.429211,37.483348],[-83.429276,37.483326],[-83.429344,37.48332],[-83.429413,37.483324],[-83.429622,37.483352],[-83.42968,37.483367],[-83.429964,37.483404],[-83.430032,37.483411],[-83.430163,37.483413],[-83.430448,37.483395],[-83.430769,37.48339],[-83.430836,37.483386],[-83.431056,37.483358],[-83.431232,37.48334],[-83.431324,37.483332],[-83.431507,37.483323],[-83.431594,37.483323],[-83.431678,37.483328],[-83.431759,37.483342],[-83.431908,37.483376],[-83.431983,37.483383],[-83.432061,37.483381],[-83.432146,37.483367],[-83.432303,37.483332],[-83.432382,37.483308],[-83.432549,37.48328],[-83.43266,37.483267],[-83.432758,37.483259],[-83.432846,37.483266],[-83.432887,37.483283],[-83.432931,37.483296],[-83.432975,37.483299],[-83.433015,37.483295],[-83.433088,37.483271]]}},{"type":"Feature","properties":{"osm_id":16116628,"highway":"residential","name":"Cane Creek Road","alt_name":null,"official_name":null,"surface":null,"tracktype":null,"service":null,"access":null,"motor_vehicle":null,"foot":null,"tiger_reviewed":"no","rrgh_part":0,"rrgh_tile_part":0},"geometry":{"type":"LineString","coordinates":[[-83.42,37.48606112690355],[-83.420121,37.486047],[-83.420213,37.486032],[-83.420298,37.486013],[-83.420374,37.48599],[-83.420443,37.485964],[-83.420641,37.485863],[-83.420774,37.485803],[-83.420845,37.485788],[-83.420913,37.485779],[-83.420977,37.485779],[-83.421041,37.485788],[-83.421103,37.485807],[-83.421164,37.485835],[-83.421292,37.485904],[-83.421367,37.485934],[-83.421449,37.485956],[-83.421537,37.48597],[-83.421721,37.485987],[-83.421816,37.486001],[-83.421912,37.48602],[-83.422113,37.486077],[-83.422209,37.486114],[-83.422298,37.48616],[-83.422377,37.486212],[-83.422445,37.48627],[-83.422504,37.486334],[-83.422552,37.486402],[-83.422592,37.48647],[-83.422637,37.486535],[-83.422691,37.486591],[-83.422755,37.486636],[-83.422828,37.486668],[-83.422987,37.486718],[-83.423067,37.48675],[-83.423142,37.486788],[-83.423211,37.486832],[-83.423279,37.486882],[-83.423345,37.486939],[-83.423407,37.487],[-83.423621,37.487239],[-83.42367,37.487289],[-83.42372,37.487333],[-83.423773,37.487373],[-83.423829,37.48741],[-83.423887,37.487445],[-83.424008,37.487495],[-83.424067,37.487516],[-83.424172,37.487547],[-83.424292,37.487554],[-83.424406,37.487543],[-83.424429,37.487536]]}},{"type":"Feature","properties":{"osm_id":16106267,"highway":"service","name":null,"alt_name":null,"official_name":null,"surface":null,"tracktype":null,"service":null,"access":"private","motor_vehicle":null,"foot":null,"tiger_reviewed":"no","rrgh_part":0,"rrgh_tile_part":0},"geometry":{"type":"LineString","coordinates":[[-83.426581,37.485421],[-83.426552,37.485458],[-83.426497,37.485527],[-83.426464,37.485554],[-83.426425,37.48558],[-83.426377,37.485602],[-83.426328,37.485621],[-83.426233,37.485652],[-83.425917,37.485733],[-83.425854,37.485755],[-83.425798,37.485781],[-83.42575,37.485815],[-83.425711,37.485857],[-83.425681,37.485906],[-83.425659,37.485959],[-83.425624,37.486069],[-83.425584,37.486178],[-83.425533,37.486283],[-83.425503,37.486332],[-83.425345,37.486561],[-83.425277,37.486676],[-83.425204,37.486809],[-83.425115,37.486948],[-83.425006,37.487084],[-83.424949,37.487149],[-83.42489,37.487212],[-83.424764,37.487327],[-83.424641,37.487423],[-83.424583,37.487461],[-83.424528,37.487492],[-83.424429,37.487536]]}},{"type":"Feature","properties":{"osm_id":16111148,"highway":"residential","name":"Haddix Fork Road","alt_name":null,"official_name":null,"surface":null,"tracktype":null,"service":null,"access":null,"motor_vehicle":null,"foot":null,"tiger_reviewed":"no","rrgh_part":0,"rrgh_tile_part":0},"geometry":{"type":"LineString","coordinates":[[-83.432053,37.496963],[-83.431961,37.497017],[-83.43184,37.497114],[-83.431735,37.497184],[-83.431681,37.497215],[-83.431569,37.497274],[-83.431342,37.497386],[-83.431141,37.497497],[-83.431043,37.497546],[-83.430952,37.497584],[-83.430722,37.497689],[-83.430636,37.497737],[-83.430512,37.49782],[-83.430451,37.497855],[-83.43038,37.497885],[-83.430256,37.497926],[-83.430217,37.497946],[-83.430183,37.497969],[-83.430158,37.497999],[-83.430123,37.498064],[-83.430113,37.498098],[-83.430108,37.498133],[-83.430088,37.498182],[-83.430094,37.498219],[-83.430107,37.498254],[-83.430164,37.498365],[-83.4302,37.498453],[-83.430216,37.498503],[-83.430284,37.498781],[-83.430289,37.498829],[-83.430288,37.498916],[-83.430279,37.498957],[-83.430249,37.499056],[-83.430246,37.499095],[-83.430218,37.499234],[-83.430201,37.499275],[-83.430143,37.499364],[-83.429971,37.499561],[-83.429919,37.499615],[-83.429861,37.499661],[-83.429708,37.499814],[-83.429545,37.499988],[-83.429447,37.500068],[-83.429391,37.500106],[-83.429333,37.50014],[-83.429271,37.50017],[-83.429199,37.500196],[-83.429039,37.500278],[-83.42898,37.500314],[-83.42892,37.500373],[-83.428883,37.50042],[-83.428807,37.500498],[-83.428737,37.500548],[-83.428614,37.500651],[-83.428494,37.500742],[-83.428433,37.500785],[-83.428369,37.500821],[-83.428149,37.5009],[-83.427791,37.501056],[-83.427722,37.501083],[-83.427656,37.5011],[-83.427534,37.501145],[-83.427366,37.5012],[-83.427184,37.50127],[-83.427098,37.501312],[-83.427005,37.501368],[-83.426956,37.501407],[-83.426807,37.501508],[-83.426663,37.50159],[-83.426624,37.501626],[-83.426598,37.501669],[-83.426582,37.501716],[-83.426533,37.501907],[-83.426435,37.502177],[-83.426419,37.502234],[-83.426382,37.502407],[-83.426374,37.502467],[-83.426365,37.50259],[-83.426356,37.502648],[-83.426342,37.502703],[-83.426318,37.502753],[-83.426285,37.5028],[-83.426203,37.502891],[-83.426168,37.502939],[-83.426131,37.503028],[-83.426107,37.503128],[-83.426071,37.503178],[-83.426023,37.503216],[-83.425966,37.503238],[-83.425898,37.503259],[-83.425664,37.503384],[-83.425609,37.50342],[-83.425563,37.503457],[-83.425531,37.503495],[-83.425515,37.503539],[-83.42552,37.503584],[-83.42554,37.503623],[-83.425617,37.503726],[-83.425684,37.503826]]}},{"type":"Feature","properties":{"osm_id":16110352,"highway":"residential","name":"Bowling Cove Road","alt_name":null,"official_name":null,"surface":null,"tracktype":null,"service":null,"access":null,"motor_vehicle":null,"foot":null,"tiger_reviewed":"no","rrgh_part":0,"rrgh_tile_part":0},"geometry":{"type":"LineString","coordinates":[[-83.420679,37.506752],[-83.420598,37.506703],[-83.420386,37.506555],[-83.420193,37.506393],[-83.420094,37.506294],[-83.420022,37.506211],[-83.42,37.50618744705882]]}},{"type":"Feature","properties":{"osm_id":16110352,"highway":"residential","name":"Bowling Cove Road","alt_name":null,"official_name":null,"surface":null,"tracktype":null,"service":null,"access":null,"motor_vehicle":null,"foot":null,"tiger_reviewed":"no","rrgh_part":0,"rrgh_tile_part":1},"geometry":{"type":"LineString","coordinates":[[-83.42,37.49931023529411],[-83.420003,37.499309],[-83.420075,37.499298],[-83.42018,37.499275],[-83.420256,37.49924],[-83.420288,37.499219],[-83.420316,37.499191],[-83.42037,37.499121],[-83.420445,37.498996],[-83.420473,37.498956],[-83.420539,37.498843],[-83.420591,37.498768],[-83.420612,37.498729],[-83.420621,37.498695],[-83.420658,37.498603],[-83.420666,37.498566],[-83.420672,37.498484],[-83.42066,37.498424],[-83.420608,37.498316],[-83.420567,37.498251],[-83.420505,37.498186],[-83.420418,37.498118],[-83.420329,37.498063],[-83.420141,37.497983],[-83.420093,37.49797],[-83.42,37.49794976717558]]}},{"type":"Feature","properties":{"osm_id":16106445,"highway":"service","name":null,"alt_name":null,"official_name":null,"surface":null,"tracktype":null,"service":null,"access":"private","motor_vehicle":null,"foot":null,"tiger_reviewed":"no","rrgh_part":0,"rrgh_tile_part":0},"geometry":{"type":"LineString","coordinates":[[-83.447596,37.511577],[-83.447637,37.511649],[-83.447658,37.511695],[-83.447696,37.511852],[-83.447732,37.511965],[-83.447866,37.51227],[-83.447893,37.512322],[-83.447952,37.51242],[-83.448015,37.512507],[-83.448214,37.512698],[-83.448335,37.512826]]}},{"type":"Feature","properties":{"osm_id":16109693,"highway":"residential","name":"Southers Lane","alt_name":null,"official_name":null,"surface":null,"tracktype":null,"service":null,"access":null,"motor_vehicle":null,"foot":null,"tiger_reviewed":"no","rrgh_part":0,"rrgh_tile_part":0},"geometry":{"type":"LineString","coordinates":[[-83.433058,37.508198],[-83.433088,37.508215],[-83.433192,37.508258],[-83.43335,37.508294],[-83.433573,37.508324],[-83.433645,37.50833],[-83.433734,37.50833],[-83.433869,37.508347]]}},{"type":"Feature","properties":{"osm_id":16113676,"highway":"residential","name":"Kelly Spencer Lane","alt_name":null,"official_name":null,"surface":null,"tracktype":null,"service":null,"access":null,"motor_vehicle":null,"foot":null,"tiger_reviewed":"no","rrgh_part":0,"rrgh_tile_part":0},"geometry":{"type":"LineString","coordinates":[[-83.437291,37.509719],[-83.437203,37.509783],[-83.437071,37.509902],[-83.437038,37.509936],[-83.437014,37.509975],[-83.437002,37.510017],[-83.437002,37.510064],[-83.43701,37.510112],[-83.43705,37.510248],[-83.437067,37.510288],[-83.437087,37.510359],[-83.437087,37.510374],[-83.437083,37.510389],[-83.437071,37.510406],[-83.437058,37.510413],[-83.437041,37.510417],[-83.43701,37.510415]]}},{"type":"Feature","properties":{"osm_id":16117606,"highway":"residential","name":"Roscoe Noble Lane","alt_name":null,"official_name":null,"surface":null,"tracktype":null,"service":null,"access":null,"motor_vehicle":null,"foot":null,"tiger_reviewed":"no","rrgh_part":0,"rrgh_tile_part":0},"geometry":{"type":"LineString","coordinates":[[-83.439853,37.511126],[-83.439811,37.511216],[-83.439787,37.511256],[-83.439717,37.511349],[-83.439676,37.511428],[-83.439657,37.511494],[-83.439635,37.511616],[-83.43962,37.511647],[-83.439596,37.511677],[-83.439562,37.511702],[-83.439361,37.511824],[-83.43928,37.511877],[-83.439145,37.511991],[-83.439113,37.512013],[-83.438954,37.512092],[-83.438879,37.512159],[-83.438843,37.512209],[-83.43883,37.512233]]}},{"type":"Feature","properties":{"osm_id":16114451,"highway":"residential","name":"Sandlin Fugate Drive","alt_name":null,"official_name":null,"surface":null,"tracktype":null,"service":null,"access":null,"motor_vehicle":null,"foot":null,"tiger_reviewed":"no","rrgh_part":0,"rrgh_tile_part":0},"geometry":{"type":"LineString","coordinates":[[-83.42,37.51014053846154],[-83.420023,37.510137],[-83.420176,37.510096],[-83.420288,37.510079],[-83.420421,37.510077],[-83.420516,37.510096],[-83.420606,37.510132],[-83.420744,37.510204],[-83.420997,37.510323],[-83.421192,37.510432],[-83.421394,37.510556],[-83.42159,37.510667]]}},{"type":"Feature","properties":{"osm_id":16105386,"highway":"service","name":null,"alt_name":null,"official_name":null,"surface":null,"tracktype":null,"service":null,"access":"private","motor_vehicle":null,"foot":null,"tiger_reviewed":"no","rrgh_part":0,"rrgh_tile_part":0},"geometry":{"type":"LineString","coordinates":[[-83.430466,37.523104],[-83.430367,37.52303],[-83.43016,37.522936],[-83.430044,37.522908],[-83.429834,37.522947],[-83.429635,37.52304],[-83.429365,37.523138],[-83.429073,37.523155],[-83.429021,37.523151]]}},{"type":"Feature","properties":{"osm_id":16111063,"highway":"residential","name":"Vires Fork Lane","alt_name":null,"official_name":null,"surface":null,"tracktype":null,"service":null,"access":null,"motor_vehicle":null,"foot":null,"tiger_reviewed":"no","rrgh_part":0,"rrgh_tile_part":0},"geometry":{"type":"LineString","coordinates":[[-83.430466,37.523104],[-83.43051,37.523162],[-83.430591,37.523247],[-83.4307,37.523332],[-83.430825,37.523412],[-83.431043,37.523518],[-83.431105,37.523561],[-83.431159,37.523608],[-83.431203,37.523657],[-83.431236,37.523708],[-83.43126,37.52376],[-83.431275,37.523812],[-83.43132,37.524013],[-83.431317,37.524159],[-83.431304,37.524211],[-83.431226,37.524415],[-83.431204,37.5245],[-83.431197,37.524586],[-83.431193,37.524909],[-83.43118485789473,37.525000000000006]]}}],"rrgh_tile":{"id":"r1c6","bounds":[37.45,-83.505,37.525000000000006,-83.42]}}
