{"type":"FeatureCollection","features":[{"type":"Feature","properties":{"osm_id":16114986,"highway":"residential","name":"Mill Branch Road","alt_name":null,"official_name":null,"surface":null,"tracktype":null,"service":null,"access":null,"motor_vehicle":null,"foot":null,"tiger_reviewed":"no","rrgh_part":0,"rrgh_tile_part":0},"geometry":{"type":"LineString","coordinates":[[-83.32603696491228,37.45],[-83.326036,37.450005],[-83.326039,37.450078],[-83.3260818,37.4502878],[-83.326087,37.450317],[-83.3262267,37.4505738],[-83.3263248,37.4508594],[-83.32648,37.451412],[-83.326528,37.451596],[-83.326669,37.451916],[-83.326713,37.451983],[-83.326794,37.452094],[-83.326954,37.452296],[-83.326975,37.452328],[-83.327038,37.452407],[-83.327066,37.452453],[-83.327083,37.452501],[-83.32709,37.452552],[-83.327082,37.452607],[-83.327063,37.452665],[-83.327032,37.452725],[-83.326989,37.452773],[-83.326823,37.452936],[-83.326622,37.453171],[-83.326413,37.453377],[-83.326269,37.453525],[-83.326151,37.453693],[-83.326099,37.453781],[-83.325746,37.454258],[-83.325693,37.45434],[-83.325623,37.45441],[-83.325477,37.454543],[-83.325412,37.454617],[-83.325339,37.45469],[-83.32518,37.454813],[-83.325033,37.45494],[-83.324962,37.45501],[-83.324832,37.455162],[-83.324758,37.455231],[-83.324673,37.455294],[-83.324527,37.455443],[-83.324396,37.45559],[-83.324332,37.455656],[-83.324269,37.455709],[-83.324137,37.455796],[-83.324075,37.455846],[-83.323953,37.45597],[-83.323884,37.456035],[-83.32381,37.456093],[-83.323726,37.456142],[-83.323567,37.456261],[-83.32349,37.456327],[-83.323404,37.456388],[-83.323323,37.456458],[-83.323249,37.456529],[-83.323165,37.456589],[-83.323091,37.456653],[-83.323031,37.456714],[-83.322971,37.456783],[-83.322885,37.456907],[-83.32283,37.456978],[-83.322788,37.457037],[-83.322754,37.457101],[-83.322711,37.457159],[-83.32266,37.457211],[-83.322603,37.45726],[-83.322547,37.457315],[-83.322498,37.45738],[-83.322379,37.457613],[-83.322325,37.457681],[-83.322203,37.457793],[-83.32214,37.457842],[-83.322088,37.457896],[-83.322047,37.457952],[-83.32195,37.458148],[-83.3219,37.458216],[-83.321835,37.458278],[-83.321695,37.458386],[-83.321621,37.458436],[-83.321541,37.458481],[-83.321356,37.458554],[-83.321161,37.458636],[-83.320755,37.45879],[-83.320664,37.458841],[-83.320586,37.458902],[-83.320354,37.459111],[-83.320267,37.45918],[-83.320148,37.459229],[-83.32006,37.459253],[-83.320004,37.459264],[-83.319885,37.459275],[-83.319818,37.459286],[-83.319743,37.459302],[-83.319666,37.459324],[-83.319549,37.459343],[-83.319498,37.459361],[-83.319436,37.459406],[-83.319358,37.459576],[-83.319352,37.459652],[-83.319335,37.459718],[-83.319326,37.459788],[-83.319327,37.459857],[-83.319302,37.45992],[-83.319263,37.459974],[-83.31921,37.460017],[-83.319143,37.46005],[-83.318983,37.460099],[-83.318902,37.460133],[-83.31885,37.460163],[-83.318804,37.460206],[-83.318767,37.46025],[-83.318742,37.460306],[-83.31863,37.460505],[-83.318557,37.460661],[-83.318512,37.460806],[-83.318498,37.460872],[-83.318492,37.460938],[-83.318495,37.460996],[-83.318502,37.461048],[-83.318505,37.461151],[-83.318496,37.461265],[-83.318476,37.461387],[-83.318475,37.461447],[-83.318475,37.461572],[-83.318486,37.461766],[-83.318522,37.461886],[-83.318573,37.462003],[-83.318687,37.462211],[-83.318764,37.462368],[-83.318794,37.462416],[-83.318817,37.462463],[-83.318847,37.462548],[-83.318865,37.462632],[-83.318904,37.462694],[-83.318935,37.462763],[-83.318951,37.462834],[-83.318956,37.462908],[-83.31895,37.462983],[-83.318893,37.463116],[-83.318858,37.463181],[-83.318836,37.463253],[-83.318823,37.463398],[-83.318792,37.463447],[-83.318773,37.463495],[-83.318753,37.463534],[-83.318731,37.463567],[-83.318674,37.463631]]}},{"type":"Feature","properties":{"osm_id":16110745,"highway":"residential","name":"Watts Road","alt_name":null,"official_name":null,"surface":null,"tracktype":null,"service":null,"access":null,"motor_vehicle":null,"foot":null,"tiger_reviewed":"no","rrgh_part":0,"rrgh_tile_part":0},"geometry":{"type":"LineString","coordinates":[[-83.31905895744681,37.45],[-83.319085,37.450168],[-83.319108,37.450272],[-83.31914,37.450374],[-83.319178,37.450475],[-83.319223,37.450575],[-83.319274,37.450677],[-83.319388,37.450889],[-83.319509,37.451104],[-83.319565,37.451213],[-83.319598,37.451328],[-83.319617,37.451449],[-83.31969,37.451664],[-83.319728,37.451762],[-83.319771,37.451858],[-83.319822,37.451951],[-83.319936,37.452118],[-83.319986,37.4522],[-83.320016,37.452279],[-83.320037,37.452365],[-83.320038,37.452451],[-83.320022,37.452534],[-83.31999,37.452612],[-83.319845,37.452841],[-83.319799,37.452926],[-83.319757,37.45302],[-83.319641,37.45331],[-83.319593,37.453401],[-83.319536,37.453493],[-83.319363,37.453727],[-83.319316,37.453804],[-83.319238,37.453963],[-83.319181,37.45404],[-83.319102,37.454114],[-83.31893,37.454265],[-83.318841,37.454338],[-83.31875,37.454407],[-83.318647,37.45447],[-83.318421,37.454583],[-83.318301,37.454633],[-83.318181,37.454673],[-83.317951,37.454743],[-83.317844,37.454766],[-83.317739,37.454793],[-83.315128,37.455228],[-83.315044,37.455247],[-83.31497,37.455271],[-83.314883,37.455302],[-83.314833,37.455337],[-83.314739,37.455426],[-83.314713,37.455484],[-83.314673,37.455549],[-83.314594,37.455695],[-83.314546,37.45577],[-83.314484,37.455836],[-83.314402,37.455895],[-83.314301,37.455948],[-83.314182,37.456001],[-83.313966,37.456118],[-83.3139333,37.4561401],[-83.313466,37.456455],[-83.313378,37.456518],[-83.313298,37.456583],[-83.313228,37.456654],[-83.313179,37.456733],[-83.313156,37.456823],[-83.313158,37.456917],[-83.313178,37.457013],[-83.313212,37.457111],[-83.3132432,37.4571819],[-83.313304,37.45731],[-83.313354,37.457407],[-83.313407,37.4575],[-83.313522,37.457681],[-83.313653,37.457859],[-83.313726,37.457942],[-83.313803,37.458018],[-83.314143,37.4583],[-83.314314,37.458429],[-83.314565,37.458582],[-83.314955,37.458783],[-83.315327,37.459015],[-83.315491,37.459104],[-83.315575,37.459143],[-83.315754,37.459208],[-83.315844,37.459247],[-83.315927,37.459295],[-83.315997,37.459354],[-83.316055,37.459416],[-83.316106,37.459486],[-83.316166,37.459555],[-83.316222,37.45963],[-83.316319,37.459782],[-83.316359,37.459856],[-83.316459,37.460077],[-83.316487,37.460146],[-83.3165199,37.4602515],[-83.31653,37.460281],[-83.316545,37.46036],[-83.316582,37.460446],[-83.316627,37.460625],[-83.316656,37.460715],[-83.316697,37.460804],[-83.316752,37.460888],[-83.316817,37.460971],[-83.316959,37.461139],[-83.317095,37.461314],[-83.3172216,37.4614853],[-83.3173131,37.4615983],[-83.31739,37.4616982],[-83.3174456,37.4617592],[-83.3176091,37.4618708],[-83.3177383,37.4619292],[-83.3178887,37.4619812],[-83.3179934,37.4620214],[-83.3180882,37.4620513],[-83.3182076,37.4620941],[-83.3183122,37.4621541],[-83.318399,37.46223],[-83.318485,37.462277],[-83.31856,37.462333],[-83.318632,37.462394],[-83.318755,37.462515],[-83.318865,37.462632]]}},{"type":"Feature","properties":{"osm_id":16115681,"highway":"residential","name":"John Hollon Lane","alt_name":null,"official_name":null,"surface":null,"tracktype":null,"service":null,"access":null,"motor_vehicle":null,"foot":null,"tiger_reviewed":"no","rrgh_part":0,"rrgh_tile_part":0},"geometry":{"type":"LineString","coordinates":[[-83.31696293478261,37.45],[-83.316978,37.450011],[-83.317089,37.450117],[-83.3172632,37.4502674],[-83.3174444,37.4504055],[-83.3175697,37.4504664]]}},{"type":"Feature","properties":{"osm_id":16105554,"highway":"residential","name":"Hardshell Caney Road","alt_name":null,"official_name":null,"surface":null,"tracktype":null,"service":null,"access":null,"motor_vehicle":null,"foot":null,"tiger_reviewed":"no","rrgh_part":0,"rrgh_tile_part":0},"geometry":{"type":"LineString","coordinates":[[-83.26206633333334,37.45],[-83.262101,37.450026],[-83.262173,37.450066],[-83.262377,37.45016],[-83.262495,37.45022],[-83.262566,37.450259],[-83.262738,37.450362],[-83.262834,37.450427],[-83.26293,37.450497],[-83.263122,37.450644],[-83.26321,37.450724],[-83.263283,37.450812],[-83.263507,37.451068],[-83.263663,37.451238],[-83.263877,37.451464],[-83.263926,37.451533],[-83.263958,37.451601],[-83.263972,37.451673],[-83.263969,37.451748],[-83.263951,37.451826],[-83.26392,37.451902],[-83.263883,37.451976],[-83.263746,37.452201],[-83.263704,37.452283],[-83.263669,37.452374],[-83.263645,37.45247],[-83.263641,37.452566],[-83.263645,37.452659],[-83.263663,37.452837],[-83.26367,37.45291],[-83.263671,37.452986],[-83.263649,37.45305],[-83.263447,37.453409],[-83.263424,37.453476],[-83.263417,37.453521],[-83.263413,37.453548],[-83.26342,37.453621],[-83.263462,37.453768],[-83.263463,37.453846],[-83.263432,37.454009],[-83.263421,37.454094],[-83.26342,37.454175],[-83.263432,37.454255],[-83.263487,37.454403],[-83.263535,37.454565],[-83.263599,37.454731],[-83.26363,37.454824],[-83.263648,37.454924],[-83.263673,37.455122],[-83.263676,37.455219],[-83.263669,37.455404],[-83.263659,37.455491],[-83.26363,37.455671],[-83.263603,37.455745],[-83.263562,37.45581],[-83.263507,37.455863],[-83.263443,37.455909],[-83.263376,37.455949],[-83.263307,37.455987],[-83.263144,37.456066],[-83.26305,37.456145],[-83.262965,37.456197],[-83.262881,37.456266],[-83.262807,37.456334],[-83.262742,37.4564],[-83.262684,37.456487],[-83.262529,37.45679],[-83.262361,37.457029],[-83.262331,37.457092],[-83.262315,37.457159],[-83.262345,37.457474],[-83.262374,37.457535],[-83.262404,37.457676],[-83.262421,37.457738],[-83.262422,37.457802],[-83.262415,37.457866],[-83.262399,37.457927],[-83.262374,37.457982],[-83.262312,37.458093],[-83.262292,37.458158],[-83.262299,37.458225],[-83.26233,37.458287],[-83.262371,37.458349],[-83.262493,37.458507],[-83.262563,37.458612]]}},{"type":"Feature","properties":{"osm_id":16107621,"highway":"residential","name":"Left Fork Duck Hollow Road","alt_name":null,"official_name":null,"surface":null,"tracktype":null,"service":null,"access":null,"motor_vehicle":null,"foot":null,"tiger_reviewed":"no","rrgh_part":0,"rrgh_tile_part":0},"geometry":{"type":"LineString","coordinates":[[-83.333794,37.461907],[-83.333739,37.461836],[-83.333706,37.461776],[-83.333669,37.461688],[-83.333655,37.461637],[-83.333634,37.461584],[-83.333554,37.461334],[-83.333536,37.461268],[-83.33343,37.461025],[-83.333409,37.460963],[-83.333388,37.460848],[-83.333386,37.460784],[-83.333389,37.460709],[-83.33341,37.460641],[-83.333441,37.460574],[-83.333481,37.460509],[-83.333531,37.460447],[-83.333588,37.460386],[-83.33365,37.460326],[-83.333718,37.460266],[-83.333858,37.46015],[-83.333928,37.460096],[-83.334067,37.460003],[-83.334205,37.459921],[-83.334501,37.459755],[-83.334647,37.459679],[-83.334714,37.45964],[-83.33483,37.45956],[-83.334927,37.459479],[-83.33500000000001,37.459432978260864]]}},{"type":"Feature","properties":{"osm_id":16108188,"highway":"residential","name":"Left Fork Duck Hollow","alt_name":null,"official_name":null,"surface":null,"tracktype":null,"service":null,"access":null,"motor_vehicle":null,"foot":null,"tiger_reviewed":"no","rrgh_part":0,"rrgh_tile_part":0},"geometry":{"type":"LineString","coordinates":[[-83.333794,37.461907],[-83.333868,37.46188],[-83.333905,37.461858],[-83.333914,37.461842],[-83.333916,37.461823],[-83.333914,37.461802],[-83.333899,37.461753],[-83.333865,37.46166],[-83.333855,37.461583],[-83.333846,37.461546],[-83.333844,37.461502],[-83.333843,37.461456],[-83.333872,37.461177],[-83.333894,37.461119],[-83.333922,37.461065],[-83.333956,37.46102],[-83.333994,37.460981],[-83.334034,37.460948],[-83.334093,37.460913],[-83.334148,37.460887],[-83.334212,37.460869],[-83.334268,37.460866],[-83.33433,37.460875],[-83.334411,37.460902],[-83.334599,37.460993],[-83.334715,37.461054],[-83.334825,37.461119],[-83.334876,37.461154],[-83.334923,37.461193],[-83.33500000000001,37.46127556626507]]}},{"type":"Feature","properties":{"osm_id":1092992395,"highway":"track","name":null,"alt_name":null,"official_name":null,"surface":null,"tracktype":null,"service":null,"access":null,"motor_vehicle":null,"foot":null,"tiger_reviewed":null,"rrgh_part":0,"rrgh_tile_part":0},"geometry":{"type":"LineString","coordinates":[[-83.33500000000001,37.45615363110257],[-83.3349489,37.4561323],[-83.3346382,37.4561271],[-83.3340234,37.4561401],[-83.3336767,37.4562959],[-83.3334396,37.456501],[-83.3333317,37.4565763],[-83.3332189,37.4568411],[-83.3331616,37.457063],[-83.3331289,37.4572409],[-83.3331813,37.4573291],[-83.3333709,37.457407],[-83.3334792,37.4574285]]}},{"type":"Feature","properties":{"osm_id":1092992397,"highway":"track","name":null,"alt_name":null,"official_name":null,"surface":null,"tracktype":null,"service":null,"access":null,"motor_vehicle":null,"foot":null,"tiger_reviewed":null,"rrgh_part":0,"rrgh_tile_part":0},"geometry":{"type":"LineString","coordinates":[[-83.33500000000001,37.45891923568734],[-83.3349214,37.458845],[-83.3346848,37.4587054],[-83.3344481,37.4585759],[-83.3342403,37.4584972],[-83.3340548,37.4582967],[-83.3338149,37.4579489],[-83.3336582,37.4577535],[-83.3334792,37.4574285],[-83.3334824,37.4572914],[-83.3335783,37.4570173],[-83.3337638,37.4567203],[-83.3340804,37.4565984],[-83.3344705,37.4565705],[-83.3348383,37.4566492],[-83.33500000000001,37.45670775581396]]}},{"type":"Feature","properties":{"osm_id":16109251,"highway":"residential","name":"Grass Roots Lane","alt_name":null,"official_name":null,"surface":null,"tracktype":null,"service":null,"access":null,"motor_vehicle":null,"foot":null,"tiger_reviewed":"no","rrgh_part":0,"rrgh_tile_part":0},"geometry":{"type":"LineString","coordinates":[[-83.32167,37.465145],[-83.321676,37.465118],[-83.32172,37.464972],[-83.321734,37.464937],[-83.32177,37.464871],[-83.321833,37.464705],[-83.321907,37.464423],[-83.321971,37.464241],[-83.322014,37.464152],[-83.322093,37.464079],[-83.322156,37.464003],[-83.322217,37.463938],[-83.322284,37.46386],[-83.322333,37.463814],[-83.322391,37.463735],[-83.32253,37.463527],[-83.322561,37.463487],[-83.322582,37.463464],[-83.32261,37.463457],[-83.322633,37.463456],[-83.322656,37.463461],[-83.322705,37.463502],[-83.322727,37.463543],[-83.322727,37.463595],[-83.322684,37.463692],[-83.322647,37.463738],[-83.322626,37.463773],[-83.322592,37.463812],[-83.322567,37.463854],[-83.322554,37.463884],[-83.322548,37.463939],[-83.322516,37.46411],[-83.32246,37.464283],[-83.322434,37.464351],[-83.322416,37.464421],[-83.32236,37.464578],[-83.32235,37.464634],[-83.322353,37.46466]]}},{"type":"Feature","properties":{"osm_id":16115347,"highway":"residential","name":"Lost Creek-Big Branch Road","alt_name":null,"official_name":null,"surface":null,"tracktype":null,"service":null,"access":null,"motor_vehicle":null,"foot":null,"tiger_reviewed":"no","rrgh_part":0,"rrgh_tile_part":0},"geometry":{"type":"LineString","coordinates":[[-83.32451,37.46677],[-83.324546,37.466757],[-83.324719,37.466708],[-83.325189,37.466488],[-83.325414,37.466369],[-83.325561,37.466315],[-83.325655,37.466296],[-83.326016,37.466318],[-83.32619,37.466305],[-83.32635,37.466261],[-83.326417,37.466237],[-83.326554,37.466205],[-83.326613,37.466184],[-83.326665,37.466154],[-83.326903,37.465997],[-83.326965,37.465964],[-83.327183,37.465878],[-83.32746,37.465783],[-83.327748,37.465673],[-83.327934,37.465606],[-83.328116,37.465533],[-83.328204,37.465492],[-83.328383,37.465399],[-83.328468,37.465351],[-83.328552,37.465299],[-83.328636,37.465254],[-83.32881,37.465177],[-83.329206,37.465021],[-83.329346,37.464973],[-83.329414,37.464954],[-83.32962,37.464877],[-83.329692,37.464843],[-83.329827,37.464758],[-83.329893,37.464722],[-83.32995,37.464683],[-83.330068,37.464556],[-83.330098,37.464496],[-83.33047,37.463845],[-83.330489,37.463806],[-83.330587,37.463666],[-83.330633,37.463561],[-83.330638,37.463476],[-83.330611,37.463385],[-83.330583,37.463307],[-83.330535,37.463218],[-83.330443,37.46307],[-83.330429,37.463036],[-83.330422,37.463],[-83.330417,37.46292],[-83.330441,37.462718],[-83.330522,37.462398],[-83.330573,37.462329],[-83.330636,37.462282],[-83.330725,37.462262],[-83.3308,37.462269],[-83.330902,37.462304],[-83.331013,37.462367],[-83.331163,37.462478],[-83.331289,37.462595],[-83.331348,37.462656],[-83.331442,37.462729],[-83.331531,37.462774],[-83.331583,37.462786],[-83.33172,37.462789],[-83.331898,37.462771],[-83.332071,37.462714],[-83.332417,37.462544],[-83.332674,37.462379],[-83.332774,37.462279]]}},{"type":"Feature","properties":{"osm_id":16110810,"highway":"residential","name":"Lost Branch-Big Branch Road","alt_name":null,"official_name":null,"surface":null,"tracktype":null,"service":null,"access":null,"motor_vehicle":null,"foot":null,"tiger_reviewed":"no","rrgh_part":0,"rrgh_tile_part":0},"geometry":{"type":"LineString","coordinates":[[-83.332774,37.462279],[-83.332855,37.462196],[-83.332913,37.462119],[-83.332943,37.462073],[-83.332986,37.46204],[-83.33305,37.46201],[-83.333232,37.461981],[-83.333393,37.461973],[-83.333794,37.461907]]}},{"type":"Feature","properties":{"osm_id":1092992394,"highway":"track","name":null,"alt_name":null,"official_name":null,"surface":null,"tracktype":null,"service":null,"access":null,"motor_vehicle":null,"foot":null,"tiger_reviewed":null,"rrgh_part":0,"rrgh_tile_part":0},"geometry":{"type":"LineString","coordinates":[[-83.3331289,37.4572409],[-83.3327872,37.4574421],[-83.332483,37.4576432]]}},{"type":"Feature","properties":{"osm_id":16111773,"highway":"residential","name":"Laura Lane","alt_name":null,"official_name":null,"surface":null,"tracktype":null,"service":null,"access":null,"motor_vehicle":null,"foot":null,"tiger_reviewed":"no","rrgh_part":0,"rrgh_tile_part":0},"geometry":{"type":"LineString","coordinates":[[-83.315472,37.453686],[-83.315423,37.453687],[-83.315397,37.453692],[-83.315211,37.453754],[-83.31515,37.453767],[-83.315032,37.453782],[-83.314971,37.453785],[-83.314911,37.453778],[-83.314858,37.453761],[-83.314816,37.453735]]}},{"type":"Feature","properties":{"osm_id":16113716,"highway":"residential","name":"Dube Railroad","alt_name":null,"official_name":null,"surface":null,"tracktype":null,"service":null,"access":null,"motor_vehicle":null,"foot":null,"tiger_reviewed":"no","rrgh_part":0,"rrgh_tile_part":0},"geometry":{"type":"LineString","coordinates":[[-83.31398,37.451379],[-83.314024,37.451445],[-83.31415,37.451644],[-83.314234,37.451753],[-83.314349,37.45194],[-83.314457,37.452135],[-83.314532,37.452244],[-83.31455,37.452308],[-83.314581,37.452368],[-83.314633,37.452424],[-83.314689,37.452479],[-83.314811,37.452582],[-83.315098,37.452802],[-83.315171,37.45287],[-83.315238,37.452944],[-83.315391,37.453069],[-83.31547,37.453122],[-83.315548,37.453166],[-83.315674,37.453231],[-83.315716,37.453259],[-83.315743,37.453291],[-83.315754,37.45333],[-83.315747,37.453373],[-83.31572,37.453418],[-83.31568,37.453462],[-83.315634,37.453503],[-83.315542,37.453574],[-83.315503,37.453612],[-83.315478,37.45365],[-83.315472,37.453686],[-83.315483,37.453725],[-83.315514,37.453754],[-83.315561,37.453777],[-83.315676,37.453818],[-83.31581,37.453872],[-83.315882,37.453895],[-83.315956,37.453909],[-83.31603,37.453912],[-83.316098,37.453909],[-83.316242,37.453894],[-83.31648,37.4538383]]}},{"type":"Feature","properties":{"osm_id":16115685,"highway":"residential","name":"John Hollon Lane","alt_name":null,"official_name":null,"surface":null,"tracktype":null,"service":null,"access":null,"motor_vehicle":null,"foot":null,"tiger_reviewed":"no","rrgh_part":0,"rrgh_tile_part":0},"geometry":{"type":"LineString","coordinates":[[-83.315436,37.450619],[-83.315492,37.450649],[-83.315521,37.450663],[-83.315614,37.450685],[-83.315886,37.450698],[-83.315948,37.45071],[-83.316001,37.450731],[-83.316021,37.450746],[-83.316037,37.450762],[-83.316063,37.450797],[-83.316081,37.450833]]}},{"type":"Feature","properties":{"osm_id":16105724,"highway":"residential","name":null,"alt_name":null,"official_name":null,"surface":null,"tracktype":null,"service":null,"access":null,"motor_vehicle":null,"foot":null,"tiger_reviewed":"no","rrgh_part":0,"rrgh_tile_part":0},"geometry":{"type":"LineString","coordinates":[[-83.315003,37.462269],[-83.315082,37.462191],[-83.315175,37.462089],[-83.315291,37.461939],[-83.31533,37.461881],[-83.315378,37.461795],[-83.315401,37.461741],[-83.315419,37.461687],[-83.315465,37.461472],[-83.315499,37.461393],[-83.315541,37.461322],[-83.315586,37.461264],[-83.315633,37.461213],[-83.315707,37.461139],[-83.315782,37.46107]]}},{"type":"Feature","properties":{"osm_id":16108738,"highway":"residential","name":"Cow Bridge","alt_name":null,"official_name":null,"surface":null,"tracktype":null,"service":null,"access":null,"motor_vehicle":null,"foot":null,"tiger_reviewed":"no","rrgh_part":0,"rrgh_tile_part":0},"geometry":{"type":"LineString","coordinates":[[-83.315003,37.462269],[-83.314946,37.462327],[-83.314841,37.462427],[-83.31477,37.462487],[-83.314475,37.462709],[-83.314209,37.462916],[-83.314058,37.463018]]}},{"type":"Feature","properties":{"osm_id":16110264,"highway":"residential","name":"Marie Roberts Road","alt_name":null,"official_name":null,"surface":null,"tracktype":null,"service":null,"access":null,"motor_vehicle":null,"foot":null,"tiger_reviewed":null,"rrgh_part":0,"rrgh_tile_part":0},"geometry":{"type":"LineString","coordinates":[[-83.3203314,37.4651102],[-83.3203937,37.4650713],[-83.320553,37.4650536],[-83.3206463,37.4650604],[-83.3207506,37.4650719],[-83.320956,37.4651032],[-83.321072,37.465103],[-83.32132,37.465135],[-83.321448,37.465145],[-83.32158,37.465148],[-83.32167,37.465145],[-83.322222,37.465128],[-83.322342,37.465136],[-83.322457,37.465155],[-83.322568,37.465186],[-83.322671,37.465235],[-83.322868,37.465359],[-83.322962,37.465429],[-83.323054,37.465504],[-83.323147,37.465582],[-83.323524,37.46591],[-83.323711,37.466068],[-83.323802,37.466142],[-83.323887,37.466215],[-83.323968,37.466283],[-83.32405,37.466347],[-83.324129,37.466411],[-83.32421,37.466478],[-83.324296,37.466543],[-83.324377,37.466613],[-83.32445,37.466691],[-83.32451,37.46677],[-83.324514,37.466774],[-83.324525,37.466791],[-83.324623,37.466951],[-83.324675,37.467042],[-83.324726,37.467135],[-83.324773,37.467229],[-83.324814,37.467326],[-83.324846,37.467427],[-83.324871,37.467529],[-83.324893,37.467635],[-83.324907,37.467746],[-83.32492,37.467864],[-83.324929,37.467987],[-83.324922,37.468109],[-83.324905,37.468228],[-83.324805,37.468549],[-83.324763,37.468651],[-83.324719,37.468744],[-83.324679,37.468851],[-83.324486,37.469515],[-83.324461,37.469629],[-83.324422,37.469735],[-83.324321,37.469933],[-83.324254,37.470035],[-83.324177,37.470134],[-83.324032,37.47036],[-83.323956,37.470469],[-83.323375,37.471233],[-83.32333,37.471322],[-83.323301,37.471411],[-83.323295,37.471507],[-83.323295,37.471604],[-83.3232979,37.4716813],[-83.3232999,37.4717337],[-83.323317,37.471987],[-83.323312,37.472077],[-83.323297,37.472166],[-83.3232566,37.4722642],[-83.3232188,37.4723704],[-83.3231728,37.4725094],[-83.3231674,37.4726057],[-83.3231698,37.4726285],[-83.3231778,37.4727032],[-83.3232037,37.4727985],[-83.3232522,37.4729072],[-83.3233609,37.4731093],[-83.3235195,37.4734351],[-83.3236135,37.4736517],[-83.3236916,37.4738937],[-83.3237079,37.4740116],[-83.3237172,37.4741433],[-83.3237183,37.474326],[-83.3237166,37.4745406],[-83.3237364,37.4746321],[-83.32377,37.474718],[-83.323789,37.474836],[-83.323812,37.474953],[-83.323848,37.475162],[-83.323865,37.475251],[-83.323882,37.475346],[-83.32392,37.475436],[-83.323981,37.47552],[-83.324061,37.475599],[-83.32415,37.475677],[-83.324435,37.475901],[-83.324527,37.475977],[-83.324611,37.476059],[-83.324616,37.476065],[-83.324682,37.476147],[-83.324742,37.476237],[-83.324792,37.476326],[-83.324831,37.476416],[-83.32486,37.476507],[-83.324872,37.4766],[-83.324863,37.476694],[-83.324814,37.47689],[-83.324795,37.47699],[-83.324784,37.477111],[-83.324781,37.477195],[-83.324794,37.477275],[-83.324816,37.477372],[-83.324854,37.477466],[-83.3249,37.477557],[-83.324951,37.477644],[-83.3250075,37.4777698],[-83.325076,37.4778715],[-83.3251146,37.4779291],[-83.3251439,37.4779798],[-83.325154,37.4780278],[-83.3251395,37.4780698],[-83.3251361,37.4780733],[-83.3250973,37.4781122],[-83.3250782,37.478125]]}},{"type":"Feature","properties":{"osm_id":1098000277,"highway":"service","name":null,"alt_name":null,"official_name":null,"surface":"unpaved","tracktype":null,"service":null,"access":"private","motor_vehicle":null,"foot":null,"tiger_reviewed":null,"rrgh_part":0,"rrgh_tile_part":0},"geometry":{"type":"LineString","coordinates":[[-83.3225805,37.4717726],[-83.3223603,37.4717309],[-83.3221706,37.4716621],[-83.3220637,37.4715884],[-83.3220435,37.4715371]]}},{"type":"Feature","properties":{"osm_id":16106124,"highway":"residential","name":null,"alt_name":null,"official_name":null,"surface":"unpaved","tracktype":null,"service":null,"access":null,"motor_vehicle":null,"foot":null,"tiger_reviewed":null,"rrgh_part":0,"rrgh_tile_part":0},"geometry":{"type":"LineString","coordinates":[[-83.3232999,37.4717337],[-83.3233634,37.4717271],[-83.3235248,37.4717037],[-83.3237498,37.4716861],[-83.3238739,37.4716733],[-83.323997,37.4716412],[-83.3242311,37.4715083],[-83.3247033,37.4711399],[-83.3248284,37.4710614],[-83.3249879,37.4709862],[-83.3253592,37.4709221],[-83.3258839,37.4708981],[-83.3265115,37.4708917],[-83.3267615,37.4708798],[-83.3269495,37.4708708],[-83.3270544,37.470834],[-83.3271523,37.470822],[-83.3271997,37.4708348],[-83.3273047,37.4708812],[-83.32766,37.470973],[-83.3277607,37.4710262],[-83.3278294,37.4710903],[-83.3278354,37.4712216],[-83.3278011,37.471385],[-83.3277789,37.4715371],[-83.3278172,37.4716412],[-83.3279626,37.4718046],[-83.3279827,37.471992],[-83.3279484,37.4721714]]}},{"type":"Feature","properties":{"osm_id":16106125,"highway":"residential","name":"Red Skin Run","alt_name":null,"official_name":null,"surface":null,"tracktype":null,"service":null,"access":null,"motor_vehicle":null,"foot":null,"tiger_reviewed":null,"rrgh_part":0,"rrgh_tile_part":0},"geometry":{"type":"LineString","coordinates":[[-83.3237183,37.474326],[-83.323751,37.474325],[-83.3239984,37.4742969],[-83.3242074,37.4742102],[-83.3245429,37.4740276],[-83.3247428,37.4738801],[-83.3248022,37.473828],[-83.3249515,37.4736972],[-83.3250541,37.4736072],[-83.325108,37.4735695],[-83.3252484,37.4734712],[-83.3252864,37.4734446],[-83.3253527,37.4733959]]}},{"type":"Feature","properties":{"osm_id":1086059000,"highway":"service","name":null,"alt_name":null,"official_name":null,"surface":null,"tracktype":null,"service":null,"access":null,"motor_vehicle":null,"foot":null,"tiger_reviewed":null,"rrgh_part":0,"rrgh_tile_part":0},"geometry":{"type":"LineString","coordinates":[[-83.3253527,37.4733959],[-83.3255048,37.4732982],[-83.3257837,37.4731216],[-83.3259052,37.4730182],[-83.3260031,37.4729418],[-83.3261318,37.4728229],[-83.3261455,37.4727698],[-83.3261907,37.4726482],[-83.3262311,37.4725743],[-83.3262413,37.4724378],[-83.326287,37.4722752]]}},{"type":"Feature","properties":{"osm_id":16107173,"highway":"residential","name":"Philip's Way","alt_name":null,"official_name":null,"surface":null,"tracktype":null,"service":null,"access":null,"motor_vehicle":null,"foot":null,"tiger_reviewed":null,"rrgh_part":0,"rrgh_tile_part":0},"geometry":{"type":"LineString","coordinates":[[-83.3201663,37.4649651],[-83.3200902,37.4650038],[-83.320011,37.4650383],[-83.3199076,37.4650667],[-83.3198292,37.4650743],[-83.319738,37.46508],[-83.319483,37.46505],[-83.319392,37.465034],[-83.318976,37.464935],[-83.3189,37.464913],[-83.318711,37.464864],[-83.318665,37.464847],[-83.318635,37.464834]]}},{"type":"Feature","properties":{"osm_id":1128265151,"highway":"residential","name":"Campbells Branch Road","alt_name":null,"official_name":null,"surface":null,"tracktype":null,"service":null,"access":null,"motor_vehicle":null,"foot":null,"tiger_reviewed":"no","rrgh_part":0,"rrgh_tile_part":0},"geometry":{"type":"LineString","coordinates":[[-83.33500000000001,37.48754183950617],[-83.334681,37.487404],[-83.334455,37.487332],[-83.334341,37.487315],[-83.334258,37.487319],[-83.334168,37.487342],[-83.334124,37.48736],[-83.334047,37.48741],[-83.334015,37.487439],[-83.333871,37.487601],[-83.333802,37.48766],[-83.333661,37.487764],[-83.333546,37.487877],[-83.333391,37.488048],[-83.333343,37.488122],[-83.333307,37.488163],[-83.333261,37.488195],[-83.333203,37.488218]]}},{"type":"Feature","properties":{"osm_id":16113451,"highway":"residential","name":"Kragon School Road","alt_name":null,"official_name":null,"surface":null,"tracktype":null,"service":null,"access":null,"motor_vehicle":null,"foot":null,"tiger_reviewed":"no","rrgh_part":0,"rrgh_tile_part":0},"geometry":{"type":"LineString","coordinates":[[-83.331985,37.502383],[-83.332016,37.502379],[-83.332083,37.502365],[-83.3322329,37.5023261],[-83.332285,37.502315],[-83.332351,37.502306],[-83.332418,37.502306],[-83.332484,37.502313],[-83.332546,37.502329],[-83.332602,37.502357],[-83.332652,37.502394],[-83.332743,37.50248],[-83.332789,37.502531],[-83.3328535,37.502613],[-83.332961,37.502746],[-83.333002,37.502805],[-83.333109,37.502993],[-83.333149,37.503052],[-83.333249,37.503165],[-83.333313,37.503228],[-83.33337,37.503274],[-83.333422,37.503307],[-83.333487,37.503354],[-83.333683,37.503461],[-83.33376,37.5035],[-83.333987,37.503631],[-83.33412,37.503701],[-83.334189,37.503728],[-83.334248,37.503746],[-83.334434,37.503786],[-83.334487,37.503802],[-83.334533,37.503823],[-83.33457,37.50385],[-83.3346,37.503878],[-83.334644,37.503928],[-83.334669,37.503963],[-83.334707,37.504042],[-83.334734,37.504087],[-83.334781,37.504138],[-83.334843,37.504189],[-83.334985,37.504295],[-83.33500000000001,37.504307439807384]]}},{"type":"Feature","properties":{"osm_id":16104833,"highway":"service","name":null,"alt_name":null,"official_name":null,"surface":null,"tracktype":null,"service":null,"access":null,"motor_vehicle":null,"foot":null,"tiger_reviewed":"no","rrgh_part":0,"rrgh_tile_part":0},"geometry":{"type":"LineString","coordinates":[[-83.3273743,37.4807477],[-83.3272969,37.4810313],[-83.3272267,37.4811297],[-83.3269145,37.481193]]}},{"type":"Feature","properties":{"osm_id":1085971338,"highway":"residential","name":"Marie Roberts Road","alt_name":null,"official_name":null,"surface":null,"tracktype":null,"service":null,"access":null,"motor_vehicle":null,"foot":null,"tiger_reviewed":null,"rrgh_part":0,"rrgh_tile_part":0},"geometry":{"type":"LineString","coordinates":[[-83.3243446,37.4784933],[-83.3241337,37.4785809],[-83.323657,37.4787498],[-83.3231524,37.4789478],[-83.3229645,37.4790319],[-83.3228325,37.4790852]]}},{"type":"Feature","properties":{"osm_id":1085971339,"highway":"residential","name":"Marie Roberts Road","alt_name":null,"official_name":null,"surface":null,"tracktype":null,"service":null,"access":null,"motor_vehicle":null,"foot":null,"tiger_reviewed":null,"rrgh_part":0,"rrgh_tile_part":0},"geometry":{"type":"LineString","coordinates":[[-83.3250782,37.478125],[-83.3243446,37.4784933]]}},{"type":"Feature","properties":{"osm_id":16115567,"highway":"residential","name":"Riverside School Road","alt_name":null,"official_name":null,"surface":null,"tracktype":null,"service":null,"access":null,"motor_vehicle":null,"foot":null,"tiger_reviewed":null,"rrgh_part":0,"rrgh_tile_part":0},"geometry":{"type":"LineString","coordinates":[[-83.3251361,37.4780733],[-83.3252325,37.4781303],[-83.325284,37.4781623],[-83.3253589,37.4782021],[-83.325549,37.478334],[-83.325734,37.478515],[-83.325846,37.478635],[-83.325955,37.478763],[-83.326011,37.478841],[-83.326279,37.479174],[-83.326513,37.479476],[-83.326618,37.47964],[-83.32678,37.479854],[-83.326942,37.480107],[-83.327147,37.48038],[-83.3273743,37.4807477],[-83.3275778,37.4809924],[-83.3277274,37.4811655],[-83.3279468,37.4813619],[-83.328103,37.481528],[-83.328174,37.481573],[-83.328336,37.481639],[-83.328423,37.481665],[-83.32851,37.481684],[-83.32867,37.481708],[-83.328846,37.481703],[-83.329088,37.481671],[-83.3294308,37.4815775],[-83.3296438,37.4814915],[-83.3299185,37.4814252]]}},{"type":"Feature","properties":{"osm_id":16112375,"highway":"residential","name":"Southwood Road","alt_name":null,"official_name":null,"surface":null,"tracktype":null,"service":null,"access":null,"motor_vehicle":null,"foot":null,"tiger_reviewed":"no","rrgh_part":0,"rrgh_tile_part":0},"geometry":{"type":"LineString","coordinates":[[-83.321096,37.477279],[-83.32097,37.477293],[-83.320711,37.477336],[-83.320497,37.477378],[-83.320315,37.477411],[-83.319963,37.477442],[-83.319668,37.477442],[-83.319356,37.477424],[-83.319245,37.4774],[-83.319035,37.47738],[-83.318724,37.477381],[-83.318619,37.477391],[-83.318514,37.477392],[-83.318411,37.477386],[-83.318312,37.477367],[-83.318058,37.477288],[-83.317983,37.477271],[-83.3179383,37.4772691],[-83.317914,37.477268],[-83.317851,37.477276],[-83.317668,37.477329],[-83.317443,37.477407],[-83.316817,37.477651],[-83.31676,37.477684],[-83.316711,37.477723],[-83.316525,37.47791]]}},{"type":"Feature","properties":{"osm_id":16112377,"highway":"residential","name":"Southwood Road","alt_name":null,"official_name":null,"surface":null,"tracktype":null,"service":null,"access":null,"motor_vehicle":null,"foot":null,"tiger_reviewed":"no","rrgh_part":0,"rrgh_tile_part":0},"geometry":{"type":"LineString","coordinates":[[-83.316509,37.477951],[-83.316525,37.47791],[-83.316504,37.477925],[-83.316438,37.477956],[-83.316395,37.477966],[-83.316351,37.477969],[-83.316205,37.477959],[-83.316155,37.477963],[-83.316109,37.477974],[-83.316074,37.477996],[-83.31605,37.478024],[-83.316038,37.478055],[-83.316037,37.478089],[-83.316047,37.478125],[-83.316066,37.478159],[-83.31609,37.478191],[-83.316184,37.478286],[-83.316476,37.478553],[-83.316527,37.478584],[-83.316552,37.478586],[-83.316575,37.478578],[-83.316592,37.478562],[-83.316608,37.478514],[-83.316607,37.478485],[-83.316588,37.478363],[-83.316526,37.478175],[-83.316503,37.478078],[-83.3165,37.478016],[-83.316509,37.477951]]}},{"type":"Feature","properties":{"osm_id":16113102,"highway":"residential","name":"Speedway Road","alt_name":null,"official_name":null,"surface":null,"tracktype":null,"service":null,"access":null,"motor_vehicle":null,"foot":null,"tiger_reviewed":"no","rrgh_part":0,"rrgh_tile_part":0},"geometry":{"type":"LineString","coordinates":[[-83.321848,37.477226],[-83.321795,37.477228],[-83.321227,37.477259],[-83.321153,37.477267],[-83.321096,37.477279],[-83.321036,37.477304],[-83.320994,37.477335],[-83.320965,37.477373],[-83.3209,37.477579],[-83.320848,37.477698],[-83.320517,37.478329],[-83.320092,37.479097],[-83.320061,37.479147],[-83.320022,37.47919],[-83.319932,37.47926],[-83.319897,37.479299],[-83.319872,37.479342],[-83.319848,37.47944],[-83.319844,37.479493],[-83.319853,37.479722],[-83.31985,37.479772],[-83.31983,37.479855]]}},{"type":"Feature","properties":{"osm_id":16116902,"highway":"residential","name":"Strong Cemetery Road","alt_name":null,"official_name":null,"surface":null,"tracktype":null,"service":null,"access":null,"motor_vehicle":null,"foot":null,"tiger_reviewed":"no","rrgh_part":0,"rrgh_tile_part":0},"geometry":{"type":"LineString","coordinates":[[-83.320497,37.477378],[-83.320484,37.477424],[-83.320407,37.477653],[-83.320271,37.478009],[-83.320232,37.478107],[-83.320182,37.478199],[-83.320122,37.478288],[-83.320017,37.478418],[-83.319865,37.478589],[-83.319748,37.478703],[-83.319661,37.478767],[-83.319567,37.478814],[-83.319464,37.478847],[-83.319291,37.478886],[-83.318859,37.47897],[-83.318742,37.478979],[-83.318633,37.478973],[-83.318524,37.478952],[-83.3184503,37.4789284],[-83.318371,37.478903],[-83.318317,37.478892],[-83.318196,37.478875],[-83.318069,37.47887],[-83.318011,37.478874],[-83.317956,37.478884],[-83.317597,37.479],[-83.317467,37.479036],[-83.317274,37.479053],[-83.317167,37.479077],[-83.31711,37.479102],[-83.317055,37.479136],[-83.317005,37.479175],[-83.316924,37.479266],[-83.316867,37.47937],[-83.316847,37.479424],[-83.316791,37.479632],[-83.316763,37.479695],[-83.3167163,37.4797613],[-83.3165976,37.4798507]]}},{"type":"Feature","properties":{"osm_id":1098698218,"highway":"service","name":null,"alt_name":null,"official_name":null,"surface":null,"tracktype":null,"service":null,"access":null,"motor_vehicle":null,"foot":null,"tiger_reviewed":null,"rrgh_part":0,"rrgh_tile_part":0},"geometry":{"type":"LineString","coordinates":[[-83.3184503,37.4789284],[-83.3184363,37.4788152],[-83.318451,37.4786683],[-83.318494,37.4785533],[-83.3185436,37.4784714],[-83.3185691,37.4783873],[-83.3185557,37.478332],[-83.3184537,37.4782617]]}},{"type":"Feature","properties":{"osm_id":1098698219,"highway":"service","name":null,"alt_name":null,"official_name":null,"surface":"unpaved","tracktype":null,"service":null,"access":"private","motor_vehicle":null,"foot":null,"tiger_reviewed":null,"rrgh_part":0,"rrgh_tile_part":0},"geometry":{"type":"LineString","coordinates":[[-83.3179383,37.4772691],[-83.3179106,37.4772049],[-83.3177939,37.4771464],[-83.3176316,37.4770942],[-83.3174264,37.4770559],[-83.3172333,37.4770538],[-83.3170348,37.4770772],[-83.316898,37.4770878],[-83.3167773,37.4770591],[-83.3167358,37.4770218],[-83.3166996,37.4769537]]}},{"type":"Feature","properties":{"osm_id":16109594,"highway":"residential","name":"Hayes Branch Road","alt_name":null,"official_name":null,"surface":null,"tracktype":null,"service":null,"access":null,"motor_vehicle":null,"foot":null,"tiger_reviewed":"no","rrgh_part":0,"rrgh_tile_part":0},"geometry":{"type":"LineString","coordinates":[[-83.311562,37.483267],[-83.31157,37.483312],[-83.311584,37.483351],[-83.31174,37.483682],[-83.311798,37.483826],[-83.311821,37.483899],[-83.31184,37.483976],[-83.311853,37.48406],[-83.311843,37.48422],[-83.311825,37.484388],[-83.311833,37.48445],[-83.311821,37.484501],[-83.31179,37.484541],[-83.311763,37.484596],[-83.311742,37.484667],[-83.311681,37.484789],[-83.311637,37.484836],[-83.311604,37.484902],[-83.311535,37.485057],[-83.311495,37.48518],[-83.311486,37.485261],[-83.311442,37.485473],[-83.311422,37.485606],[-83.311402,37.486025],[-83.311382,37.486233],[-83.311363,37.486374],[-83.31133,37.486527],[-83.31129,37.48668],[-83.311241,37.486809],[-83.311199,37.486936],[-83.311169,37.48707],[-83.311135,37.487196],[-83.311097,37.487647],[-83.31108,37.48778],[-83.311046,37.487909],[-83.311026,37.487971],[-83.311,37.488032],[-83.310972,37.488111],[-83.310942,37.488173],[-83.310908,37.488232],[-83.310871,37.488287],[-83.310829,37.488336],[-83.310743,37.488413],[-83.310623,37.488487],[-83.310497,37.488584],[-83.310421,37.488632]]}},{"type":"Feature","properties":{"osm_id":16112349,"highway":"residential","name":"Hayse Branch Road","alt_name":null,"official_name":null,"surface":null,"tracktype":null,"service":null,"access":null,"motor_vehicle":null,"foot":null,"tiger_reviewed":"no","rrgh_part":0,"rrgh_tile_part":0},"geometry":{"type":"LineString","coordinates":[[-83.310421,37.488632],[-83.310351,37.488684],[-83.310131,37.488839],[-83.310057,37.488886],[-83.309915,37.488986],[-83.309777,37.489092],[-83.309657,37.489205],[-83.309545,37.489325],[-83.309492,37.489377],[-83.309435,37.489425],[-83.309374,37.489482],[-83.309249,37.48956],[-83.309176,37.4896],[-83.309097,37.489637],[-83.309012,37.489672],[-83.308836,37.489737],[-83.308749,37.489766],[-83.308491,37.48983],[-83.308337,37.48985],[-83.308277,37.489861],[-83.308103,37.489901],[-83.307902,37.489941],[-83.30783,37.489959],[-83.307736,37.489978],[-83.307569,37.490037],[-83.307175,37.490328],[-83.307124,37.490377],[-83.30631,37.490857],[-83.306238,37.490884],[-83.306088,37.490927],[-83.305958,37.490977],[-83.305891,37.491007],[-83.305754,37.491054],[-83.305694,37.491084],[-83.305573,37.491129],[-83.305524,37.491154],[-83.305436,37.491192],[-83.305366,37.491208]]}},{"type":"Feature","properties":{"osm_id":16114427,"highway":"residential","name":"Big Branch Road","alt_name":null,"official_name":null,"surface":null,"tracktype":null,"service":null,"access":null,"motor_vehicle":null,"foot":null,"tiger_reviewed":"no","rrgh_part":0,"rrgh_tile_part":0},"geometry":{"type":"LineString","coordinates":[[-83.328209,37.5018294],[-83.3284628,37.5018825],[-83.3285978,37.5019145],[-83.328701,37.501964],[-83.328801,37.502022],[-83.328863,37.502054],[-83.329018,37.502117],[-83.32941,37.502251],[-83.329477,37.502279],[-83.329543,37.502311],[-83.329675,37.502382],[-83.329747,37.502416],[-83.329824,37.502443],[-83.329904,37.502463],[-83.330154,37.502512],[-83.3302694,37.5025269],[-83.330324,37.502532],[-83.330411,37.502527],[-83.330847,37.502542],[-83.330927,37.50255],[-83.330997,37.502552],[-83.331073,37.502569],[-83.33114,37.502579],[-83.331201,37.502581],[-83.331265,37.502577],[-83.33133,37.502562],[-83.331393,37.502535],[-83.331452,37.502499],[-83.331507,37.50247],[-83.331562,37.502434],[-83.33162,37.502406],[-83.331684,37.50239],[-83.331752,37.502387],[-83.331887,37.502392],[-83.331985,37.502383]]}},{"type":"Feature","properties":{"osm_id":16117544,"highway":"residential","name":"Mill Bend Lane","alt_name":null,"official_name":null,"surface":null,"tracktype":null,"service":null,"access":null,"motor_vehicle":null,"foot":null,"tiger_reviewed":"no","rrgh_part":0,"rrgh_tile_part":0},"geometry":{"type":"LineString","coordinates":[[-83.297295,37.46626],[-83.297374,37.46618],[-83.297498,37.466068],[-83.297785,37.465786],[-83.297818,37.46574],[-83.29784,37.465691],[-83.29785,37.465641],[-83.297853,37.465588],[-83.297848,37.465532],[-83.297823,37.465409],[-83.29776,37.465162],[-83.297703,37.464968],[-83.297676,37.464831],[-83.297666,37.464686],[-83.29767,37.46454],[-83.29768,37.464399],[-83.297682,37.464263],[-83.29767,37.464135],[-83.297658,37.464075],[-83.29764,37.464018],[-83.297527,37.463744],[-83.297472,37.463632],[-83.29744,37.463578],[-83.297363,37.463481],[-83.297252,37.463363],[-83.297144,37.463256]]}},{"type":"Feature","properties":{"osm_id":16113924,"highway":"residential","name":"Nix Branch Road","alt_name":null,"official_name":null,"surface":null,"tracktype":null,"service":null,"access":null,"motor_vehicle":null,"foot":null,"tiger_reviewed":"no","rrgh_part":0,"rrgh_tile_part":0},"geometry":{"type":"LineString","coordinates":[[-83.25695,37.467167],[-83.256638,37.467205],[-83.256278,37.467217],[-83.255858,37.467208],[-83.255546,37.467192],[-83.255208,37.467242],[-83.25499,37.467295],[-83.254759,37.467367],[-83.254578,37.467411],[-83.254457,37.467437],[-83.254391,37.46744],[-83.254325,37.467425],[-83.254135,37.467354],[-83.253851,37.467213],[-83.253604,37.467084],[-83.253419,37.466996],[-83.253266,37.466936],[-83.252915,37.46684],[-83.252082,37.466602],[-83.251797,37.466569],[-83.251555,37.466562],[-83.25123,37.466584],[-83.250797,37.466594],[-83.250312,37.466587],[-83.250118,37.466555],[-83.25,37.466513427046266]]}},{"type":"Feature","properties":{"osm_id":16106899,"highway":"residential","name":"Spring Fork Road","alt_name":null,"official_name":null,"surface":null,"tracktype":null,"service":null,"access":null,"motor_vehicle":null,"foot":null,"tiger_reviewed":"no","rrgh_part":0,"rrgh_tile_part":0},"geometry":{"type":"LineString","coordinates":[[-83.2843863,37.4567248],[-83.2838159,37.4568212],[-83.2832322,37.4568921],[-83.2829647,37.4569519],[-83.2827598,37.4570854],[-83.2826264,37.457156]]}},{"type":"Feature","properties":{"osm_id":16115283,"highway":"residential","name":"John Henry Road","alt_name":null,"official_name":null,"surface":null,"tracktype":null,"service":null,"access":null,"motor_vehicle":null,"foot":null,"tiger_reviewed":"no","rrgh_part":0,"rrgh_tile_part":0},"geometry":{"type":"LineString","coordinates":[[-83.280386,37.460705],[-83.280453,37.460758],[-83.280479,37.460784],[-83.280505,37.46082],[-83.280524,37.460867],[-83.280558,37.461053],[-83.28058,37.461125],[-83.280609,37.461202],[-83.280647,37.461279],[-83.280791,37.461512],[-83.280896,37.461666],[-83.280934,37.461744],[-83.281032,37.461888],[-83.281123,37.462037],[-83.281224,37.462213],[-83.281266,37.462304],[-83.281327,37.462489],[-83.281367,37.462577],[-83.281414,37.462662],[-83.281465,37.462741],[-83.28152,37.462812],[-83.281579,37.462876],[-83.281642,37.46293],[-83.281708,37.462977],[-83.281782,37.463017],[-83.281866,37.463051],[-83.281953,37.463077],[-83.282044,37.463093],[-83.28215,37.463099],[-83.282262,37.463099],[-83.282368,37.463094],[-83.282698,37.463063],[-83.282923,37.463031],[-83.283301,37.462994],[-83.283437,37.462986],[-83.284316,37.462954],[-83.284933,37.462937],[-83.285229,37.462946],[-83.285685,37.462955],[-83.285982,37.462975],[-83.286133,37.462981],[-83.286432,37.462987],[-83.28673,37.463],[-83.286879,37.463014],[-83.287026,37.463035],[-83.287169,37.463061],[-83.287304,37.463092],[-83.287446,37.46312],[-83.287741,37.463173],[-83.287882,37.463206],[-83.288017,37.463245],[-83.288289,37.463331],[-83.288426,37.463382],[-83.288563,37.463438],[-83.288826,37.463562],[-83.289081,37.463677],[-83.28935,37.463788],[-83.289709,37.463922],[-83.289829,37.463962],[-83.289952,37.463992],[-83.2904823,37.4640875],[-83.290678,37.4641085],[-83.2907792,37.4641056],[-83.2908782,37.4640959],[-83.2909835,37.4640606],[-83.2911922,37.46396],[-83.2912612,37.46392],[-83.2913232,37.463877],[-83.2914046,37.4637703],[-83.2914483,37.4637094],[-83.2916074,37.4634263],[-83.2916718,37.4632575],[-83.291704,37.463132],[-83.29173,37.463056]]}},{"type":"Feature","properties":{"osm_id":1092494115,"highway":"service","name":null,"alt_name":null,"official_name":null,"surface":null,"tracktype":null,"service":null,"access":null,"motor_vehicle":null,"foot":null,"tiger_reviewed":null,"rrgh_part":0,"rrgh_tile_part":0},"geometry":{"type":"LineString","coordinates":[[-83.2924739,37.4619978],[-83.2925557,37.4621436],[-83.2925637,37.4622096]]}},{"type":"Feature","properties":{"osm_id":1092494116,"highway":"service","name":null,"alt_name":null,"official_name":null,"surface":null,"tracktype":null,"service":null,"access":null,"motor_vehicle":null,"foot":null,"tiger_reviewed":null,"rrgh_part":0,"rrgh_tile_part":0},"geometry":{"type":"LineString","coordinates":[[-83.2928815,37.4619882],[-83.2928078,37.4620861],[-83.2926978,37.46215],[-83.2925637,37.4622096],[-83.2924055,37.4623725],[-83.292211,37.4625769],[-83.2920018,37.4627621],[-83.291814,37.4629175],[-83.2917604,37.4629814],[-83.29173,37.463056]]}},{"type":"Feature","properties":{"osm_id":16104950,"highway":"residential","name":null,"alt_name":null,"official_name":null,"surface":null,"tracktype":null,"service":null,"access":null,"motor_vehicle":null,"foot":null,"tiger_reviewed":"no","rrgh_part":0,"rrgh_tile_part":0},"geometry":{"type":"LineString","coordinates":[[-83.296902,37.466003],[-83.29679,37.466017],[-83.296747,37.466019],[-83.296703,37.466016],[-83.29655,37.465995],[-83.296497,37.465996],[-83.296443,37.466006],[-83.296075,37.466119],[-83.295886,37.466208],[-83.295853,37.466229],[-83.29582,37.466256],[-83.295789,37.466291],[-83.295752,37.466366],[-83.295741,37.466421],[-83.295752,37.46646],[-83.295776,37.466502],[-83.295814,37.466539],[-83.295982,37.466672],[-83.296009,37.466704],[-83.296021,37.46674],[-83.296015,37.466774],[-83.295994,37.466802],[-83.295963,37.466823],[-83.295925,37.466837],[-83.295889,37.466842],[-83.295843,37.466843]]}},{"type":"Feature","properties":{"osm_id":16104868,"highway":"residential","name":null,"alt_name":null,"official_name":null,"surface":null,"tracktype":null,"service":null,"access":null,"motor_vehicle":null,"foot":null,"tiger_reviewed":"no","rrgh_part":0,"rrgh_tile_part":0},"geometry":{"type":"LineString","coordinates":[[-83.287049,37.464368],[-83.287005,37.464429],[-83.28693,37.464515],[-83.286783,37.464649],[-83.286534,37.464885],[-83.286303,37.465084],[-83.28622,37.465167],[-83.286061,37.465303],[-83.286004,37.46534],[-83.285923,37.465377],[-83.285707,37.465424],[-83.285631,37.465435],[-83.2856,37.465429],[-83.285572,37.465416],[-83.285544,37.465396],[-83.285534,37.465366],[-83.285531,37.465278],[-83.285535,37.465239],[-83.285551,37.465163],[-83.285578,37.465082],[-83.285597,37.465042],[-83.28561,37.464999],[-83.285633,37.464889]]}},{"type":"Feature","properties":{"osm_id":16116493,"highway":"residential","name":"Reed Hudson Drive","alt_name":null,"official_name":null,"surface":null,"tracktype":null,"service":null,"access":null,"motor_vehicle":null,"foot":null,"tiger_reviewed":"no","rrgh_part":0,"rrgh_tile_part":0},"geometry":{"type":"LineString","coordinates":[[-83.287187,37.464408],[-83.287131,37.464516],[-83.287073,37.464644],[-83.287024,37.464704],[-83.286995,37.46473],[-83.286925,37.464773],[-83.286759,37.464857],[-83.286717,37.464885],[-83.286673,37.464909],[-83.286591,37.464965],[-83.286516,37.465033],[-83.286412,37.465118],[-83.286381,37.465149],[-83.286295,37.465263],[-83.286252,37.465337],[-83.286236,37.465376],[-83.286215,37.465453],[-83.286206,37.465646],[-83.286198,37.4657],[-83.286185,37.465753],[-83.286149,37.465857],[-83.286124,37.465906],[-83.28609,37.465949],[-83.286045,37.465983],[-83.285999,37.466001],[-83.28595,37.466009],[-83.285791,37.466017],[-83.28573,37.466024],[-83.285672,37.466036],[-83.285527,37.466075],[-83.28527,37.466136]]}},{"type":"Feature","properties":{"osm_id":16106896,"highway":"residential","name":"Spring Fork Road","alt_name":null,"official_name":null,"surface":null,"tracktype":null,"service":null,"access":null,"motor_vehicle":null,"foot":null,"tiger_reviewed":"no","rrgh_part":0,"rrgh_tile_part":0},"geometry":{"type":"LineString","coordinates":[[-83.281267,37.454648],[-83.281405,37.454492],[-83.281472,37.454423],[-83.281496,37.454379],[-83.281501,37.454339],[-83.281485,37.454269],[-83.281481,37.454159],[-83.281521,37.454032],[-83.281593,37.453901],[-83.28179,37.453708],[-83.28201,37.453476],[-83.28221,37.453259],[-83.282319,37.453114],[-83.282361,37.453],[-83.282389,37.452734],[-83.282403,37.452477],[-83.282399,37.452225],[-83.282416,37.452097],[-83.28245,37.45205],[-83.28249,37.452011],[-83.282601,37.451942],[-83.282636,37.451876],[-83.282646,37.451819],[-83.282639,37.451773],[-83.282616,37.45173],[-83.282559,37.451682],[-83.282485,37.451596],[-83.282472,37.451534],[-83.282508,37.451469],[-83.282561,37.451426],[-83.282598,37.451379],[-83.282625,37.451302],[-83.282647,37.451198],[-83.28268,37.451103]]}},{"type":"Feature","properties":{"osm_id":16114829,"highway":"residential","name":"Barge Creek Road","alt_name":null,"official_name":null,"surface":null,"tracktype":null,"service":null,"access":null,"motor_vehicle":null,"foot":null,"tiger_reviewed":"no","rrgh_part":0,"rrgh_tile_part":0},"geometry":{"type":"LineString","coordinates":[[-83.275327,37.451137],[-83.275494,37.451211],[-83.275641,37.451294],[-83.275745,37.451368],[-83.275799,37.451416],[-83.275822,37.451441],[-83.275857,37.4515],[-83.275894,37.451579],[-83.275912,37.451626],[-83.27592,37.451677],[-83.275916,37.451744],[-83.27592,37.451787],[-83.275933,37.451829],[-83.275959,37.451864],[-83.275989,37.451891],[-83.276024,37.451911],[-83.276104,37.451945],[-83.276183,37.451989],[-83.27625,37.452022],[-83.276326,37.452045],[-83.276406,37.452057],[-83.276488,37.45206],[-83.276577,37.452068],[-83.27666,37.452065],[-83.276739,37.452078],[-83.276812,37.452099],[-83.276883,37.452128],[-83.276951,37.452169],[-83.277048,37.452295],[-83.27717,37.452487],[-83.277212,37.452542],[-83.277261,37.452595],[-83.277317,37.452646],[-83.277383,37.452693],[-83.277456,37.452732],[-83.277612,37.452806],[-83.277692,37.452849],[-83.277856,37.452945],[-83.278019,37.45305],[-83.278175,37.45316],[-83.278382,37.453313],[-83.278449,37.453354],[-83.278521,37.453387],[-83.278599,37.453411],[-83.278687,37.453427],[-83.278882,37.453453],[-83.2790678,37.4535033],[-83.279182,37.453544],[-83.279369,37.453629],[-83.279459,37.453674],[-83.279543,37.453723],[-83.279687,37.453817],[-83.279756,37.453852],[-83.279902,37.453914],[-83.279984,37.453942],[-83.280072,37.453968],[-83.280437,37.454053],[-83.280523,37.454077],[-83.280605,37.454109],[-83.280682,37.454149],[-83.280754,37.454195],[-83.28089,37.454297],[-83.280951,37.454351],[-83.281118,37.454516],[-83.281267,37.454648],[-83.281368,37.45475],[-83.281489,37.454893],[-83.281546,37.454967],[-83.281598,37.455047],[-83.281646,37.455131],[-83.281754,37.455306],[-83.281929,37.455574],[-83.282098,37.455841],[-83.282274,37.456107],[-83.282373,37.456278],[-83.282413,37.456361],[-83.282445,37.456445],[-83.28249,37.456614],[-83.282506,37.456695],[-83.282527,37.456766],[-83.282602,37.456949],[-83.2826342,37.457053],[-83.2826264,37.457156],[-83.282534,37.457278],[-83.282409,37.457458],[-83.282378,37.457541],[-83.282367,37.457653],[-83.282377,37.457794],[-83.282357,37.457962],[-83.282309,37.458098],[-83.282211,37.458324],[-83.282098,37.458552],[-83.28199,37.458791],[-83.281862,37.459035],[-83.281741,37.459297],[-83.281677,37.459374],[-83.281492,37.459542],[-83.281387,37.459624],[-83.281293,37.459704],[-83.281205,37.459794],[-83.281059,37.459992],[-83.280981,37.460086],[-83.280893,37.460174],[-83.2807,37.460334],[-83.28061,37.460413],[-83.28053,37.460492],[-83.280462,37.460572],[-83.280386,37.460705],[-83.280274,37.460867],[-83.280227,37.460947],[-83.280187,37.461036],[-83.280164,37.461132],[-83.280159,37.461234],[-83.280175,37.461338],[-83.280213,37.461442],[-83.28027,37.461545],[-83.280339,37.461647],[-83.280417,37.461747],[-83.280507,37.461844],[-83.280693,37.462033],[-83.280781,37.462132],[-83.280866,37.462232],[-83.280886,37.462268],[-83.280902,37.462304],[-83.280929,37.462449],[-83.280955,37.462618],[-83.280962,37.462808],[-83.280948,37.462966],[-83.280948,37.46306],[-83.280953,37.463102],[-83.281003,37.463193],[-83.281171,37.463445],[-83.281214,37.463519],[-83.281225,37.463588],[-83.281207,37.463655],[-83.281175,37.463705],[-83.281115,37.463745],[-83.28103,37.463791],[-83.280533,37.464013],[-83.280268,37.464141],[-83.280138,37.464213],[-83.28001,37.46429],[-83.279886,37.464374],[-83.279534,37.464646],[-83.279419,37.464762],[-83.279337,37.464861],[-83.279261,37.464938],[-83.27914,37.465049],[-83.278965,37.465248],[-83.278743,37.465553],[-83.278675,37.465638],[-83.278622,37.465747],[-83.278581,37.465859],[-83.278548,37.465971],[-83.278525,37.466082],[-83.278513,37.466189],[-83.278507,37.466381],[-83.278501,37.466461],[-83.278481,37.466592],[-83.278455,37.46665],[-83.27835,37.466837],[-83.278301,37.466974],[-83.278301,37.467038],[-83.278286,37.46711],[-83.278282,37.467167],[-83.278278,37.467249],[-83.278281,37.467273],[-83.278272,37.467336],[-83.278261,37.467381],[-83.278158,37.467707],[-83.278081,37.467905],[-83.278068,37.467982],[-83.278045,37.468057],[-83.278015,37.468129],[-83.277978,37.468192],[-83.277935,37.468251],[-83.277799,37.46846],[-83.277789,37.468531],[-83.277804,37.468598],[-83.277842,37.468657],[-83.277899,37.468703],[-83.277967,37.468734],[-83.278044,37.468743],[-83.278121,37.468728],[-83.278192,37.46869],[-83.278257,37.468636],[-83.278317,37.468573],[-83.278432,37.468431],[-83.278481,37.468363],[-83.27853,37.468287],[-83.278573,37.468211],[-83.278638,37.468116],[-83.27865,37.468074],[-83.278697,37.468013],[-83.278759,37.46796],[-83.278834,37.467918],[-83.278921,37.467886],[-83.279312,37.467773],[-83.279354,37.467759],[-83.279465,37.467709]]}},{"type":"Feature","properties":{"osm_id":16111680,"highway":"residential","name":"Callie Lane","alt_name":null,"official_name":null,"surface":null,"tracktype":null,"service":null,"access":null,"motor_vehicle":null,"foot":null,"tiger_reviewed":"no","rrgh_part":0,"rrgh_tile_part":0},"geometry":{"type":"LineString","coordinates":[[-83.263663,37.452837],[-83.263696,37.452896],[-83.263721,37.452937],[-83.263731,37.452965],[-83.263732,37.452978],[-83.263729,37.45301],[-83.263702,37.453138],[-83.263686,37.453262],[-83.26367,37.453346],[-83.263655,37.453515]]}},{"type":"Feature","properties":{"osm_id":16110299,"highway":"residential","name":"Tina Jean Drive","alt_name":null,"official_name":null,"surface":null,"tracktype":null,"service":null,"access":null,"motor_vehicle":null,"foot":null,"tiger_reviewed":"no","rrgh_part":0,"rrgh_tile_part":0},"geometry":{"type":"LineString","coordinates":[[-83.263417,37.453521],[-83.263407,37.453426],[-83.263405,37.453333],[-83.263435,37.453172],[-83.263442,37.453103],[-83.263442,37.453071],[-83.263437,37.453038],[-83.263423,37.453008],[-83.263356,37.452914],[-83.263321,37.452844],[-83.263277,37.452694],[-83.263254,37.45253],[-83.263255,37.452493]]}},{"type":"Feature","properties":{"osm_id":16106095,"highway":"residential","name":null,"alt_name":null,"official_name":null,"surface":null,"tracktype":null,"service":null,"access":null,"motor_vehicle":null,"foot":null,"tiger_reviewed":"no","rrgh_part":0,"rrgh_tile_part":0},"geometry":{"type":"LineString","coordinates":[[-83.263598,37.458184],[-83.263568,37.458097],[-83.263387,37.457558],[-83.263338,37.457301],[-83.263769,37.456873],[-83.264071,37.456213]]}},{"type":"Feature","properties":{"osm_id":16113218,"highway":"residential","name":"Nix Bridge","alt_name":null,"official_name":null,"surface":null,"tracktype":null,"service":null,"access":null,"motor_vehicle":null,"foot":null,"tiger_reviewed":"no","rrgh_part":0,"rrgh_tile_part":0},"geometry":{"type":"LineString","coordinates":[[-83.269342,37.464831],[-83.269359,37.464818],[-83.269412,37.464763],[-83.269486,37.464676],[-83.269524,37.464626],[-83.269562,37.464572],[-83.269667,37.46439],[-83.269729,37.464207],[-83.269754,37.464072],[-83.269742,37.463946],[-83.269732,37.46388],[-83.269664,37.463682],[-83.269626,37.463614],[-83.269456,37.463351],[-83.269407,37.463283],[-83.269355,37.463216],[-83.26924,37.46309],[-83.26914,37.462974],[-83.269104,37.462921],[-83.269009,37.462737],[-83.26897,37.462669],[-83.268923,37.462604],[-83.268866,37.462541],[-83.268804,37.462482],[-83.268608,37.462312],[-83.268482,37.462218],[-83.268365,37.462152],[-83.268013,37.461905],[-83.267779,37.461768],[-83.267256,37.461432],[-83.267083,37.461339],[-83.266925,37.461213],[-83.26676,37.461053],[-83.26661,37.460781],[-83.26648,37.460648],[-83.266219,37.460372],[-83.26615,37.460296],[-83.266095,37.460226],[-83.266047,37.460155],[-83.266014,37.460076],[-83.26598,37.460013],[-83.26594,37.459954],[-83.265773,37.459682],[-83.265721,37.459617],[-83.265676,37.459549],[-83.265623,37.459491],[-83.265559,37.459442],[-83.265488,37.459401],[-83.265333,37.459338],[-83.265264,37.459297],[-83.265203,37.459252],[-83.265148,37.459205],[-83.265102,37.459157],[-83.265063,37.459109],[-83.265028,37.45906],[-83.264975,37.458959],[-83.2649,37.458741],[-83.264875,37.458693],[-83.264857,37.458644],[-83.264804,37.458555],[-83.264757,37.458524],[-83.264703,37.458499],[-83.264638,37.458491],[-83.264565,37.458499],[-83.264417,37.458539],[-83.264283,37.458588],[-83.264169,37.458646],[-83.2640398,37.4587217],[-83.2639544,37.4587426],[-83.2638983,37.458744],[-83.2638562,37.4587257],[-83.2638155,37.4586815]]}},{"type":"Feature","properties":{"osm_id":1092492445,"highway":"residential","name":"Nix Bridge","alt_name":null,"official_name":null,"surface":null,"tracktype":null,"service":null,"access":null,"motor_vehicle":null,"foot":null,"tiger_reviewed":null,"rrgh_part":0,"rrgh_tile_part":0},"geometry":{"type":"LineString","coordinates":[[-83.2637165,37.4585102],[-83.263674,37.458391],[-83.263632,37.458268],[-83.263598,37.458184]]}},{"type":"Feature","properties":{"osm_id":1092492446,"highway":"residential","name":"Nix Bridge","alt_name":null,"official_name":null,"surface":null,"tracktype":null,"service":null,"access":null,"motor_vehicle":null,"foot":null,"tiger_reviewed":null,"rrgh_part":0,"rrgh_tile_part":0},"geometry":{"type":"LineString","coordinates":[[-83.2638155,37.4586815],[-83.2637165,37.4585102]]}},{"type":"Feature","properties":{"osm_id":1092491415,"highway":"service","name":null,"alt_name":null,"official_name":null,"surface":null,"tracktype":null,"service":null,"access":null,"motor_vehicle":null,"foot":null,"tiger_reviewed":null,"rrgh_part":0,"rrgh_tile_part":0},"geometry":{"type":"LineString","coordinates":[[-83.2795948,37.4659234],[-83.2797129,37.4659673]]}},{"type":"Feature","properties":{"osm_id":1092491416,"highway":"service","name":null,"alt_name":null,"official_name":null,"surface":null,"tracktype":null,"service":null,"access":null,"motor_vehicle":null,"foot":null,"tiger_reviewed":null,"rrgh_part":0,"rrgh_tile_part":0},"geometry":{"type":"LineString","coordinates":[[-83.2803365,37.4653608],[-83.2801102,37.4653448],[-83.2799211,37.4654233],[-83.2797721,37.4656033],[-83.2796757,37.465765],[-83.2796399,37.4658448],[-83.2796261,37.4658757],[-83.2795948,37.4659234],[-83.279584,37.4659399],[-83.2794571,37.4661333]]}},{"type":"Feature","properties":{"osm_id":16107235,"highway":"residential","name":"Andrew Road","alt_name":null,"official_name":null,"surface":null,"tracktype":null,"service":null,"access":null,"motor_vehicle":null,"foot":null,"tiger_reviewed":"no","rrgh_part":0,"rrgh_tile_part":0},"geometry":{"type":"LineString","coordinates":[[-83.268917,37.475547],[-83.268996,37.475619],[-83.269073,37.475685],[-83.269132,37.475728],[-83.269267,37.475819],[-83.26951,37.475974],[-83.26959,37.476029],[-83.269663,37.476086],[-83.269797,37.476198],[-83.269859,37.476254],[-83.269991,37.47636],[-83.270143,37.476465],[-83.270219,37.476523],[-83.270398,37.476631],[-83.27049,37.476692],[-83.270585,37.476745],[-83.270683,37.476795],[-83.270784,37.476842],[-83.270886,37.476881],[-83.271097,37.476942],[-83.271209,37.476971],[-83.271432,37.477021],[-83.271775,37.477055],[-83.271886,37.47706],[-83.271994,37.477056],[-83.272099,37.477044],[-83.272201,37.477027],[-83.272402,37.476985],[-83.272503,37.476967],[-83.272604,37.47694],[-83.272709,37.476917],[-83.272817,37.476903],[-83.273044,37.476881],[-83.273162,37.476874],[-83.273513,37.476876],[-83.273626,37.476872],[-83.273733,37.47686],[-83.273842,37.476838],[-83.274054,37.476786],[-83.274152,37.476765],[-83.27433,37.476729],[-83.274403,37.476717],[-83.274464,37.476711],[-83.27452,37.476711],[-83.274572,37.476719],[-83.274618,37.476733],[-83.274656,37.476749]]}},{"type":"Feature","properties":{"osm_id":16108903,"highway":"residential","name":"Stacy Lane","alt_name":null,"official_name":null,"surface":null,"tracktype":null,"service":null,"access":null,"motor_vehicle":null,"foot":null,"tiger_reviewed":"no","rrgh_part":0,"rrgh_tile_part":0},"geometry":{"type":"LineString","coordinates":[[-83.267046,37.469351],[-83.267087,37.469241],[-83.267092,37.469166],[-83.26709,37.469059],[-83.267113,37.468943],[-83.267132,37.468891],[-83.267159,37.468781],[-83.267166,37.468702],[-83.267172,37.468685],[-83.267185,37.468668],[-83.267216,37.468658],[-83.267251,37.468659],[-83.26728,37.468669],[-83.267303,37.468688],[-83.267318,37.468713],[-83.267365,37.468816],[-83.267387,37.46885],[-83.267413,37.468873],[-83.26744,37.468884],[-83.267465,37.468882],[-83.267486,37.468869],[-83.267497,37.468848],[-83.267501,37.46882],[-83.267499,37.468785],[-83.267443,37.468552],[-83.267442,37.468499],[-83.267445,37.468442],[-83.26748,37.468267],[-83.267495,37.468108],[-83.267495,37.468058],[-83.267485,37.467978]]}},{"type":"Feature","properties":{"osm_id":16108982,"highway":"residential","name":"Steamshovel Road","alt_name":null,"official_name":null,"surface":null,"tracktype":null,"service":null,"access":null,"motor_vehicle":null,"foot":null,"tiger_reviewed":"no","rrgh_part":0,"rrgh_tile_part":0},"geometry":{"type":"LineString","coordinates":[[-83.267894,37.471795],[-83.26786,37.47136],[-83.267859,37.471328],[-83.267866,37.471293],[-83.267864,37.471219],[-83.267845,37.470978],[-83.267868,37.470719],[-83.267893,37.470541],[-83.267914,37.470266],[-83.267913,37.470201],[-83.267921,37.470171],[-83.267937,37.470152],[-83.267962,37.470159],[-83.267997,37.47019],[-83.268107,37.470373],[-83.268156,37.470474],[-83.268214,37.470701],[-83.268241,37.470893],[-83.268282,37.471036],[-83.268313,37.47112],[-83.268327,37.471172],[-83.268341,37.471253],[-83.268353,37.471286],[-83.268354,37.471315],[-83.268365,37.471345],[-83.268383,37.471375],[-83.268436,37.471427],[-83.268468,37.471447],[-83.268642,37.471515],[-83.268817,37.471576],[-83.268859,37.471587],[-83.268924,37.471599],[-83.269082,37.471609],[-83.269111,37.471618],[-83.269131,37.471632],[-83.269143,37.471651],[-83.269149,37.471673]]}},{"type":"Feature","properties":{"osm_id":16109716,"highway":"residential","name":"Russell Branch Road","alt_name":null,"official_name":null,"surface":null,"tracktype":null,"service":null,"access":null,"motor_vehicle":null,"foot":null,"tiger_reviewed":"no","rrgh_part":0,"rrgh_tile_part":0},"geometry":{"type":"LineString","coordinates":[[-83.2693801,37.4752291],[-83.2693009,37.4752823],[-83.269233,37.475319],[-83.26918,37.475358],[-83.268917,37.475547],[-83.268764,37.475657],[-83.268543,37.475805],[-83.2683,37.475952],[-83.26817,37.476023],[-83.267897,37.476163],[-83.26746,37.476365],[-83.267322,37.476437],[-83.26719,37.476512],[-83.26694,37.476663],[-83.26659,37.476867],[-83.266368,37.476976],[-83.266119,37.477071],[-83.266058,37.4771],[-83.266008,37.477131],[-83.265966,37.477162],[-83.26593,37.477199],[-83.265863,37.477288],[-83.26584,37.477342],[-83.26582,37.477402],[-83.265788,37.477536],[-83.265777,37.477608],[-83.26577,37.477683],[-83.265761,37.477889],[-83.265751,37.477948],[-83.265736,37.478004],[-83.26571,37.478058],[-83.265678,37.478112],[-83.265592,37.478239],[-83.265374,37.478591],[-83.265299,37.478734],[-83.265199,37.47895],[-83.265151,37.479034],[-83.265119,37.479101],[-83.265075,37.47917],[-83.265024,37.479238],[-83.264917,37.479363],[-83.264874,37.479428],[-83.264838,37.479499],[-83.264742,37.47973],[-83.264636,37.479963],[-83.264599,37.48003],[-83.264561,37.480085],[-83.26449,37.480169],[-83.264424,37.480264],[-83.264361,37.480395],[-83.264323,37.480464],[-83.264276,37.480527],[-83.264219,37.480582],[-83.264161,37.480625],[-83.264093,37.480664],[-83.26384,37.480777],[-83.263738,37.480826],[-83.26365,37.480875],[-83.263553,37.480914],[-83.263364,37.481014],[-83.263273,37.481066],[-83.263187,37.481122],[-83.262857,37.481356],[-83.262766,37.481415],[-83.262613,37.481488],[-83.262524,37.481516],[-83.262352,37.481554],[-83.26228,37.481574],[-83.262225,37.481596],[-83.262189,37.48162],[-83.262164,37.481645],[-83.26213,37.481691],[-83.262101,37.481712],[-83.262043,37.481736],[-83.261819,37.481788],[-83.26176,37.481809],[-83.261708,37.481837],[-83.261661,37.48187],[-83.261615,37.481908],[-83.261456,37.482048],[-83.261397,37.482095],[-83.26133,37.482138],[-83.26126,37.482176],[-83.26103,37.482276],[-83.260958,37.482316],[-83.260898,37.482358],[-83.260777,37.482456],[-83.260659,37.482544],[-83.260597,37.482582],[-83.260536,37.482614],[-83.26043,37.48268],[-83.260408,37.482697],[-83.26038,37.482729],[-83.260358,37.482769],[-83.260339,37.482824],[-83.260323,37.48289],[-83.260235,37.483335]]}},{"type":"Feature","properties":{"osm_id":16104932,"highway":"residential","name":null,"alt_name":null,"official_name":null,"surface":null,"tracktype":null,"service":null,"access":null,"motor_vehicle":null,"foot":null,"tiger_reviewed":"no","rrgh_part":0,"rrgh_tile_part":0},"geometry":{"type":"LineString","coordinates":[[-83.268422,37.472995],[-83.268423,37.472952],[-83.268427,37.472916],[-83.268371,37.472619],[-83.268487,37.47237]]}},{"type":"Feature","properties":{"osm_id":16107709,"highway":"residential","name":"Sister Road","alt_name":null,"official_name":null,"surface":null,"tracktype":null,"service":null,"access":null,"motor_vehicle":null,"foot":null,"tiger_reviewed":"no","rrgh_part":0,"rrgh_tile_part":0},"geometry":{"type":"LineString","coordinates":[[-83.2665792,37.4719507],[-83.266654,37.472039],[-83.266796,37.472242],[-83.266868,37.472333],[-83.266912,37.472368],[-83.266966,37.47239],[-83.267073,37.472417],[-83.267123,37.472439],[-83.267172,37.472472],[-83.267213,37.472516],[-83.267245,37.472571],[-83.267286,37.472706],[-83.267313,37.47277],[-83.267352,37.47283],[-83.267401,37.472885],[-83.267455,37.472935],[-83.267503,37.472988],[-83.267545,37.473047],[-83.26758,37.47311],[-83.267645,37.473241],[-83.267686,37.473303],[-83.267951,37.473652],[-83.268128,37.473879],[-83.268188,37.473951],[-83.268355,37.474132],[-83.268403,37.474188],[-83.26845,37.474247],[-83.268495,37.474313],[-83.268647,37.474603],[-83.268736,37.474756],[-83.268865,37.47499],[-83.268978,37.475182],[-83.269063,37.475262],[-83.269132,37.475315],[-83.26918,37.475358]]}},{"type":"Feature","properties":{"osm_id":1092492447,"highway":"residential","name":"Russell Branch Road","alt_name":null,"official_name":null,"surface":null,"tracktype":null,"service":null,"access":null,"motor_vehicle":null,"foot":null,"tiger_reviewed":null,"rrgh_part":0,"rrgh_tile_part":0},"geometry":{"type":"LineString","coordinates":[[-83.2698256,37.4749145],[-83.2693801,37.4752291]]}},{"type":"Feature","properties":{"osm_id":1092492448,"highway":"residential","name":"Russell Branch Road","alt_name":null,"official_name":null,"surface":null,"tracktype":null,"service":null,"access":null,"motor_vehicle":null,"foot":null,"tiger_reviewed":null,"rrgh_part":0,"rrgh_tile_part":0},"geometry":{"type":"LineString","coordinates":[[-83.269948,37.474831],[-83.2698256,37.4749145]]}},{"type":"Feature","properties":{"osm_id":16105438,"highway":"residential","name":null,"alt_name":null,"official_name":null,"surface":null,"tracktype":null,"service":null,"access":null,"motor_vehicle":null,"foot":null,"tiger_reviewed":"no","rrgh_part":0,"rrgh_tile_part":0},"geometry":{"type":"LineString","coordinates":[[-83.29199,37.478844],[-83.291967,37.478861],[-83.291951,37.47888],[-83.291909,37.478944],[-83.291889,37.478984],[-83.291875,37.479031],[-83.291862,37.479137],[-83.291851,37.479191],[-83.291831,37.479243],[-83.291806,37.479292],[-83.291665,37.479526],[-83.291619,37.479612],[-83.291564,37.479693],[-83.291498,37.479766],[-83.291473,37.479815],[-83.291393,37.479926]]}},{"type":"Feature","properties":{"osm_id":16106159,"highway":"residential","name":null,"alt_name":null,"official_name":null,"surface":null,"tracktype":null,"service":null,"access":null,"motor_vehicle":null,"foot":null,"tiger_reviewed":"no","rrgh_part":0,"rrgh_tile_part":0},"geometry":{"type":"LineString","coordinates":[[-83.291393,37.479926],[-83.291752,37.478356],[-83.291576,37.478]]}},{"type":"Feature","properties":{"osm_id":16107168,"highway":"residential","name":"Cedar Hill Road","alt_name":null,"official_name":null,"surface":null,"tracktype":null,"service":null,"access":null,"motor_vehicle":null,"foot":null,"tiger_reviewed":"no","rrgh_part":0,"rrgh_tile_part":0},"geometry":{"type":"LineString","coordinates":[[-83.289989,37.480795],[-83.290097,37.480852],[-83.290148,37.480882],[-83.290217,37.480916],[-83.29031,37.480956],[-83.29041,37.480983],[-83.290448,37.480986],[-83.290487,37.480983],[-83.290525,37.480973],[-83.290738,37.480838],[-83.290821,37.480778],[-83.290928,37.480684],[-83.291037,37.480565],[-83.291086,37.480525],[-83.291205,37.480377],[-83.291229,37.48034],[-83.291247,37.480303],[-83.291275,37.480213],[-83.291278,37.480161],[-83.291294,37.480111],[-83.291344,37.48002],[-83.291361,37.479978],[-83.291393,37.479926]]}},{"type":"Feature","properties":{"osm_id":16114434,"highway":"residential","name":"Nims Branch Road","alt_name":null,"official_name":null,"surface":null,"tracktype":null,"service":null,"access":null,"motor_vehicle":null,"foot":null,"tiger_reviewed":"no","rrgh_part":0,"rrgh_tile_part":0},"geometry":{"type":"LineString","coordinates":[[-83.284363,37.487369],[-83.284256,37.487239],[-83.284145,37.487106],[-83.284113,37.487078],[-83.284075,37.487056],[-83.284034,37.48704],[-83.283899,37.487006],[-83.283856,37.486987],[-83.283817,37.486961],[-83.283786,37.486926],[-83.283769,37.486887],[-83.283761,37.486846],[-83.283753,37.486765],[-83.283734,37.486728],[-83.283702,37.486696],[-83.283662,37.486669],[-83.283615,37.486645],[-83.283563,37.486623],[-83.283345,37.486545],[-83.283188,37.486478],[-83.283091,37.486433]]}},{"type":"Feature","properties":{"osm_id":16114914,"highway":"residential","name":"Ossie Road","alt_name":null,"official_name":null,"surface":null,"tracktype":null,"service":null,"access":null,"motor_vehicle":null,"foot":null,"tiger_reviewed":"no","rrgh_part":0,"rrgh_tile_part":0},"geometry":{"type":"LineString","coordinates":[[-83.286648,37.48621],[-83.286629,37.486246],[-83.286594,37.486336],[-83.286516,37.486503],[-83.286506,37.486536],[-83.286497,37.486595],[-83.286492,37.486685],[-83.286494,37.486745],[-83.2865,37.486795]]}},{"type":"Feature","properties":{"osm_id":1176581801,"highway":"unclassified","name":null,"alt_name":null,"official_name":null,"surface":null,"tracktype":null,"service":null,"access":null,"motor_vehicle":null,"foot":null,"tiger_reviewed":null,"rrgh_part":0,"rrgh_tile_part":0},"geometry":{"type":"LineString","coordinates":[[-83.2763489,37.5025302],[-83.2764997,37.5024192],[-83.2766435,37.502346],[-83.276843,37.5021945],[-83.2768709,37.5020941],[-83.2769761,37.5019545],[-83.2770533,37.5018847],[-83.2771005,37.5016804],[-83.2771649,37.5014336],[-83.2772228,37.5013638],[-83.2773108,37.501071],[-83.277446,37.5008395],[-83.2775983,37.5007476],[-83.2777207,37.5007578],[-83.2779245,37.5007544],[-83.2780768,37.5007782],[-83.2782142,37.500819],[-83.2784309,37.5009127],[-83.2785596,37.5009825],[-83.2787656,37.5010642],[-83.278918,37.5011323],[-83.2791648,37.5011442],[-83.2795832,37.5011646],[-83.2797141,37.5011868],[-83.2799329,37.5012838],[-83.2801604,37.5014404],[-83.2805037,37.5018592],[-83.2807805,37.5021298],[-83.2810959,37.502392],[-83.2813191,37.5025214],[-83.281465,37.5025265],[-83.2816195,37.502506],[-83.2822182,37.5024158],[-83.2823813,37.5024158],[-83.2825422,37.5024362],[-83.2827289,37.5024379],[-83.2828576,37.5024158],[-83.2832546,37.5023205]]}},{"type":"Feature","properties":{"osm_id":1176582454,"highway":"unclassified","name":null,"alt_name":null,"official_name":null,"surface":null,"tracktype":null,"service":null,"access":null,"motor_vehicle":null,"foot":null,"tiger_reviewed":null,"rrgh_part":0,"rrgh_tile_part":0},"geometry":{"type":"LineString","coordinates":[[-83.2664889,37.50119],[-83.2662892,37.501099],[-83.2662386,37.5009359],[-83.2661809,37.5007125],[-83.265986,37.5001714],[-83.2658453,37.4999109],[-83.2656396,37.4997019],[-83.2653076,37.4994385],[-83.2651668,37.4991178],[-83.2651271,37.4988802],[-83.2649251,37.4984107],[-83.2646724,37.4977207],[-83.2645678,37.4973857],[-83.2645245,37.4971051],[-83.2645894,37.4968875],[-83.2646291,37.4967157],[-83.2647194,37.4964953],[-83.2649467,37.4962948],[-83.2650802,37.4961918],[-83.2653401,37.4960858],[-83.2655057,37.4957397],[-83.2658456,37.4954845],[-83.2661854,37.4954122],[-83.2667195,37.4954026],[-83.2670594,37.4952581],[-83.2674235,37.4949403],[-83.2676481,37.4945407],[-83.2677149,37.4939387],[-83.2677998,37.4935054],[-83.2680972,37.493202],[-83.2683036,37.4927253],[-83.2683885,37.4924556],[-83.2683996,37.4920251],[-83.2682795,37.4916029],[-83.2679533,37.4912079],[-83.2675585,37.4906767],[-83.2674212,37.4902545],[-83.2673868,37.4897914],[-83.2674898,37.489015],[-83.2677988,37.4887289],[-83.2685541,37.4885246],[-83.2689146,37.4883339],[-83.269258,37.4880888],[-83.2703566,37.4878708],[-83.2713522,37.4879798],[-83.271691,37.4882656],[-83.2724566,37.4890107],[-83.2730486,37.4890755],[-83.2742224,37.4889459],[-83.2745694,37.4887597],[-83.2747736,37.4887111],[-83.2748144,37.4885896],[-83.2749777,37.4883547],[-83.2752227,37.4881198],[-83.2754472,37.4879336],[-83.2755391,37.4877959],[-83.275682,37.4873504],[-83.2761821,37.4867916],[-83.2764067,37.4863785],[-83.2764271,37.486014],[-83.276325,37.4854471],[-83.2763148,37.485034],[-83.2765088,37.484459],[-83.2765993,37.4844191],[-83.2767148,37.4839867],[-83.2771234,37.4836237],[-83.2777672,37.4833445],[-83.2783937,37.4830176],[-83.2787199,37.4829835],[-83.2793636,37.4826293],[-83.2798545,37.4824185],[-83.2799061,37.4824258],[-83.2799425,37.4823776],[-83.2800608,37.4823198]]}},{"type":"Feature","properties":{"osm_id":16112964,"highway":"residential","name":"Noble Creek Road","alt_name":null,"official_name":null,"surface":null,"tracktype":null,"service":null,"access":null,"motor_vehicle":null,"foot":null,"tiger_reviewed":"no","rrgh_part":0,"rrgh_tile_part":0},"geometry":{"type":"LineString","coordinates":[[-83.280165,37.492757],[-83.280416,37.493272],[-83.280448,37.493321],[-83.280559,37.493536],[-83.280578,37.493583],[-83.280591,37.493629],[-83.280597,37.493676],[-83.280598,37.493723],[-83.280589,37.493792],[-83.280597,37.493904],[-83.280599,37.49401],[-83.280665,37.494207],[-83.280732,37.494343],[-83.28076,37.494383],[-83.281425,37.495159],[-83.281511,37.495297],[-83.281544,37.495369],[-83.281609,37.495492],[-83.281639,37.49554],[-83.281674,37.495579],[-83.281764,37.495647],[-83.281854,37.495722],[-83.281949,37.495786],[-83.282076,37.495886]]}},{"type":"Feature","properties":{"osm_id":16116679,"highway":"residential","name":"Beecher Drive","alt_name":null,"official_name":null,"surface":null,"tracktype":null,"service":null,"access":null,"motor_vehicle":null,"foot":null,"tiger_reviewed":"no","rrgh_part":0,"rrgh_tile_part":0},"geometry":{"type":"LineString","coordinates":[[-83.281171,37.490996],[-83.281,37.490917],[-83.280919,37.49088],[-83.280906,37.490869],[-83.280889,37.490846],[-83.280865,37.490789],[-83.28085,37.490774],[-83.280828,37.490762],[-83.280726,37.490722]]}},{"type":"Feature","properties":{"osm_id":108836015,"highway":"residential","name":null,"alt_name":null,"official_name":null,"surface":null,"tracktype":null,"service":null,"access":null,"motor_vehicle":null,"foot":null,"tiger_reviewed":"no","rrgh_part":0,"rrgh_tile_part":0},"geometry":{"type":"LineString","coordinates":[[-83.280165,37.492757],[-83.280039,37.492852],[-83.27996,37.49291],[-83.27991,37.492941],[-83.279877,37.492957],[-83.279785,37.492996],[-83.279493,37.493099],[-83.279432,37.493138],[-83.279315,37.493204],[-83.279249,37.493231],[-83.279171,37.493256],[-83.278991,37.493305],[-83.278726,37.49336],[-83.278646,37.493385],[-83.278572,37.493412],[-83.278428,37.493473],[-83.278234,37.493524],[-83.278113,37.493539],[-83.278043,37.493552],[-83.277983,37.493574],[-83.277913,37.493615],[-83.277864,37.493659],[-83.277813,37.493696],[-83.277345,37.493945],[-83.277314,37.493959],[-83.277245,37.49398]]}},{"type":"Feature","properties":{"osm_id":1176581800,"highway":"unclassified","name":null,"alt_name":null,"official_name":null,"surface":null,"tracktype":null,"service":null,"access":null,"motor_vehicle":null,"foot":null,"tiger_reviewed":null,"rrgh_part":0,"rrgh_tile_part":0},"geometry":{"type":"LineString","coordinates":[[-83.2763489,37.5025302],[-83.2761371,37.5027103],[-83.2760401,37.502846],[-83.2753307,37.503346],[-83.2750551,37.5034999],[-83.2748025,37.5037671],[-83.2746366,37.5041821],[-83.2745754,37.5044088],[-83.2745397,37.5046132],[-83.2743075,37.5048946],[-83.2738762,37.5053217],[-83.2736006,37.5055464],[-83.2732408,37.5058015],[-83.2730852,37.5058906],[-83.2724728,37.5060161],[-83.2723018,37.5059594],[-83.2720619,37.5058987],[-83.2718221,37.5058238],[-83.2714852,37.5057064],[-83.271082,37.5055586],[-83.2707962,37.5053744],[-83.2706074,37.5051881],[-83.27049,37.5049392],[-83.2703114,37.5046517],[-83.2702451,37.5043885],[-83.2701991,37.5040869],[-83.2701864,37.5039776],[-83.2701022,37.5038217],[-83.2700486,37.50368],[-83.2700154,37.503261],[-83.2699235,37.5029978],[-83.2694387,37.5023703],[-83.2692779,37.5022225],[-83.2688186,37.5018986],[-83.2686247,37.5017042],[-83.2685379,37.5016091],[-83.2682802,37.5014957],[-83.268173,37.5014269],[-83.2681016,37.5013682],[-83.2679102,37.501269],[-83.2675981,37.50115],[-83.2675172,37.5011192],[-83.2672391,37.5011273],[-83.2664889,37.50119]]}},{"type":"Feature","properties":{"osm_id":1176614089,"highway":"unclassified","name":null,"alt_name":null,"official_name":null,"surface":null,"tracktype":null,"service":null,"access":null,"motor_vehicle":null,"foot":null,"tiger_reviewed":null,"rrgh_part":0,"rrgh_tile_part":0},"geometry":{"type":"LineString","coordinates":[[-83.2662892,37.501099],[-83.266116,37.501223],[-83.2660189,37.5013144],[-83.2658065,37.5014324],[-83.2656821,37.5015624],[-83.2653521,37.5021787],[-83.2653449,37.5029975],[-83.265215,37.503593],[-83.2652438,37.5037075],[-83.2645077,37.5040224],[-83.263757,37.5041426],[-83.2632446,37.5039938],[-83.2626961,37.5039136],[-83.2619743,37.503988],[-83.2615485,37.5041426],[-83.2613247,37.5042915],[-83.2610649,37.50424],[-83.2604153,37.5037705],[-83.2600545,37.5037018],[-83.2598524,37.5036846],[-83.2594843,37.5037819],[-83.2591018,37.5039365],[-83.258712,37.503948],[-83.2582573,37.5037819],[-83.2578315,37.503467],[-83.2575067,37.5032952],[-83.2572252,37.5032952],[-83.2570015,37.5034097],[-83.2567272,37.5035987],[-83.2565829,37.5035758],[-83.256323,37.5034899],[-83.2559477,37.5032265],[-83.2555652,37.5029173],[-83.2553126,37.5028085],[-83.2551466,37.5026539],[-83.2547857,37.5020985],[-83.2544176,37.5019325],[-83.2540827,37.5018005],[-83.2536449,37.5016031],[-83.2533102,37.5014669],[-83.2531729,37.5013171],[-83.2529411,37.5012354],[-83.2527265,37.5010175],[-83.2524004,37.5008472],[-83.2521171,37.5007315]]}},{"type":"Feature","properties":{"osm_id":16109211,"highway":"residential","name":"Smith Branch Road","alt_name":null,"official_name":null,"surface":null,"tracktype":null,"service":null,"access":null,"motor_vehicle":null,"foot":null,"tiger_reviewed":"no","rrgh_part":0,"rrgh_tile_part":0},"geometry":{"type":"LineString","coordinates":[[-83.301243,37.510754],[-83.30137,37.510799],[-83.301473,37.510854],[-83.301585,37.510937],[-83.301707,37.51104],[-83.301759,37.511104],[-83.301803,37.511148],[-83.302127,37.511425],[-83.302201,37.511514],[-83.302295,37.511657],[-83.302358,37.511733],[-83.302486,37.511824],[-83.302583,37.511874],[-83.302644,37.511894],[-83.302682,37.511927],[-83.302804,37.512105],[-83.302832,37.512151],[-83.302853,37.512202],[-83.302882,37.512311],[-83.302931,37.512659],[-83.302925,37.512801],[-83.302914,37.51286],[-83.302879,37.512967],[-83.302724,37.513274],[-83.302699,37.513334],[-83.302599,37.5135],[-83.302479,37.513674],[-83.302451,37.513735],[-83.302436,37.513797],[-83.302455,37.514069],[-83.302464,37.514141],[-83.302484,37.514217],[-83.302557,37.514425],[-83.302706,37.514768],[-83.302747,37.514908],[-83.302755,37.515047],[-83.302768,37.515104],[-83.302772,37.515381],[-83.302741,37.515468],[-83.30271,37.515517],[-83.302697,37.515572],[-83.302731,37.515753],[-83.302776,37.515871],[-83.30283,37.515952],[-83.302933,37.516073],[-83.302964,37.516127],[-83.303189,37.516337],[-83.303342,37.516505],[-83.303455,37.516601],[-83.303578,37.516689],[-83.303631,37.516735],[-83.303677,37.516784],[-83.303882,37.517053],[-83.303979,37.517152],[-83.30408,37.517232],[-83.304238,37.517331],[-83.304348,37.51738],[-83.304583,37.517462],[-83.304606,37.517494],[-83.304625,37.517543],[-83.304639,37.51762],[-83.304653,37.517662],[-83.304738,37.517835],[-83.304753,37.517994],[-83.304739,37.518051],[-83.304717,37.518105],[-83.304682,37.51815],[-83.304577,37.518379],[-83.304476,37.518572],[-83.304445,37.518652],[-83.304388,37.518914],[-83.304368,37.519025],[-83.304359,37.519128],[-83.304359,37.519175],[-83.304372,37.519218],[-83.304394,37.519254],[-83.304449,37.519311],[-83.304596,37.519436],[-83.304902,37.519742],[-83.305072,37.519925],[-83.30528,37.520128],[-83.305333,37.520173],[-83.305447,37.520256],[-83.305674,37.5204],[-83.305763,37.520463],[-83.305887,37.520607],[-83.305958,37.520672],[-83.306023,37.520722],[-83.306106,37.520773],[-83.306228,37.520825],[-83.306337,37.520881],[-83.306402,37.520925],[-83.306535,37.521055],[-83.306782,37.521366],[-83.306826,37.521459],[-83.306876,37.52154],[-83.307173,37.521926],[-83.307302,37.522057],[-83.307367,37.522142],[-83.307511,37.522256],[-83.30758,37.522287],[-83.307821,37.522448],[-83.307907,37.52252],[-83.308147,37.522652],[-83.308236,37.522686],[-83.30855,37.522781],[-83.30876,37.522856],[-83.308862,37.522902],[-83.308955,37.522953],[-83.309043,37.523008],[-83.309127,37.523071],[-83.309204,37.523149],[-83.309276,37.523244],[-83.309316,37.523336],[-83.309341,37.523421],[-83.309392,37.523537],[-83.3095,37.523918],[-83.309532,37.524],[-83.309573,37.524058],[-83.309628,37.524131],[-83.309699,37.524201],[-83.309786,37.524269],[-83.30989,37.524335],[-83.310007,37.524398],[-83.310172,37.524467],[-83.310262,37.524502],[-83.310397,37.524544],[-83.310537,37.524578],[-83.31095,37.524659],[-83.311081,37.52467],[-83.311202,37.524696],[-83.311313,37.524735],[-83.311417,37.524793],[-83.31162274545456,37.525000000000006]]}},{"type":"Feature","properties":{"osm_id":16109338,"highway":"residential","name":"Ruby Drive","alt_name":null,"official_name":null,"surface":null,"tracktype":null,"service":null,"access":null,"motor_vehicle":null,"foot":null,"tiger_reviewed":"no","rrgh_part":0,"rrgh_tile_part":0},"geometry":{"type":"LineString","coordinates":[[-83.310172,37.524467],[-83.310081,37.524488],[-83.309772,37.524587],[-83.309736,37.52461],[-83.309711,37.52464],[-83.309702,37.524695],[-83.309719,37.524726],[-83.309745,37.524753],[-83.309775,37.524777],[-83.309859,37.524819],[-83.309965,37.524855],[-83.310025,37.524865],[-83.310086,37.524871],[-83.31025,37.524873],[-83.310343,37.524881],[-83.310399,37.524892],[-83.310511,37.524922],[-83.310567,37.524943],[-83.310616,37.524966],[-83.310654,37.524991],[-83.31066444000001,37.525000000000006]]}},{"type":"Feature","properties":{"osm_id":16106451,"highway":"residential","name":null,"alt_name":null,"official_name":null,"surface":null,"tracktype":null,"service":null,"access":null,"motor_vehicle":null,"foot":null,"tiger_reviewed":"no","rrgh_part":0,"rrgh_tile_part":0},"geometry":{"type":"LineString","coordinates":[[-83.30283,37.515952],[-83.302796,37.516044],[-83.302701,37.516175],[-83.302668,37.516292],[-83.302596,37.516587],[-83.302095,37.516894],[-83.302036,37.518147],[-83.302747,37.518845]]}},{"type":"Feature","properties":{"osm_id":16114910,"highway":"residential","name":"Thomas Thorpe Cemetery Road","alt_name":null,"official_name":null,"surface":null,"tracktype":null,"service":null,"access":null,"motor_vehicle":null,"foot":null,"tiger_reviewed":"no","rrgh_part":0,"rrgh_tile_part":0},"geometry":{"type":"LineString","coordinates":[[-83.306228,37.520825],[-83.306222,37.520622],[-83.306207,37.5205],[-83.306188,37.520417],[-83.306183,37.520374],[-83.306183,37.520332],[-83.30619,37.520291],[-83.306209,37.520218],[-83.306209,37.520186],[-83.30618,37.520078],[-83.30618,37.520061],[-83.306186,37.520017],[-83.306284,37.519903]]}},{"type":"Feature","properties":{"osm_id":16115170,"highway":"residential","name":"Todd Drive","alt_name":null,"official_name":null,"surface":null,"tracktype":null,"service":null,"access":null,"motor_vehicle":null,"foot":null,"tiger_reviewed":"no","rrgh_part":0,"rrgh_tile_part":0},"geometry":{"type":"LineString","coordinates":[[-83.306228,37.520825],[-83.306211,37.520847],[-83.306193,37.520873],[-83.306159,37.520938],[-83.306153,37.520967],[-83.306157,37.520998],[-83.306166,37.521031],[-83.306197,37.521106],[-83.306244,37.52119],[-83.30644,37.521482],[-83.306465,37.521525],[-83.306486,37.521571],[-83.306541,37.52172],[-83.306592,37.521908],[-83.30667,37.522146],[-83.306681,37.522189],[-83.306712,37.522262],[-83.306726,37.522287],[-83.306757,37.522327]]}},{"type":"Feature","properties":{"osm_id":16106452,"highway":"residential","name":null,"alt_name":null,"official_name":null,"surface":null,"tracktype":null,"service":null,"access":null,"motor_vehicle":null,"foot":null,"tiger_reviewed":"no","rrgh_part":0,"rrgh_tile_part":0},"geometry":{"type":"LineString","coordinates":[[-83.303042,37.517023],[-83.302596,37.516587]]}},{"type":"Feature","properties":{"osm_id":1176614707,"highway":"unclassified","name":null,"alt_name":null,"official_name":null,"surface":null,"tracktype":null,"service":null,"access":null,"motor_vehicle":null,"foot":null,"tiger_reviewed":null,"rrgh_part":0,"rrgh_tile_part":0},"geometry":{"type":"LineString","coordinates":[[-83.2507742,37.4942708],[-83.2509983,37.4941235],[-83.2514678,37.4939048],[-83.2521619,37.493512],[-83.2522895,37.4935201],[-83.2534225,37.4931233],[-83.2536674,37.4931112],[-83.253795,37.4931557],[-83.2539328,37.493265],[-83.2542748,37.4934432],[-83.2545657,37.493431]]}},{"type":"Feature","properties":{"osm_id":1176614708,"highway":"unclassified","name":null,"alt_name":null,"official_name":null,"surface":null,"tracktype":null,"service":null,"access":null,"motor_vehicle":null,"foot":null,"tiger_reviewed":null,"rrgh_part":0,"rrgh_tile_part":0},"geometry":{"type":"LineString","coordinates":[[-83.2545657,37.493431],[-83.2548259,37.4933663],[-83.2549637,37.4931435],[-83.2549688,37.4927913],[-83.2547851,37.4925402],[-83.2545095,37.4923499]]}},{"type":"Feature","properties":{"osm_id":1176614384,"highway":"unclassified","name":null,"alt_name":null,"official_name":null,"surface":null,"tracktype":null,"service":null,"access":null,"motor_vehicle":null,"foot":null,"tiger_reviewed":null,"rrgh_part":0,"rrgh_tile_part":0},"geometry":{"type":"LineString","coordinates":[[-83.2521171,37.5007315],[-83.2519002,37.5007296],[-83.2514409,37.5007053],[-83.2508693,37.5006122],[-83.2506039,37.5005191],[-83.2502212,37.5003652],[-83.25,37.50025523563218]]}},{"type":"Feature","properties":{"osm_id":1176614567,"highway":"unclassified","name":null,"alt_name":null,"official_name":null,"surface":null,"tracktype":null,"service":null,"access":null,"motor_vehicle":null,"foot":null,"tiger_reviewed":null,"rrgh_part":0,"rrgh_tile_part":0},"geometry":{"type":"LineString","coordinates":[[-83.25,37.49412029571046],[-83.2500428,37.4941285],[-83.2506562,37.494266],[-83.2507742,37.4942708],[-83.2510099,37.4942803],[-83.2513419,37.4942889],[-83.2522694,37.4942116],[-83.2525977,37.4940827],[-83.2528468,37.4940856],[-83.2529045,37.4941543],[-83.2530524,37.4944091],[-83.2533087,37.4944721],[-83.2536551,37.4944864],[-83.2539366,37.4945408],[-83.2543155,37.4945351],[-83.2544996,37.4945122],[-83.2548568,37.4944406],[-83.2551455,37.4943605],[-83.255409,37.4942688],[-83.2556507,37.4940799],[-83.2559611,37.4938279],[-83.256192,37.4935072],[-83.2564338,37.4931636]]}}],"rrgh_tile":{"id":"r1c8","bounds":[37.45,-83.33500000000001,37.525000000000006,-83.25]}}
