{"type":"FeatureCollection","features":[{"type":"Feature","properties":{"osm_id":16212145,"highway":"residential","name":"Forest Road","alt_name":null,"official_name":null,"surface":null,"tracktype":null,"service":null,"access":null,"motor_vehicle":null,"foot":null,"tiger_reviewed":"no","rrgh_part":0,"rrgh_tile_part":0},"geometry":{"type":"LineString","coordinates":[[-83.91599448208984,37.525000000000006],[-83.9160414,37.5266885],[-83.9162091,37.5268754],[-83.9166077,37.5270416],[-83.917531,37.527092],[-83.9182586,37.5274334],[-83.9189667,37.5278314],[-83.9192845,37.5281986],[-83.918301,37.5283286]]}},{"type":"Feature","properties":{"osm_id":16269111,"highway":"track","name":"Ross Creek Road","alt_name":"Forest Road 358","official_name":null,"surface":"unpaved","tracktype":"grade4","service":null,"access":null,"motor_vehicle":null,"foot":null,"tiger_reviewed":"no","rrgh_part":0,"rrgh_tile_part":0},"geometry":{"type":"LineString","coordinates":[[-83.8966663,37.5332426],[-83.8964973,37.533383],[-83.896315,37.533517],[-83.8960952,37.533476],[-83.8957831,37.5333652],[-83.895508,37.5335329],[-83.8953306,37.5337498],[-83.8952539,37.5338975],[-83.895306,37.534227],[-83.895457,37.534639],[-83.896017,37.535326],[-83.8959801,37.535683],[-83.8957992,37.5359135],[-83.8954332,37.5362599],[-83.894985,37.5365681],[-83.8946189,37.5370591],[-83.8943918,37.537136],[-83.8937595,37.5381059],[-83.893602,37.538583],[-83.8932635,37.5387806],[-83.8930857,37.5390873],[-83.8929242,37.5393208],[-83.892771,37.539918],[-83.8928016,37.5402555],[-83.892576,37.540584],[-83.892421,37.5407868],[-83.8920418,37.5415785],[-83.891968,37.5417725],[-83.89192,37.541825],[-83.8912125,37.5425325],[-83.8909704,37.5426756],[-83.8906703,37.5429839],[-83.890556,37.5433422],[-83.8900863,37.5437119],[-83.8900017,37.5439712],[-83.8899891,37.54428],[-83.8898909,37.5446453],[-83.8896648,37.5449883],[-83.8893107,37.545399],[-83.8890715,37.5456523],[-83.888987,37.5460112],[-83.8889065,37.5462726],[-83.8886251,37.546552],[-83.889088,37.54757],[-83.88939,37.5480461],[-83.8898496,37.5485491],[-83.8900591,37.5489049],[-83.8902648,37.5493072],[-83.8904294,37.549392],[-83.890436,37.549442],[-83.8907016,37.5497746],[-83.8907798,37.5502177],[-83.8907039,37.5508262],[-83.8907856,37.5509813],[-83.8905336,37.5516242],[-83.8904083,37.5521239],[-83.8905278,37.5524583],[-83.890963,37.5528564],[-83.8910268,37.5532613],[-83.8911481,37.5535473],[-83.891294,37.5537033],[-83.8917777,37.5540061],[-83.8917113,37.554126],[-83.890882,37.554476],[-83.8904928,37.5545203],[-83.8901463,37.5546879],[-83.8899741,37.5548838],[-83.8899463,37.5551471],[-83.8897476,37.555427],[-83.8894448,37.5556605],[-83.8891879,37.5558242],[-83.8890643,37.5559436],[-83.8890825,37.5560019],[-83.8890114,37.5563384],[-83.8892601,37.5567978],[-83.88915,37.557911],[-83.888894,37.559062],[-83.888323,37.560076],[-83.88655,37.561784],[-83.885955,37.562548],[-83.885514,37.562908],[-83.885233,37.563834],[-83.884853,37.56392],[-83.883567,37.563631],[-83.882397,37.563642],[-83.881781,37.563885],[-83.881399,37.564199],[-83.881132,37.564537],[-83.881128,37.564695],[-83.881737,37.565032],[-83.882057,37.565336],[-83.881874,37.565677],[-83.881207,37.565858],[-83.881233,37.566262],[-83.8812596,37.5665708],[-83.8813574,37.5667842],[-83.8813326,37.5670385],[-83.8812519,37.5671948],[-83.881017,37.567207],[-83.8805395,37.567276],[-83.8801486,37.5676336],[-83.8798745,37.5678735],[-83.8798616,37.568155],[-83.8801416,37.5685514],[-83.8800956,37.5692085],[-83.8800068,37.57012],[-83.878755,37.570575],[-83.878642,37.570735],[-83.878102,37.571033],[-83.878082,37.571742],[-83.877204,37.572725],[-83.876923,37.573297],[-83.876817,37.573938],[-83.876949,37.575517],[-83.8774329,37.5765351],[-83.8775861,37.5773767],[-83.8773823,37.5782674],[-83.8770234,37.5787793],[-83.8765984,37.5790913],[-83.8763283,37.5793569],[-83.8762144,37.58034],[-83.8757238,37.5814603],[-83.8747537,37.5821748],[-83.8741065,37.5824997],[-83.8734401,37.5826758],[-83.8728793,37.5827313],[-83.872209,37.58306],[-83.871663,37.583396],[-83.871228,37.583947],[-83.871091,37.584368],[-83.8710919,37.5851824]]}},{"type":"Feature","properties":{"osm_id":16269312,"highway":"track","name":"Rader Ridge Road","alt_name":"CR 359","official_name":null,"surface":"unpaved","tracktype":null,"service":null,"access":null,"motor_vehicle":null,"foot":null,"tiger_reviewed":"no","rrgh_part":0,"rrgh_tile_part":0},"geometry":{"type":"LineString","coordinates":[[-83.8942141,37.5315434],[-83.8940676,37.5316608],[-83.893834,37.531837],[-83.8936113,37.53197],[-83.8934756,37.5320707],[-83.893367,37.532183],[-83.893192,37.532304],[-83.89303,37.532388],[-83.892643,37.532565],[-83.8924528,37.5326396],[-83.8922095,37.5327183],[-83.891976,37.532785],[-83.89182,37.532843],[-83.891774,37.532885],[-83.891737,37.53296],[-83.891723,37.533026],[-83.891728,37.533105],[-83.891758,37.533197],[-83.8917906,37.5332668],[-83.8917709,37.5333176],[-83.8915634,37.533595],[-83.891439,37.533693],[-83.891353,37.533732],[-83.891253,37.533743],[-83.891168,37.533764],[-83.89107,37.533805],[-83.890977,37.533886],[-83.8909351,37.5339789],[-83.8909109,37.534072],[-83.8908709,37.5342698],[-83.890799,37.534452],[-83.890742,37.534542],[-83.890627,37.53469],[-83.890472,37.534846],[-83.8904114,37.5348861],[-83.8899896,37.5350085],[-83.889891,37.535091],[-83.8897987,37.5351351],[-83.8896891,37.5352969],[-83.889556,37.535426],[-83.889182,37.535706],[-83.88905,37.535837],[-83.888966,37.535969],[-83.8889431,37.5360985],[-83.888791,37.536368],[-83.888589,37.536628],[-83.888508,37.536748],[-83.888477,37.53684],[-83.88839,37.53699],[-83.888173,37.537225],[-83.887785,37.53754],[-83.887529,37.537705],[-83.88724,37.537809],[-83.8869926,37.5378804],[-83.886841,37.537876],[-83.88662,37.537837],[-83.88651,37.537846],[-83.886445,37.537862],[-83.886234,37.537955],[-83.885781,37.538195],[-83.885636,37.538321],[-83.885365,37.538606],[-83.885149,37.538779],[-83.885069,37.53888],[-83.885001,37.538988],[-83.884967,37.53908],[-83.884931,37.539136],[-83.884731,37.539276],[-83.884612,37.539384],[-83.8843622,37.5396776],[-83.88423,37.539826],[-83.884056,37.540078],[-83.883885,37.540287],[-83.883781,37.540381],[-83.883551,37.540629],[-83.883315,37.540804],[-83.883097,37.540938],[-83.8827119,37.5411132],[-83.882464,37.541226],[-83.881862,37.541456],[-83.881355,37.541634],[-83.880975,37.541809],[-83.880611,37.541925],[-83.880425,37.541971],[-83.880048,37.541983],[-83.879931,37.541975],[-83.879815,37.54194],[-83.879718,37.541889],[-83.8796032,37.541772],[-83.879464,37.5415013],[-83.8791785,37.541172],[-83.8789599,37.5408875],[-83.8785189,37.5407064],[-83.8781313,37.5407234],[-83.8779652,37.5408661],[-83.8779055,37.5410276],[-83.8779759,37.5411062],[-83.8780249,37.5413316],[-83.8779277,37.5415606],[-83.8777582,37.5417525],[-83.8774635,37.5421381],[-83.8772945,37.5422955],[-83.8770341,37.5424116],[-83.8767319,37.5424317],[-83.8765383,37.5424988],[-83.8764336,37.5425351],[-83.8761797,37.5428002],[-83.8761779,37.5430868],[-83.8762567,37.5433502],[-83.8763097,37.5436687],[-83.8763906,37.5440299],[-83.8765409,37.5444659],[-83.8767582,37.5448196],[-83.8769765,37.5451542],[-83.8769342,37.5455531],[-83.8766037,37.5458391],[-83.876175,37.5460392],[-83.8758071,37.5464256],[-83.8756674,37.5466574],[-83.8753505,37.5469357],[-83.8749111,37.547283],[-83.8747467,37.5477216],[-83.8749072,37.5483359],[-83.8752866,37.5487437],[-83.8758575,37.549027],[-83.8766175,37.5492891],[-83.8771386,37.5495115],[-83.8774819,37.5497722],[-83.877857,37.5503251],[-83.8778699,37.5505056],[-83.877669,37.5507765],[-83.8773907,37.551079],[-83.8769484,37.5516036],[-83.8766642,37.5519913],[-83.8764497,37.552339],[-83.8762596,37.5525173],[-83.8757544,37.5529296],[-83.8754899,37.5530982],[-83.8752553,37.5530986],[-83.8751407,37.5531544],[-83.8749601,37.5532957],[-83.8744143,37.553852],[-83.8743116,37.5544616],[-83.8742897,37.5549611],[-83.8743024,37.555693],[-83.8741815,37.5558941],[-83.874057,37.5560348],[-83.8739025,37.5562513],[-83.8736589,37.556395],[-83.8734067,37.5566223],[-83.8731,37.5568035],[-83.8728713,37.5570364],[-83.8726426,37.5573071],[-83.8723609,37.5574795],[-83.8719851,37.5576985],[-83.8716574,37.5578753],[-83.8713905,37.5578439],[-83.8708952,37.5579064],[-83.8703483,37.5581272],[-83.8699553,37.5583767],[-83.8695816,37.5587357],[-83.869419,37.5590085],[-83.8693954,37.5593239],[-83.8693612,37.5596147],[-83.8694839,37.5598306],[-83.8695853,37.5601305],[-83.8695406,37.5604638],[-83.8694712,37.5606636],[-83.8694318,37.5608417],[-83.8693216,37.5609334],[-83.8691854,37.5609988],[-83.8690256,37.5609998],[-83.8688298,37.56092],[-83.8683007,37.5608742],[-83.8678527,37.560839],[-83.8675897,37.5607764],[-83.8674394,37.5606286],[-83.8672595,37.5604434],[-83.8665152,37.5600121],[-83.8662723,37.5599802],[-83.8657634,37.5600473],[-83.8650158,37.5600631],[-83.8647495,37.5601051],[-83.8645299,37.5601056],[-83.8643383,37.560222],[-83.8641036,37.5605493],[-83.8639809,37.560916],[-83.8639326,37.5612506],[-83.8637599,37.5614904],[-83.863506,37.5616346],[-83.8632271,37.5617747],[-83.8628819,37.5617904],[-83.8625738,37.5617265],[-83.8622992,37.5616613],[-83.8619124,37.5616572],[-83.8615146,37.5617129],[-83.8611382,37.5618794],[-83.8608988,37.5620565],[-83.8606953,37.5621819],[-83.8604491,37.5623446],[-83.8602099,37.5623853],[-83.8599269,37.5623474],[-83.8596298,37.5623488]]}},{"type":"Feature","properties":{"osm_id":16212267,"highway":"residential","name":"Mary Kay Isaacs Road","alt_name":null,"official_name":null,"surface":null,"tracktype":null,"service":null,"access":null,"motor_vehicle":null,"foot":null,"tiger_reviewed":"no","rrgh_part":0,"rrgh_tile_part":0},"geometry":{"type":"LineString","coordinates":[[-83.892982,37.526821],[-83.89341,37.52666],[-83.893525,37.526631],[-83.893702,37.526602],[-83.89376,37.526588],[-83.893805,37.526561],[-83.89384,37.526524],[-83.89397,37.526319],[-83.89404,37.526259],[-83.894086,37.526233],[-83.894218,37.526169],[-83.894629,37.526016],[-83.895054,37.525876],[-83.895314,37.52577],[-83.895742,37.525705],[-83.895811,37.525688],[-83.89588,37.525662],[-83.895965,37.525618],[-83.8962,37.525421],[-83.896234,37.525403],[-83.896592,37.525295],[-83.896978,37.525199],[-83.897037,37.525172],[-83.89715,37.525101],[-83.897209,37.525045],[-83.897253,37.525013],[-83.89727702678572,37.525000000000006]]}},{"type":"Feature","properties":{"osm_id":16212267,"highway":"residential","name":"Mary Kay Isaacs Road","alt_name":null,"official_name":null,"surface":null,"tracktype":null,"service":null,"access":null,"motor_vehicle":null,"foot":null,"tiger_reviewed":"no","rrgh_part":0,"rrgh_tile_part":1},"geometry":{"type":"LineString","coordinates":[[-83.89850666666668,37.525000000000006],[-83.898555,37.525045],[-83.898625,37.525098],[-83.898737,37.525166],[-83.898861,37.525231],[-83.898958,37.525277],[-83.899036,37.525304],[-83.899293,37.525363],[-83.899351,37.525388],[-83.899462,37.525449],[-83.899643,37.525584],[-83.899745,37.52568],[-83.899851,37.525816],[-83.90001,37.52608],[-83.900146,37.526361],[-83.900255,37.526511]]}},{"type":"Feature","properties":{"osm_id":1242101397,"highway":"track","name":null,"alt_name":null,"official_name":null,"surface":null,"tracktype":null,"service":null,"access":null,"motor_vehicle":null,"foot":null,"tiger_reviewed":null,"rrgh_part":0,"rrgh_tile_part":0},"geometry":{"type":"LineString","coordinates":[[-83.9112675,37.5267006],[-83.9113212,37.526505],[-83.9115947,37.5261435],[-83.9116215,37.5260287],[-83.9116269,37.525731],[-83.9116001,37.5255396],[-83.91131217390182,37.525000000000006]]}},{"type":"Feature","properties":{"osm_id":286005364,"highway":"residential","name":"Old Orchard Cemetery Road","alt_name":null,"official_name":null,"surface":null,"tracktype":null,"service":null,"access":null,"motor_vehicle":null,"foot":null,"tiger_reviewed":"no","rrgh_part":0,"rrgh_tile_part":0},"geometry":{"type":"LineString","coordinates":[[-83.88299269747898,37.525000000000006],[-83.882933,37.525148],[-83.882861,37.525444],[-83.882795,37.525859],[-83.882753,37.525932],[-83.882694,37.525972],[-83.882592,37.52602],[-83.882317,37.526124],[-83.882166,37.52617],[-83.882055,37.526196],[-83.881917,37.526212],[-83.881397,37.526239],[-83.881057,37.526271],[-83.880888,37.526331],[-83.880479,37.5265084],[-83.880445,37.526523],[-83.880246,37.52658],[-83.879785,37.52652],[-83.879152,37.526497],[-83.878995,37.526464],[-83.878841,37.526452],[-83.878637,37.526416],[-83.878573,37.526396],[-83.878176,37.526202],[-83.877955,37.526133],[-83.877883,37.526124],[-83.877534,37.526127],[-83.877396,37.526143],[-83.877081,37.526251],[-83.876861,37.526311],[-83.876506,37.526422],[-83.876145,37.526581],[-83.876071,37.526621],[-83.875882,37.526753],[-83.875739,37.526913],[-83.875656,37.527138],[-83.875622,37.527361],[-83.875618,37.527942],[-83.875577,37.528583],[-83.875541,37.52878],[-83.875451,37.529016],[-83.875349,37.529149],[-83.875315,37.529213],[-83.875215,37.529305],[-83.874989,37.529449],[-83.874797,37.529537],[-83.87462,37.529601],[-83.87445,37.529682],[-83.874244,37.529825],[-83.874161,37.529898],[-83.874069,37.530036],[-83.873885,37.530422],[-83.873719,37.530711],[-83.873715,37.530754]]}},{"type":"Feature","properties":{"osm_id":16215834,"highway":"residential","name":"Cr-1063","alt_name":null,"official_name":null,"surface":null,"tracktype":null,"service":null,"access":null,"motor_vehicle":null,"foot":null,"tiger_reviewed":"no","rrgh_part":0,"rrgh_tile_part":0},"geometry":{"type":"LineString","coordinates":[[-83.910713,37.543345],[-83.910951,37.543483],[-83.911282,37.543621],[-83.91141,37.543653],[-83.911485,37.543657],[-83.911564,37.543648],[-83.911608,37.543634],[-83.9116603,37.5436243],[-83.9117325,37.543578],[-83.911821,37.54345],[-83.911883,37.543407],[-83.911961,37.543384],[-83.912098,37.543363],[-83.912195,37.543325],[-83.912296,37.543265],[-83.912567,37.54306],[-83.912683,37.542983],[-83.912991,37.5428],[-83.913127,37.542734],[-83.913626,37.542549],[-83.914168,37.542379],[-83.91426,37.542345],[-83.914588,37.542194],[-83.914645,37.542177],[-83.914717,37.542164],[-83.91516,37.542117]]}},{"type":"Feature","properties":{"osm_id":16162373,"highway":"track","name":"Barnes Buck","alt_name":null,"official_name":null,"surface":null,"tracktype":null,"service":null,"access":null,"motor_vehicle":null,"foot":null,"tiger_reviewed":"no","rrgh_part":0,"rrgh_tile_part":0},"geometry":{"type":"LineString","coordinates":[[-83.9118163,37.5487079],[-83.9114526,37.5487001],[-83.9111696,37.5487429],[-83.909352,37.548874],[-83.9091365,37.5490555],[-83.9089845,37.5492671],[-83.9091861,37.5494215],[-83.9096299,37.5497824],[-83.9105007,37.5501119],[-83.9111064,37.5502394],[-83.9114329,37.5503232],[-83.9119404,37.5503982],[-83.9123719,37.5503796],[-83.9126393,37.5504062],[-83.9133707,37.5503646],[-83.913507,37.5503529],[-83.9136678,37.5504232],[-83.9139941,37.5507457],[-83.9141251,37.5510635],[-83.914005,37.5514929],[-83.9136535,37.551776],[-83.9135736,37.5519129],[-83.9131704,37.5522048],[-83.9129754,37.5524101],[-83.9126712,37.5526416],[-83.91162,37.552923],[-83.9114197,37.5531413],[-83.9114055,37.5533008],[-83.9114766,37.5536516],[-83.9113862,37.5539158],[-83.911306,37.5540141],[-83.911361,37.55409],[-83.9120587,37.5540745],[-83.9123991,37.5540933],[-83.912597,37.554319],[-83.9126844,37.5545393],[-83.912798,37.554685],[-83.913056,37.554822],[-83.9130681,37.5549265],[-83.912941,37.555325],[-83.9127919,37.5556015],[-83.9124559,37.5559477],[-83.9121678,37.5567006],[-83.9122549,37.5568954],[-83.9122812,37.5571233],[-83.9121115,37.5576294],[-83.9120536,37.5576321],[-83.9118755,37.5575732],[-83.9116247,37.5575684],[-83.9111128,37.5575949],[-83.9104112,37.5577145],[-83.9102831,37.5577182],[-83.9102159,37.5576575],[-83.9099685,37.5573737],[-83.9097587,37.5570515],[-83.90955,37.556903],[-83.909062,37.556949],[-83.9088288,37.5572034],[-83.9083607,37.5576418],[-83.9080031,37.5582039],[-83.9076758,37.5584987],[-83.907222,37.559145],[-83.907135,37.5593863],[-83.9072192,37.5598775],[-83.9071232,37.5601988],[-83.9069997,37.5603084],[-83.9068049,37.5603275],[-83.9066153,37.560277],[-83.9065034,37.5601865],[-83.9063912,37.559936],[-83.9062004,37.5598168],[-83.9060916,37.5597709],[-83.9059652,37.5597598],[-83.905856,37.5598181],[-83.9057044,37.5599712],[-83.9055682,37.5601281],[-83.9054123,37.560191],[-83.9050776,37.5604106],[-83.9048381,37.5604352],[-83.9047048,37.5604982],[-83.9046638,37.5604462],[-83.9045371,37.5603578],[-83.9043939,37.5601761],[-83.9042789,37.5599964],[-83.9044405,37.559686],[-83.9042979,37.5593534],[-83.9041884,37.5589319],[-83.904119,37.558641],[-83.9039331,37.5580866],[-83.9037482,37.5577593],[-83.9033287,37.5571516],[-83.9027651,37.5565304],[-83.902489,37.5561665],[-83.902303,37.556015],[-83.901713,37.5555703],[-83.9013581,37.5551504],[-83.9011765,37.554926],[-83.9009766,37.554786],[-83.9007722,37.5547454],[-83.900528,37.554705],[-83.9002623,37.5546407],[-83.9000568,37.5545458],[-83.8998924,37.5544479]]}},{"type":"Feature","properties":{"osm_id":16210268,"highway":"track","name":null,"alt_name":null,"official_name":null,"surface":null,"tracktype":null,"service":null,"access":null,"motor_vehicle":null,"foot":null,"tiger_reviewed":"no","rrgh_part":0,"rrgh_tile_part":0},"geometry":{"type":"LineString","coordinates":[[-83.9116603,37.5436243],[-83.9118681,37.5436035],[-83.912003,37.5436009],[-83.9120842,37.5436228],[-83.9123336,37.5439184],[-83.9124236,37.5443938],[-83.9122489,37.54516],[-83.9123336,37.5455923],[-83.9122307,37.546105],[-83.9122712,37.5464228],[-83.912144,37.5466796],[-83.9121447,37.5470882],[-83.9125643,37.547542],[-83.9127095,37.547784],[-83.9125176,37.5481222],[-83.912214,37.5485384],[-83.9118163,37.5487079]]}},{"type":"Feature","properties":{"osm_id":16211219,"highway":"residential","name":null,"alt_name":null,"official_name":null,"surface":null,"tracktype":null,"service":null,"access":null,"motor_vehicle":null,"foot":null,"tiger_reviewed":"no","rrgh_part":0,"rrgh_tile_part":0},"geometry":{"type":"LineString","coordinates":[[-83.916299,37.551],[-83.916573,37.550856],[-83.916835,37.550676],[-83.917028,37.550517],[-83.917174,37.550281],[-83.917241,37.549971],[-83.917224,37.54976],[-83.917243,37.549568],[-83.917485,37.549308],[-83.917589,37.549099],[-83.91765,37.548961],[-83.917692,37.5488],[-83.91751,37.548572],[-83.9173119,37.5482899]]}},{"type":"Feature","properties":{"osm_id":16268448,"highway":"residential","name":null,"alt_name":null,"official_name":null,"surface":null,"tracktype":null,"service":null,"access":null,"motor_vehicle":null,"foot":null,"tiger_reviewed":"no","rrgh_part":0,"rrgh_tile_part":0},"geometry":{"type":"LineString","coordinates":[[-83.904291,37.541168],[-83.904039,37.541666],[-83.904068,37.542147],[-83.904499,37.542444],[-83.905159,37.542719],[-83.905461,37.543069]]}},{"type":"Feature","properties":{"osm_id":16159866,"highway":"residential","name":null,"alt_name":null,"official_name":null,"surface":null,"tracktype":null,"service":null,"access":null,"motor_vehicle":null,"foot":null,"tiger_reviewed":"no","rrgh_part":0,"rrgh_tile_part":0},"geometry":{"type":"LineString","coordinates":[[-83.905461,37.543069],[-83.905788,37.543455],[-83.906038,37.544563],[-83.905951,37.544725],[-83.906031,37.545603],[-83.906144,37.545949],[-83.906229,37.545995],[-83.906225,37.546572],[-83.906051,37.546712]]}},{"type":"Feature","properties":{"osm_id":16268479,"highway":"track","name":"County Road 3017","alt_name":"Barnes Buck","official_name":null,"surface":null,"tracktype":null,"service":null,"access":null,"motor_vehicle":null,"foot":null,"tiger_reviewed":"no","rrgh_part":0,"rrgh_tile_part":0},"geometry":{"type":"LineString","coordinates":[[-83.8911481,37.5535473],[-83.8914817,37.5536083],[-83.8916126,37.553668],[-83.8920578,37.5537959],[-83.892685,37.553911],[-83.893496,37.554381],[-83.894045,37.554517],[-83.8947299,37.5543099],[-83.8956367,37.5541723],[-83.8959245,37.5541556],[-83.8961842,37.5542433],[-83.8963122,37.5543222],[-83.8964443,37.5544105],[-83.8964893,37.5544192],[-83.8965237,37.5544105],[-83.8965665,37.5543806],[-83.8966265,37.5543692],[-83.8967298,37.5544049],[-83.8967912,37.5543798],[-83.8969451,37.5542987],[-83.8973174,37.5541818],[-83.8974429,37.5541757],[-83.8979717,37.5540434],[-83.8982481,37.5540736],[-83.8983123,37.5540684],[-83.8983853,37.5540218],[-83.8985906,37.5539793],[-83.8988858,37.5540185],[-83.8990211,37.554033],[-83.8991387,37.5540738],[-83.899366,37.5541676],[-83.8995043,37.5542732],[-83.8997204,37.5544237],[-83.8998347,37.5544565],[-83.8998924,37.5544479]]}},{"type":"Feature","properties":{"osm_id":896346817,"highway":"track","name":null,"alt_name":null,"official_name":null,"surface":null,"tracktype":null,"service":null,"access":null,"motor_vehicle":null,"foot":null,"tiger_reviewed":null,"rrgh_part":0,"rrgh_tile_part":0},"geometry":{"type":"LineString","coordinates":[[-83.9048082,37.5451612],[-83.9047138,37.5452005],[-83.9046672,37.5452643],[-83.9046144,37.545383],[-83.9045329,37.5454716],[-83.9044904,37.5455862],[-83.9044863,37.545729],[-83.9045143,37.5458799],[-83.9045802,37.5460554],[-83.904662,37.5462042],[-83.9047358,37.5462901],[-83.9048221,37.5463847],[-83.9049085,37.5464971],[-83.9049713,37.5465925],[-83.905013,37.5466549],[-83.90503,37.5467106],[-83.9050549,37.5468268],[-83.9050689,37.5471714],[-83.9050428,37.5473083],[-83.9050038,37.5474881],[-83.9049506,37.5476922],[-83.9049006,37.5478352],[-83.9048451,37.5479466],[-83.9047406,37.5481393],[-83.904682,37.5481995],[-83.9045951,37.5482318],[-83.9044046,37.5482611],[-83.9042091,37.548303],[-83.9041107,37.5483373],[-83.9040633,37.5483762],[-83.9039986,37.5484706],[-83.9039735,37.548585],[-83.903946,37.5487531],[-83.9039015,37.5488591],[-83.9038181,37.5489066],[-83.9036929,37.5489234],[-83.9035532,37.5489059],[-83.903387,37.5488472],[-83.9030065,37.5487207],[-83.90279,37.5486746],[-83.9026951,37.548661],[-83.9026044,37.5486819],[-83.9025383,37.5487292],[-83.9024568,37.5488381],[-83.9023524,37.5490012],[-83.9023134,37.5490831],[-83.9022645,37.5491373],[-83.9021929,37.5491606],[-83.9020956,37.5491521],[-83.9019826,37.5491151],[-83.901843,37.5490766],[-83.9016699,37.5490297],[-83.9015454,37.5490305],[-83.9013908,37.549056],[-83.9012517,37.5491046],[-83.9010825,37.5491695],[-83.9010008,37.5492387],[-83.9008261,37.5494284],[-83.9007298,37.5495095],[-83.900582,37.5496432],[-83.9004683,37.5497964],[-83.9003437,37.5499606],[-83.9002644,37.5500602],[-83.9002436,37.5501406],[-83.9001918,37.5501962],[-83.9001342,37.5502291],[-83.900036,37.5503032],[-83.8999374,37.5504308],[-83.8997674,37.550662],[-83.8995734,37.5509114],[-83.8994275,37.5510942],[-83.8993473,37.5512257],[-83.8993587,37.5513123],[-83.8993848,37.5513579],[-83.8993947,37.5514207],[-83.8993298,37.5515059],[-83.8993082,37.5515715],[-83.8993921,37.551761],[-83.8994704,37.5520159],[-83.8996015,37.5522213],[-83.8997966,37.5525998],[-83.8998837,37.5528113],[-83.8999087,37.5529591],[-83.8999077,37.5531662],[-83.8999138,37.5532738],[-83.8999918,37.5535462],[-83.9000117,37.5536962],[-83.8999767,37.553893],[-83.8999421,37.5540262],[-83.8998889,37.5541468],[-83.8998641,37.5543692],[-83.8998924,37.5544479]]}},{"type":"Feature","properties":{"osm_id":16161079,"highway":"residential","name":"Eli Sparks Road","alt_name":null,"official_name":null,"surface":"asphalt","tracktype":null,"service":null,"access":null,"motor_vehicle":null,"foot":null,"tiger_reviewed":"no","rrgh_part":0,"rrgh_tile_part":0},"geometry":{"type":"LineString","coordinates":[[-83.9007152,37.5779501],[-83.9009017,37.5780547],[-83.9013589,37.5782915],[-83.9015265,37.5783731],[-83.901837,37.578482],[-83.902046,37.578533],[-83.902126,37.578557],[-83.902201,37.578594],[-83.902258,37.578654],[-83.9023533,37.5787437],[-83.902452,37.578975],[-83.902462,37.579119],[-83.902441,37.579496],[-83.902392,37.579746],[-83.902253,37.580072],[-83.90217,37.580189],[-83.902029,37.580346],[-83.901949,37.580456],[-83.901914,37.580574],[-83.901918,37.580638],[-83.9019404,37.5807226],[-83.902039,37.5808049],[-83.902349,37.58096],[-83.902751,37.581143],[-83.902805,37.58118],[-83.902851,37.581239],[-83.902874,37.581329],[-83.902906,37.581843],[-83.902935,37.582007],[-83.903,37.582169],[-83.903119,37.582391],[-83.903152,37.582472],[-83.903518,37.58309],[-83.90358,37.583273],[-83.903602,37.583374],[-83.903607,37.583462],[-83.903592,37.583656],[-83.90346,37.584227],[-83.90341,37.584614],[-83.903412,37.584998],[-83.9034717,37.585424],[-83.903483,37.585587],[-83.903468,37.585762],[-83.903415,37.585937],[-83.903371,37.586021],[-83.903257,37.586187],[-83.90286,37.586612],[-83.902455,37.586984],[-83.902199,37.587157],[-83.902066,37.587236],[-83.901123,37.587745],[-83.90104,37.587809],[-83.90078,37.588093],[-83.900677,37.58827],[-83.900598,37.588444],[-83.900569,37.588531],[-83.900554,37.588677],[-83.90057,37.58888],[-83.900623,37.589417],[-83.900613,37.589629],[-83.900574,37.589838],[-83.900528,37.589929],[-83.900472,37.590018],[-83.900333,37.590186],[-83.900152,37.59033],[-83.899947,37.590455],[-83.899504,37.590659],[-83.899403,37.590722],[-83.899323,37.5908],[-83.899256,37.590887],[-83.899167,37.591072],[-83.899152,37.591142],[-83.899142,37.591268],[-83.899152,37.591366],[-83.8991847,37.5914884],[-83.899206,37.591568],[-83.899245,37.59167],[-83.899345,37.591865],[-83.899409,37.591959],[-83.899567,37.592138],[-83.899763,37.5923],[-83.9008,37.592936],[-83.90099,37.593069],[-83.901099,37.593165],[-83.901198,37.593279],[-83.901239,37.593358],[-83.901265,37.593448],[-83.901277,37.593544],[-83.901256,37.593746],[-83.901077,37.594559],[-83.9010563,37.594631],[-83.900873,37.59527],[-83.900737,37.595589],[-83.900569,37.595883],[-83.900363,37.596175],[-83.899495,37.597277],[-83.899153,37.59764],[-83.898976,37.5978],[-83.898776,37.59795],[-83.898556,37.598095],[-83.898432,37.598161],[-83.898091,37.598373],[-83.8977057,37.5986764],[-83.8976617,37.5987254]]}},{"type":"Feature","properties":{"osm_id":16160002,"highway":"track","name":null,"alt_name":null,"official_name":null,"surface":null,"tracktype":null,"service":null,"access":null,"motor_vehicle":null,"foot":null,"tiger_reviewed":"no","rrgh_part":0,"rrgh_tile_part":0},"geometry":{"type":"LineString","coordinates":[[-83.9043073,37.5616385],[-83.904987,37.561237],[-83.905585,37.56106],[-83.905788,37.560963]]}},{"type":"Feature","properties":{"osm_id":16162363,"highway":"track","name":"Barnes Buck","alt_name":null,"official_name":null,"surface":null,"tracktype":null,"service":null,"access":null,"motor_vehicle":null,"foot":null,"tiger_reviewed":"no","rrgh_part":0,"rrgh_tile_part":0},"geometry":{"type":"LineString","coordinates":[[-83.9047048,37.5604982],[-83.9046158,37.5607188],[-83.9044724,37.5611422],[-83.9043417,37.5614938],[-83.9043073,37.5616385],[-83.9043763,37.5619409],[-83.9043752,37.5621096],[-83.9042554,37.5624098],[-83.9041368,37.5626692],[-83.9039743,37.5629401],[-83.9039928,37.5630907],[-83.9038514,37.5632749],[-83.9034549,37.563456],[-83.9031892,37.5638604],[-83.9027415,37.5642331],[-83.9026326,37.5643862],[-83.9025529,37.5645582],[-83.9021464,37.5647528],[-83.901486,37.5650114],[-83.9010584,37.565184],[-83.9006864,37.5654168],[-83.9005124,37.5655828],[-83.9004322,37.5657913],[-83.9002775,37.5662151],[-83.9001182,37.5666239],[-83.9000795,37.5667637],[-83.900124,37.56694],[-83.9001611,37.5678046]]}},{"type":"Feature","properties":{"osm_id":896346819,"highway":"residential","name":"Eli Sparks Road","alt_name":null,"official_name":null,"surface":"gravel","tracktype":null,"service":null,"access":null,"motor_vehicle":null,"foot":null,"tiger_reviewed":"no","rrgh_part":0,"rrgh_tile_part":0},"geometry":{"type":"LineString","coordinates":[[-83.9001611,37.5678046],[-83.9001232,37.5686885],[-83.9001489,37.5693598],[-83.8998884,37.5698239],[-83.8997767,37.5705484],[-83.8997087,37.5707027],[-83.8998152,37.5710155],[-83.8997908,37.5716004],[-83.8997436,37.5721657],[-83.8996371,37.5725756],[-83.8997279,37.5726617],[-83.8997359,37.572775],[-83.8996516,37.5730081],[-83.89903,37.574175],[-83.898994,37.574416],[-83.898996,37.574514],[-83.899017,37.574588],[-83.899094,37.574745],[-83.899099,37.574772],[-83.899079,37.574894],[-83.899088,37.574961],[-83.89922,37.575332],[-83.899232,37.57546],[-83.899198,37.575614],[-83.89919,37.575709],[-83.899211,37.575828],[-83.899265,37.576006],[-83.899287,37.576261],[-83.899341,37.576408],[-83.899411,37.576543],[-83.899495,37.576674],[-83.899841,37.577147],[-83.900026,37.577354],[-83.900174,37.577498],[-83.9006,37.577841],[-83.9007152,37.5779501]]}},{"type":"Feature","properties":{"osm_id":16161373,"highway":"residential","name":"Double Oak Cemetery Road","alt_name":null,"official_name":null,"surface":null,"tracktype":null,"service":null,"access":null,"motor_vehicle":null,"foot":null,"tiger_reviewed":"no","rrgh_part":0,"rrgh_tile_part":0},"geometry":{"type":"LineString","coordinates":[[-83.910942,37.574762],[-83.9106,37.574663],[-83.910385,37.574614],[-83.910249,37.574597],[-83.910123,37.574596],[-83.90999,37.574609],[-83.909922,37.574625],[-83.909775,37.574675]]}},{"type":"Feature","properties":{"osm_id":16161375,"highway":"residential","name":"Double Oak Cemetery Road","alt_name":null,"official_name":null,"surface":"gravel","tracktype":null,"service":null,"access":null,"motor_vehicle":null,"foot":null,"tiger_reviewed":"no","rrgh_part":0,"rrgh_tile_part":0},"geometry":{"type":"LineString","coordinates":[[-83.911244,37.574768],[-83.910942,37.574762],[-83.911173,37.574878],[-83.911255,37.574881],[-83.911286,37.574865],[-83.911305,37.574841],[-83.911304,37.57481],[-83.911282,37.574781],[-83.911244,37.574768]]}},{"type":"Feature","properties":{"osm_id":16162076,"highway":"residential","name":"Double Cemetery Road","alt_name":null,"official_name":null,"surface":"gravel","tracktype":null,"service":null,"access":null,"motor_vehicle":null,"foot":null,"tiger_reviewed":"no","rrgh_part":0,"rrgh_tile_part":0},"geometry":{"type":"LineString","coordinates":[[-83.909775,37.574675],[-83.90965,37.574718],[-83.909529,37.574774],[-83.909419,37.574805],[-83.909366,37.574809],[-83.909311,37.574801],[-83.909257,37.574783],[-83.909003,37.574612],[-83.908949,37.574591],[-83.908891,37.574581],[-83.908829,37.574582],[-83.908705,37.574615],[-83.908572,37.574688],[-83.908461,37.574781],[-83.908297,37.574972],[-83.908182,37.575048],[-83.907915,37.575199],[-83.907826,37.575298],[-83.907782,37.575408],[-83.907776,37.575468],[-83.907792,37.575714],[-83.907778,37.575832],[-83.907752,37.575954],[-83.907668,37.576206],[-83.907646,37.576341],[-83.907669,37.576536],[-83.907794,37.576784],[-83.90793,37.577003],[-83.907976,37.577105],[-83.907991,37.577159],[-83.907988,37.57721],[-83.907946,37.577309],[-83.907905,37.577356],[-83.907799,37.577448],[-83.907414,37.57772],[-83.907198,37.577919],[-83.907091,37.578001],[-83.906984,37.578061],[-83.906697,37.578172],[-83.906624,37.578223],[-83.906572,37.578285],[-83.906529,37.578365],[-83.906508,37.578443],[-83.906459,37.578784],[-83.906333,37.579117],[-83.906264,37.579213],[-83.906013,37.579428],[-83.905898,37.579513],[-83.905833,37.579555],[-83.905609,37.579651],[-83.905543,37.579699],[-83.905427,37.579795],[-83.905333,37.579907],[-83.904992,37.580236],[-83.904873,37.580322],[-83.904694,37.580414],[-83.90437,37.580618],[-83.904307,37.580649],[-83.904049,37.580724],[-83.903876,37.580791],[-83.90359,37.581001],[-83.90349,37.581059],[-83.90318,37.581161],[-83.902851,37.581239]]}},{"type":"Feature","properties":{"osm_id":896346818,"highway":"track","name":null,"alt_name":null,"official_name":null,"surface":"gravel","tracktype":null,"service":null,"access":null,"motor_vehicle":null,"foot":null,"tiger_reviewed":null,"rrgh_part":0,"rrgh_tile_part":0},"geometry":{"type":"LineString","coordinates":[[-83.8996371,37.5725756],[-83.8995309,37.5726289],[-83.8993779,37.5728609],[-83.8993238,37.5730823],[-83.8991343,37.5733238],[-83.898967,37.573534],[-83.8987063,37.5736799],[-83.8984638,37.5738544],[-83.8983017,37.5740019],[-83.8980684,37.5740586],[-83.8978649,37.574166],[-83.8977727,37.5742414],[-83.8976341,37.5742458],[-83.8974645,37.5741739],[-83.8971255,37.5739268],[-83.896888,37.5738292],[-83.8964927,37.5737181],[-83.8963531,37.573756],[-83.8961745,37.5738573],[-83.8961369,37.5740118],[-83.8962526,37.5741421],[-83.8965089,37.5742762]]}},{"type":"Feature","properties":{"osm_id":16163678,"highway":"service","name":"Homer Cem Road","alt_name":null,"official_name":null,"surface":null,"tracktype":null,"service":null,"access":null,"motor_vehicle":null,"foot":null,"tiger_reviewed":"no","rrgh_part":0,"rrgh_tile_part":0},"geometry":{"type":"LineString","coordinates":[[-83.925814,37.588644],[-83.925849,37.589022],[-83.92589,37.589273],[-83.925869,37.589357],[-83.925824,37.589401],[-83.925649,37.589512],[-83.925382,37.589634],[-83.924896,37.589814],[-83.924307,37.59],[-83.924013,37.590122],[-83.923722,37.590289],[-83.923216,37.59063],[-83.923137,37.590692],[-83.923047,37.590782],[-83.922724,37.591071],[-83.922469,37.591252]]}},{"type":"Feature","properties":{"osm_id":16159612,"highway":"residential","name":null,"alt_name":null,"official_name":null,"surface":null,"tracktype":null,"service":null,"access":null,"motor_vehicle":null,"foot":null,"tiger_reviewed":"no","rrgh_part":0,"rrgh_tile_part":0},"geometry":{"type":"LineString","coordinates":[[-83.921952,37.587038],[-83.921671,37.586964],[-83.921523,37.586921],[-83.921363,37.586953],[-83.921031,37.587098],[-83.920739,37.587204],[-83.920538,37.587258],[-83.920358,37.587257]]}},{"type":"Feature","properties":{"osm_id":16159560,"highway":"residential","name":null,"alt_name":null,"official_name":null,"surface":null,"tracktype":null,"service":null,"access":null,"motor_vehicle":null,"foot":null,"tiger_reviewed":"no","rrgh_part":0,"rrgh_tile_part":0},"geometry":{"type":"LineString","coordinates":[[-83.922208,37.58977],[-83.920115,37.591251]]}},{"type":"Feature","properties":{"osm_id":16162353,"highway":"residential","name":"Jakes Heavenly Highway","alt_name":null,"official_name":null,"surface":null,"tracktype":null,"service":null,"access":null,"motor_vehicle":null,"foot":null,"tiger_reviewed":"no","rrgh_part":0,"rrgh_tile_part":0},"geometry":{"type":"LineString","coordinates":[[-83.93,37.59860814062498],[-83.929993,37.598617],[-83.929675,37.599129],[-83.929645,37.599201],[-83.929632,37.599281],[-83.929633,37.599537],[-83.929648,37.59962],[-83.929676,37.599697],[-83.929755,37.599842],[-83.929786,37.599921],[-83.92980237804879,37.6]]}},{"type":"Feature","properties":{"osm_id":16161009,"highway":"residential","name":"Cr-1134","alt_name":null,"official_name":null,"surface":null,"tracktype":null,"service":null,"access":null,"motor_vehicle":null,"foot":null,"tiger_reviewed":"no","rrgh_part":0,"rrgh_tile_part":0},"geometry":{"type":"LineString","coordinates":[[-83.91311511627907,37.6],[-83.91311,37.599995],[-83.91292,37.599752],[-83.912841,37.599665],[-83.912656,37.599542],[-83.912551,37.599486],[-83.912315,37.599393],[-83.91186,37.599247],[-83.911687,37.599161],[-83.911635,37.599122],[-83.911536,37.599083],[-83.911369,37.599044],[-83.911012,37.599018],[-83.910782,37.599022],[-83.910554,37.599002]]}},{"type":"Feature","properties":{"osm_id":16160350,"highway":"residential","name":"Flower Road","alt_name":null,"official_name":null,"surface":"gravel","tracktype":null,"service":null,"access":null,"motor_vehicle":null,"foot":null,"tiger_reviewed":"no","rrgh_part":0,"rrgh_tile_part":0},"geometry":{"type":"LineString","coordinates":[[-83.901099,37.593165],[-83.9012533,37.5931169],[-83.9016589,37.5929989],[-83.9018022,37.5929467],[-83.901996,37.592831],[-83.90215,37.592725],[-83.90225,37.592667],[-83.902446,37.592573],[-83.902624,37.592501],[-83.902712,37.592492],[-83.902761,37.592497],[-83.902802,37.592502],[-83.903065,37.592572],[-83.903128,37.592571],[-83.903281,37.592536],[-83.903923,37.592318],[-83.904221,37.592158],[-83.904576,37.591989],[-83.904647,37.591972],[-83.904749,37.591966],[-83.904961,37.59198],[-83.905049,37.591996],[-83.9052,37.592048],[-83.905606,37.592234],[-83.905759,37.592277],[-83.906073,37.592303],[-83.906324,37.592359],[-83.906536,37.592437],[-83.906674,37.592528]]}},{"type":"Feature","properties":{"osm_id":968775919,"highway":"track","name":null,"alt_name":null,"official_name":null,"surface":null,"tracktype":null,"service":null,"access":null,"motor_vehicle":null,"foot":null,"tiger_reviewed":null,"rrgh_part":0,"rrgh_tile_part":0},"geometry":{"type":"LineString","coordinates":[[-83.9040024,37.5956988],[-83.9037566,37.5954763],[-83.9032694,37.5952155],[-83.9026374,37.5948712],[-83.9019834,37.5945651],[-83.9015533,37.5945617],[-83.9012197,37.5945895],[-83.9010563,37.594631]]}},{"type":"Feature","properties":{"osm_id":16160035,"highway":"residential","name":null,"alt_name":null,"official_name":null,"surface":"gravel","tracktype":null,"service":null,"access":null,"motor_vehicle":null,"foot":null,"tiger_reviewed":"no","rrgh_part":0,"rrgh_tile_part":0},"geometry":{"type":"LineString","coordinates":[[-83.902761,37.592497],[-83.903021,37.592414],[-83.903345,37.592282],[-83.903588,37.592102],[-83.90378,37.591923],[-83.903891,37.591711],[-83.903942,37.591532],[-83.903891,37.591418],[-83.9038,37.591279],[-83.903587,37.591082],[-83.903466,37.590928],[-83.903415,37.590675]]}},{"type":"Feature","properties":{"osm_id":16160159,"highway":"track","name":null,"alt_name":null,"official_name":null,"surface":null,"tracktype":null,"service":null,"access":null,"motor_vehicle":null,"foot":null,"tiger_reviewed":"no","rrgh_part":0,"rrgh_tile_part":0},"geometry":{"type":"LineString","coordinates":[[-83.874053,37.591117],[-83.87447,37.591338],[-83.874921,37.591398],[-83.876133,37.591869],[-83.877627,37.592167],[-83.878231,37.592442],[-83.878547,37.592419],[-83.879151,37.59226],[-83.880244,37.591734],[-83.88079,37.591757],[-83.881738,37.592146],[-83.882658,37.592032],[-83.883463,37.592055],[-83.884038,37.59233],[-83.884641,37.592994],[-83.885015,37.592994],[-83.885245,37.593131],[-83.886193,37.594048],[-83.886654,37.594208],[-83.886773,37.594217],[-83.888152,37.594119]]}},{"type":"Feature","properties":{"osm_id":16160271,"highway":"track","name":"Cox Road","alt_name":null,"official_name":null,"surface":null,"tracktype":null,"service":null,"access":null,"motor_vehicle":null,"foot":null,"tiger_reviewed":"no","rrgh_part":0,"rrgh_tile_part":0},"geometry":{"type":"LineString","coordinates":[[-83.884641,37.592994],[-83.884472,37.593317],[-83.883785,37.594063],[-83.883037,37.594644],[-83.882124,37.595905],[-83.881009,37.597091],[-83.880925,37.597348],[-83.880957,37.597743],[-83.881477,37.599287],[-83.881557,37.599339],[-83.881676,37.599514],[-83.881805,37.59967],[-83.881891,37.599738],[-83.881988,37.599795],[-83.882064,37.599809],[-83.882229,37.5998],[-83.882308,37.599809],[-83.882407,37.599851],[-83.88262056666667,37.6]]}},{"type":"Feature","properties":{"osm_id":16160271,"highway":"track","name":"Cox Road","alt_name":null,"official_name":null,"surface":null,"tracktype":null,"service":null,"access":null,"motor_vehicle":null,"foot":null,"tiger_reviewed":"no","rrgh_part":0,"rrgh_tile_part":1},"geometry":{"type":"LineString","coordinates":[[-83.88392546153845,37.6],[-83.884075,37.599946],[-83.884187,37.599916],[-83.884309,37.599898],[-83.884538,37.59992],[-83.884693,37.599961],[-83.88480211235955,37.6]]}},{"type":"Feature","properties":{"osm_id":16160824,"highway":"residential","name":"Sparks Cemetery Road","alt_name":null,"official_name":null,"surface":"gravel","tracktype":null,"service":null,"access":null,"motor_vehicle":null,"foot":null,"tiger_reviewed":"no","rrgh_part":0,"rrgh_tile_part":0},"geometry":{"type":"LineString","coordinates":[[-83.887603,37.591509],[-83.887533,37.591686],[-83.887459,37.59179],[-83.887297,37.591964],[-83.887255,37.592041],[-83.887247,37.592122],[-83.887266,37.592237],[-83.887242,37.592479],[-83.887252,37.592628],[-83.887299,37.592787],[-83.887365,37.592925],[-83.887437,37.592994],[-83.887652,37.593108],[-83.887733,37.593197],[-83.887764,37.593253],[-83.887798,37.593341],[-83.887814,37.593429],[-83.887824,37.593762],[-83.887842,37.593837],[-83.887897,37.593935],[-83.887979,37.594021],[-83.888059,37.594074],[-83.888152,37.594119],[-83.888252,37.594168],[-83.888286,37.594197],[-83.888306,37.594231],[-83.888314,37.594303],[-83.8883,37.594374],[-83.888212,37.594612],[-83.888208,37.594662],[-83.888219,37.594701],[-83.888246,37.59474],[-83.888407,37.59492],[-83.888532,37.59499],[-83.888672,37.595048],[-83.889062,37.595145],[-83.889301,37.595235],[-83.8893803,37.5952506],[-83.889466,37.595225],[-83.890024,37.59513],[-83.89029,37.595105],[-83.890475,37.595109],[-83.890556,37.595125],[-83.89072,37.595201],[-83.890774,37.595238],[-83.890924,37.595405],[-83.891072,37.595604],[-83.891179,37.595832],[-83.891207,37.595954],[-83.891249,37.596336],[-83.891274,37.597036],[-83.891309,37.597542],[-83.891331,37.597767],[-83.891365,37.597907],[-83.891432,37.598035],[-83.891696,37.598351],[-83.891734,37.598414],[-83.891788,37.598546],[-83.891859,37.598837],[-83.891974,37.599074],[-83.892144,37.599377],[-83.892262,37.599536],[-83.892398,37.599664],[-83.89270433112583,37.6]]}},{"type":"Feature","properties":{"osm_id":16161709,"highway":"residential","name":"Sarvice Hollow Road","alt_name":null,"official_name":null,"surface":"gravel","tracktype":null,"service":null,"access":null,"motor_vehicle":null,"foot":null,"tiger_reviewed":"no","rrgh_part":0,"rrgh_tile_part":0},"geometry":{"type":"LineString","coordinates":[[-83.882413,37.589049],[-83.882411,37.589022],[-83.882442,37.588988],[-83.882486,37.588964],[-83.882562,37.588949],[-83.882626,37.588947],[-83.883317,37.589002],[-83.883492,37.588992],[-83.883614,37.588945],[-83.883814,37.588814],[-83.88396,37.588683],[-83.884029,37.588638],[-83.884101,37.588621],[-83.884187,37.588614],[-83.884342,37.588626],[-83.884558,37.588574],[-83.884703,37.588507],[-83.8847738,37.5884488],[-83.884844,37.588391],[-83.884954,37.588247],[-83.885033,37.588072],[-83.885088,37.587753],[-83.88508,37.587689],[-83.884968,37.587449],[-83.884479,37.586924],[-83.884298,37.58675],[-83.884024,37.586539],[-83.883914,37.586425],[-83.88374,37.58615],[-83.883519,37.585892],[-83.883486,37.585779],[-83.883512,37.585699],[-83.883549,37.58566],[-83.883621,37.585614],[-83.883717,37.585579],[-83.883842,37.585554],[-83.884395,37.585482],[-83.884492,37.585462],[-83.884677,37.585473],[-83.884774,37.5855],[-83.884907,37.585511],[-83.885371,37.585504],[-83.885487,37.585525],[-83.885549,37.58555],[-83.885678,37.585628],[-83.885731,37.585673],[-83.885905,37.585864],[-83.886354,37.586272],[-83.886501,37.586375],[-83.886568,37.586407],[-83.886693,37.586448],[-83.886948,37.58651],[-83.887012,37.586555],[-83.887095,37.586643],[-83.887177,37.586756],[-83.887235,37.586819],[-83.887277,37.586845],[-83.88733,37.586869],[-83.887462,37.586908],[-83.88805,37.587013],[-83.888376,37.587055],[-83.888454,37.58708],[-83.888525,37.587115],[-83.88866,37.587239],[-83.888737,37.587337],[-83.888861,37.587555],[-83.888955,37.587645],[-83.889213,37.587837],[-83.889701,37.588096],[-83.889853,37.588163],[-83.889976,37.588238],[-83.890027,37.588281],[-83.890071,37.588359],[-83.890078,37.588425],[-83.890029,37.588627],[-83.890035,37.588676],[-83.890117,37.588737],[-83.890178,37.588762],[-83.890597,37.588871],[-83.890791,37.588905],[-83.891068,37.589005],[-83.891689,37.589109],[-83.891912,37.589108],[-83.892198,37.589088],[-83.892272,37.589073],[-83.892331,37.589046],[-83.892396,37.588999],[-83.892485,37.588905],[-83.892784,37.588498],[-83.892865,37.588445],[-83.892976,37.588444],[-83.89305,37.588459],[-83.893112,37.588483],[-83.893532,37.588728],[-83.893997,37.58887],[-83.894449,37.588963],[-83.89454,37.589031],[-83.894565,37.589073],[-83.89461,37.589255],[-83.894674,37.589368],[-83.894728,37.589428],[-83.894857,37.589524],[-83.895136,37.58968],[-83.895229,37.589742],[-83.895386,37.589823],[-83.895823,37.590017],[-83.895924,37.590053],[-83.896523,37.59022],[-83.896675,37.590275],[-83.896845,37.5904],[-83.89703,37.590497],[-83.89716,37.59052],[-83.897259,37.590526],[-83.897543,37.59049],[-83.897796,37.59052],[-83.897915,37.590553],[-83.898024,37.590597],[-83.898106,37.590653],[-83.898171,37.590721],[-83.898255,37.590771],[-83.898485,37.590836],[-83.898579,37.590881],[-83.89876,37.591003],[-83.898849,37.591049],[-83.89909,37.591113],[-83.899152,37.591142]]}},{"type":"Feature","properties":{"osm_id":16268384,"highway":"track","name":null,"alt_name":null,"official_name":null,"surface":null,"tracktype":null,"service":null,"access":null,"motor_vehicle":null,"foot":null,"tiger_reviewed":"no","rrgh_part":0,"rrgh_tile_part":0},"geometry":{"type":"LineString","coordinates":[[-83.845,37.54893739124826],[-83.8459548,37.5490165],[-83.8460523,37.5493288],[-83.8463263,37.5496808],[-83.8462274,37.5499779],[-83.8463979,37.550245],[-83.8468197,37.5507905],[-83.847153,37.551462],[-83.8474035,37.5518823],[-83.847794,37.552291],[-83.8487885,37.5525441],[-83.849586,37.5527248],[-83.8499907,37.5526998],[-83.8501026,37.5527089],[-83.8501752,37.5527941],[-83.8504178,37.5530644],[-83.8504928,37.5533641],[-83.8509549,37.5543004],[-83.851155,37.555053],[-83.8514379,37.5558724],[-83.8515361,37.5560076],[-83.8517289,37.5561384],[-83.8524366,37.556254],[-83.8528979,37.5564506],[-83.8530009,37.5568869],[-83.8533523,37.5571352],[-83.853803,37.5572089],[-83.8545548,37.5571615],[-83.8551065,37.5578174],[-83.85516,37.5582543],[-83.8554568,37.558887],[-83.8554185,37.5595373],[-83.855691,37.55998],[-83.8557482,37.5602408],[-83.8557988,37.5607629],[-83.8559799,37.5609087],[-83.8562153,37.5610689],[-83.8563871,37.5612051],[-83.8565922,37.5613318],[-83.8567974,37.5617216],[-83.8571463,37.5620467],[-83.8573745,37.5621708],[-83.8572464,37.5622997],[-83.8572233,37.5624652],[-83.85735,37.562486]]}},{"type":"Feature","properties":{"osm_id":16269677,"highway":"residential","name":"Hale Ridge Road","alt_name":null,"official_name":null,"surface":null,"tracktype":null,"service":null,"access":null,"motor_vehicle":null,"foot":null,"tiger_reviewed":"no","rrgh_part":0,"rrgh_tile_part":0},"geometry":{"type":"LineString","coordinates":[[-83.8558678,37.525000000000006],[-83.855843,37.52502],[-83.855775,37.525061],[-83.855622,37.525108],[-83.855543,37.525114],[-83.855385,37.525099],[-83.8551373,37.525001],[-83.85513477379311,37.525000000000006]]}},{"type":"Feature","properties":{"osm_id":16269677,"highway":"residential","name":"Hale Ridge Road","alt_name":null,"official_name":null,"surface":null,"tracktype":null,"service":null,"access":null,"motor_vehicle":null,"foot":null,"tiger_reviewed":"no","rrgh_part":0,"rrgh_tile_part":1},"geometry":{"type":"LineString","coordinates":[[-83.85260905699481,37.525000000000006],[-83.852354,37.525151],[-83.852185,37.525242],[-83.852016,37.52532],[-83.851838,37.525374],[-83.851657,37.525397],[-83.851563,37.525393],[-83.851469,37.525376],[-83.851376,37.525348],[-83.850921,37.525163],[-83.850578,37.525012],[-83.8505426666667,37.525000000000006]]}},{"type":"Feature","properties":{"osm_id":16269677,"highway":"residential","name":"Hale Ridge Road","alt_name":null,"official_name":null,"surface":null,"tracktype":null,"service":null,"access":null,"motor_vehicle":null,"foot":null,"tiger_reviewed":"no","rrgh_part":0,"rrgh_tile_part":2},"geometry":{"type":"LineString","coordinates":[[-83.84937059793815,37.525000000000006],[-83.849224,37.52509],[-83.848993,37.525288],[-83.848861,37.525384],[-83.848699,37.525468],[-83.848525,37.52552],[-83.84778,37.525658],[-83.847104,37.525827],[-83.846831,37.5258758],[-83.846802,37.525881],[-83.846603,37.525878],[-83.846511,37.52586],[-83.84643,37.52583],[-83.846364,37.525795],[-83.846207,37.525665],[-83.846091,37.525583],[-83.84582,37.525455],[-83.845681,37.525421],[-83.84561,37.525414],[-83.845534,37.52542],[-83.845466,37.52544],[-83.845401,37.525476],[-83.845343,37.525527],[-83.845296,37.525589],[-83.84526,37.52566],[-83.845231,37.525737],[-83.845104,37.526285],[-83.845087,37.526585],[-83.845124,37.526791],[-83.845177,37.526979],[-83.845179,37.527093],[-83.845158,37.527146],[-83.84512,37.527194],[-83.845062,37.527227],[-83.845,37.52724446478874]]}},{"type":"Feature","properties":{"osm_id":1223114762,"highway":"track","name":null,"alt_name":null,"official_name":null,"surface":null,"tracktype":null,"service":null,"access":null,"motor_vehicle":null,"foot":null,"tiger_reviewed":null,"rrgh_part":0,"rrgh_tile_part":0},"geometry":{"type":"LineString","coordinates":[[-83.845,37.56346679915612],[-83.8450867,37.5634279],[-83.8453012,37.5632323],[-83.8453388,37.5631728],[-83.8454032,37.563126],[-83.8454192,37.5630877],[-83.8455855,37.5629219],[-83.8457572,37.5627858],[-83.8458591,37.5627263],[-83.8462615,37.5623521],[-83.8463634,37.5623011],[-83.8463848,37.562216],[-83.8468569,37.5618503],[-83.8476616,37.5615102],[-83.8487989,37.5611615],[-83.8488901,37.5611615],[-83.8489652,37.5611785],[-83.8491475,37.5612763],[-83.8493407,37.5614422],[-83.8494372,37.5615485],[-83.8495928,37.5616591],[-83.8497645,37.5618207],[-83.8499361,37.5620631],[-83.8500005,37.5621098],[-83.8501292,37.5621354],[-83.8503384,37.5621269],[-83.8504135,37.5621013],[-83.8509714,37.5619865],[-83.8515884,37.5619015],[-83.8523662,37.5617739],[-83.8524842,37.5617696],[-83.8527149,37.5617951],[-83.8530099,37.561893],[-83.8532996,37.5620375],[-83.8535786,37.5622502],[-83.8537609,37.5623607],[-83.8541579,37.5625266],[-83.8543349,37.5625861],[-83.854469,37.5626584],[-83.8546407,37.5628115],[-83.8546944,37.5629136],[-83.8547158,37.5630284],[-83.8547587,37.563139],[-83.854984,37.5634409],[-83.855381,37.5640405],[-83.8554774,37.5642555]]}},{"type":"Feature","properties":{"osm_id":16268444,"highway":"track","name":null,"alt_name":null,"official_name":null,"surface":null,"tracktype":null,"service":null,"access":null,"motor_vehicle":null,"foot":null,"tiger_reviewed":"no","rrgh_part":0,"rrgh_tile_part":0},"geometry":{"type":"LineString","coordinates":[[-83.882592,37.52602],[-83.882744,37.52612],[-83.882878,37.526178],[-83.883105,37.526191],[-83.883352,37.52609],[-83.883609,37.525965],[-83.883774,37.525924],[-83.883939,37.526027],[-83.884043,37.52614]]}},{"type":"Feature","properties":{"osm_id":896359006,"highway":"track","name":null,"alt_name":null,"official_name":null,"surface":"dirt","tracktype":null,"service":null,"access":null,"motor_vehicle":null,"foot":null,"tiger_reviewed":null,"rrgh_part":0,"rrgh_tile_part":0},"geometry":{"type":"LineString","coordinates":[[-83.846831,37.5258758],[-83.8468343,37.5260709],[-83.8467266,37.5262709],[-83.8465897,37.5264184],[-83.8465206,37.5265945],[-83.8465976,37.526759],[-83.8468514,37.5268964],[-83.8471772,37.5269894],[-83.8474232,37.5271172],[-83.8475217,37.5272158],[-83.8475628,37.5272926],[-83.8475732,37.5273935],[-83.8475346,37.5274798],[-83.8474743,37.5275557],[-83.8472522,37.5276873],[-83.8470356,37.5278073],[-83.8469044,37.5279724],[-83.8467169,37.5281775],[-83.8466339,37.5283064],[-83.8466292,37.5284193],[-83.8466745,37.5285059],[-83.8466907,37.5286642],[-83.8466647,37.5288127],[-83.8466056,37.5290033],[-83.846557,37.5292376],[-83.8465913,37.5295221],[-83.8466401,37.5298298],[-83.8465613,37.5300884],[-83.8464457,37.5302198],[-83.8461825,37.530356],[-83.8455157,37.5305877],[-83.8451004,37.5307187],[-83.845,37.53078121901841]]}},{"type":"Feature","properties":{"osm_id":896359005,"highway":"track","name":null,"alt_name":null,"official_name":null,"surface":"gravel","tracktype":null,"service":null,"access":null,"motor_vehicle":null,"foot":null,"tiger_reviewed":null,"rrgh_part":0,"rrgh_tile_part":0},"geometry":{"type":"LineString","coordinates":[[-83.8551373,37.525001],[-83.8550081,37.5251869],[-83.8549243,37.5253755],[-83.8548884,37.5255096],[-83.8548236,37.5256222],[-83.8545423,37.5260156],[-83.854422,37.5261453],[-83.8542934,37.526366],[-83.8542822,37.526559],[-83.8543054,37.5269029],[-83.8542754,37.5272047],[-83.854196,37.527406]]}},{"type":"Feature","properties":{"osm_id":1335248116,"highway":"track","name":"Duncil Cemetery","alt_name":null,"official_name":null,"surface":null,"tracktype":null,"service":null,"access":null,"motor_vehicle":null,"foot":null,"tiger_reviewed":null,"rrgh_part":0,"rrgh_tile_part":0},"geometry":{"type":"LineString","coordinates":[[-83.845,37.529795749385876],[-83.845149,37.5296962]]}},{"type":"Feature","properties":{"osm_id":1335248124,"highway":"track","name":null,"alt_name":null,"official_name":null,"surface":null,"tracktype":null,"service":null,"access":null,"motor_vehicle":null,"foot":null,"tiger_reviewed":null,"rrgh_part":0,"rrgh_tile_part":0},"geometry":{"type":"LineString","coordinates":[[-83.8765383,37.5424988],[-83.875739,37.5420792],[-83.8755244,37.5419984],[-83.875283,37.5419601],[-83.8750684,37.5419474],[-83.8749558,37.5419899],[-83.8748538,37.5420835],[-83.8747251,37.5423514],[-83.8746446,37.5426619],[-83.8745266,37.5428065],[-83.8743549,37.5429128],[-83.874017,37.5430617],[-83.8738131,37.5431723],[-83.8736147,37.5432403],[-83.8732982,37.5432871],[-83.8726652,37.5433084],[-83.8722982,37.5431828],[-83.8718692,37.5429332],[-83.8713509,37.542697],[-83.8710183,37.5424195],[-83.8707609,37.5421388],[-83.8704123,37.5418581],[-83.8703318,37.541739],[-83.8702836,37.5415518],[-83.870246,37.5412839],[-83.8702836,37.5404843],[-83.870246,37.5400249],[-83.8702139,37.5398463],[-83.8701602,37.5396762],[-83.8701066,37.5395911],[-83.8700369,37.5395103],[-83.8698438,37.5393529],[-83.8696025,37.5392339],[-83.8695006,37.5392253],[-83.8687176,37.5390425],[-83.8684923,37.5390297],[-83.8683207,37.5390467],[-83.8681545,37.5390892],[-83.8677523,37.5391488],[-83.8671731,37.5391871],[-83.8666582,37.5392424],[-83.8662882,37.5393359],[-83.8658055,37.5395401],[-83.8652638,37.540093],[-83.8650815,37.5403014],[-83.8649796,37.5405736],[-83.864926,37.5409266]]}},{"type":"Feature","properties":{"osm_id":896359003,"highway":"track","name":null,"alt_name":null,"official_name":null,"surface":null,"tracktype":null,"service":null,"access":null,"motor_vehicle":null,"foot":null,"tiger_reviewed":null,"rrgh_part":0,"rrgh_tile_part":0},"geometry":{"type":"LineString","coordinates":[[-83.8843622,37.5396776],[-83.8842241,37.5397824],[-83.8840952,37.5398682],[-83.8839082,37.5399169],[-83.8836675,37.5400171],[-83.8835891,37.5401158],[-83.883658,37.5401891],[-83.8836954,37.5402912],[-83.8835867,37.540429],[-83.8833839,37.5405948],[-83.8831167,37.5407873],[-83.8828671,37.5409062],[-83.8827899,37.5409472],[-83.8827337,37.5410131],[-83.8827119,37.5411132]]}},{"type":"Feature","properties":{"osm_id":1335248125,"highway":"track","name":null,"alt_name":null,"official_name":null,"surface":null,"tracktype":null,"service":null,"access":null,"motor_vehicle":null,"foot":null,"tiger_reviewed":null,"rrgh_part":0,"rrgh_tile_part":0},"geometry":{"type":"LineString","coordinates":[[-83.8658055,37.5395401],[-83.8654891,37.5394777],[-83.8653604,37.5394097],[-83.8644701,37.5383339]]}},{"type":"Feature","properties":{"osm_id":16269033,"highway":"residential","name":"Spencer Ridge Road","alt_name":null,"official_name":null,"surface":"gravel","tracktype":null,"service":null,"access":null,"motor_vehicle":null,"foot":null,"tiger_reviewed":"no","rrgh_part":0,"rrgh_tile_part":0},"geometry":{"type":"LineString","coordinates":[[-83.845,37.56776788447654],[-83.845017,37.567765],[-83.845242,37.567696],[-83.845328,37.567659],[-83.845476,37.567553],[-83.845534,37.567487],[-83.845579,37.567411],[-83.845611,37.567331],[-83.845662,37.567064],[-83.845748,37.566443],[-83.845757,37.566278],[-83.845747,37.566122],[-83.845688,37.565895],[-83.84559,37.565606],[-83.845579,37.565389],[-83.845655,37.565245],[-83.845712,37.565199],[-83.845886,37.565091],[-83.846208,37.565016],[-83.84633,37.564999],[-83.847096,37.564939],[-83.847927,37.564824],[-83.848114,37.564822],[-83.848197,37.564836],[-83.848359,37.564874],[-83.848791,37.565013],[-83.849001,37.565048],[-83.84911,37.565049],[-83.84922,37.565036],[-83.849522,37.564968],[-83.849807,37.564876],[-83.849992,37.564842],[-83.850175,37.564841],[-83.850353,37.564893],[-83.850438,37.564927],[-83.850598,37.565011],[-83.850749,37.565108],[-83.851365,37.565558],[-83.851526,37.565661],[-83.851789,37.565798],[-83.852086,37.565896],[-83.8523,37.565913],[-83.852495,37.565895],[-83.852682,37.565821],[-83.852921,37.565665],[-83.853133,37.565476],[-83.853416,37.565176],[-83.853671,37.564825],[-83.853777,37.564705],[-83.853888,37.564598],[-83.854201,37.564355],[-83.854493,37.564216],[-83.854787,37.564117],[-83.854867,37.5641],[-83.855025,37.564088],[-83.855099,37.564096],[-83.8552835,37.5641453],[-83.8554774,37.5642555],[-83.855592,37.564308],[-83.855752,37.564357],[-83.855885,37.564366],[-83.856006,37.564352],[-83.856147,37.564306],[-83.85633,37.564171],[-83.856522,37.563973],[-83.856717,37.563677],[-83.856893,37.563327],[-83.857104,37.562836],[-83.857203,37.562651],[-83.8573,37.56253],[-83.85735,37.562486],[-83.857422,37.562421],[-83.857554,37.562341],[-83.857702,37.562278],[-83.857872,37.562232],[-83.858241,37.562187],[-83.858571,37.562158],[-83.858896,37.562163],[-83.859116,37.562198],[-83.859316,37.562244],[-83.8596298,37.5623488],[-83.859821,37.562419],[-83.860256,37.562644],[-83.860866,37.563001],[-83.861331,37.56331],[-83.861428,37.563413],[-83.86154,37.563574],[-83.861587,37.563678],[-83.861619,37.563784],[-83.861636,37.564016],[-83.861634,37.564135],[-83.861612,37.564267],[-83.861571,37.564394],[-83.861438,37.564623],[-83.861203,37.56494],[-83.860967,37.565335],[-83.860844,37.565653],[-83.860709,37.566139],[-83.860647,37.566303],[-83.860575,37.566446],[-83.860459,37.566613],[-83.860313,37.566774],[-83.860087,37.566969],[-83.859668,37.567221],[-83.858905,37.567569],[-83.858534,37.567772],[-83.858233,37.567961],[-83.857839,37.568232],[-83.857289,37.568644],[-83.857098,37.568812],[-83.856917,37.569007],[-83.85675,37.569233],[-83.856346,37.569884],[-83.855963,37.570554],[-83.855745,37.571016],[-83.855657,37.571259],[-83.855641,37.571404],[-83.855646,37.571572],[-83.855684,37.571746],[-83.855715,37.571833],[-83.8558,37.572005],[-83.855903,37.572163],[-83.856128,37.572458],[-83.856437,37.572743],[-83.856581,37.572828],[-83.856903,37.572968],[-83.857122,37.573079],[-83.857215,37.573161],[-83.857243,37.573274],[-83.857228,37.573336],[-83.857118,37.573594],[-83.856927,37.574277],[-83.856893,37.574329],[-83.85674,37.574467],[-83.856526,37.574565],[-83.856372,37.574617],[-83.856105,37.574812],[-83.855972,37.57498],[-83.855913,37.575192],[-83.85589,37.575745],[-83.855825,37.575878],[-83.855733,37.575976],[-83.855669,37.576017],[-83.855508,37.576094],[-83.855091,37.57626],[-83.854844,37.576386],[-83.854692,37.576478],[-83.854605,37.576572],[-83.854573,37.576634],[-83.854534,37.57679],[-83.854552,37.576919],[-83.854635,37.577065],[-83.854888,37.577418],[-83.855052,37.577687],[-83.855225,37.578155],[-83.855378,37.578437],[-83.855448,37.57866],[-83.855479,37.579041],[-83.855495,37.579117],[-83.85555,37.579259],[-83.855638,37.579391],[-83.85588,37.579659],[-83.856279,37.580066],[-83.856459,37.580276],[-83.856561,37.580418],[-83.856605,37.580491],[-83.856687,37.580737],[-83.85671,37.580907],[-83.856705,37.581072],[-83.856651,37.581305],[-83.856553,37.581534],[-83.856278,37.581965],[-83.85618,37.5821],[-83.856066,37.582218],[-83.855925,37.582313],[-83.85549,37.582511],[-83.854705,37.58273],[-83.854608,37.582761],[-83.854402,37.582846],[-83.854217,37.582997],[-83.854096,37.583131],[-83.854059,37.583309],[-83.854064,37.583509],[-83.853987,37.583797],[-83.853899,37.584006],[-83.853819,37.584128],[-83.853673,37.584315],[-83.853251,37.584787],[-83.853106,37.584963],[-83.852923,37.585235],[-83.852808,37.585469],[-83.852694,37.585966],[-83.852652,37.586367],[-83.852647,37.586622],[-83.852681,37.587426],[-83.852715,37.58757],[-83.852778,37.587707],[-83.85288,37.587828],[-83.853318,37.588238],[-83.853412,37.588366],[-83.853448,37.588432],[-83.853495,37.588578],[-83.853647,37.589533],[-83.853678,37.58984],[-83.853679,37.589988],[-83.853659,37.590135],[-83.853603,37.590268],[-83.853552,37.59034],[-83.853516,37.59038],[-83.853397,37.590464],[-83.853118,37.59061],[-83.852955,37.59067],[-83.852483,37.590747],[-83.852069,37.590835],[-83.85196,37.590847],[-83.85185,37.590853],[-83.851638,37.590846],[-83.851435,37.590828],[-83.851235,37.590798],[-83.850937,37.590723],[-83.85037,37.590545],[-83.850085,37.590505],[-83.849899,37.590507],[-83.849718,37.590533],[-83.849366,37.590643],[-83.849179,37.590683],[-83.849085,37.590686],[-83.848905,37.590666],[-83.84816,37.59044],[-83.847827,37.590367],[-83.847425,37.590301],[-83.847264,37.590244],[-83.847203,37.590199],[-83.847159,37.590144],[-83.847103,37.590029],[-83.846862,37.589402],[-83.84679,37.589273],[-83.846736,37.589231],[-83.846617,37.58917],[-83.846453,37.589102],[-83.846349,37.589101],[-83.84625,37.589134],[-83.84616,37.589209],[-83.846085,37.589311],[-83.846034,37.589425],[-83.845923,37.589738],[-83.845736,37.590163],[-83.845717,37.590233],[-83.845595,37.591247],[-83.845613,37.591872],[-83.845585,37.592146],[-83.845528,37.592415],[-83.845496,37.592634],[-83.845441,37.592858],[-83.845373,37.593075],[-83.845259,37.593335],[-83.845,37.593739185915496]]}},{"type":"Feature","properties":{"osm_id":16269533,"highway":"residential","name":"Newton Mays Cemetery Road","alt_name":null,"official_name":null,"surface":"unpaved","tracktype":null,"service":null,"access":null,"motor_vehicle":null,"foot":null,"tiger_reviewed":"no","rrgh_part":0,"rrgh_tile_part":0},"geometry":{"type":"LineString","coordinates":[[-83.845,37.58950296465969],[-83.845149,37.589431],[-83.845304,37.589333],[-83.845401,37.589224],[-83.845857,37.588575],[-83.846056,37.588398],[-83.846254,37.588179],[-83.846432,37.588071],[-83.846496,37.588057],[-83.846551,37.588058],[-83.846597,37.588075],[-83.846633,37.588105],[-83.846655,37.588146],[-83.846663,37.588196],[-83.846638,37.588309],[-83.846404,37.588771],[-83.846363,37.588883],[-83.846363,37.589001],[-83.846395,37.589055],[-83.846453,37.589102]]}},{"type":"Feature","properties":{"osm_id":16270108,"highway":"residential","name":"Tom London Martin Cemetery Road","alt_name":null,"official_name":null,"surface":"dirt","tracktype":null,"service":null,"access":null,"motor_vehicle":null,"foot":null,"tiger_reviewed":"no","rrgh_part":0,"rrgh_tile_part":0},"geometry":{"type":"LineString","coordinates":[[-83.860647,37.566303],[-83.860719,37.566325],[-83.860747,37.566343],[-83.860824,37.566471],[-83.860898,37.566533],[-83.860932,37.56655],[-83.861053,37.56667],[-83.861253,37.566844],[-83.861325,37.567021],[-83.861382,37.567258],[-83.861421,37.56733],[-83.86145,37.567419],[-83.8615634,37.5677166],[-83.8616596,37.5678463],[-83.861721,37.567919],[-83.861846,37.5679784],[-83.8619571,37.5679983],[-83.8625905,37.5680794],[-83.8627536,37.5680805],[-83.8628604,37.5681041],[-83.8629303,37.568184],[-83.8630382,37.5684182],[-83.8632302,37.5688518],[-83.8633066,37.5690427],[-83.8634088,37.5691801],[-83.8637268,37.5694162],[-83.8639672,37.5695627],[-83.8642875,37.5698102],[-83.864378,37.569846],[-83.864402,37.569913],[-83.864413,37.569994],[-83.86441,37.570179],[-83.864522,37.570488],[-83.864566,37.57077],[-83.864576,37.570914]]}},{"type":"Feature","properties":{"osm_id":1223116040,"highway":"track","name":null,"alt_name":null,"official_name":null,"surface":null,"tracktype":null,"service":null,"access":null,"motor_vehicle":null,"foot":null,"tiger_reviewed":null,"rrgh_part":0,"rrgh_tile_part":0},"geometry":{"type":"LineString","coordinates":[[-83.864576,37.570914],[-83.8640982,37.5714497],[-83.864007,37.5715687],[-83.8639748,37.5716537],[-83.8639641,37.571794],[-83.8639856,37.5720109],[-83.8641089,37.5725423],[-83.8641572,37.5726401],[-83.8645111,37.573078],[-83.8647149,37.573282],[-83.8648221,37.57335],[-83.8651278,37.5734861],[-83.865664,37.573907],[-83.8666025,37.5744426],[-83.8669564,37.574702],[-83.8671602,37.574889],[-83.8672407,37.5749911],[-83.8673318,37.5751781],[-83.8673104,37.5753482],[-83.8671255,37.5757246],[-83.86702,37.5758367],[-83.8669687,37.5759285],[-83.8669084,37.5761174],[-83.8668921,37.5764025],[-83.8669564,37.5767851],[-83.8671012,37.5770062],[-83.8678949,37.5772485],[-83.8679592,37.5773123],[-83.8680129,37.5773421],[-83.8681523,37.5774016],[-83.8682113,37.5774611],[-83.8682649,37.5775419],[-83.8683024,37.5776652],[-83.8682864,37.577797],[-83.868104,37.5781031],[-83.868029,37.5782731],[-83.8679807,37.5784602],[-83.8679646,37.5786515],[-83.8679753,37.5788301],[-83.8681148,37.5791702],[-83.8682864,37.5794125],[-83.868341,37.579524],[-83.8683494,37.5796912],[-83.8683179,37.5798825]]}},{"type":"Feature","properties":{"osm_id":1335248142,"highway":"track","name":null,"alt_name":null,"official_name":null,"surface":null,"tracktype":null,"service":null,"access":null,"motor_vehicle":null,"foot":null,"tiger_reviewed":null,"rrgh_part":0,"rrgh_tile_part":0},"geometry":{"type":"LineString","coordinates":[[-83.845,37.579466632740676],[-83.8452194,37.5794565],[-83.8455949,37.5794608],[-83.8459381,37.5794863],[-83.8461097,37.5794863],[-83.8463135,37.579465],[-83.8465281,37.5794693],[-83.8466407,37.5794905],[-83.8467587,37.5795415],[-83.8472521,37.5798772],[-83.84759,37.5802512],[-83.8476383,37.5803744]]}},{"type":"Feature","properties":{"osm_id":848756842,"highway":"service","name":null,"alt_name":null,"official_name":null,"surface":null,"tracktype":null,"service":null,"access":"private","motor_vehicle":null,"foot":null,"tiger_reviewed":null,"rrgh_part":0,"rrgh_tile_part":0},"geometry":{"type":"LineString","coordinates":[[-83.8710919,37.5851824],[-83.8709582,37.585192],[-83.8708584,37.5852275],[-83.8708036,37.584972],[-83.8707725,37.584868],[-83.870691,37.584746],[-83.87058,37.584617],[-83.8705001,37.584514],[-83.8704123,37.5844048],[-83.8703709,37.5843514],[-83.8702785,37.5841699],[-83.8702576,37.5841237],[-83.8702288,37.5840776],[-83.8701791,37.5840189],[-83.8701151,37.5839623],[-83.8699882,37.5838543],[-83.8698738,37.5837417],[-83.8697724,37.5836239],[-83.8696276,37.5834234],[-83.8696234,37.5833981],[-83.8696262,37.5833728],[-83.8697355,37.5832454]]}},{"type":"Feature","properties":{"osm_id":16160862,"highway":"residential","name":"Little Ross Creek","alt_name":null,"official_name":null,"surface":"unpaved","tracktype":null,"service":null,"access":null,"motor_vehicle":null,"foot":null,"tiger_reviewed":null,"rrgh_part":0,"rrgh_tile_part":0},"geometry":{"type":"LineString","coordinates":[[-83.869335,37.593745],[-83.8693409,37.5937754],[-83.86939,37.593964],[-83.869434,37.594073],[-83.869496,37.594255],[-83.869544,37.594548],[-83.869567,37.594826],[-83.869537,37.595314],[-83.869521,37.595407],[-83.869501,37.595481],[-83.869469,37.595544],[-83.869345,37.595696],[-83.869305,37.595815],[-83.869315,37.59652],[-83.869327,37.596592],[-83.869426,37.596931],[-83.869522,37.59713],[-83.869647,37.597325],[-83.86988,37.597629],[-83.8699649,37.5977278],[-83.8699707,37.5977922],[-83.8699568,37.5978488],[-83.8699425,37.5978749],[-83.8699146,37.5979025],[-83.869885,37.5979271],[-83.8698423,37.5979551],[-83.8698193,37.5979644],[-83.869787,37.597969],[-83.8697461,37.5979747],[-83.8696882,37.5979686],[-83.8696223,37.5979582],[-83.8695785,37.5979476],[-83.869437,37.597918],[-83.869197,37.597814],[-83.86913,37.597809],[-83.868752,37.597903],[-83.8686098,37.5979062],[-83.8685142,37.5978998],[-83.8684127,37.5979035],[-83.8682144,37.5979164],[-83.867086,37.59798],[-83.866731,37.598004],[-83.8664431,37.5980188],[-83.86625,37.598059]]}},{"type":"Feature","properties":{"osm_id":935756508,"highway":"residential","name":"Little Ross Creek Road","alt_name":null,"official_name":null,"surface":"unpaved","tracktype":null,"service":null,"access":null,"motor_vehicle":null,"foot":null,"tiger_reviewed":"no","rrgh_part":0,"rrgh_tile_part":0},"geometry":{"type":"LineString","coordinates":[[-83.8710919,37.5851824],[-83.87111,37.58521],[-83.871178,37.585433],[-83.8713418,37.586113],[-83.8713797,37.5862026],[-83.8714412,37.5863178],[-83.8715462,37.5864443],[-83.8717,37.5866611],[-83.8718019,37.5868517],[-83.8718654,37.5869865],[-83.8719549,37.5872874],[-83.8719669,37.5873684],[-83.871962,37.587664],[-83.871945,37.587781],[-83.871898,37.587963],[-83.871762,37.5882],[-83.871702,37.588358],[-83.871665,37.58859],[-83.871589,37.588734],[-83.871586,37.588836],[-83.8715709,37.5889327],[-83.871546,37.589039],[-83.8715047,37.5891317],[-83.8712836,37.5894769],[-83.8712188,37.5896209],[-83.8711464,37.5898214],[-83.8710851,37.5899367],[-83.871063,37.589995],[-83.871024,37.590155],[-83.871022,37.590204],[-83.871043,37.590346],[-83.8710855,37.5904214],[-83.871102,37.5904618],[-83.8711093,37.5904986],[-83.8711056,37.5905443],[-83.871092,37.590638],[-83.871071,37.590676],[-83.870997,37.590731],[-83.870923,37.590787],[-83.870806,37.590845],[-83.870559,37.590991],[-83.870348,37.591155],[-83.870168,37.591242],[-83.870046,37.59132],[-83.869949,37.591394],[-83.869774,37.591598],[-83.869454,37.59187],[-83.869376,37.591978],[-83.869324,37.592094],[-83.869249,37.59241],[-83.869175,37.592613],[-83.869143,37.59289],[-83.869169,37.593187],[-83.869196,37.593332],[-83.86926,37.593557],[-83.869335,37.593745]]}},{"type":"Feature","properties":{"osm_id":16268527,"highway":"service","name":null,"alt_name":null,"official_name":null,"surface":null,"tracktype":null,"service":null,"access":null,"motor_vehicle":null,"foot":null,"tiger_reviewed":"no","rrgh_part":0,"rrgh_tile_part":0},"geometry":{"type":"LineString","coordinates":[[-83.870997,37.590731],[-83.87145,37.590658],[-83.871563,37.590639]]}},{"type":"Feature","properties":{"osm_id":968775917,"highway":"service","name":null,"alt_name":null,"official_name":null,"surface":null,"tracktype":null,"service":null,"access":null,"motor_vehicle":null,"foot":null,"tiger_reviewed":null,"rrgh_part":0,"rrgh_tile_part":0},"geometry":{"type":"LineString","coordinates":[[-83.88554027421795,37.6],[-83.8854648,37.5997899],[-83.8854139,37.5996086],[-83.8854393,37.5993535],[-83.8854817,37.5986598],[-83.8855015,37.5983868],[-83.8853913,37.5981832],[-83.885349,37.5980713],[-83.8854026,37.5978408],[-83.8854026,37.597664],[-83.8853518,37.5975566],[-83.8852247,37.5974224],[-83.88501,37.597212],[-83.8848236,37.5969636],[-83.8846909,37.5968338],[-83.8845101,37.5967175],[-83.8843237,37.5965228],[-83.8841571,37.596393],[-83.8839792,37.5963572],[-83.8837973,37.5965392],[-83.8836875,37.5966087],[-83.8834066,37.5966539],[-83.8831828,37.5966783]]}},{"type":"Feature","properties":{"osm_id":16159885,"highway":"track","name":null,"alt_name":null,"official_name":null,"surface":null,"tracktype":null,"service":null,"access":null,"motor_vehicle":null,"foot":null,"tiger_reviewed":"no","rrgh_part":0,"rrgh_tile_part":0},"geometry":{"type":"LineString","coordinates":[[-83.87891,37.598934],[-83.879248,37.599062],[-83.879496,37.599139],[-83.880017,37.5992],[-83.881477,37.599287]]}},{"type":"Feature","properties":{"osm_id":16269113,"highway":"residential","name":"Little Ross Creek Road","alt_name":null,"official_name":null,"surface":"unpaved","tracktype":null,"service":null,"access":null,"motor_vehicle":null,"foot":null,"tiger_reviewed":null,"rrgh_part":0,"rrgh_tile_part":0},"geometry":{"type":"LineString","coordinates":[[-83.86625,37.598059],[-83.866114,37.59809],[-83.865898,37.598154],[-83.86576,37.598212],[-83.86537,37.598418],[-83.86524,37.598477],[-83.864822,37.598633],[-83.864295,37.598782],[-83.86401,37.598835],[-83.863691,37.598947],[-83.863519,37.599038],[-83.863182,37.599253],[-83.8630668,37.5993294],[-83.8629696,37.5993934],[-83.8629348,37.5994303],[-83.8629069,37.5994671],[-83.86286,37.599562],[-83.86269350877194,37.6]]}},{"type":"Feature","properties":{"osm_id":16268815,"highway":"residential","name":null,"alt_name":null,"official_name":null,"surface":null,"tracktype":null,"service":null,"access":null,"motor_vehicle":null,"foot":null,"tiger_reviewed":"no","rrgh_part":0,"rrgh_tile_part":0},"geometry":{"type":"LineString","coordinates":[[-83.853495,37.588578],[-83.853773,37.588574],[-83.85406,37.588464],[-83.854277,37.58834],[-83.85452,37.58804],[-83.854708,37.587917],[-83.854985,37.587841],[-83.855411,37.58779],[-83.855727,37.587613],[-83.856043,37.587509],[-83.856429,37.587404],[-83.856597,37.587315],[-83.856685,37.587195]]}},{"type":"Feature","properties":{"osm_id":16270334,"highway":"residential","name":"McKenny Cemetery Road","alt_name":null,"official_name":null,"surface":"dirt","tracktype":null,"service":null,"access":null,"motor_vehicle":null,"foot":null,"tiger_reviewed":"no","rrgh_part":0,"rrgh_tile_part":0},"geometry":{"type":"LineString","coordinates":[[-83.853552,37.59034],[-83.853587,37.590837],[-83.853675,37.59103],[-83.853832,37.591202],[-83.853885,37.591303],[-83.853907,37.591392],[-83.853871,37.591488],[-83.853754,37.591516],[-83.853702,37.591511],[-83.853592,37.59146],[-83.853509,37.591457],[-83.853417,37.591466],[-83.853295,37.59149],[-83.85312,37.591578],[-83.852845,37.591847],[-83.852783,37.591949],[-83.852728,37.592152],[-83.852619,37.592329],[-83.852475,37.592581],[-83.852396,37.592871],[-83.852261,37.593189],[-83.852223,37.593225],[-83.852178,37.593291],[-83.852104,37.593451],[-83.852083,37.593544],[-83.852095,37.593827],[-83.852198,37.594348],[-83.852252,37.594544],[-83.8523,37.594658],[-83.852407,37.594788],[-83.852552,37.594929],[-83.852826,37.595103],[-83.852901,37.595182],[-83.853116,37.59537],[-83.853139,37.595453],[-83.853113,37.595488],[-83.852916,37.595614],[-83.852849,37.595711],[-83.852732,37.596023],[-83.852658,37.596093],[-83.852579,37.596138],[-83.85243,37.596192],[-83.852068,37.596436],[-83.851956,37.596522],[-83.851621,37.596722],[-83.851423,37.596894],[-83.851265,37.597015]]}},{"type":"Feature","properties":{"osm_id":16270330,"highway":"residential","name":"McKenny Cemetery Road","alt_name":null,"official_name":null,"surface":null,"tracktype":null,"service":null,"access":null,"motor_vehicle":null,"foot":null,"tiger_reviewed":"no","rrgh_part":0,"rrgh_tile_part":0},"geometry":{"type":"LineString","coordinates":[[-83.850998,37.597325],[-83.851265,37.597015],[-83.851109,37.597048],[-83.851031,37.597078],[-83.850974,37.597129],[-83.850894,37.597214],[-83.850826,37.59734],[-83.850817,37.597405],[-83.850821,37.59743],[-83.850851,37.597427],[-83.850917,37.597397],[-83.850998,37.597325]]}}],"rrgh_tile":{"id":"r2c1","bounds":[37.525000000000006,-83.93,37.6,-83.845]}}
