{"type":"FeatureCollection","features":[{"type":"Feature","properties":{"osm_id":16109211,"highway":"residential","name":"Smith Branch Road","alt_name":null,"official_name":null,"surface":null,"tracktype":null,"service":null,"access":null,"motor_vehicle":null,"foot":null,"tiger_reviewed":"no","rrgh_part":0,"rrgh_tile_part":0},"geometry":{"type":"LineString","coordinates":[[-83.31162274545456,37.525000000000006],[-83.311745,37.525123],[-83.311814,37.525226],[-83.311934,37.525429],[-83.312065,37.525635],[-83.312214,37.525793],[-83.312301,37.52587],[-83.312393,37.525939],[-83.312487,37.526],[-83.312667,37.526104],[-83.31298,37.526287],[-83.313193,37.526396],[-83.313937,37.52672],[-83.314158,37.526828],[-83.31428,37.52688],[-83.314388,37.526936],[-83.314626,37.527039],[-83.314736,37.527092],[-83.314895,37.527192],[-83.315014,37.527283],[-83.315172,37.527444],[-83.315226,37.527542],[-83.315293,37.527638],[-83.315544,37.528042],[-83.315729,37.528365],[-83.315881,37.52857],[-83.316068,37.528763],[-83.316336,37.529014],[-83.316546,37.52925],[-83.316637,37.529356],[-83.316707,37.529469],[-83.316944,37.529781],[-83.317075,37.529978],[-83.317153,37.530047],[-83.317244,37.53011],[-83.317344,37.53017],[-83.31745,37.530212],[-83.317559,37.530247],[-83.317673,37.530272],[-83.317791,37.530288],[-83.317912,37.530293],[-83.318156,37.530277],[-83.318275,37.530258],[-83.318511,37.530231],[-83.318952,37.530214],[-83.319047,37.530219],[-83.31913,37.53023],[-83.319207,37.530248],[-83.319359,37.530302],[-83.319646,37.530419]]}},{"type":"Feature","properties":{"osm_id":16117006,"highway":"residential","name":"Big Branch Southfork Road","alt_name":null,"official_name":null,"surface":null,"tracktype":null,"service":null,"access":null,"motor_vehicle":null,"foot":null,"tiger_reviewed":"no","rrgh_part":0,"rrgh_tile_part":0},"geometry":{"type":"LineString","coordinates":[[-83.320018,37.531291],[-83.320057,37.531356],[-83.320146,37.531508],[-83.320245,37.531653],[-83.320366,37.531787],[-83.320518,37.531912],[-83.320598,37.531964],[-83.320834,37.532094],[-83.321092,37.532229],[-83.321177,37.532263],[-83.321267,37.532308],[-83.321731,37.532565],[-83.322102,37.532746],[-83.322201,37.532789],[-83.32241,37.532866],[-83.322738,37.532976],[-83.322905,37.533026],[-83.323069,37.533058],[-83.3233,37.533095],[-83.32341,37.533102],[-83.323638,37.533137],[-83.323939,37.53316],[-83.324281,37.533209],[-83.324378,37.533211],[-83.324478,37.533206],[-83.324587,37.533195],[-83.324696,37.533174],[-83.324919,37.533114],[-83.325348,37.532976],[-83.32554,37.532901],[-83.325982,37.532674],[-83.326076,37.532638],[-83.326328,37.532493],[-83.326571,37.532344],[-83.326796,37.532222],[-83.327036,37.532101],[-83.327129,37.53206],[-83.327317,37.531959],[-83.327585,37.531849],[-83.327653,37.531831],[-83.327823,37.531822],[-83.327888,37.531835],[-83.327946,37.53186],[-83.328,37.531895],[-83.328045,37.531935],[-83.328081,37.531981],[-83.3281596,37.5321137],[-83.328203,37.532187],[-83.3283,37.532382],[-83.328331,37.53246],[-83.328423,37.532613],[-83.328526,37.532763],[-83.328598,37.532827],[-83.32877,37.53301],[-83.328873,37.533104],[-83.329053,37.533254],[-83.32923,37.533398],[-83.329396,37.533566],[-83.329451,37.533628],[-83.3295033,37.5336941],[-83.329804,37.534074],[-83.330054,37.534353],[-83.330249,37.534553],[-83.33032,37.534611],[-83.330402,37.53466],[-83.330494,37.534698],[-83.3307,37.534759],[-83.331153,37.534853],[-83.331671,37.534923],[-83.331801,37.534938],[-83.331931,37.534946],[-83.332061,37.534938],[-83.332191,37.534919],[-83.332322,37.534894],[-83.332449,37.534854],[-83.332691,37.534762],[-83.332949,37.534677],[-83.333272,37.534556],[-83.333434,37.534481],[-83.333498,37.534445],[-83.333601,37.534372],[-83.333656,37.534344],[-83.333799,37.534329],[-83.333868,37.534314],[-83.334203,37.534216],[-83.33453,37.534153],[-83.334849,37.534078],[-83.33500000000001,37.53403803838384]]}},{"type":"Feature","properties":{"osm_id":16105744,"highway":"residential","name":null,"alt_name":null,"official_name":null,"surface":null,"tracktype":null,"service":null,"access":null,"motor_vehicle":null,"foot":null,"tiger_reviewed":"no","rrgh_part":0,"rrgh_tile_part":0},"geometry":{"type":"LineString","coordinates":[[-83.314895,37.527192],[-83.31492,37.52716],[-83.314964,37.52711],[-83.315,37.527076],[-83.315044,37.527039],[-83.315097,37.527005],[-83.315158,37.526973],[-83.315226,37.526942],[-83.315598,37.526785],[-83.316099,37.526538],[-83.316163,37.526504],[-83.316281,37.526432],[-83.316374,37.526359],[-83.316565,37.526182],[-83.316664,37.526074],[-83.316711,37.52601]]}},{"type":"Feature","properties":{"osm_id":16109338,"highway":"residential","name":"Ruby Drive","alt_name":null,"official_name":null,"surface":null,"tracktype":null,"service":null,"access":null,"motor_vehicle":null,"foot":null,"tiger_reviewed":"no","rrgh_part":0,"rrgh_tile_part":0},"geometry":{"type":"LineString","coordinates":[[-83.31066444000001,37.525000000000006],[-83.310683,37.525016],[-83.310708,37.525042],[-83.310726,37.525071],[-83.310776,37.525134],[-83.310807,37.525162],[-83.310842,37.525188],[-83.31092,37.525233],[-83.311102,37.525316],[-83.311135,37.525334],[-83.311165,37.525352],[-83.311229,37.525401]]}},{"type":"Feature","properties":{"osm_id":16112982,"highway":"residential","name":"Tee Pee Drive","alt_name":null,"official_name":null,"surface":null,"tracktype":null,"service":null,"access":null,"motor_vehicle":null,"foot":null,"tiger_reviewed":"no","rrgh_part":0,"rrgh_tile_part":0},"geometry":{"type":"LineString","coordinates":[[-83.312667,37.526104],[-83.312456,37.526183],[-83.312403,37.526208],[-83.312386,37.52622],[-83.312341,37.526271],[-83.312313,37.526312],[-83.312281,37.526341],[-83.312258,37.526354],[-83.312235,37.526362],[-83.312219,37.526363],[-83.312205,37.526362],[-83.312177,37.526352],[-83.312151,37.526334],[-83.31208,37.52626],[-83.312021,37.526205]]}},{"type":"Feature","properties":{"osm_id":16105683,"highway":"residential","name":null,"alt_name":null,"official_name":null,"surface":null,"tracktype":null,"service":null,"access":null,"motor_vehicle":null,"foot":null,"tiger_reviewed":"no","rrgh_part":0,"rrgh_tile_part":0},"geometry":{"type":"LineString","coordinates":[[-83.330156,37.532413],[-83.330064,37.532468],[-83.329818,37.53262],[-83.329692,37.532707],[-83.329334,37.532969],[-83.329084,37.533144],[-83.32905,37.533176],[-83.329035,37.533206],[-83.329037,37.533233],[-83.329053,37.533254]]}},{"type":"Feature","properties":{"osm_id":1157789404,"highway":"residential","name":null,"alt_name":null,"official_name":null,"surface":null,"tracktype":null,"service":null,"access":null,"motor_vehicle":null,"foot":null,"tiger_reviewed":null,"rrgh_part":0,"rrgh_tile_part":0},"geometry":{"type":"LineString","coordinates":[[-83.3295033,37.5336941],[-83.3294252,37.5337803],[-83.3293544,37.5339962],[-83.3293108,37.5341647]]}},{"type":"Feature","properties":{"osm_id":16106411,"highway":"residential","name":null,"alt_name":null,"official_name":null,"surface":null,"tracktype":null,"service":null,"access":null,"motor_vehicle":null,"foot":null,"tiger_reviewed":"no","rrgh_part":0,"rrgh_tile_part":0},"geometry":{"type":"LineString","coordinates":[[-83.32539,37.531612],[-83.325314,37.531582],[-83.325173,37.531512],[-83.325085,37.531462],[-83.325006,37.531412],[-83.324906,37.531339],[-83.324781,37.531232],[-83.324713,37.531178],[-83.324397,37.530957],[-83.324256,37.530838],[-83.324209,37.530802],[-83.324161,37.530768],[-83.323964,37.530655],[-83.323877,37.530599],[-83.323842,37.530569],[-83.323822,37.530536],[-83.323823,37.530505]]}},{"type":"Feature","properties":{"osm_id":1157789403,"highway":"residential","name":null,"alt_name":null,"official_name":null,"surface":null,"tracktype":null,"service":null,"access":null,"motor_vehicle":null,"foot":null,"tiger_reviewed":null,"rrgh_part":0,"rrgh_tile_part":0},"geometry":{"type":"LineString","coordinates":[[-83.3281596,37.5321137],[-83.3280417,37.5320547],[-83.3279628,37.5320007],[-83.3278511,37.531964],[-83.3277449,37.5319705],[-83.3276496,37.532018],[-83.3275461,37.5320979],[-83.327497,37.5321713],[-83.327497,37.5322512],[-83.3275815,37.5323981],[-83.327527,37.5325817],[-83.3275216,37.5326529],[-83.3275651,37.5326961],[-83.3276142,37.5327415],[-83.3277285,37.5327523],[-83.3278402,37.5327479],[-83.3280227,37.5327609],[-83.328344,37.5328624],[-83.3286572,37.5330287],[-83.328873,37.533104]]}},{"type":"Feature","properties":{"osm_id":16109640,"highway":"residential","name":"Flat Bridge","alt_name":null,"official_name":null,"surface":null,"tracktype":null,"service":null,"access":null,"motor_vehicle":null,"foot":null,"tiger_reviewed":"no","rrgh_part":0,"rrgh_tile_part":0},"geometry":{"type":"LineString","coordinates":[[-83.319284,37.531031],[-83.319446,37.53106],[-83.319658,37.531106],[-83.319741,37.531136],[-83.319817,37.531152],[-83.319892,37.531182],[-83.319959,37.531224],[-83.320018,37.531291]]}},{"type":"Feature","properties":{"osm_id":16106462,"highway":"residential","name":null,"alt_name":null,"official_name":null,"surface":null,"tracktype":null,"service":null,"access":null,"motor_vehicle":null,"foot":null,"tiger_reviewed":"no","rrgh_part":0,"rrgh_tile_part":0},"geometry":{"type":"LineString","coordinates":[[-83.271951,37.528034],[-83.271847,37.52799],[-83.271705,37.52794],[-83.27165,37.527934],[-83.271544,37.527832],[-83.270974,37.527646],[-83.270974,37.527633],[-83.270576,37.527432],[-83.270322,37.527271],[-83.270319,37.527261],[-83.269864,37.526964],[-83.269429,37.526575],[-83.269486,37.526253],[-83.269176,37.525903]]}},{"type":"Feature","properties":{"osm_id":16111139,"highway":"residential","name":"Clemons-Prater Cemetery Road","alt_name":null,"official_name":null,"surface":null,"tracktype":null,"service":null,"access":null,"motor_vehicle":null,"foot":null,"tiger_reviewed":"no","rrgh_part":0,"rrgh_tile_part":0},"geometry":{"type":"LineString","coordinates":[[-83.281428,37.528772],[-83.281405,37.528794],[-83.281372,37.528841],[-83.28133,37.528913],[-83.281294,37.528958],[-83.281255,37.529022],[-83.281175,37.529185],[-83.281127,37.529315],[-83.281105,37.529416],[-83.281102,37.529451],[-83.281107,37.529519],[-83.281128,37.529613],[-83.281132,37.529645],[-83.28113,37.529677],[-83.281119,37.529709],[-83.281096,37.529736],[-83.281066,37.529761],[-83.28095,37.529815],[-83.280874,37.529855],[-83.28084,37.529877],[-83.28081,37.529904],[-83.28079,37.529933],[-83.280781,37.529961]]}},{"type":"Feature","properties":{"osm_id":1157958404,"highway":"unclassified","name":null,"alt_name":null,"official_name":null,"surface":null,"tracktype":null,"service":null,"access":null,"motor_vehicle":null,"foot":null,"tiger_reviewed":null,"rrgh_part":0,"rrgh_tile_part":0},"geometry":{"type":"LineString","coordinates":[[-83.274807,37.52857],[-83.2747927,37.5286428],[-83.2747763,37.5287015],[-83.274768,37.528769],[-83.2747242,37.5288908],[-83.2747214,37.5289691],[-83.2747379,37.5290386],[-83.2747516,37.5291409],[-83.2747598,37.5292322],[-83.2747872,37.5292953],[-83.2748393,37.5293736],[-83.2748805,37.5294497],[-83.2749531,37.5295008],[-83.2750382,37.5295215],[-83.2751657,37.529566],[-83.2752277,37.5296156],[-83.2753152,37.5296984],[-83.2753994,37.5298105],[-83.2754398,37.5298933],[-83.2754634,37.5300054],[-83.2754903,37.5301336],[-83.2754937,37.5302457],[-83.2755105,37.5303258],[-83.2755713,37.5304024],[-83.2756386,37.5304985],[-83.2757094,37.530616],[-83.2757801,37.5307255],[-83.2758642,37.5308189],[-83.2759248,37.5308804],[-83.2759686,37.5309311]]}},{"type":"Feature","properties":{"osm_id":16105045,"highway":"service","name":null,"alt_name":null,"official_name":null,"surface":null,"tracktype":null,"service":null,"access":"private","motor_vehicle":null,"foot":null,"tiger_reviewed":"no","rrgh_part":0,"rrgh_tile_part":0},"geometry":{"type":"LineString","coordinates":[[-83.273685,37.527632],[-83.274358,37.527619],[-83.2746591,37.5276292]]}},{"type":"Feature","properties":{"osm_id":16105049,"highway":"service","name":null,"alt_name":null,"official_name":null,"surface":null,"tracktype":null,"service":null,"access":"private","motor_vehicle":null,"foot":null,"tiger_reviewed":"no","rrgh_part":0,"rrgh_tile_part":0},"geometry":{"type":"LineString","coordinates":[[-83.271986,37.528213],[-83.272457,37.528183],[-83.273331,37.527779],[-83.274358,37.527619]]}},{"type":"Feature","properties":{"osm_id":16106247,"highway":"service","name":null,"alt_name":null,"official_name":null,"surface":null,"tracktype":null,"service":null,"access":"private","motor_vehicle":null,"foot":null,"tiger_reviewed":"no","rrgh_part":0,"rrgh_tile_part":0},"geometry":{"type":"LineString","coordinates":[[-83.274768,37.527837],[-83.274756,37.527737]]}},{"type":"Feature","properties":{"osm_id":16106251,"highway":"service","name":null,"alt_name":null,"official_name":null,"surface":null,"tracktype":null,"service":null,"access":"private","motor_vehicle":null,"foot":null,"tiger_reviewed":"no","rrgh_part":0,"rrgh_tile_part":0},"geometry":{"type":"LineString","coordinates":[[-83.2746591,37.5276292],[-83.274624,37.527392],[-83.27453,37.527287]]}},{"type":"Feature","properties":{"osm_id":16108752,"highway":"service","name":"Swift Lane","alt_name":null,"official_name":null,"surface":null,"tracktype":null,"service":null,"access":"private","motor_vehicle":null,"foot":null,"tiger_reviewed":"no","rrgh_part":0,"rrgh_tile_part":0},"geometry":{"type":"LineString","coordinates":[[-83.27493,37.527882],[-83.274946,37.527787],[-83.274877,37.527711],[-83.274873,37.52759],[-83.2747741,37.5275725],[-83.2746591,37.5276292]]}},{"type":"Feature","properties":{"osm_id":16110060,"highway":"residential","name":"Ben Smith Branch Road","alt_name":null,"official_name":null,"surface":null,"tracktype":null,"service":null,"access":null,"motor_vehicle":null,"foot":null,"tiger_reviewed":"no","rrgh_part":0,"rrgh_tile_part":0},"geometry":{"type":"LineString","coordinates":[[-83.270359,37.526145],[-83.27041,37.52615],[-83.270447,37.526163],[-83.270614,37.526271],[-83.270691,37.526337],[-83.270736,37.526368],[-83.270824,37.526459],[-83.27084,37.526494],[-83.27085,37.526553],[-83.270856,37.526679],[-83.270866,37.526745],[-83.270866,37.526782],[-83.270885,37.526896],[-83.270895,37.526916],[-83.270938,37.526949],[-83.270976,37.526973],[-83.271014,37.526991],[-83.271059,37.527003],[-83.271098,37.527021],[-83.271179,37.527042],[-83.271283,37.52708],[-83.271364,37.527131],[-83.271404,37.527163],[-83.271453,37.527222],[-83.271494,37.527287],[-83.271542,37.527367],[-83.271582,37.527455],[-83.271594,37.5275],[-83.27162,37.52767],[-83.27163,37.52771],[-83.271649,37.527752],[-83.271682,37.527792],[-83.271729,37.527826],[-83.271828,37.527882],[-83.271871,37.527911],[-83.271906,37.527945],[-83.27193,37.52798],[-83.271951,37.528034],[-83.271957,37.528055],[-83.271978,37.528187],[-83.271986,37.528213],[-83.271997,37.528234],[-83.272017,37.528253],[-83.272045,37.528268],[-83.272079,37.528277],[-83.272161,37.528288],[-83.2722115,37.5283162]]}},{"type":"Feature","properties":{"osm_id":16116686,"highway":"residential","name":"Sam Allen Cemetery Road","alt_name":null,"official_name":null,"surface":null,"tracktype":null,"service":null,"access":null,"motor_vehicle":null,"foot":null,"tiger_reviewed":"no","rrgh_part":0,"rrgh_tile_part":0},"geometry":{"type":"LineString","coordinates":[[-83.276065,37.528362],[-83.276019,37.528414],[-83.275944,37.528503],[-83.275875,37.528561],[-83.275845,37.528579],[-83.27581,37.528592],[-83.275774,37.5286],[-83.275735,37.528602],[-83.275697,37.528595],[-83.275658,37.528581],[-83.275583,37.528543],[-83.275277,37.528356],[-83.275194,37.528302],[-83.275112,37.528256],[-83.275071,37.528241],[-83.275032,37.528231],[-83.27499,37.528227],[-83.274953,37.528232],[-83.274921,37.528243],[-83.274897,37.528259],[-83.274878,37.528279],[-83.274864,37.528303],[-83.27485,37.528359],[-83.274845,37.52845],[-83.27484,37.52848],[-83.274807,37.52857]]}},{"type":"Feature","properties":{"osm_id":16106457,"highway":"residential","name":null,"alt_name":null,"official_name":null,"surface":null,"tracktype":null,"service":null,"access":null,"motor_vehicle":null,"foot":null,"tiger_reviewed":"no","rrgh_part":0,"rrgh_tile_part":0},"geometry":{"type":"LineString","coordinates":[[-83.2980411,37.5372353],[-83.298532,37.535992],[-83.298529,37.535939],[-83.298369,37.534745]]}},{"type":"Feature","properties":{"osm_id":16106459,"highway":"residential","name":null,"alt_name":null,"official_name":null,"surface":null,"tracktype":null,"service":null,"access":null,"motor_vehicle":null,"foot":null,"tiger_reviewed":"no","rrgh_part":0,"rrgh_tile_part":0},"geometry":{"type":"LineString","coordinates":[[-83.296932,37.535576],[-83.29742,37.535366],[-83.298038,37.535524],[-83.298529,37.535939]]}},{"type":"Feature","properties":{"osm_id":16107564,"highway":"residential","name":"Left Fork Hardin Bridge","alt_name":null,"official_name":null,"surface":null,"tracktype":null,"service":null,"access":null,"motor_vehicle":null,"foot":null,"tiger_reviewed":"no","rrgh_part":0,"rrgh_tile_part":0},"geometry":{"type":"LineString","coordinates":[[-83.306195,37.539006],[-83.306218,37.539041],[-83.306234,37.539061],[-83.306285,37.539102],[-83.306323,37.539123],[-83.306417,37.53916],[-83.306532,37.53919],[-83.306843,37.539254],[-83.307045,37.539292],[-83.307106,37.539301],[-83.307162,37.539304],[-83.307273,37.539298],[-83.307331,37.539298],[-83.307496,37.53931],[-83.307549,37.539311],[-83.30764,37.539302],[-83.307752,37.539279],[-83.30796,37.539224],[-83.308035,37.539199],[-83.308148,37.539149],[-83.308329,37.539046],[-83.308368,37.539029],[-83.308438,37.53901]]}},{"type":"Feature","properties":{"osm_id":16109174,"highway":"residential","name":"Smith Br Road","alt_name":null,"official_name":null,"surface":null,"tracktype":null,"service":null,"access":null,"motor_vehicle":null,"foot":null,"tiger_reviewed":"no","rrgh_part":0,"rrgh_tile_part":0},"geometry":{"type":"LineString","coordinates":[[-83.307929,37.537847],[-83.307869,37.537828],[-83.307777,37.537805],[-83.307691,37.537779],[-83.307646,37.537769],[-83.307502,37.537724],[-83.307406,37.537688],[-83.307318,37.537641],[-83.307153,37.537515],[-83.307065,37.537455],[-83.306974,37.537415],[-83.306926,37.537401],[-83.30688,37.537392],[-83.306765,37.53739],[-83.306697,37.537393],[-83.306478,37.537411],[-83.306203,37.537423],[-83.306065,37.537425],[-83.306006,37.537429],[-83.305948,37.537437],[-83.305894,37.537451],[-83.305839,37.537459],[-83.3058,37.537471]]}},{"type":"Feature","properties":{"osm_id":16112520,"highway":"residential","name":"Hardin Branch Road","alt_name":null,"official_name":null,"surface":null,"tracktype":null,"service":null,"access":null,"motor_vehicle":null,"foot":null,"tiger_reviewed":"no","rrgh_part":0,"rrgh_tile_part":0},"geometry":{"type":"LineString","coordinates":[[-83.307286,37.538537],[-83.307221,37.538665],[-83.307175,37.538706],[-83.307141,37.538728],[-83.307101,37.538749],[-83.307051,37.538769],[-83.306991,37.538787],[-83.306855,37.538804],[-83.306787,37.538801],[-83.306533,37.53876],[-83.306357,37.53874],[-83.306308,37.538742],[-83.306268,37.538754],[-83.306243,37.538773],[-83.306228,37.538792],[-83.306213,37.538825],[-83.306203,37.53888],[-83.306201,37.538984],[-83.306195,37.539006],[-83.306179,37.539031],[-83.306159,37.539051],[-83.306047,37.539113],[-83.305843,37.539214],[-83.305797,37.539234],[-83.305724,37.539255]]}},{"type":"Feature","properties":{"osm_id":16112523,"highway":"residential","name":"Hardin Branch Road","alt_name":null,"official_name":null,"surface":null,"tracktype":null,"service":null,"access":null,"motor_vehicle":null,"foot":null,"tiger_reviewed":"no","rrgh_part":0,"rrgh_tile_part":0},"geometry":{"type":"LineString","coordinates":[[-83.305655,37.539301],[-83.305724,37.539255],[-83.305544,37.539278],[-83.305499,37.539289],[-83.305463,37.539306],[-83.305439,37.539327],[-83.305432,37.539347],[-83.305437,37.539364],[-83.30545,37.539378],[-83.305471,37.539388],[-83.305499,37.539393],[-83.305532,37.53939],[-83.305565,37.539378],[-83.305595,37.539357],[-83.305655,37.539301]]}},{"type":"Feature","properties":{"osm_id":16117597,"highway":"residential","name":"Fallin Rock Road","alt_name":null,"official_name":null,"surface":null,"tracktype":null,"service":null,"access":null,"motor_vehicle":null,"foot":null,"tiger_reviewed":"no","rrgh_part":0,"rrgh_tile_part":0},"geometry":{"type":"LineString","coordinates":[[-83.306203,37.537423],[-83.306321,37.537363],[-83.306459,37.537311],[-83.306539,37.537287],[-83.306624,37.537257]]}},{"type":"Feature","properties":{"osm_id":16104973,"highway":"service","name":null,"alt_name":null,"official_name":null,"surface":null,"tracktype":null,"service":null,"access":"private","motor_vehicle":null,"foot":null,"tiger_reviewed":"no","rrgh_part":0,"rrgh_tile_part":0},"geometry":{"type":"LineString","coordinates":[[-83.2994113,37.5369572],[-83.299471,37.537115],[-83.299495,37.537164],[-83.299502,37.537191],[-83.298936,37.538997],[-83.298784,37.53964],[-83.298781,37.539876],[-83.298818,37.540057],[-83.298811,37.540249],[-83.298897,37.540325],[-83.299004,37.540363],[-83.299964,37.540568]]}},{"type":"Feature","properties":{"osm_id":16110107,"highway":"residential","name":"Fugate Cemetery 1 Road","alt_name":null,"official_name":null,"surface":null,"tracktype":null,"service":null,"access":null,"motor_vehicle":null,"foot":null,"tiger_reviewed":"no","rrgh_part":0,"rrgh_tile_part":0},"geometry":{"type":"LineString","coordinates":[[-83.281674,37.532493],[-83.281729,37.532491],[-83.281799,37.532464],[-83.281832,37.532457],[-83.281871,37.532455],[-83.281912,37.53246],[-83.282051,37.532493],[-83.282211,37.532519],[-83.282313,37.532528],[-83.282413,37.532524],[-83.282563,37.532499],[-83.28263,37.532484],[-83.282759,37.532445],[-83.282952,37.532402],[-83.283109,37.53234],[-83.283211,37.532303],[-83.283316,37.532272],[-83.283406,37.532233],[-83.283453,37.532219],[-83.2835,37.532201],[-83.283543,37.532183],[-83.28364,37.532132],[-83.283759,37.532057],[-83.283813,37.532016],[-83.283866,37.531989],[-83.283892,37.531984],[-83.283916,37.531988],[-83.283935,37.531999],[-83.283948,37.532013],[-83.283951,37.532032],[-83.283943,37.532053],[-83.283871,37.532175],[-83.283774,37.532286],[-83.283734,37.532326],[-83.283474,37.532515],[-83.283427,37.532555],[-83.283392,37.53259],[-83.283312,37.532653],[-83.283233,37.532733],[-83.28321,37.53275],[-83.28315,37.532807],[-83.283078,37.532884],[-83.283031,37.532925],[-83.282939,37.532995],[-83.282776,37.533138],[-83.282713,37.533198],[-83.282665,37.533255],[-83.28264,37.533308],[-83.282635,37.533335],[-83.282636,37.533365],[-83.282649,37.533422],[-83.282686,37.533543],[-83.28271,37.533676],[-83.282726,37.533717]]}},{"type":"Feature","properties":{"osm_id":16111310,"highway":"residential","name":"James Br Road","alt_name":null,"official_name":null,"surface":null,"tracktype":null,"service":null,"access":null,"motor_vehicle":null,"foot":null,"tiger_reviewed":"no","rrgh_part":0,"rrgh_tile_part":0},"geometry":{"type":"LineString","coordinates":[[-83.285191,37.536657],[-83.285154,37.536676],[-83.285048,37.536752],[-83.284999,37.536776],[-83.284755,37.536843],[-83.284669,37.536864],[-83.284552,37.536903],[-83.284255,37.536994],[-83.284188,37.537012],[-83.284144,37.537017],[-83.284122,37.537019],[-83.284057,37.537008],[-83.283996,37.536981],[-83.283936,37.536947],[-83.283806,37.536862],[-83.283731,37.536818],[-83.283651,37.536778],[-83.283564,37.536745],[-83.283371,37.536689],[-83.283272,37.536657],[-83.283082,37.536586],[-83.282839,37.536472],[-83.282489,37.536287],[-83.282285,37.536196],[-83.28221,37.536157],[-83.282143,37.536113],[-83.282094,37.536058],[-83.28206,37.535997],[-83.282034,37.535936],[-83.282,37.535877],[-83.281953,37.535822],[-83.281895,37.535769],[-83.28183,37.535716],[-83.281626,37.535559],[-83.281487,37.535422],[-83.281331,37.535251],[-83.281131,37.535058],[-83.281009,37.534915],[-83.28089,37.534769]]}},{"type":"Feature","properties":{"osm_id":16105015,"highway":"residential","name":null,"alt_name":null,"official_name":null,"surface":null,"tracktype":null,"service":null,"access":null,"motor_vehicle":null,"foot":null,"tiger_reviewed":"no","rrgh_part":0,"rrgh_tile_part":0},"geometry":{"type":"LineString","coordinates":[[-83.2951431,37.5382564],[-83.295223,37.538324],[-83.2953,37.538365],[-83.295343,37.538374],[-83.295391,37.538377],[-83.295448,37.53837],[-83.2955,37.538373],[-83.295542,37.53837],[-83.295583,37.538373],[-83.295623,37.538388],[-83.295655,37.538409],[-83.295675,37.538433],[-83.295688,37.538462],[-83.295712,37.538499],[-83.295776,37.538656],[-83.295813,37.538729],[-83.295829,37.538788],[-83.295823,37.538827],[-83.295785,37.538882],[-83.295761,37.538897],[-83.295743,37.538914],[-83.295704,37.538965],[-83.295675,37.538989],[-83.295648,37.539017],[-83.295546,37.539093],[-83.295507,37.539106],[-83.295425,37.539122],[-83.295281,37.539161],[-83.295235,37.539184],[-83.295188,37.539203],[-83.295139,37.539218],[-83.295038,37.539241],[-83.294988,37.539248],[-83.294825,37.539263],[-83.294666,37.539285],[-83.29444,37.539307],[-83.294314,37.539316],[-83.294252,37.539325],[-83.294139,37.53933],[-83.294046,37.539324]]}},{"type":"Feature","properties":{"osm_id":16106460,"highway":"residential","name":null,"alt_name":null,"official_name":null,"surface":null,"tracktype":null,"service":null,"access":null,"motor_vehicle":null,"foot":null,"tiger_reviewed":"no","rrgh_part":0,"rrgh_tile_part":0},"geometry":{"type":"LineString","coordinates":[[-83.293342,37.537226],[-83.293555,37.536265]]}},{"type":"Feature","properties":{"osm_id":16109287,"highway":"residential","name":"Clemons Hardin Cemetery Road","alt_name":null,"official_name":null,"surface":null,"tracktype":null,"service":null,"access":null,"motor_vehicle":null,"foot":null,"tiger_reviewed":"no","rrgh_part":0,"rrgh_tile_part":0},"geometry":{"type":"LineString","coordinates":[[-83.284144,37.537017],[-83.284183,37.537072],[-83.284235,37.537119],[-83.284252,37.53714],[-83.284261,37.537164],[-83.284258,37.537244],[-83.284268,37.53727],[-83.284283,37.537295],[-83.284369,37.537397],[-83.284455,37.537537],[-83.2845,37.537586],[-83.284595,37.537671],[-83.284664,37.537749],[-83.284676,37.537767],[-83.284793,37.538113],[-83.284817,37.538157],[-83.284897,37.538266],[-83.284916,37.538316],[-83.284916,37.538361],[-83.2849,37.53839],[-83.284883,37.538415],[-83.284823,37.538456]]}},{"type":"Feature","properties":{"osm_id":16108246,"highway":"residential","name":"Phyllis Drive","alt_name":null,"official_name":null,"surface":null,"tracktype":null,"service":null,"access":null,"motor_vehicle":null,"foot":null,"tiger_reviewed":"no","rrgh_part":0,"rrgh_tile_part":0},"geometry":{"type":"LineString","coordinates":[[-83.2819378,37.5342136],[-83.281911,37.534244],[-83.281725,37.534175],[-83.281517,37.534088],[-83.281425,37.534041],[-83.281372,37.534024],[-83.281227,37.534],[-83.281187,37.533987],[-83.28115,37.53397],[-83.281116,37.533946],[-83.281084,37.533917],[-83.281056,37.533883],[-83.281032,37.533844],[-83.281013,37.533802],[-83.280942,37.533577],[-83.280898,37.533469],[-83.280891,37.533434],[-83.28089,37.533399],[-83.280902,37.533365],[-83.280944,37.533294],[-83.280991,37.533241]]}},{"type":"Feature","properties":{"osm_id":1176327369,"highway":"unclassified","name":null,"alt_name":null,"official_name":null,"surface":null,"tracktype":null,"service":null,"access":null,"motor_vehicle":null,"foot":null,"tiger_reviewed":null,"rrgh_part":0,"rrgh_tile_part":0},"geometry":{"type":"LineString","coordinates":[[-83.2823497,37.5446331],[-83.2820919,37.5448116],[-83.2818545,37.5449089],[-83.2813922,37.5449641],[-83.2810648,37.5449608],[-83.2808397,37.5449641],[-83.2806638,37.5450322],[-83.2805656,37.5451003],[-83.2804919,37.5452333],[-83.2805124,37.5453664],[-83.2805738,37.5454897],[-83.2807088,37.5456065],[-83.2809011,37.5456843],[-83.281073,37.5458076],[-83.2812694,37.545986],[-83.2812121,37.546158],[-83.2811876,37.5463202],[-83.2810075,37.5466706],[-83.280807,37.5468847],[-83.2805451,37.5470632],[-83.2803282,37.5473065],[-83.2802137,37.547433],[-83.2799559,37.5475985],[-83.2796694,37.5476958],[-83.2795058,37.5478158],[-83.2792111,37.5479618],[-83.2789534,37.5479586],[-83.2787774,37.5479067],[-83.2786546,37.5478158],[-83.2784951,37.5476536],[-83.2784132,37.5475239],[-83.2782741,37.5473746],[-83.2781268,37.5473065],[-83.2779631,37.5473584],[-83.2778976,37.5474265],[-83.2778444,37.5474655],[-83.2776726,37.5476179],[-83.2775416,37.5479067],[-83.2775744,37.5480754],[-83.2776726,37.5482798],[-83.2775007,37.5485263],[-83.2773411,37.5486788],[-83.2771447,37.5487664],[-83.277026,37.5487891],[-83.2768787,37.5488183]]}},{"type":"Feature","properties":{"osm_id":16111381,"highway":"residential","name":"Carpenter Branch Road","alt_name":null,"official_name":null,"surface":null,"tracktype":null,"service":null,"access":null,"motor_vehicle":null,"foot":null,"tiger_reviewed":"no","rrgh_part":0,"rrgh_tile_part":0},"geometry":{"type":"LineString","coordinates":[[-83.330929,37.569207],[-83.330975,37.569285],[-83.331033,37.569397],[-83.33105,37.569448],[-83.331061,37.569501],[-83.331071,37.569607],[-83.331082,37.56966],[-83.331099,37.56972],[-83.331126,37.56978],[-83.331159,37.569841],[-83.3312,37.569898],[-83.331301,37.570006],[-83.331475,37.570147],[-83.331532,37.5702],[-83.331648,37.570324],[-83.331759,37.570462],[-83.33191,37.570684],[-83.331969,37.570756],[-83.332036,37.570827],[-83.332185,37.570964],[-83.332346,37.571104],[-83.332427,37.571171],[-83.332511,37.571233],[-83.332597,37.571289],[-83.332687,37.571339],[-83.332778,37.571385],[-83.332871,37.571428],[-83.333059,37.571505],[-83.333142,37.571544],[-83.333206,37.57159],[-83.333248,37.571644],[-83.333265,37.571704],[-83.333267,37.571766],[-83.333257,37.571897],[-83.333264,37.571964],[-83.333289,37.572029],[-83.333335,37.57209],[-83.333471,37.572202],[-83.333537,37.572267],[-83.333593,37.572342],[-83.333641,37.572423],[-83.333772,37.572691],[-83.333858,37.57288],[-83.333897,37.572974],[-83.333929,37.573066],[-83.334044,37.57344],[-83.334114,37.573634],[-83.334159,37.573724],[-83.334213,37.57381],[-83.334279,37.57389],[-83.33449,37.574116],[-83.33455,37.57419],[-83.334628,37.574343],[-83.334683,37.574487],[-83.334712,37.574546],[-83.334745,37.574591],[-83.334788,37.57462],[-83.334827,37.574627],[-83.33491,37.574624],[-83.33500000000001,37.574607125]]}},{"type":"Feature","properties":{"osm_id":1447037367,"highway":"residential","name":"Round Bottom Road","alt_name":null,"official_name":null,"surface":null,"tracktype":null,"service":null,"access":null,"motor_vehicle":null,"foot":null,"tiger_reviewed":"no","rrgh_part":0,"rrgh_tile_part":0},"geometry":{"type":"LineString","coordinates":[[-83.3236888,37.5599745],[-83.32352,37.560028]]}},{"type":"Feature","properties":{"osm_id":16105062,"highway":"residential","name":null,"alt_name":null,"official_name":null,"surface":null,"tracktype":null,"service":null,"access":null,"motor_vehicle":null,"foot":null,"tiger_reviewed":"no","rrgh_part":0,"rrgh_tile_part":0},"geometry":{"type":"LineString","coordinates":[[-83.3289753,37.5697295],[-83.328917,37.569602],[-83.328906,37.569528],[-83.32891,37.5695],[-83.328927,37.569471],[-83.328998,37.569397],[-83.329038,37.569349],[-83.329068,37.569294],[-83.329087,37.569233],[-83.329099,37.569173],[-83.329125,37.569017],[-83.32913,37.568974],[-83.329129,37.568931],[-83.329112,37.568888],[-83.329074,37.568843],[-83.328955,37.568752],[-83.328892,37.568697],[-83.328775,37.568576],[-83.32853,37.568303],[-83.328489,37.568261],[-83.328444,37.568225],[-83.328389,37.568201],[-83.328324,37.568192],[-83.328255,37.568199],[-83.328181,37.568212],[-83.327971,37.56826],[-83.327908,37.568269],[-83.327847,37.56827],[-83.327792,37.568262],[-83.327743,37.568245],[-83.327703,37.56822],[-83.327672,37.568186],[-83.327625,37.568104],[-83.327592,37.568065],[-83.327549,37.568035],[-83.327504,37.568013],[-83.327461,37.568],[-83.327382,37.567985],[-83.327345,37.567982],[-83.327181,37.567987],[-83.326954,37.568004],[-83.326871,37.568012],[-83.32672,37.568032],[-83.326609,37.56805],[-83.326405,37.568069],[-83.326349,37.568079],[-83.326291,37.568098],[-83.326238,37.568128],[-83.326195,37.568168],[-83.326161,37.568213],[-83.326139,37.568265],[-83.326131,37.568322],[-83.32614,37.568454],[-83.326155,37.568528],[-83.326176,37.568606],[-83.326282,37.568929],[-83.326302,37.569007],[-83.32634,37.569254],[-83.326365,37.569336],[-83.326399,37.569416],[-83.326442,37.569491],[-83.326491,37.56956],[-83.326725,37.569776],[-83.326773,37.569785],[-83.326928,37.569786],[-83.327029,37.569784],[-83.327129,37.569778],[-83.327327,37.56976],[-83.32804,37.569673],[-83.328224,37.569646],[-83.328384,37.569614],[-83.328456,37.569594],[-83.328648,37.569529],[-83.328708,37.569513],[-83.328733,37.569511]]}},{"type":"Feature","properties":{"osm_id":16112183,"highway":"residential","name":"Landrum Cemetery Road","alt_name":null,"official_name":null,"surface":null,"tracktype":null,"service":null,"access":null,"motor_vehicle":null,"foot":null,"tiger_reviewed":"no","rrgh_part":0,"rrgh_tile_part":0},"geometry":{"type":"LineString","coordinates":[[-83.322581,37.560064],[-83.322586,37.559971],[-83.322596,37.559923],[-83.322621,37.559848],[-83.322627,37.559746],[-83.322609,37.559669],[-83.322345,37.559216],[-83.322276,37.559101],[-83.322253,37.559074],[-83.322231,37.55907],[-83.322216,37.559075],[-83.322211,37.559127],[-83.322232,37.559404],[-83.322236,37.55958],[-83.322246,37.559644],[-83.322248,37.559703],[-83.322242,37.559714],[-83.322221,37.559731],[-83.322203,37.559736],[-83.322185,37.559736],[-83.322147,37.559721],[-83.322131,37.55971],[-83.322025,37.559617],[-83.321949,37.55956],[-83.32191,37.559526],[-83.321863,37.559463]]}},{"type":"Feature","properties":{"osm_id":16115419,"highway":"residential","name":"Landrum Road","alt_name":null,"official_name":null,"surface":null,"tracktype":null,"service":null,"access":null,"motor_vehicle":null,"foot":null,"tiger_reviewed":"no","rrgh_part":0,"rrgh_tile_part":0},"geometry":{"type":"LineString","coordinates":[[-83.323475,37.56005],[-83.323442,37.56005],[-83.323414,37.560052],[-83.323305,37.56003],[-83.323214,37.560016],[-83.323163,37.560011],[-83.322989,37.560009],[-83.322718,37.560017],[-83.322654,37.560025],[-83.322602,37.560045],[-83.322581,37.560064],[-83.322567,37.560076],[-83.322546,37.560114],[-83.322521,37.560193],[-83.322505,37.560232],[-83.32248,37.560268],[-83.322445,37.560296],[-83.322402,37.560313],[-83.322358,37.560325],[-83.32231,37.560327],[-83.322259,37.560325],[-83.322086,37.560305],[-83.322023,37.560306],[-83.321886,37.560302],[-83.321663,37.560272],[-83.321535,37.560271],[-83.321436,37.560286],[-83.321393,37.560303],[-83.321107,37.560454],[-83.32099,37.560528],[-83.320866,37.560594],[-83.32076,37.560658],[-83.320717,37.560691],[-83.32068,37.560729],[-83.320633,37.560798],[-83.320629,37.560827],[-83.320634,37.560847]]}},{"type":"Feature","properties":{"osm_id":16116422,"highway":"residential","name":"Round Bottom Road","alt_name":null,"official_name":null,"surface":null,"tracktype":null,"service":null,"access":null,"motor_vehicle":null,"foot":null,"tiger_reviewed":"no","rrgh_part":0,"rrgh_tile_part":0},"geometry":{"type":"LineString","coordinates":[[-83.32352,37.560028],[-83.323475,37.56005],[-83.323445,37.560074],[-83.323425,37.560101],[-83.323418,37.560127],[-83.323425,37.56015],[-83.323454,37.56021],[-83.323604,37.560418],[-83.323699,37.560557],[-83.3238,37.560677],[-83.323908,37.560798],[-83.323969,37.560878],[-83.324037,37.561008],[-83.32406,37.561042],[-83.324343,37.561429],[-83.324468,37.561581],[-83.324787,37.561927],[-83.324842,37.562012],[-83.32487,37.562062],[-83.324946,37.562218],[-83.324979,37.562271],[-83.325019,37.562321],[-83.32512,37.562409],[-83.325321,37.562568],[-83.325752,37.562879],[-83.325919,37.563003],[-83.326611,37.563529],[-83.326708,37.563615],[-83.326827,37.563736],[-83.326865,37.563769],[-83.326943,37.56383],[-83.327025,37.563887],[-83.327137,37.563984],[-83.327169,37.564021],[-83.327196,37.564059],[-83.327218,37.564098],[-83.327269,37.564272],[-83.327291,37.56432],[-83.327323,37.564367],[-83.327365,37.564412],[-83.327497,37.564531],[-83.327569,37.56461],[-83.327598,37.564649],[-83.327695,37.564812],[-83.327755,37.564904],[-83.327951,37.565171]]}},{"type":"Feature","properties":{"osm_id":1447037366,"highway":"residential","name":"Round Bottom Road","alt_name":null,"official_name":null,"surface":null,"tracktype":null,"service":null,"access":null,"motor_vehicle":null,"foot":null,"tiger_reviewed":"no","rrgh_part":0,"rrgh_tile_part":0},"geometry":{"type":"LineString","coordinates":[[-83.327048,37.56216],[-83.326808,37.562179],[-83.326307,37.562176],[-83.326203,37.562173],[-83.326098,37.562165],[-83.325994,37.56215],[-83.325892,37.562127],[-83.325796,37.562091],[-83.325707,37.562045],[-83.325625,37.56199],[-83.325546,37.561927],[-83.325402,37.561783],[-83.325317,37.561713],[-83.325088,37.561465],[-83.325018,37.56138],[-83.324957,37.561292],[-83.324903,37.5612],[-83.324582,37.560739],[-83.324291,37.560397],[-83.324172,37.560235],[-83.32404,37.560039],[-83.324011,37.560001],[-83.32398,37.559976],[-83.323939,37.559962],[-83.323886,37.559956],[-83.323826,37.559956],[-83.323763,37.559964],[-83.3236888,37.5599745]]}},{"type":"Feature","properties":{"osm_id":16116684,"highway":"residential","name":"Boggs Drive","alt_name":null,"official_name":null,"surface":null,"tracktype":null,"service":null,"access":null,"motor_vehicle":null,"foot":null,"tiger_reviewed":"no","rrgh_part":0,"rrgh_tile_part":0},"geometry":{"type":"LineString","coordinates":[[-83.314473,37.568121],[-83.314446,37.568102],[-83.314271,37.568013],[-83.314055,37.567918],[-83.313979,37.567874],[-83.313901,37.567808],[-83.313871,37.567787],[-83.313798,37.567751],[-83.313762,37.56774],[-83.313702,37.567726],[-83.313603,37.567713],[-83.31356,37.567713],[-83.313524,37.567722],[-83.313497,37.567738],[-83.313483,37.56776],[-83.313477,37.567782],[-83.313479,37.567823]]}},{"type":"Feature","properties":{"osm_id":1447037369,"highway":"residential","name":null,"alt_name":null,"official_name":null,"surface":null,"tracktype":null,"service":null,"access":null,"motor_vehicle":null,"foot":null,"tiger_reviewed":"no","rrgh_part":0,"rrgh_tile_part":0},"geometry":{"type":"LineString","coordinates":[[-83.329142,37.570016],[-83.329099,37.569967],[-83.329074,37.569933],[-83.329045,37.569882]]}},{"type":"Feature","properties":{"osm_id":16107063,"highway":"residential","name":"Allen Farm Road","alt_name":null,"official_name":null,"surface":null,"tracktype":null,"service":null,"access":null,"motor_vehicle":null,"foot":null,"tiger_reviewed":"no","rrgh_part":0,"rrgh_tile_part":0},"geometry":{"type":"LineString","coordinates":[[-83.328733,37.569511],[-83.328768,37.569508],[-83.328821,37.569516],[-83.328863,37.569533],[-83.328891,37.569557],[-83.328917,37.569602]]}},{"type":"Feature","properties":{"osm_id":16113832,"highway":"residential","name":"Ed Carpenter Cemetery Road","alt_name":null,"official_name":null,"surface":null,"tracktype":null,"service":null,"access":null,"motor_vehicle":null,"foot":null,"tiger_reviewed":"no","rrgh_part":0,"rrgh_tile_part":0},"geometry":{"type":"LineString","coordinates":[[-83.323608,37.569064],[-83.323534,37.569153],[-83.323483,37.569205],[-83.323392,37.569289],[-83.323319,37.56935],[-83.32315,37.569477],[-83.323065,37.569552],[-83.323024,37.569591],[-83.32295,37.569673],[-83.322872,37.569748],[-83.3228,37.569804],[-83.322696,37.569844],[-83.32266,37.569868],[-83.322621,37.5699],[-83.322593,37.56995],[-83.322582,37.569983],[-83.322566,37.570053],[-83.322582,37.570256],[-83.322594,37.570335],[-83.32262,37.570462],[-83.322649,37.570508]]}},{"type":"Feature","properties":{"osm_id":1447037368,"highway":"residential","name":null,"alt_name":null,"official_name":null,"surface":null,"tracktype":null,"service":null,"access":null,"motor_vehicle":null,"foot":null,"tiger_reviewed":"no","rrgh_part":0,"rrgh_tile_part":0},"geometry":{"type":"LineString","coordinates":[[-83.329045,37.569882],[-83.3289753,37.5697295]]}},{"type":"Feature","properties":{"osm_id":856113577,"highway":"residential","name":"Bradburn Branch Road","alt_name":null,"official_name":null,"surface":null,"tracktype":null,"service":null,"access":null,"motor_vehicle":null,"foot":null,"tiger_reviewed":"no","rrgh_part":0,"rrgh_tile_part":0},"geometry":{"type":"LineString","coordinates":[[-83.32046,37.57113],[-83.321047,37.571556],[-83.321915,37.5728],[-83.322221,37.573479],[-83.322347,37.574065]]}},{"type":"Feature","properties":{"osm_id":16105089,"highway":"residential","name":null,"alt_name":null,"official_name":null,"surface":null,"tracktype":null,"service":null,"access":null,"motor_vehicle":null,"foot":null,"tiger_reviewed":"no","rrgh_part":0,"rrgh_tile_part":0},"geometry":{"type":"LineString","coordinates":[[-83.31337,37.571409],[-83.313346,37.571392],[-83.313284,37.571354],[-83.313239,37.571333],[-83.313174,37.571318],[-83.313132,37.571315],[-83.313032,37.571317],[-83.312931,37.571335],[-83.312756,37.571331],[-83.312642,37.571347],[-83.312519,37.57135],[-83.312456,37.571348],[-83.312393,37.571341],[-83.312202,37.571304],[-83.312003,37.571252],[-83.311813,37.57122],[-83.311625,37.57118],[-83.311562,37.571164],[-83.31131,37.571121],[-83.311254,37.571116],[-83.3112,37.571106],[-83.311033,37.571045],[-83.310984,37.571012],[-83.310941,37.570973],[-83.31091,37.570925],[-83.310888,37.570876],[-83.310862,37.570783],[-83.31083,37.570617],[-83.310746,37.570394],[-83.310747,37.570358],[-83.310769,37.570248],[-83.31076,37.570097],[-83.310748,37.569997],[-83.310741,37.569822],[-83.310693,37.569378],[-83.31068,37.569286],[-83.310678,37.569192],[-83.310669,37.569052],[-83.310658,37.568962],[-83.310638,37.568874],[-83.310623,37.568834],[-83.310582,37.568764],[-83.310532,37.568709],[-83.310501,37.568683],[-83.310466,37.568659],[-83.310344,37.568592],[-83.310302,37.568573],[-83.310218,37.568548],[-83.310155,37.568536]]}},{"type":"Feature","properties":{"osm_id":16106271,"highway":"residential","name":null,"alt_name":null,"official_name":null,"surface":null,"tracktype":null,"service":null,"access":null,"motor_vehicle":null,"foot":null,"tiger_reviewed":"no","rrgh_part":0,"rrgh_tile_part":0},"geometry":{"type":"LineString","coordinates":[[-83.3126403,37.5723224],[-83.310124,37.571077]]}},{"type":"Feature","properties":{"osm_id":856113578,"highway":"residential","name":"L&S Carpenter Cemetery Road","alt_name":null,"official_name":null,"surface":null,"tracktype":null,"service":null,"access":null,"motor_vehicle":null,"foot":null,"tiger_reviewed":"no","rrgh_part":0,"rrgh_tile_part":0},"geometry":{"type":"LineString","coordinates":[[-83.3148914,37.5738602],[-83.314727,37.573646],[-83.314684,37.573537],[-83.314687,37.573496]]}},{"type":"Feature","properties":{"osm_id":1447037370,"highway":"residential","name":"L&S Carpenter Cemetery Road","alt_name":null,"official_name":null,"surface":null,"tracktype":null,"service":null,"access":null,"motor_vehicle":null,"foot":null,"tiger_reviewed":"no","rrgh_part":0,"rrgh_tile_part":0},"geometry":{"type":"LineString","coordinates":[[-83.315177,37.57427],[-83.315115,37.574173],[-83.3150758,37.5741188]]}},{"type":"Feature","properties":{"osm_id":1447037371,"highway":"residential","name":"L&S Carpenter Cemetery Road","alt_name":null,"official_name":null,"surface":null,"tracktype":null,"service":null,"access":null,"motor_vehicle":null,"foot":null,"tiger_reviewed":"no","rrgh_part":0,"rrgh_tile_part":0},"geometry":{"type":"LineString","coordinates":[[-83.3150758,37.5741188],[-83.3148914,37.5738602]]}},{"type":"Feature","properties":{"osm_id":16112865,"highway":"residential","name":"Lick Branch Road","alt_name":null,"official_name":null,"surface":null,"tracktype":null,"service":null,"access":null,"motor_vehicle":null,"foot":null,"tiger_reviewed":"no","rrgh_part":0,"rrgh_tile_part":0},"geometry":{"type":"LineString","coordinates":[[-83.311654,37.574829],[-83.311386,37.574869],[-83.311299,37.574881],[-83.310911,37.574924],[-83.310718,37.57495],[-83.310531,37.57499],[-83.31044,37.575015],[-83.310353,37.575045],[-83.310003,37.57518],[-83.309625,37.575317],[-83.309537,37.575355],[-83.30929,37.575478],[-83.308998,37.575606],[-83.308571,37.575772],[-83.308269,37.575882],[-83.308073,37.57594],[-83.307773,37.576015],[-83.307279,37.576152],[-83.306658,37.576316],[-83.306133,37.576462],[-83.306042,37.576489],[-83.305959,37.57652],[-83.305887,37.576559],[-83.305826,37.576603],[-83.30572,37.576703],[-83.305545,37.57684],[-83.305485,37.576883],[-83.305432,37.57693],[-83.305386,37.576981],[-83.305355,37.577034],[-83.305339,37.577088],[-83.305336,37.577141],[-83.305339,37.577194],[-83.305346,37.57725],[-83.30536,37.57731],[-83.305365,37.577374],[-83.30536,37.577411],[-83.305344,37.577482],[-83.305316,37.577538],[-83.305278,37.577587],[-83.30521,37.577636],[-83.305128,37.577673],[-83.305002,37.577717],[-83.304821,37.577769],[-83.30449,37.577917],[-83.304413,37.577954],[-83.304213,37.578063],[-83.304108,37.578132],[-83.304035,37.578198],[-83.303978,37.578289],[-83.303912,37.578412],[-83.303845,37.578521],[-83.303693,37.578682],[-83.303641,37.578755],[-83.303621,37.578861],[-83.303627,37.578963],[-83.303644,37.579134],[-83.303638,37.579229],[-83.303613,37.579319],[-83.303583,37.579386],[-83.303368,37.579626],[-83.30324,37.579813],[-83.303119,37.579971],[-83.302959,37.58022],[-83.302779,37.580543],[-83.302624,37.580768],[-83.30252,37.580943],[-83.30249,37.581057],[-83.302486,37.581134],[-83.302489,37.581266],[-83.302482,37.581446],[-83.302489,37.581587],[-83.302488,37.58185],[-83.302478,37.581954],[-83.302459,37.582282],[-83.302454,37.582733],[-83.302446,37.582844],[-83.302432,37.582952],[-83.302424,37.583051],[-83.302433,37.583137],[-83.302468,37.583201],[-83.302519,37.583248],[-83.302573,37.58329],[-83.302614,37.583335],[-83.30264,37.583379],[-83.302656,37.583424],[-83.302662,37.583476],[-83.302661,37.583534],[-83.302651,37.5836],[-83.302629,37.583673],[-83.302599,37.583747],[-83.302561,37.583819],[-83.302517,37.583893],[-83.302312,37.584207],[-83.302263,37.584288],[-83.302181,37.5844],[-83.30214,37.584463],[-83.302116,37.584548],[-83.302099,37.584683],[-83.302083,37.584964],[-83.302067,37.58506],[-83.302032,37.585158],[-83.301971,37.585233],[-83.301871,37.585324],[-83.301774,37.585395],[-83.301531,37.585476],[-83.301431,37.58555],[-83.301372,37.585625],[-83.301354,37.585738],[-83.301353,37.585857],[-83.301362,37.586027],[-83.301352,37.58624],[-83.301352,37.586418],[-83.301383,37.586625],[-83.301426,37.586877],[-83.301435,37.58706],[-83.301435,37.587155],[-83.301462,37.587211],[-83.301509,37.58725],[-83.301631,37.58732],[-83.301664,37.587348]]}},{"type":"Feature","properties":{"osm_id":16112953,"highway":"residential","name":"Sugar Camp Road","alt_name":null,"official_name":null,"surface":null,"tracktype":null,"service":null,"access":null,"motor_vehicle":null,"foot":null,"tiger_reviewed":"no","rrgh_part":0,"rrgh_tile_part":0},"geometry":{"type":"LineString","coordinates":[[-83.315333,37.578051],[-83.315381,37.578079],[-83.315493,37.578113],[-83.315695,37.578163],[-83.31587,37.578222],[-83.316164,37.57836],[-83.316225,37.578393],[-83.316282,37.57843],[-83.316331,37.57847],[-83.316491,37.578631]]}},{"type":"Feature","properties":{"osm_id":1158033832,"highway":"track","name":null,"alt_name":null,"official_name":null,"surface":null,"tracktype":null,"service":null,"access":null,"motor_vehicle":null,"foot":null,"tiger_reviewed":null,"rrgh_part":0,"rrgh_tile_part":0},"geometry":{"type":"LineString","coordinates":[[-83.315077,37.576828],[-83.3148385,37.5768025],[-83.3146381,37.5767949],[-83.3143962,37.5768075],[-83.3140367,37.5768655],[-83.3135021,37.5769462],[-83.3133685,37.5769967],[-83.3128307,37.5772438],[-83.3129007,37.5770849],[-83.3131298,37.5767949],[-83.3133462,37.5764822],[-83.3134416,37.5763536],[-83.3135276,37.5762981],[-83.3136389,37.5762452],[-83.3138967,37.5761619],[-83.314018,37.5760955],[-83.3141101,37.5759892]]}},{"type":"Feature","properties":{"osm_id":16105036,"highway":"track","name":null,"alt_name":null,"official_name":null,"surface":null,"tracktype":null,"service":null,"access":null,"motor_vehicle":null,"foot":null,"tiger_reviewed":"no","rrgh_part":0,"rrgh_tile_part":0},"geometry":{"type":"LineString","coordinates":[[-83.33500000000001,37.59642549946409],[-83.33499,37.596427],[-83.334645,37.596662],[-83.334199,37.596841],[-83.333702,37.596907],[-83.333328,37.597062],[-83.332891,37.597458],[-83.332405,37.597718],[-83.331643,37.597761],[-83.330883,37.597642],[-83.330214,37.597096],[-83.330102,37.596469],[-83.329981,37.595834],[-83.329839,37.595464],[-83.329869,37.595029],[-83.330324,37.594612],[-83.330638,37.594387],[-83.330708,37.594185],[-83.330546,37.594089],[-83.330243,37.594146],[-83.329755,37.594334],[-83.329401,37.594342]]}},{"type":"Feature","properties":{"osm_id":16110428,"highway":"residential","name":"Trace Fork Road","alt_name":null,"official_name":null,"surface":null,"tracktype":null,"service":null,"access":null,"motor_vehicle":null,"foot":null,"tiger_reviewed":"no","rrgh_part":0,"rrgh_tile_part":0},"geometry":{"type":"LineString","coordinates":[[-83.32604,37.599851],[-83.326194,37.599989],[-83.32620800000001,37.6]]}},{"type":"Feature","properties":{"osm_id":1524804285,"highway":"track","name":null,"alt_name":null,"official_name":null,"surface":null,"tracktype":null,"service":null,"access":null,"motor_vehicle":null,"foot":null,"tiger_reviewed":null,"rrgh_part":0,"rrgh_tile_part":0},"geometry":{"type":"LineString","coordinates":[[-83.3155435,37.5917468],[-83.3154309,37.5917617],[-83.3153504,37.5917808],[-83.3152699,37.5918052]]}},{"type":"Feature","properties":{"osm_id":16113644,"highway":"residential","name":"Slate Branch Road","alt_name":null,"official_name":null,"surface":null,"tracktype":null,"service":null,"access":null,"motor_vehicle":null,"foot":null,"tiger_reviewed":"no","rrgh_part":0,"rrgh_tile_part":0},"geometry":{"type":"LineString","coordinates":[[-83.296769,37.565749],[-83.296689,37.565836],[-83.29664,37.565903],[-83.296563,37.56605],[-83.296515,37.566181],[-83.296439,37.566415],[-83.296371,37.566575],[-83.296294,37.566727],[-83.296262,37.566803],[-83.296237,37.56688],[-83.296197,37.567122],[-83.29618,37.567203],[-83.296159,37.567281],[-83.296124,37.567355],[-83.296074,37.567425],[-83.296015,37.567492],[-83.295891,37.567618],[-83.295834,37.56767],[-83.295771,37.567715],[-83.2957,37.56775],[-83.295462,37.567821],[-83.295385,37.56785],[-83.295313,37.567884],[-83.295249,37.567924],[-83.295187,37.56797],[-83.295129,37.568024],[-83.294898,37.568292],[-83.294725,37.568461],[-83.294608,37.568617],[-83.294413,37.568889],[-83.294267,37.569172],[-83.29416,37.569437],[-83.294078,37.569672],[-83.294047,37.569839],[-83.293937,37.570163],[-83.293895,37.57031],[-83.293853,37.570439],[-83.293836,37.570564],[-83.293834,37.570616],[-83.293841,37.570674],[-83.293863,37.570737],[-83.294043,37.571015],[-83.294162,37.571214],[-83.294306,37.571424],[-83.29439,37.571581],[-83.294428,37.571638],[-83.294474,37.571688],[-83.294572,37.57178],[-83.294615,37.571828],[-83.294687,37.57192],[-83.294772,37.57202],[-83.294822,37.572086],[-83.294828,37.572113],[-83.294825,37.572157],[-83.294785,37.57227],[-83.294787,37.572317],[-83.294796,37.572343],[-83.294808,37.57237],[-83.294825,37.572397],[-83.294935,37.57253],[-83.295046,37.572674],[-83.295184,37.57291],[-83.2954,37.573309],[-83.295438,37.573429],[-83.295498,37.573767],[-83.295538,37.57394],[-83.295656,37.574186],[-83.295791,37.574486],[-83.295812,37.574581],[-83.295794,37.574674],[-83.295718,37.574828],[-83.2957,37.574873],[-83.295691,37.574915],[-83.295685,37.574956],[-83.29565,37.575431],[-83.295629,37.575499],[-83.295558,37.575605],[-83.295461,37.575703],[-83.295347,37.575838],[-83.295185,37.576003],[-83.295068,37.576099],[-83.294982,37.576161],[-83.2949,37.576237],[-83.294828,37.576332],[-83.29473,37.576441],[-83.294652,37.576511],[-83.294583,37.57659],[-83.294519,37.576652],[-83.294489,37.576709],[-83.294485,37.576793],[-83.29446,37.576855],[-83.294274,37.57697],[-83.294194,37.577071],[-83.294118,37.57724],[-83.294102,37.577329],[-83.294065,37.577421],[-83.294002,37.577511]]}},{"type":"Feature","properties":{"osm_id":1158033803,"highway":"residential","name":null,"alt_name":null,"official_name":null,"surface":null,"tracktype":null,"service":null,"access":null,"motor_vehicle":null,"foot":null,"tiger_reviewed":null,"rrgh_part":0,"rrgh_tile_part":0},"geometry":{"type":"LineString","coordinates":[[-83.2992779,37.5681498],[-83.2989562,37.5683095],[-83.2987118,37.5684365],[-83.2985929,37.568464],[-83.2984757,37.5684849],[-83.2983739,37.5685145],[-83.2980198,37.5686499],[-83.2979737,37.5686526],[-83.2977556,37.5685982],[-83.2977084,37.5685626],[-83.2976713,37.5684993],[-83.2976466,37.5684387],[-83.2976489,37.5683354],[-83.2976826,37.5682632],[-83.2977298,37.5681946],[-83.2977894,37.5681314],[-83.2978568,37.5680111],[-83.2978894,37.5678917],[-83.2979793,37.5676208],[-83.2981019,37.567448],[-83.2981772,37.5673152],[-83.2982717,37.5671829]]}},{"type":"Feature","properties":{"osm_id":16106709,"highway":"residential","name":null,"alt_name":null,"official_name":null,"surface":null,"tracktype":null,"service":null,"access":null,"motor_vehicle":null,"foot":null,"tiger_reviewed":"no","rrgh_part":0,"rrgh_tile_part":0},"geometry":{"type":"LineString","coordinates":[[-83.287146,37.559739],[-83.287128,37.559621],[-83.287118,37.55958],[-83.287101,37.559535],[-83.287077,37.559486],[-83.287011,37.559379],[-83.286978,37.559318],[-83.28693,37.559194],[-83.286862,37.558905],[-83.286809,37.558777],[-83.286634,37.558432],[-83.286612,37.558374],[-83.286588,37.558279],[-83.286584,37.558231],[-83.286586,37.558186],[-83.2866,37.558144],[-83.286623,37.558105],[-83.286654,37.558072],[-83.286692,37.558045],[-83.286737,37.558024],[-83.286833,37.557988],[-83.286929,37.557962],[-83.286981,37.557954],[-83.287036,37.55795],[-83.287092,37.557947],[-83.287335,37.557957],[-83.287457,37.557978],[-83.287571,37.558004],[-83.287708,37.558041],[-83.287746,37.558046],[-83.287809,37.558045],[-83.287872,37.558031],[-83.287917,37.558013],[-83.287962,37.557988],[-83.288004,37.557957],[-83.288042,37.557924],[-83.288076,37.557888],[-83.28813,37.557811],[-83.288151,37.557771],[-83.288179,37.557687],[-83.288195,37.557605],[-83.288204,37.557525],[-83.288219,37.557453],[-83.28823,37.557423],[-83.288247,37.557395],[-83.28827,37.55737],[-83.288299,37.557353],[-83.288333,37.557345],[-83.288372,37.557346],[-83.288415,37.557353],[-83.288547,37.557385],[-83.28865,37.557403],[-83.28874,37.557416],[-83.288828,37.557424]]}},{"type":"Feature","properties":{"osm_id":1158033863,"highway":"track","name":null,"alt_name":null,"official_name":null,"surface":null,"tracktype":null,"service":null,"access":null,"motor_vehicle":null,"foot":null,"tiger_reviewed":null,"rrgh_part":0,"rrgh_tile_part":0},"geometry":{"type":"LineString","coordinates":[[-83.2859619,37.5570202],[-83.2855838,37.5572496],[-83.285304,37.5574495],[-83.2851789,37.5575389],[-83.2851255,37.5576112],[-83.2850988,37.5577946],[-83.2850054,37.5579305],[-83.2849408,37.5579252],[-83.2848385,37.5576359],[-83.284774,37.5576147],[-83.284656,37.5576994],[-83.2844691,37.5580063],[-83.2844091,37.5581562],[-83.2844135,37.5583196],[-83.2843312,37.5585172],[-83.2842934,37.5586477],[-83.2843223,37.5587659],[-83.2842822,37.5588364],[-83.2843245,37.5589422],[-83.284438,37.5589863],[-83.2847161,37.5588788],[-83.284834,37.5588982],[-83.2849319,37.5590181],[-83.284992,37.5590957],[-83.2850721,37.5593197],[-83.2851745,37.5596019],[-83.2852546,37.5599264],[-83.2853346,37.5603191]]}},{"type":"Feature","properties":{"osm_id":16104939,"highway":"residential","name":null,"alt_name":null,"official_name":null,"surface":null,"tracktype":null,"service":null,"access":null,"motor_vehicle":null,"foot":null,"tiger_reviewed":"no","rrgh_part":0,"rrgh_tile_part":0},"geometry":{"type":"LineString","coordinates":[[-83.288771,37.556619],[-83.288836,37.556544],[-83.288862,37.556497],[-83.28888,37.556439],[-83.288905,37.556319],[-83.289037,37.555927],[-83.289087,37.555865],[-83.289113,37.555839],[-83.289167,37.555797],[-83.289221,37.555766],[-83.289274,37.555744],[-83.289301,37.555738],[-83.28933,37.555735],[-83.28936,37.555736],[-83.289421,37.555744],[-83.289477,37.555756],[-83.289576,37.555792],[-83.289669,37.555851],[-83.289765,37.555919],[-83.289883,37.555974],[-83.28995,37.556011],[-83.290014,37.556055],[-83.290092,37.556135],[-83.290161,37.556198],[-83.290211,37.556233],[-83.290492,37.556452],[-83.29059,37.556518],[-83.290625,37.556535],[-83.290663,37.556549],[-83.290697,37.556568],[-83.290968,37.556781],[-83.291034,37.556839],[-83.29115,37.556917],[-83.291561,37.557088],[-83.291907,37.557266],[-83.292124,37.557393],[-83.292474,37.557581],[-83.292507,37.557591],[-83.29254,37.557588],[-83.292574,37.557576],[-83.292587,37.557562],[-83.292595,37.557543],[-83.292592,37.557518],[-83.29249,37.557331],[-83.292404,37.557223]]}},{"type":"Feature","properties":{"osm_id":1158033839,"highway":"track","name":null,"alt_name":null,"official_name":null,"surface":null,"tracktype":null,"service":null,"access":null,"motor_vehicle":null,"foot":null,"tiger_reviewed":null,"rrgh_part":0,"rrgh_tile_part":0},"geometry":{"type":"LineString","coordinates":[[-83.2942791,37.5644525],[-83.2943332,37.5643456],[-83.2944513,37.5642293],[-83.2944839,37.5641437],[-83.2945982,37.5639473],[-83.2947243,37.5639096],[-83.2951521,37.5639209],[-83.2953688,37.5639257],[-83.2954727,37.5639064],[-83.295599,37.5638208],[-83.2956927,37.5637723],[-83.2958027,37.5637594],[-83.2959983,37.563803],[-83.2962101,37.5638192]]}},{"type":"Feature","properties":{"osm_id":16105135,"highway":"residential","name":null,"alt_name":null,"official_name":null,"surface":null,"tracktype":null,"service":null,"access":null,"motor_vehicle":null,"foot":null,"tiger_reviewed":"no","rrgh_part":0,"rrgh_tile_part":0},"geometry":{"type":"LineString","coordinates":[[-83.279976,37.567115],[-83.27994,37.567137],[-83.279924,37.567155],[-83.279914,37.56718],[-83.279913,37.56721],[-83.279918,37.567244],[-83.279966,37.567397],[-83.279974,37.567435],[-83.279995,37.567572],[-83.279997,37.567624],[-83.279992,37.567676],[-83.279979,37.567732],[-83.279937,37.567847],[-83.279921,37.567906],[-83.279909,37.567955],[-83.279897,37.568088],[-83.279864,37.568185],[-83.279662,37.568557],[-83.279635,37.568597],[-83.279478,37.568858],[-83.279449,37.568909],[-83.279426,37.568959],[-83.279415,37.569003],[-83.279419,37.569041],[-83.279428,37.569072],[-83.279436,37.569128],[-83.279455,37.569312],[-83.279444,37.569369]]}},{"type":"Feature","properties":{"osm_id":16109589,"highway":"residential","name":"Ritchie Road","alt_name":null,"official_name":null,"surface":null,"tracktype":null,"service":null,"access":null,"motor_vehicle":null,"foot":null,"tiger_reviewed":"no","rrgh_part":0,"rrgh_tile_part":0},"geometry":{"type":"LineString","coordinates":[[-83.275971,37.563883],[-83.276083,37.563837],[-83.276117,37.563827],[-83.27618,37.563817],[-83.276344,37.56381],[-83.276407,37.563804],[-83.276466,37.56379],[-83.276517,37.56376],[-83.276555,37.563716],[-83.27658,37.563661],[-83.276591,37.563603],[-83.276589,37.563542],[-83.27658,37.563477],[-83.276562,37.563415],[-83.276537,37.563356],[-83.276426,37.563165],[-83.2763719,37.5630406],[-83.276343,37.562974],[-83.276322,37.56294],[-83.27627,37.562885],[-83.276203,37.562823],[-83.276132,37.562766],[-83.276097,37.562742],[-83.27606,37.562723],[-83.276019,37.562711],[-83.27593,37.562703],[-83.275753,37.562697],[-83.275572,37.56268],[-83.2753,37.562648]]}},{"type":"Feature","properties":{"osm_id":16112571,"highway":"residential","name":"Noble Cemetery 3 Road","alt_name":null,"official_name":null,"surface":null,"tracktype":null,"service":null,"access":null,"motor_vehicle":null,"foot":null,"tiger_reviewed":"no","rrgh_part":0,"rrgh_tile_part":0},"geometry":{"type":"LineString","coordinates":[[-83.26239,37.580123],[-83.262549,37.580143],[-83.262642,37.580151],[-83.262777,37.580171],[-83.262813,37.580172],[-83.262846,37.580164],[-83.262873,37.580151],[-83.262947,37.580101],[-83.262973,37.580089],[-83.262999,37.580082],[-83.263026,37.58008],[-83.263053,37.580086],[-83.263075,37.580094],[-83.263147,37.580132],[-83.263174,37.580152],[-83.26327,37.580287],[-83.263362,37.580386],[-83.263371,37.580407]]}},{"type":"Feature","properties":{"osm_id":16107716,"highway":"residential","name":"Henson-Hounshell Cemetery Road","alt_name":null,"official_name":null,"surface":null,"tracktype":null,"service":null,"access":null,"motor_vehicle":null,"foot":null,"tiger_reviewed":"no","rrgh_part":0,"rrgh_tile_part":0},"geometry":{"type":"LineString","coordinates":[[-83.301664,37.587348],[-83.301688,37.587357],[-83.302216,37.58755],[-83.302295,37.587575],[-83.302555,37.587683],[-83.302663,37.587737],[-83.302717,37.587768],[-83.302815,37.587834],[-83.302895,37.587893],[-83.30296,37.587927],[-83.302978,37.587931],[-83.302982,37.587927],[-83.30297,37.587907],[-83.302968,37.587878],[-83.302954,37.587807],[-83.302944,37.587771],[-83.302928,37.587736],[-83.302926,37.587718],[-83.302932,37.58768],[-83.30296,37.587583]]}},{"type":"Feature","properties":{"osm_id":16111781,"highway":"residential","name":"Lick Branch-Noctor Road","alt_name":null,"official_name":null,"surface":null,"tracktype":null,"service":null,"access":null,"motor_vehicle":null,"foot":null,"tiger_reviewed":"no","rrgh_part":0,"rrgh_tile_part":0},"geometry":{"type":"LineString","coordinates":[[-83.301664,37.587348],[-83.301676,37.587388],[-83.301679,37.587427],[-83.301661,37.587486],[-83.301642,37.587516],[-83.301613,37.587545],[-83.301578,37.587572],[-83.301535,37.587599],[-83.301431,37.587656],[-83.301168,37.587792],[-83.300892,37.587941],[-83.300761,37.588027],[-83.300486,37.588182],[-83.300423,37.588221],[-83.300368,37.588264],[-83.300218,37.588402],[-83.300111,37.588494],[-83.299976,37.588694],[-83.299949,37.588813],[-83.299939,37.58888],[-83.299936,37.58895],[-83.299903,37.589086],[-83.299814,37.589414],[-83.299577,37.589844],[-83.299527,37.590061],[-83.29954,37.590111],[-83.299558,37.590162],[-83.299599,37.59026],[-83.29966,37.590348],[-83.299762,37.590483],[-83.299797,37.590536],[-83.299819,37.590593],[-83.299835,37.590657],[-83.299836,37.590725],[-83.29983,37.590806],[-83.299831,37.59085],[-83.299845,37.590904],[-83.299882,37.590963],[-83.300126,37.59128],[-83.300228,37.591429],[-83.300363,37.591612]]}},{"type":"Feature","properties":{"osm_id":108835880,"highway":"residential","name":"Meat Scaffold Road","alt_name":null,"official_name":null,"surface":null,"tracktype":null,"service":null,"access":null,"motor_vehicle":null,"foot":null,"tiger_reviewed":"no","rrgh_part":0,"rrgh_tile_part":0},"geometry":{"type":"LineString","coordinates":[[-83.28259,37.593979],[-83.283111,37.594017],[-83.283185,37.594031],[-83.283272,37.594058],[-83.28331,37.594073],[-83.283374,37.594107],[-83.283535,37.594222],[-83.283594,37.594258],[-83.283674,37.594291],[-83.28374,37.594311],[-83.283814,37.59434],[-83.2839,37.594383],[-83.283986,37.59445],[-83.284097,37.594544],[-83.284248,37.594636],[-83.284287,37.594665],[-83.284372,37.594719],[-83.28451,37.594785],[-83.284556,37.594803],[-83.284651,37.594848],[-83.284776,37.594901],[-83.285072,37.595048],[-83.285155,37.59508],[-83.285316,37.595149],[-83.285715,37.595344],[-83.285849,37.595436],[-83.285908,37.595484],[-83.286015,37.595558],[-83.28606,37.595584],[-83.286159,37.595634],[-83.286346,37.595715],[-83.286455,37.595789],[-83.286533,37.595871],[-83.286566,37.59596],[-83.286565,37.596072],[-83.286554,37.5961],[-83.286538,37.596166],[-83.286537,37.596238],[-83.28655,37.59632],[-83.286593,37.596425],[-83.286665,37.596528],[-83.286773,37.596653],[-83.286837,37.59671],[-83.28687,37.596734],[-83.287031,37.596827],[-83.287165,37.596892],[-83.28722,37.596907],[-83.287341,37.596909],[-83.287402,37.596893],[-83.287459,37.596867],[-83.287511,37.596834],[-83.287606,37.596757],[-83.287644,37.596714],[-83.287679,37.596668],[-83.287707,37.596624],[-83.287758,37.596471],[-83.287772,37.596363],[-83.287794,37.59626],[-83.287817,37.596224],[-83.287861,37.596191],[-83.287958,37.596178],[-83.28802,37.596202],[-83.288063,37.596253],[-83.288071,37.596312],[-83.287991,37.596573],[-83.287916,37.596785],[-83.287833,37.596954],[-83.287794,37.597017],[-83.287746,37.597134],[-83.287702,37.597289],[-83.287665,37.597384],[-83.287595,37.597524],[-83.287461,37.597644],[-83.287396,37.597664],[-83.28729,37.597684],[-83.287205,37.597688],[-83.287163,37.597686],[-83.28708,37.59767],[-83.287038,37.597659],[-83.286906,37.597613],[-83.286808,37.597573],[-83.28676,37.597552],[-83.28659,37.597463],[-83.286487,37.597401],[-83.286422,37.597381],[-83.286357,37.597389],[-83.28631,37.597418],[-83.286292,37.597454],[-83.286297,37.5975],[-83.286374,37.597608],[-83.28646,37.597703],[-83.286506,37.597745],[-83.286552,37.59778],[-83.286603,37.597813],[-83.286727,37.597882],[-83.286764,37.59791],[-83.286937,37.598009],[-83.287414,37.598247],[-83.287454,37.598259],[-83.287545,37.598277],[-83.287632,37.598289],[-83.28781,37.598298],[-83.287934,37.598299],[-83.288043,37.598288],[-83.288155,37.598235],[-83.288206,37.598201],[-83.288305,37.598115],[-83.288568,37.597829],[-83.288733,37.597629],[-83.288787,37.597559],[-83.288978,37.597365],[-83.289063,37.597329],[-83.289149,37.597302],[-83.289311,37.597274],[-83.289386,37.597276],[-83.289459,37.597281],[-83.289608,37.5973],[-83.289681,37.597317],[-83.289987,37.597421],[-83.290042,37.597441],[-83.290331,37.597592],[-83.290385,37.59763],[-83.290573,37.597783],[-83.290701,37.597922],[-83.290826,37.598146],[-83.290928,37.598347],[-83.290978,37.598515],[-83.291054,37.598714],[-83.291092,37.598802],[-83.291169,37.59894],[-83.291285,37.599118],[-83.291366,37.599253],[-83.291387,37.599284],[-83.291438,37.59934],[-83.291517,37.599396],[-83.291622,37.599451],[-83.291806,37.599537],[-83.291978,37.599649],[-83.292176,37.599753],[-83.292439,37.599883],[-83.292497,37.599907],[-83.292748,37.599992],[-83.29276043373494,37.6]]}},{"type":"Feature","properties":{"osm_id":16107154,"highway":"residential","name":"Holly Fork Road","alt_name":null,"official_name":null,"surface":null,"tracktype":null,"service":null,"access":null,"motor_vehicle":null,"foot":null,"tiger_reviewed":"no","rrgh_part":0,"rrgh_tile_part":0},"geometry":{"type":"LineString","coordinates":[[-83.270106,37.59112],[-83.270079,37.591208],[-83.270058,37.591265],[-83.270047,37.591286],[-83.269952,37.591473],[-83.269898,37.591568],[-83.269878,37.591611],[-83.269869,37.591651],[-83.269871,37.591695],[-83.269919,37.591884],[-83.26993,37.591942],[-83.269947,37.592055],[-83.269957,37.592157],[-83.269967,37.592204],[-83.269991,37.592279],[-83.270159,37.592558],[-83.270186,37.592679],[-83.270187,37.592778],[-83.270172,37.59297],[-83.270189,37.593017],[-83.270254,37.593141],[-83.270324,37.593329],[-83.270402,37.593487],[-83.270459,37.593597],[-83.270582,37.593806],[-83.270602,37.593848]]}},{"type":"Feature","properties":{"osm_id":16107052,"highway":"residential","name":"Ritchie Lane","alt_name":null,"official_name":null,"surface":null,"tracktype":null,"service":null,"access":null,"motor_vehicle":null,"foot":null,"tiger_reviewed":"no","rrgh_part":0,"rrgh_tile_part":0},"geometry":{"type":"LineString","coordinates":[[-83.270047,37.591286],[-83.270071,37.591297],[-83.270123,37.591316],[-83.270161,37.591326],[-83.27033,37.591362],[-83.270525,37.591411],[-83.270657,37.591439],[-83.270745,37.591455],[-83.271325,37.591546]]}},{"type":"Feature","properties":{"osm_id":16116652,"highway":"residential","name":"Licking Fork Road","alt_name":null,"official_name":null,"surface":null,"tracktype":null,"service":null,"access":null,"motor_vehicle":null,"foot":null,"tiger_reviewed":"no","rrgh_part":0,"rrgh_tile_part":0},"geometry":{"type":"LineString","coordinates":[[-83.265011,37.587105],[-83.264954,37.587134],[-83.264932,37.587143],[-83.264903,37.58715]]}},{"type":"Feature","properties":{"osm_id":16111358,"highway":"residential","name":"Licking Fork","alt_name":null,"official_name":null,"surface":null,"tracktype":null,"service":null,"access":null,"motor_vehicle":null,"foot":null,"tiger_reviewed":"no","rrgh_part":0,"rrgh_tile_part":0},"geometry":{"type":"LineString","coordinates":[[-83.264903,37.58715],[-83.264858,37.587159],[-83.264813,37.587169],[-83.264761,37.587186],[-83.264732,37.587199],[-83.264677,37.587242],[-83.264652,37.587272],[-83.264605,37.587352],[-83.264587,37.587395],[-83.264575,37.587442],[-83.264566,37.587487],[-83.264568,37.587577],[-83.264596,37.587882],[-83.264603,37.588007],[-83.264621,37.588134],[-83.264621,37.588171],[-83.264615,37.588214],[-83.264602,37.58826],[-83.264576,37.588304],[-83.264543,37.588349],[-83.264366,37.588532],[-83.264274,37.588635],[-83.264191,37.588735],[-83.264102,37.588857],[-83.264026,37.588985],[-83.263951,37.589081],[-83.263908,37.58912],[-83.263863,37.589152],[-83.263815,37.589177],[-83.263764,37.589196],[-83.263708,37.589208],[-83.263579,37.589229],[-83.263511,37.589249],[-83.26345,37.589278],[-83.263397,37.589318],[-83.263352,37.589363],[-83.263272,37.589461],[-83.263201,37.589555],[-83.263166,37.589594],[-83.26313,37.589628],[-83.263093,37.589657],[-83.262975,37.589734],[-83.262871,37.589788],[-83.262804,37.589812],[-83.262757,37.589819],[-83.262354,37.589844],[-83.262311,37.589851],[-83.262276,37.589861],[-83.26225,37.589876]]}},{"type":"Feature","properties":{"osm_id":16110089,"highway":"residential","name":"Carl Jr Williams Cemetery Road","alt_name":null,"official_name":null,"surface":null,"tracktype":null,"service":null,"access":null,"motor_vehicle":null,"foot":null,"tiger_reviewed":"no","rrgh_part":0,"rrgh_tile_part":0},"geometry":{"type":"LineString","coordinates":[[-83.267563,37.589789],[-83.267559,37.589806],[-83.267564,37.589825],[-83.267584,37.589854],[-83.267617,37.589879],[-83.267642,37.589905],[-83.267701,37.589973],[-83.267715,37.589994],[-83.267724,37.590018],[-83.267728,37.590043],[-83.267737,37.590194],[-83.267742,37.590222],[-83.267758,37.590282],[-83.267791,37.59034],[-83.267883,37.590452],[-83.26793,37.59048],[-83.267986,37.5905],[-83.268009,37.590515],[-83.268016,37.590527]]}},{"type":"Feature","properties":{"osm_id":16110311,"highway":"residential","name":"Back Cemetery 3 Road","alt_name":null,"official_name":null,"surface":null,"tracktype":null,"service":null,"access":null,"motor_vehicle":null,"foot":null,"tiger_reviewed":"no","rrgh_part":0,"rrgh_tile_part":0},"geometry":{"type":"LineString","coordinates":[[-83.268989,37.590642],[-83.26895,37.590694],[-83.268916,37.590736],[-83.268853,37.590794],[-83.268821,37.590809],[-83.268783,37.590816],[-83.268743,37.590817],[-83.268616,37.590809],[-83.268556,37.590808],[-83.268543,37.590815],[-83.268535,37.590824],[-83.268524,37.590849],[-83.268529,37.590874],[-83.268559,37.590922]]}},{"type":"Feature","properties":{"osm_id":1092493897,"highway":"service","name":null,"alt_name":null,"official_name":null,"surface":null,"tracktype":null,"service":null,"access":null,"motor_vehicle":null,"foot":null,"tiger_reviewed":null,"rrgh_part":0,"rrgh_tile_part":0},"geometry":{"type":"LineString","coordinates":[[-83.2526215,37.5815636],[-83.2525069,37.5816299],[-83.2523748,37.5817707],[-83.2519259,37.582408],[-83.2518083,37.5825716],[-83.251657,37.5827504],[-83.2515322,37.5828456],[-83.251405,37.5828817],[-83.2511481,37.5828779],[-83.250836,37.5828246],[-83.2506896,37.5827619],[-83.250596,37.5826743],[-83.2504447,37.582427],[-83.2503799,37.5823623],[-83.2502695,37.5823072],[-83.2500678,37.5822501],[-83.25,37.58224079633334]]}},{"type":"Feature","properties":{"osm_id":1092493897,"highway":"service","name":null,"alt_name":null,"official_name":null,"surface":null,"tracktype":null,"service":null,"access":null,"motor_vehicle":null,"foot":null,"tiger_reviewed":null,"rrgh_part":1,"rrgh_tile_part":0},"geometry":{"type":"LineString","coordinates":[[-83.25,37.58486681360825],[-83.2502263,37.5849592],[-83.2504207,37.5850143],[-83.2505239,37.5850467],[-83.2505936,37.5850847],[-83.2506224,37.5851342],[-83.2506104,37.5851931],[-83.2505527,37.5852369],[-83.2503295,37.5852826],[-83.2502143,37.5853225],[-83.2500846,37.5853872],[-83.25,37.58540689852941]]}}],"rrgh_tile":{"id":"r2c8","bounds":[37.525000000000006,-83.33500000000001,37.6,-83.25]}}
