{"type":"FeatureCollection","features":[{"type":"Feature","properties":{"osm_id":16162353,"highway":"residential","name":"Jakes Heavenly Highway","alt_name":null,"official_name":null,"surface":null,"tracktype":null,"service":null,"access":null,"motor_vehicle":null,"foot":null,"tiger_reviewed":"no","rrgh_part":0,"rrgh_tile_part":0},"geometry":{"type":"LineString","coordinates":[[-83.92980237804879,37.6],[-83.929803,37.600003],[-83.929802,37.600177],[-83.929782,37.600488],[-83.929761,37.600662],[-83.92973,37.600803],[-83.929693,37.60091],[-83.92954,37.601232],[-83.929452,37.601486],[-83.929421,37.601769],[-83.929446,37.601982],[-83.929602,37.602604],[-83.929619,37.602715],[-83.929595,37.602846],[-83.929522,37.603013],[-83.929469,37.603088],[-83.929289,37.603288],[-83.929193,37.603424],[-83.929053,37.603761],[-83.928886,37.604022],[-83.928821,37.604102],[-83.928677,37.60425],[-83.928319,37.604547],[-83.928218,37.604648],[-83.928044,37.604927],[-83.927601,37.605434],[-83.927279,37.605834],[-83.927177,37.605982],[-83.927109,37.606124],[-83.927036,37.606367],[-83.926996,37.606546],[-83.926977,37.607152],[-83.926991,37.607325],[-83.927134,37.608192],[-83.927177,37.608352],[-83.927206,37.608436],[-83.927346,37.608731],[-83.92745,37.60892],[-83.927807,37.609656],[-83.927853,37.60974],[-83.927937,37.610137]]}},{"type":"Feature","properties":{"osm_id":16161009,"highway":"residential","name":"Cr-1134","alt_name":null,"official_name":null,"surface":null,"tracktype":null,"service":null,"access":null,"motor_vehicle":null,"foot":null,"tiger_reviewed":"no","rrgh_part":0,"rrgh_tile_part":0},"geometry":{"type":"LineString","coordinates":[[-83.917125,37.601951],[-83.917058,37.601942],[-83.916982,37.601931],[-83.9168,37.601918],[-83.916682,37.601898],[-83.916316,37.601785],[-83.916116,37.601663],[-83.915925,37.601572],[-83.915791,37.601544],[-83.915674,37.601555],[-83.915614,37.601547],[-83.915545,37.60153],[-83.915498,37.601505],[-83.91522,37.601265],[-83.914853,37.600898],[-83.914769,37.600838],[-83.914415,37.600685],[-83.914002,37.600525],[-83.913547,37.600312],[-83.913404,37.600231],[-83.913198,37.600081],[-83.91311511627907,37.6]]}},{"type":"Feature","properties":{"osm_id":16162773,"highway":"residential","name":"Searcy Branch Road","alt_name":null,"official_name":null,"surface":null,"tracktype":null,"service":null,"access":null,"motor_vehicle":null,"foot":null,"tiger_reviewed":"no","rrgh_part":0,"rrgh_tile_part":0},"geometry":{"type":"LineString","coordinates":[[-83.922413,37.601378],[-83.922354,37.601361],[-83.922206,37.60136],[-83.922128,37.601377],[-83.921754,37.601512],[-83.92155,37.601551],[-83.920954,37.601575],[-83.920856,37.601602],[-83.920758,37.601641],[-83.920559,37.601741],[-83.920421,37.601823],[-83.920353,37.601845],[-83.920199,37.601852],[-83.920044,37.601842],[-83.919864,37.601802],[-83.919659,37.60173],[-83.919586,37.60172],[-83.919457,37.601748],[-83.919127,37.601933],[-83.919069,37.601951],[-83.918215,37.602046],[-83.918033,37.602051],[-83.91768,37.602031],[-83.917125,37.601951],[-83.916998,37.602089],[-83.91692,37.602158],[-83.91684,37.602209],[-83.916759,37.602243],[-83.916635,37.602267],[-83.916544,37.602258],[-83.916128,37.602125],[-83.915996,37.602103],[-83.915783,37.602077],[-83.915603,37.602071],[-83.915532,37.602056],[-83.915178,37.601913],[-83.915098,37.601894],[-83.91487,37.601866],[-83.9148,37.601883],[-83.91474,37.601913],[-83.9147,37.601954],[-83.914594,37.602229],[-83.914546,37.60232],[-83.914281,37.602571],[-83.914084,37.602691],[-83.913932,37.602746],[-83.91368,37.602817],[-83.913543,37.602818],[-83.9112774,37.6033882],[-83.9103778,37.6037814],[-83.9097093,37.6040293],[-83.9092713,37.6041021],[-83.9088116,37.6040645],[-83.9085774,37.6040878],[-83.9083341,37.6041864],[-83.9076161,37.6041183]]}},{"type":"Feature","properties":{"osm_id":16160271,"highway":"track","name":"Cox Road","alt_name":null,"official_name":null,"surface":null,"tracktype":null,"service":null,"access":null,"motor_vehicle":null,"foot":null,"tiger_reviewed":"no","rrgh_part":0,"rrgh_tile_part":0},"geometry":{"type":"LineString","coordinates":[[-83.88262056666667,37.6],[-83.882665,37.600031],[-83.88286,37.600136],[-83.883028,37.60019],[-83.883118,37.600206],[-83.883218,37.60021],[-83.883367,37.600186],[-83.883571,37.600128],[-83.88392546153845,37.6]]}},{"type":"Feature","properties":{"osm_id":16160271,"highway":"track","name":"Cox Road","alt_name":null,"official_name":null,"surface":null,"tracktype":null,"service":null,"access":null,"motor_vehicle":null,"foot":null,"tiger_reviewed":"no","rrgh_part":0,"rrgh_tile_part":1},"geometry":{"type":"LineString","coordinates":[[-83.88480211235955,37.6],[-83.884942,37.60005],[-83.885055,37.600074],[-83.885303,37.600082],[-83.885412,37.600098],[-83.885562,37.600158],[-83.8855896,37.6001809],[-83.885621,37.600207],[-83.885677,37.600289],[-83.885722,37.600417],[-83.885894,37.600801],[-83.886061,37.601],[-83.886126,37.601051],[-83.886261,37.601126],[-83.886678,37.60128],[-83.886883,37.601394],[-83.886948,37.60144],[-83.887053,37.601552],[-83.887097,37.601616],[-83.887163,37.601744],[-83.887203,37.60188],[-83.887245,37.602198],[-83.887265,37.602239],[-83.887299,37.60227],[-83.887393,37.602326],[-83.887824,37.602542]]}},{"type":"Feature","properties":{"osm_id":16160824,"highway":"residential","name":"Sparks Cemetery Road","alt_name":null,"official_name":null,"surface":"gravel","tracktype":null,"service":null,"access":null,"motor_vehicle":null,"foot":null,"tiger_reviewed":"no","rrgh_part":0,"rrgh_tile_part":0},"geometry":{"type":"LineString","coordinates":[[-83.89270433112583,37.6],[-83.892811,37.600117],[-83.893028,37.600269],[-83.893148,37.600328],[-83.893398,37.600429],[-83.893686,37.600526],[-83.893901,37.600562],[-83.894006,37.600565],[-83.894124,37.600541],[-83.894451,37.600406]]}},{"type":"Feature","properties":{"osm_id":16159852,"highway":"track","name":null,"alt_name":null,"official_name":null,"surface":null,"tracktype":null,"service":null,"access":null,"motor_vehicle":null,"foot":null,"tiger_reviewed":"no","rrgh_part":0,"rrgh_tile_part":0},"geometry":{"type":"LineString","coordinates":[[-83.899487,37.60281],[-83.899049,37.602737],[-83.898429,37.602761],[-83.897909,37.602979],[-83.897498,37.603084],[-83.896761,37.603051]]}},{"type":"Feature","properties":{"osm_id":16161768,"highway":"residential","name":"Gordon Road","alt_name":null,"official_name":null,"surface":null,"tracktype":null,"service":null,"access":null,"motor_vehicle":null,"foot":null,"tiger_reviewed":"no","rrgh_part":0,"rrgh_tile_part":0},"geometry":{"type":"LineString","coordinates":[[-83.903275,37.607203],[-83.903022,37.607092],[-83.902838,37.60703],[-83.902718,37.607006],[-83.902322,37.606958],[-83.901993,37.606866],[-83.90186,37.606851],[-83.901733,37.606863],[-83.901599,37.606893],[-83.901156,37.607042],[-83.900892,37.607155],[-83.900753,37.607198],[-83.900679,37.607206],[-83.900596,37.607202],[-83.900412,37.607176],[-83.900226,37.607168],[-83.900046,37.607182],[-83.899809,37.607236],[-83.899657,37.607254],[-83.899582,37.607253],[-83.899224,37.607214],[-83.898626,37.607231],[-83.898494,37.607246]]}},{"type":"Feature","properties":{"osm_id":890898583,"highway":"track","name":"Searcy Branch Road","alt_name":null,"official_name":null,"surface":null,"tracktype":null,"service":null,"access":null,"motor_vehicle":null,"foot":null,"tiger_reviewed":"no","rrgh_part":0,"rrgh_tile_part":0},"geometry":{"type":"LineString","coordinates":[[-83.9076161,37.6041183],[-83.90742,37.604077],[-83.9064956,37.6037697],[-83.9056238,37.6038168],[-83.9048869,37.6038976],[-83.9048543,37.6033423],[-83.9047163,37.6030134],[-83.904615,37.602935],[-83.904384,37.602823],[-83.904136,37.602935],[-83.9038974,37.6029039]]}},{"type":"Feature","properties":{"osm_id":16160532,"highway":"residential","name":"Searcy Branch Road","alt_name":null,"official_name":null,"surface":"gravel","tracktype":null,"service":null,"access":null,"motor_vehicle":null,"foot":null,"tiger_reviewed":"no","rrgh_part":0,"rrgh_tile_part":0},"geometry":{"type":"LineString","coordinates":[[-83.9038974,37.6029039],[-83.9035342,37.6025901],[-83.9033276,37.6023789],[-83.9031575,37.6022803],[-83.9029856,37.6022229],[-83.9028507,37.6021924],[-83.9027626,37.6021754],[-83.9025904,37.602155]]}},{"type":"Feature","properties":{"osm_id":16161543,"highway":"residential","name":"Bobby Miller Road","alt_name":null,"official_name":null,"surface":null,"tracktype":null,"service":null,"access":null,"motor_vehicle":null,"foot":null,"tiger_reviewed":"no","rrgh_part":0,"rrgh_tile_part":0},"geometry":{"type":"LineString","coordinates":[[-83.9025904,37.602155],[-83.9024434,37.6021522],[-83.902297,37.602169],[-83.90225,37.602187],[-83.902166,37.602241],[-83.902022,37.602378],[-83.901931,37.602441],[-83.901666,37.602533],[-83.901334,37.60269],[-83.900999,37.602797],[-83.900139,37.602957],[-83.899958,37.602954],[-83.899594,37.602895]]}},{"type":"Feature","properties":{"osm_id":16161736,"highway":"residential","name":"Cr-1169","alt_name":null,"official_name":null,"surface":null,"tracktype":null,"service":null,"access":null,"motor_vehicle":null,"foot":null,"tiger_reviewed":"no","rrgh_part":0,"rrgh_tile_part":0},"geometry":{"type":"LineString","coordinates":[[-83.903135,37.606509],[-83.903168,37.60661],[-83.903431,37.606342],[-83.903463,37.606261],[-83.903453,37.606171],[-83.903366,37.605861],[-83.903338,37.605828],[-83.903298,37.605804],[-83.903253,37.605792],[-83.903149,37.605799],[-83.903052,37.605842],[-83.902966,37.605907],[-83.902933,37.605944],[-83.902901,37.606022],[-83.902903,37.606066],[-83.902934,37.606164],[-83.903006,37.606304],[-83.903135,37.606509]]}},{"type":"Feature","properties":{"osm_id":16161737,"highway":"residential","name":"Cr-1169","alt_name":null,"official_name":null,"surface":null,"tracktype":null,"service":null,"access":null,"motor_vehicle":null,"foot":null,"tiger_reviewed":"no","rrgh_part":0,"rrgh_tile_part":0},"geometry":{"type":"LineString","coordinates":[[-83.903027,37.606765],[-83.903168,37.60661]]}},{"type":"Feature","properties":{"osm_id":16160391,"highway":"residential","name":"Big Springs School Road","alt_name":null,"official_name":null,"surface":null,"tracktype":null,"service":null,"access":null,"motor_vehicle":null,"foot":null,"tiger_reviewed":"no","rrgh_part":0,"rrgh_tile_part":0},"geometry":{"type":"LineString","coordinates":[[-83.886255,37.603546],[-83.8862596,37.6036547],[-83.886279,37.604108],[-83.886291,37.604199],[-83.88632,37.604246],[-83.886374,37.604283],[-83.886423,37.604304],[-83.886653,37.604372],[-83.886801,37.60443],[-83.887163,37.604644],[-83.887392,37.604749],[-83.887653,37.604849],[-83.887791,37.604948],[-83.887935,37.605102],[-83.888209,37.605298],[-83.888383,37.605404],[-83.88861,37.605618],[-83.888696,37.605687],[-83.888811,37.605751],[-83.888866,37.605796],[-83.888944,37.605868],[-83.88899,37.605935],[-83.889187,37.606132],[-83.889262,37.606221],[-83.88937,37.606315],[-83.889487,37.606392],[-83.889553,37.606424],[-83.88969,37.606471],[-83.889768,37.606486],[-83.890394,37.60652],[-83.890554,37.606538],[-83.890605,37.606556],[-83.890645,37.606599],[-83.890675,37.606667],[-83.890742,37.606764],[-83.890832,37.606861],[-83.890923,37.60694],[-83.891069,37.607039],[-83.891163,37.607097],[-83.891268,37.607139],[-83.891344,37.60715],[-83.891511,37.60715],[-83.891566,37.607159],[-83.891609,37.607191],[-83.891618,37.607224],[-83.891589,37.607274],[-83.89153,37.607303],[-83.891186,37.607406],[-83.891037,37.607504],[-83.890989,37.607548],[-83.890938,37.607614],[-83.890895,37.607712],[-83.890889,37.607907],[-83.890842,37.608011],[-83.890751,37.608115],[-83.8906,37.608257],[-83.890417,37.608407]]}},{"type":"Feature","properties":{"osm_id":968775916,"highway":"service","name":null,"alt_name":null,"official_name":null,"surface":null,"tracktype":null,"service":null,"access":null,"motor_vehicle":null,"foot":null,"tiger_reviewed":null,"rrgh_part":0,"rrgh_tile_part":0},"geometry":{"type":"LineString","coordinates":[[-83.8862596,37.6036547],[-83.8861086,37.6038096],[-83.8858837,37.6040607],[-83.8856001,37.6043226]]}},{"type":"Feature","properties":{"osm_id":16161164,"highway":"residential","name":"Stevens Cemetery Road","alt_name":null,"official_name":null,"surface":null,"tracktype":null,"service":null,"access":null,"motor_vehicle":null,"foot":null,"tiger_reviewed":"no","rrgh_part":0,"rrgh_tile_part":0},"geometry":{"type":"LineString","coordinates":[[-83.890753,37.60175],[-83.890863,37.60183]]}},{"type":"Feature","properties":{"osm_id":16161167,"highway":"residential","name":"Stevens Cemetery Road","alt_name":null,"official_name":null,"surface":null,"tracktype":null,"service":null,"access":null,"motor_vehicle":null,"foot":null,"tiger_reviewed":"no","rrgh_part":0,"rrgh_tile_part":0},"geometry":{"type":"LineString","coordinates":[[-83.890863,37.60183],[-83.891041,37.601932],[-83.891108,37.601959],[-83.891145,37.601956],[-83.891172,37.60194],[-83.891186,37.601919]]}},{"type":"Feature","properties":{"osm_id":441661120,"highway":"residential","name":"Stevens Cemetery Road","alt_name":null,"official_name":null,"surface":null,"tracktype":null,"service":null,"access":null,"motor_vehicle":null,"foot":null,"tiger_reviewed":"no","rrgh_part":0,"rrgh_tile_part":0},"geometry":{"type":"LineString","coordinates":[[-83.891186,37.601919],[-83.891187,37.601893],[-83.891172,37.601867],[-83.891138,37.601848],[-83.890863,37.60183]]}},{"type":"Feature","properties":{"osm_id":16162351,"highway":"residential","name":"Jakes Heavenly Highway","alt_name":null,"official_name":null,"surface":null,"tracktype":null,"service":null,"access":null,"motor_vehicle":null,"foot":null,"tiger_reviewed":"no","rrgh_part":0,"rrgh_tile_part":0},"geometry":{"type":"LineString","coordinates":[[-83.93,37.610770373873876],[-83.929869,37.610745],[-83.929542,37.610648],[-83.92823,37.610154],[-83.928068,37.610044],[-83.927998,37.609978],[-83.927943,37.609902],[-83.927853,37.60974]]}},{"type":"Feature","properties":{"osm_id":16159170,"highway":"residential","name":"Big Doe Creek Road","alt_name":null,"official_name":null,"surface":null,"tracktype":null,"service":null,"access":null,"motor_vehicle":null,"foot":null,"tiger_reviewed":"no","rrgh_part":0,"rrgh_tile_part":0},"geometry":{"type":"LineString","coordinates":[[-83.874207,37.643836],[-83.874785,37.643659],[-83.875021,37.643637],[-83.875173,37.643652],[-83.875303,37.643691],[-83.875429,37.643769],[-83.875506,37.64385],[-83.875609,37.643988],[-83.87602,37.644641],[-83.876065,37.644733],[-83.87608,37.64478],[-83.876144,37.645558],[-83.876209,37.645799],[-83.876372,37.646151],[-83.876508,37.646353],[-83.876649,37.646523],[-83.877119,37.646928],[-83.877259,37.64708],[-83.877367,37.647212],[-83.877562,37.647483],[-83.877721,37.647717],[-83.877915,37.648096],[-83.878059,37.648319],[-83.87824,37.648573],[-83.878421,37.648855],[-83.878712,37.649251],[-83.879169,37.650065],[-83.879269,37.650256],[-83.879337,37.650345],[-83.879418,37.650428],[-83.880157,37.65096],[-83.880684,37.651387],[-83.880774,37.651483],[-83.882063,37.653186],[-83.882374,37.653611],[-83.882503,37.653825],[-83.882793,37.654381],[-83.882926,37.654596],[-83.883083,37.654805],[-83.883172,37.654908],[-83.883377,37.655104],[-83.883825,37.655483],[-83.883943,37.65557],[-83.884582,37.656001],[-83.886404,37.657272],[-83.886969,37.657639],[-83.887228,37.657777],[-83.887517,37.657904],[-83.887968,37.658082],[-83.890226,37.658954],[-83.891055,37.659279],[-83.892246,37.659747],[-83.893089,37.660066],[-83.893395,37.660162],[-83.89361,37.660235],[-83.893863,37.660337],[-83.89448,37.660625],[-83.894947,37.660822],[-83.895151,37.660927],[-83.896192,37.661616],[-83.897366,37.662488],[-83.897701,37.662723],[-83.898027,37.662934],[-83.898366,37.663119],[-83.89927,37.663527],[-83.899485,37.663613],[-83.899637,37.663654],[-83.900114,37.663735],[-83.900564,37.663829],[-83.900716,37.663853],[-83.900837,37.66386],[-83.9009676,37.6638567]]}},{"type":"Feature","properties":{"osm_id":16159954,"highway":"service","name":null,"alt_name":null,"official_name":null,"surface":null,"tracktype":null,"service":null,"access":"private","motor_vehicle":null,"foot":null,"tiger_reviewed":"no","rrgh_part":0,"rrgh_tile_part":0},"geometry":{"type":"LineString","coordinates":[[-83.911257,37.614848],[-83.911761,37.614761],[-83.912568,37.614782],[-83.913423,37.614941],[-83.914025,37.615242],[-83.914953,37.615393],[-83.916515,37.615971],[-83.916961,37.615968],[-83.918219,37.615946],[-83.919949,37.616166],[-83.921441,37.615873],[-83.922239,37.61561],[-83.922724,37.615574],[-83.923115,37.615541],[-83.924158,37.615162],[-83.925472,37.615218]]}},{"type":"Feature","properties":{"osm_id":16162400,"highway":"residential","name":"Grace Chapel Road","alt_name":null,"official_name":null,"surface":null,"tracktype":null,"service":null,"access":null,"motor_vehicle":null,"foot":null,"tiger_reviewed":"no","rrgh_part":0,"rrgh_tile_part":0},"geometry":{"type":"LineString","coordinates":[[-83.915032,37.64507],[-83.914819,37.645124],[-83.914692,37.645187],[-83.914428,37.645402],[-83.914267,37.645518],[-83.914138,37.645574],[-83.913915,37.645642],[-83.913775,37.645708],[-83.913674,37.6458],[-83.913596,37.645961],[-83.913567,37.645991],[-83.913286,37.646144],[-83.913206,37.646178],[-83.913031,37.646207],[-83.912909,37.646206],[-83.912831,37.646206],[-83.912629,37.646181],[-83.912392,37.646119],[-83.91207,37.64596],[-83.91193,37.645917],[-83.911838,37.6459],[-83.911644,37.645886],[-83.910959,37.645887],[-83.910767,37.645866],[-83.910373,37.645798],[-83.910174,37.645776],[-83.910073,37.645774],[-83.909869,37.645789],[-83.909374,37.645838],[-83.909187,37.645865],[-83.909025,37.645922],[-83.908635,37.646136],[-83.908558,37.646171],[-83.908239,37.646317],[-83.908114,37.646383],[-83.907996,37.646471],[-83.907939,37.64653],[-83.907846,37.646666],[-83.907736,37.646869],[-83.907658,37.646976],[-83.907567,37.647078],[-83.907475,37.647146],[-83.907374,37.647183],[-83.907318,37.647193],[-83.907194,37.647194],[-83.90714,37.647183],[-83.907039,37.647124],[-83.906958,37.647033],[-83.906741,37.646735],[-83.906558,37.646521],[-83.906342,37.646316],[-83.906091,37.646127],[-83.905785,37.645948],[-83.905461,37.645791],[-83.905314,37.645748],[-83.90515,37.645725],[-83.904963,37.645727],[-83.904404,37.645824],[-83.904229,37.645832],[-83.904159,37.645866],[-83.904124,37.645894],[-83.904093,37.645928],[-83.904069,37.645975],[-83.904069,37.646063],[-83.904117,37.646234],[-83.904096,37.646419],[-83.903728,37.647526],[-83.90359,37.647888],[-83.903565,37.647997],[-83.903556,37.648162],[-83.903518,37.648351],[-83.903495,37.648419],[-83.903382,37.648622],[-83.903318,37.648901],[-83.903264,37.649071],[-83.903185,37.649257],[-83.903053,37.649506],[-83.902852,37.649779],[-83.902763,37.649883],[-83.90254,37.650107],[-83.902257,37.650496],[-83.902158,37.650595],[-83.902044,37.650685],[-83.901915,37.650757],[-83.901776,37.650797],[-83.901049,37.650901],[-83.900951,37.650893],[-83.9009,37.650877],[-83.900724,37.650785],[-83.900612,37.650758],[-83.900479,37.650755],[-83.900343,37.650781],[-83.900222,37.65084],[-83.900176,37.650881],[-83.900142,37.650927],[-83.899995,37.65122],[-83.899851,37.651377],[-83.899759,37.65145],[-83.899647,37.65152],[-83.899506,37.651558],[-83.899372,37.651574],[-83.89931,37.65157],[-83.899193,37.651537],[-83.898854,37.651415],[-83.898166,37.65128],[-83.898016,37.651224],[-83.897921,37.651165],[-83.897785,37.651053],[-83.897575,37.650836],[-83.897438,37.650669],[-83.897369,37.650607],[-83.897269,37.650536]]}},{"type":"Feature","properties":{"osm_id":16162438,"highway":"residential","name":"New Bethel Road","alt_name":null,"official_name":null,"surface":null,"tracktype":null,"service":null,"access":null,"motor_vehicle":null,"foot":null,"tiger_reviewed":"no","rrgh_part":0,"rrgh_tile_part":0},"geometry":{"type":"LineString","coordinates":[[-83.893401,37.635476],[-83.894015,37.63502],[-83.893845,37.634148],[-83.894678,37.633019],[-83.895035,37.632767],[-83.89509,37.632778],[-83.895272,37.632754],[-83.895655,37.632618],[-83.896137,37.632518],[-83.896454,37.632461],[-83.89653,37.632435],[-83.896738,37.632311],[-83.89701,37.632177],[-83.897137,37.632074],[-83.897227,37.631945],[-83.897291,37.631825],[-83.897336,37.631699],[-83.897334,37.631638],[-83.897296,37.631439],[-83.897308,37.631376],[-83.897329,37.631343],[-83.897528,37.631108],[-83.898004,37.630621],[-83.898499,37.630184],[-83.898738,37.629993],[-83.898995,37.629755],[-83.899078,37.629685],[-83.899233,37.629584],[-83.899403,37.62949],[-83.899585,37.629407],[-83.899682,37.629375],[-83.899884,37.629339],[-83.900093,37.62932],[-83.900303,37.629314],[-83.900408,37.629303],[-83.900511,37.629282],[-83.900695,37.629223],[-83.901221,37.62903],[-83.901304,37.628981],[-83.901374,37.628926],[-83.901429,37.628862],[-83.901494,37.628718],[-83.901536,37.628301],[-83.901563,37.628139],[-83.901637,37.627892],[-83.901749,37.627672],[-83.901853,37.627536],[-83.902083,37.627325],[-83.902266,37.627189],[-83.902618,37.626952],[-83.902672,37.626894],[-83.902777,37.626711],[-83.90292,37.626541],[-83.903,37.626401],[-83.903179,37.625915],[-83.903253,37.625763],[-83.903294,37.625613],[-83.903292,37.625544],[-83.903269,37.62542],[-83.903134,37.624916],[-83.90312,37.624745],[-83.903143,37.624562],[-83.90324,37.624248],[-83.903336,37.624048],[-83.9037,37.623472],[-83.903794,37.623339],[-83.9039,37.623208],[-83.904027,37.623092],[-83.9040516,37.6230754],[-83.904104,37.62304],[-83.904557,37.622786],[-83.904772,37.622646],[-83.904873,37.622552],[-83.904954,37.622436],[-83.905009,37.622378],[-83.905081,37.622326],[-83.905341,37.622203],[-83.905909,37.621972],[-83.90608,37.621866],[-83.906244,37.621747],[-83.906476,37.621551],[-83.906534,37.621479],[-83.906575,37.621404],[-83.9066,37.621328],[-83.906608,37.621253],[-83.9066,37.62118],[-83.90648,37.620851],[-83.906379,37.620641],[-83.906309,37.620441],[-83.906304,37.620377],[-83.906315,37.620306],[-83.906348,37.620246],[-83.906399,37.620201],[-83.906528,37.620142],[-83.906601,37.620128],[-83.906767,37.620114],[-83.906858,37.620115],[-83.907038,37.620142],[-83.907294,37.620209],[-83.90738,37.620224],[-83.907472,37.620233],[-83.907562,37.62023],[-83.907647,37.62021],[-83.907792,37.620135],[-83.907847,37.620086],[-83.90798,37.619921]]}},{"type":"Feature","properties":{"osm_id":16159897,"highway":"residential","name":null,"alt_name":null,"official_name":null,"surface":null,"tracktype":null,"service":null,"access":null,"motor_vehicle":null,"foot":null,"tiger_reviewed":"no","rrgh_part":0,"rrgh_tile_part":0},"geometry":{"type":"LineString","coordinates":[[-83.912068,37.622447],[-83.912117,37.62203],[-83.912083,37.621748],[-83.91207,37.621449],[-83.912135,37.621278],[-83.912262,37.621012],[-83.912297,37.620841],[-83.912312,37.620635],[-83.912398,37.620379],[-83.912545,37.620206],[-83.912691,37.620058]]}},{"type":"Feature","properties":{"osm_id":16159898,"highway":"residential","name":null,"alt_name":null,"official_name":null,"surface":null,"tracktype":null,"service":null,"access":null,"motor_vehicle":null,"foot":null,"tiger_reviewed":"no","rrgh_part":0,"rrgh_tile_part":0},"geometry":{"type":"LineString","coordinates":[[-83.911308,37.608951],[-83.911407,37.609071],[-83.911895,37.609338],[-83.912394,37.609581],[-83.912458,37.609938],[-83.912343,37.61016],[-83.912167,37.610246],[-83.912064,37.610357],[-83.911988,37.610635],[-83.911903,37.61077],[-83.911738,37.610904],[-83.911603,37.611111],[-83.911508,37.611277]]}},{"type":"Feature","properties":{"osm_id":16161405,"highway":"residential","name":"J A Richardson Road","alt_name":null,"official_name":null,"surface":null,"tracktype":null,"service":null,"access":null,"motor_vehicle":null,"foot":null,"tiger_reviewed":"no","rrgh_part":0,"rrgh_tile_part":0},"geometry":{"type":"LineString","coordinates":[[-83.914652,37.609724],[-83.915003,37.610302],[-83.915005,37.610464],[-83.914634,37.61065],[-83.913635,37.61068],[-83.913236,37.610569],[-83.913095,37.610366],[-83.913042,37.60998],[-83.912872,37.609686],[-83.912019,37.608986],[-83.911308,37.608951],[-83.911192,37.608957],[-83.911048,37.608941],[-83.911013,37.608926],[-83.910931,37.60886],[-83.910768,37.608673],[-83.91074,37.608647],[-83.910702,37.608629],[-83.910439,37.608611],[-83.909725,37.608613],[-83.909594,37.608607],[-83.90946,37.608582],[-83.909182,37.60851],[-83.90897,37.608449],[-83.908598,37.608324],[-83.908445,37.608284],[-83.90821,37.608236],[-83.908133,37.608239],[-83.90805,37.608264],[-83.907792,37.608369],[-83.907599,37.608466],[-83.907448,37.608585],[-83.907145,37.608732],[-83.90702,37.608819],[-83.90688,37.608948],[-83.906756,37.609007],[-83.906685,37.609051],[-83.906648,37.609096],[-83.906527,37.609326],[-83.906331,37.609568],[-83.906125,37.609915],[-83.905944,37.610251],[-83.905921,37.610342],[-83.905914,37.610436],[-83.905923,37.610591],[-83.905885,37.610806]]}},{"type":"Feature","properties":{"osm_id":968775926,"highway":"service","name":null,"alt_name":null,"official_name":null,"surface":null,"tracktype":null,"service":null,"access":null,"motor_vehicle":null,"foot":null,"tiger_reviewed":null,"rrgh_part":0,"rrgh_tile_part":0},"geometry":{"type":"LineString","coordinates":[[-83.922274,37.633885],[-83.9226488,37.6337384],[-83.9229832,37.6335555],[-83.9232112,37.6333412],[-83.9233054,37.6331896],[-83.9234027,37.6329224],[-83.9235516,37.6327827],[-83.9238769,37.6325781],[-83.9242052,37.6323639],[-83.9243815,37.6321882],[-83.9245365,37.6319619],[-83.9247219,37.6316104],[-83.924956,37.6313649],[-83.9252842,37.6308473],[-83.9254332,37.6305825],[-83.9255456,37.630479],[-83.9257159,37.6303851],[-83.9260168,37.630337],[-83.926415,37.6303538],[-83.9268801,37.6305921],[-83.9272084,37.630893],[-83.9274302,37.6311193],[-83.9280169,37.631348],[-83.9282479,37.6313914],[-83.9284941,37.6313649],[-83.9290686,37.631218],[-83.9295884,37.6310712],[-83.9298498,37.6309677],[-83.93,37.63086050514657]]}},{"type":"Feature","properties":{"osm_id":16159923,"highway":"residential","name":null,"alt_name":null,"official_name":null,"surface":null,"tracktype":null,"service":null,"access":null,"motor_vehicle":null,"foot":null,"tiger_reviewed":"no","rrgh_part":0,"rrgh_tile_part":0},"geometry":{"type":"LineString","coordinates":[[-83.917463,37.622922],[-83.917608,37.623172],[-83.91774,37.623466],[-83.91776,37.623736],[-83.917891,37.623925],[-83.918114,37.624091],[-83.918459,37.624184],[-83.918824,37.624178]]}},{"type":"Feature","properties":{"osm_id":1149791659,"highway":"service","name":null,"alt_name":null,"official_name":null,"surface":null,"tracktype":null,"service":null,"access":null,"motor_vehicle":null,"foot":null,"tiger_reviewed":null,"rrgh_part":0,"rrgh_tile_part":0},"geometry":{"type":"LineString","coordinates":[[-83.9139256,37.6254919],[-83.9140909,37.6255622],[-83.9142807,37.6255863],[-83.9144376,37.6256243],[-83.914559,37.6257025],[-83.9147083,37.6257666]]}},{"type":"Feature","properties":{"osm_id":16159501,"highway":"residential","name":null,"alt_name":null,"official_name":null,"surface":null,"tracktype":null,"service":null,"access":null,"motor_vehicle":null,"foot":null,"tiger_reviewed":"no","rrgh_part":0,"rrgh_tile_part":0},"geometry":{"type":"LineString","coordinates":[[-83.925292,37.634177],[-83.924945,37.634475],[-83.924723,37.634499],[-83.922469,37.633987],[-83.922015,37.633988]]}},{"type":"Feature","properties":{"osm_id":16159695,"highway":"residential","name":null,"alt_name":null,"official_name":null,"surface":null,"tracktype":null,"service":null,"access":null,"motor_vehicle":null,"foot":null,"tiger_reviewed":"no","rrgh_part":0,"rrgh_tile_part":0},"geometry":{"type":"LineString","coordinates":[[-83.914963,37.628712],[-83.914668,37.629014],[-83.914612,37.630269],[-83.914049,37.630574],[-83.913859,37.631113],[-83.913931,37.631418],[-83.913881,37.631628],[-83.91363,37.631804],[-83.912985,37.63198],[-83.912372,37.632042],[-83.911849,37.632065],[-83.911519,37.631854],[-83.911159,37.631546],[-83.910857,37.631473],[-83.910546,37.631456],[-83.910214,37.631575],[-83.910053,37.63168]]}},{"type":"Feature","properties":{"osm_id":16161221,"highway":"residential","name":"Williams Road","alt_name":null,"official_name":null,"surface":null,"tracktype":null,"service":null,"access":null,"motor_vehicle":null,"foot":null,"tiger_reviewed":"no","rrgh_part":0,"rrgh_tile_part":0},"geometry":{"type":"LineString","coordinates":[[-83.922274,37.633885],[-83.922117,37.633953],[-83.922015,37.633988],[-83.921874,37.634037],[-83.921664,37.634098],[-83.921463,37.634157],[-83.921326,37.634189],[-83.921103,37.634209],[-83.920853,37.634213],[-83.920427,37.6342]]}},{"type":"Feature","properties":{"osm_id":16163495,"highway":"residential","name":"Redbud Road","alt_name":null,"official_name":null,"surface":null,"tracktype":null,"service":null,"access":null,"motor_vehicle":null,"foot":null,"tiger_reviewed":"no","rrgh_part":0,"rrgh_tile_part":0},"geometry":{"type":"LineString","coordinates":[[-83.921665,37.622223],[-83.921528,37.622142],[-83.921493,37.622129],[-83.921416,37.622119],[-83.92132,37.622129],[-83.920535,37.622287],[-83.920355,37.622354],[-83.92027,37.622375],[-83.919792,37.622413],[-83.919397,37.622457],[-83.919193,37.622458],[-83.918908,37.622426],[-83.918609,37.622415],[-83.918283,37.622481],[-83.918196,37.622518],[-83.917953,37.622672],[-83.917767,37.622809],[-83.917689,37.622852],[-83.917601,37.622885],[-83.917463,37.622922],[-83.917294,37.622967],[-83.91707,37.622997],[-83.916788,37.623049],[-83.91671,37.623057],[-83.91664,37.623053],[-83.9165,37.623034],[-83.916436,37.623012],[-83.916373,37.622975],[-83.916136,37.622867],[-83.915978,37.622834],[-83.915867,37.622835],[-83.91573,37.622876],[-83.915595,37.62294],[-83.915349,37.6231],[-83.914809,37.623403],[-83.914704,37.623428],[-83.914577,37.623436],[-83.914323,37.623444],[-83.913899,37.62344]]}},{"type":"Feature","properties":{"osm_id":16161642,"highway":"residential","name":"Mountain Junction","alt_name":null,"official_name":null,"surface":null,"tracktype":null,"service":null,"access":null,"motor_vehicle":null,"foot":null,"tiger_reviewed":"no","rrgh_part":0,"rrgh_tile_part":0},"geometry":{"type":"LineString","coordinates":[[-83.904789,37.610137],[-83.90463,37.610107]]}},{"type":"Feature","properties":{"osm_id":16161988,"highway":"residential","name":"Mt Jct Road","alt_name":null,"official_name":null,"surface":null,"tracktype":null,"service":null,"access":null,"motor_vehicle":null,"foot":null,"tiger_reviewed":"no","rrgh_part":0,"rrgh_tile_part":0},"geometry":{"type":"LineString","coordinates":[[-83.90463,37.610107],[-83.904564,37.610095],[-83.904436,37.610043],[-83.904314,37.609976],[-83.904136,37.609844],[-83.90386,37.609603],[-83.903274,37.609165]]}},{"type":"Feature","properties":{"osm_id":16160007,"highway":"residential","name":null,"alt_name":null,"official_name":null,"surface":null,"tracktype":null,"service":null,"access":null,"motor_vehicle":null,"foot":null,"tiger_reviewed":"no","rrgh_part":0,"rrgh_tile_part":0},"geometry":{"type":"LineString","coordinates":[[-83.899986,37.611231],[-83.900189,37.61194],[-83.900393,37.612237],[-83.900422,37.612512],[-83.900508,37.61258],[-83.900481,37.612831],[-83.899534,37.613539],[-83.899535,37.613836],[-83.899738,37.613905],[-83.900516,37.613767],[-83.900948,37.614019],[-83.901324,37.614407],[-83.901584,37.614452],[-83.901959,37.614338],[-83.90268,37.61388],[-83.902939,37.613926],[-83.903257,37.614176],[-83.90343,37.614519],[-83.903692,37.615319],[-83.903894,37.615662],[-83.904241,37.61589],[-83.904413,37.615913]]}},{"type":"Feature","properties":{"osm_id":16160045,"highway":"service","name":null,"alt_name":null,"official_name":null,"surface":null,"tracktype":null,"service":null,"access":null,"motor_vehicle":null,"foot":null,"tiger_reviewed":"no","rrgh_part":0,"rrgh_tile_part":0},"geometry":{"type":"LineString","coordinates":[[-83.904864,37.617643],[-83.9046498,37.6177774],[-83.903533,37.6179354],[-83.9032173,37.6182038],[-83.9029522,37.6183944],[-83.9025159,37.6186302],[-83.9022752,37.618753],[-83.9020265,37.6188402],[-83.9018715,37.6188467],[-83.9015126,37.6187465],[-83.9011701,37.6186141],[-83.9006288,37.6185162]]}},{"type":"Feature","properties":{"osm_id":16159330,"highway":"residential","name":null,"alt_name":null,"official_name":null,"surface":null,"tracktype":null,"service":null,"access":null,"motor_vehicle":null,"foot":null,"tiger_reviewed":"no","rrgh_part":0,"rrgh_tile_part":0},"geometry":{"type":"LineString","coordinates":[[-83.890417,37.608407],[-83.890332,37.609775],[-83.890424,37.610345],[-83.890707,37.610943],[-83.891363,37.611577],[-83.891329,37.611999],[-83.890855,37.612513],[-83.889417,37.613857],[-83.889192,37.614162],[-83.889062,37.61538],[-83.888904,37.615559],[-83.888415,37.615833],[-83.887115,37.616024],[-83.88662,37.616418],[-83.884535,37.616718],[-83.884168,37.616911],[-83.883938,37.617289]]}},{"type":"Feature","properties":{"osm_id":16159331,"highway":"residential","name":null,"alt_name":null,"official_name":null,"surface":null,"tracktype":null,"service":null,"access":null,"motor_vehicle":null,"foot":null,"tiger_reviewed":"no","rrgh_part":0,"rrgh_tile_part":0},"geometry":{"type":"LineString","coordinates":[[-83.882059,37.613085],[-83.882386,37.612333],[-83.882589,37.612152],[-83.884401,37.61202],[-83.885663,37.611626],[-83.885991,37.611318],[-83.886853,37.610834],[-83.887138,37.610575],[-83.887293,37.610125],[-83.887241,37.609728],[-83.887388,37.609203],[-83.887642,37.608825],[-83.888316,37.608448],[-83.889063,37.608347],[-83.890417,37.608407],[-83.890627,37.608616],[-83.890808,37.60881],[-83.891032,37.608943],[-83.891252,37.6091],[-83.891648,37.609414],[-83.891985,37.609512],[-83.892183,37.609476],[-83.892352,37.60941],[-83.892534,37.609269],[-83.892671,37.609193],[-83.892828,37.609146],[-83.893136,37.609192],[-83.89342,37.609311],[-83.893516,37.609408],[-83.893617,37.609563],[-83.893677,37.609709]]}},{"type":"Feature","properties":{"osm_id":968775924,"highway":"service","name":null,"alt_name":null,"official_name":null,"surface":null,"tracktype":null,"service":null,"access":null,"motor_vehicle":null,"foot":null,"tiger_reviewed":null,"rrgh_part":0,"rrgh_tile_part":0},"geometry":{"type":"LineString","coordinates":[[-83.9040516,37.6230754],[-83.9039463,37.6230009],[-83.9037773,37.6229507],[-83.9033795,37.6228754],[-83.9030802,37.622775],[-83.9027809,37.6226021],[-83.9024993,37.6223623],[-83.9019747,37.6221002],[-83.9016191,37.621905],[-83.9011578,37.6217795]]}},{"type":"Feature","properties":{"osm_id":16159498,"highway":"residential","name":null,"alt_name":null,"official_name":null,"surface":null,"tracktype":null,"service":null,"access":null,"motor_vehicle":null,"foot":null,"tiger_reviewed":"no","rrgh_part":0,"rrgh_tile_part":0},"geometry":{"type":"LineString","coordinates":[[-83.886911,37.631407],[-83.888188,37.630735],[-83.888564,37.630755],[-83.888942,37.631027],[-83.889205,37.631413],[-83.889267,37.63198],[-83.88944,37.632048],[-83.890513,37.631905],[-83.891324,37.631648],[-83.891846,37.631713],[-83.892077,37.631803],[-83.892486,37.632416],[-83.893471,37.632639],[-83.89463,37.63261],[-83.895035,37.632767]]}},{"type":"Feature","properties":{"osm_id":16162176,"highway":"residential","name":"Shade Road","alt_name":null,"official_name":null,"surface":null,"tracktype":null,"service":null,"access":null,"motor_vehicle":null,"foot":null,"tiger_reviewed":"no","rrgh_part":0,"rrgh_tile_part":0},"geometry":{"type":"LineString","coordinates":[[-83.892032,37.626614],[-83.891988,37.626817],[-83.891979,37.626971],[-83.892001,37.627136],[-83.892054,37.627279],[-83.892094,37.627327],[-83.892146,37.627368],[-83.892517,37.627566],[-83.89264,37.627667],[-83.892662,37.627716],[-83.892667,37.627766],[-83.892653,37.627812],[-83.892583,37.627942],[-83.892498,37.628192],[-83.892492,37.62824],[-83.892506,37.628311],[-83.89257,37.628415],[-83.892581,37.628454],[-83.892579,37.628495],[-83.892536,37.628577],[-83.892526,37.628621],[-83.892525,37.628665],[-83.892542,37.628707],[-83.892573,37.628743],[-83.893049,37.629088],[-83.893865,37.629733],[-83.894484,37.6302],[-83.895142,37.630713],[-83.896012,37.631366],[-83.89611,37.6314],[-83.896363,37.631399],[-83.89653,37.631415],[-83.896639,37.631415],[-83.897016,37.63136],[-83.897329,37.631343]]}},{"type":"Feature","properties":{"osm_id":16161690,"highway":"residential","name":"Cr-1167","alt_name":null,"official_name":null,"surface":null,"tracktype":null,"service":null,"access":null,"motor_vehicle":null,"foot":null,"tiger_reviewed":"no","rrgh_part":0,"rrgh_tile_part":0},"geometry":{"type":"LineString","coordinates":[[-83.898995,37.629755],[-83.898941,37.629741]]}},{"type":"Feature","properties":{"osm_id":16160348,"highway":"service","name":"Harris School Road","alt_name":null,"official_name":null,"surface":null,"tracktype":null,"service":null,"access":null,"motor_vehicle":null,"foot":null,"tiger_reviewed":"no","rrgh_part":0,"rrgh_tile_part":0},"geometry":{"type":"LineString","coordinates":[[-83.921735,37.641208],[-83.921833,37.641249],[-83.921921,37.641332],[-83.9221,37.641632],[-83.922151,37.641689],[-83.922215,37.641737],[-83.922292,37.641777],[-83.922378,37.641806],[-83.922565,37.641839],[-83.922763,37.64184],[-83.923375,37.641767],[-83.923577,37.641762],[-83.923759,37.641788],[-83.923842,37.641814],[-83.923918,37.641852],[-83.924001,37.641934],[-83.924188,37.642189],[-83.924222,37.642296],[-83.924218,37.6426],[-83.924233,37.642783],[-83.924266,37.642852],[-83.92469,37.643239],[-83.924862,37.643379],[-83.925109,37.643553],[-83.925391,37.643731],[-83.9255958,37.6438455],[-83.925752,37.643915],[-83.9260578,37.6440394],[-83.926561,37.644239],[-83.927152,37.644487],[-83.927783,37.644776],[-83.927997,37.644856],[-83.928304,37.644946],[-83.928599,37.645075],[-83.928805,37.645197],[-83.929,37.645346],[-83.929342,37.645694],[-83.929431,37.645768],[-83.929532,37.645833],[-83.929645,37.645892],[-83.93,37.64604613009405]]}},{"type":"Feature","properties":{"osm_id":16159723,"highway":"residential","name":null,"alt_name":null,"official_name":null,"surface":null,"tracktype":null,"service":null,"access":null,"motor_vehicle":null,"foot":null,"tiger_reviewed":"no","rrgh_part":0,"rrgh_tile_part":0},"geometry":{"type":"LineString","coordinates":[[-83.921664,37.634098],[-83.921837,37.634792],[-83.921855,37.634965]]}},{"type":"Feature","properties":{"osm_id":16163046,"highway":"residential","name":"Zachary Heights","alt_name":null,"official_name":null,"surface":null,"tracktype":null,"service":null,"access":null,"motor_vehicle":null,"foot":null,"tiger_reviewed":"no","rrgh_part":0,"rrgh_tile_part":0},"geometry":{"type":"LineString","coordinates":[[-83.922114,37.638943],[-83.922002,37.638889],[-83.921766,37.638748],[-83.921575,37.638673],[-83.92119,37.638557],[-83.921037,37.638495],[-83.920855,37.638403],[-83.920698,37.63831],[-83.920413,37.638088],[-83.920303,37.638017],[-83.920262,37.638006],[-83.920187,37.638005],[-83.919844,37.638021],[-83.919753,37.638013],[-83.919652,37.637989],[-83.91946,37.637909],[-83.919285,37.637861],[-83.919091,37.637829],[-83.918743,37.637797],[-83.918426,37.637731],[-83.918261,37.637694],[-83.918186,37.63769],[-83.918113,37.637699],[-83.918044,37.637722],[-83.917988,37.637759],[-83.91794,37.63781],[-83.917849,37.63794],[-83.917743,37.638156],[-83.917629,37.638328],[-83.91739,37.638498],[-83.9173534,37.6385059],[-83.91733,37.638511],[-83.917196,37.638503],[-83.916817,37.638442],[-83.916483,37.638413],[-83.916212,37.63842],[-83.91594,37.638467],[-83.915594,37.638498],[-83.915335,37.638495],[-83.91513,37.638474],[-83.915023,37.638453],[-83.914971,37.638406],[-83.914953,37.638369],[-83.914908,37.6381],[-83.914872,37.638028],[-83.914818,37.637959],[-83.914677,37.637834],[-83.914524,37.637717],[-83.914309,37.637575],[-83.91413,37.637473]]}},{"type":"Feature","properties":{"osm_id":16161730,"highway":"service","name":"Cr-1168","alt_name":null,"official_name":null,"surface":null,"tracktype":null,"service":null,"access":null,"motor_vehicle":null,"foot":null,"tiger_reviewed":"no","rrgh_part":0,"rrgh_tile_part":0},"geometry":{"type":"LineString","coordinates":[[-83.916789,37.644066],[-83.916705,37.644175],[-83.91662,37.644248],[-83.91646,37.644336],[-83.916304,37.644395],[-83.916206,37.64447],[-83.9160747,37.644598],[-83.9160224,37.6446655],[-83.9159721,37.644743],[-83.9159131,37.6448072],[-83.9158581,37.6448141],[-83.915787,37.6448088],[-83.9155845,37.6448104],[-83.915414,37.644802]]}},{"type":"Feature","properties":{"osm_id":16161650,"highway":"service","name":"Congleton Road","alt_name":null,"official_name":null,"surface":null,"tracktype":null,"service":null,"access":null,"motor_vehicle":null,"foot":null,"tiger_reviewed":"no","rrgh_part":0,"rrgh_tile_part":0},"geometry":{"type":"LineString","coordinates":[[-83.93,37.65605607843137],[-83.929853,37.656352],[-83.929823,37.65648],[-83.929817,37.656746],[-83.929753,37.656936],[-83.92969,37.657051],[-83.929614,37.657164],[-83.92942,37.657405],[-83.929208,37.657597],[-83.929094,37.657672],[-83.928844,37.65779],[-83.928675,37.657924],[-83.928553,37.658009],[-83.927817,37.658378],[-83.927697,37.658423],[-83.92744,37.658496],[-83.927382,37.658528],[-83.927345,37.658564],[-83.927265,37.658687],[-83.927226,37.65878],[-83.927201,37.658878],[-83.927223,37.659023],[-83.927284,37.659165],[-83.92729,37.659245],[-83.927283,37.659286],[-83.927141,37.65958],[-83.92711,37.659617],[-83.927024,37.659789],[-83.926955,37.660279],[-83.926958,37.660329],[-83.927079,37.660709],[-83.927132,37.661102],[-83.927179,37.661354],[-83.927195,37.66155],[-83.927187,37.661615],[-83.927121,37.661706],[-83.927049,37.661752],[-83.926979,37.661782],[-83.926692,37.66185],[-83.926538,37.661897],[-83.9261686,37.6619824],[-83.925976,37.662027]]}},{"type":"Feature","properties":{"osm_id":968775932,"highway":"service","name":null,"alt_name":null,"official_name":null,"surface":null,"tracktype":null,"service":null,"access":null,"motor_vehicle":null,"foot":null,"tiger_reviewed":null,"rrgh_part":0,"rrgh_tile_part":0},"geometry":{"type":"LineString","coordinates":[[-83.9197472,37.656983],[-83.9196687,37.6570563],[-83.9195077,37.6574141],[-83.9193552,37.6576064],[-83.9189626,37.6578724],[-83.9188158,37.6579932],[-83.918748,37.6584896],[-83.9187028,37.6589792]]}},{"type":"Feature","properties":{"osm_id":16159622,"highway":"residential","name":null,"alt_name":null,"official_name":null,"surface":null,"tracktype":null,"service":null,"access":null,"motor_vehicle":null,"foot":null,"tiger_reviewed":"no","rrgh_part":0,"rrgh_tile_part":0},"geometry":{"type":"LineString","coordinates":[[-83.922785,37.658531],[-83.922658,37.658716]]}},{"type":"Feature","properties":{"osm_id":16160206,"highway":"residential","name":"Cr-1103","alt_name":null,"official_name":null,"surface":null,"tracktype":null,"service":null,"access":null,"motor_vehicle":null,"foot":null,"tiger_reviewed":"no","rrgh_part":0,"rrgh_tile_part":0},"geometry":{"type":"LineString","coordinates":[[-83.907736,37.646869],[-83.907611,37.647156],[-83.907579,37.647259],[-83.907586,37.647494],[-83.907609,37.647623],[-83.907654,37.64774],[-83.907693,37.647789],[-83.90774,37.647827],[-83.907859,37.647887],[-83.908073,37.64795],[-83.908586,37.648067],[-83.908831,37.648164],[-83.908985,37.648277],[-83.909204,37.648507],[-83.909266,37.648605],[-83.909306,37.648717],[-83.909302,37.648975],[-83.909272,37.649154],[-83.909246,37.649238],[-83.909247,37.649311],[-83.909266,37.64934],[-83.909302,37.649367],[-83.909407,37.649393],[-83.909509,37.649405]]}},{"type":"Feature","properties":{"osm_id":16163053,"highway":"residential","name":"Plowman Dunn Road","alt_name":null,"official_name":null,"surface":null,"tracktype":null,"service":null,"access":null,"motor_vehicle":null,"foot":null,"tiger_reviewed":"no","rrgh_part":0,"rrgh_tile_part":0},"geometry":{"type":"LineString","coordinates":[[-83.903016,37.640265],[-83.904195,37.64102],[-83.9048,37.640883],[-83.905145,37.641249],[-83.905231,37.641523],[-83.905461,37.641683],[-83.905691,37.64166],[-83.906123,37.641477],[-83.906468,37.641592],[-83.906554,37.642027],[-83.906957,37.642255],[-83.9069,37.642553],[-83.906497,37.642964],[-83.906641,37.643399],[-83.906756,37.644223],[-83.907072,37.644748],[-83.907476,37.645114],[-83.907705,37.645595],[-83.908558,37.646171]]}},{"type":"Feature","properties":{"osm_id":968775931,"highway":"service","name":null,"alt_name":null,"official_name":null,"surface":null,"tracktype":null,"service":null,"access":null,"motor_vehicle":null,"foot":null,"tiger_reviewed":null,"rrgh_part":0,"rrgh_tile_part":0},"geometry":{"type":"LineString","coordinates":[[-83.909509,37.649405],[-83.9096979,37.6494832],[-83.9097832,37.6496164],[-83.9097491,37.6499427],[-83.9097491,37.6503288]]}},{"type":"Feature","properties":{"osm_id":968775931,"highway":"service","name":null,"alt_name":null,"official_name":null,"surface":null,"tracktype":null,"service":null,"access":null,"motor_vehicle":null,"foot":null,"tiger_reviewed":null,"rrgh_part":1,"rrgh_tile_part":0},"geometry":{"type":"LineString","coordinates":[[-83.9097491,37.6503288],[-83.9097491,37.6505084],[-83.9097686,37.6507632],[-83.9099222,37.6510103],[-83.9099832,37.6511744],[-83.9099881,37.6513887],[-83.9101124,37.6515296],[-83.9103026,37.6516281],[-83.9105757,37.6516242],[-83.9107513,37.6515683],[-83.9107513,37.6514679],[-83.9106391,37.6513424],[-83.9105172,37.6511937],[-83.9103611,37.6510142],[-83.9102319,37.6508636],[-83.9101417,37.6507516],[-83.9098954,37.6505354],[-83.909771,37.6503481],[-83.9097491,37.6503288]]}},{"type":"Feature","properties":{"osm_id":16163342,"highway":"residential","name":"Cr-1176","alt_name":null,"official_name":null,"surface":null,"tracktype":null,"service":null,"access":null,"motor_vehicle":null,"foot":null,"tiger_reviewed":"no","rrgh_part":0,"rrgh_tile_part":0},"geometry":{"type":"LineString","coordinates":[[-83.892603,37.659091],[-83.892673,37.659135],[-83.892705,37.65917],[-83.892756,37.659409],[-83.892812,37.659514],[-83.892934,37.659676],[-83.893015,37.659765],[-83.893156,37.659885],[-83.893319,37.660001],[-83.893345,37.660037],[-83.893395,37.660162]]}},{"type":"Feature","properties":{"osm_id":16159593,"highway":"residential","name":null,"alt_name":null,"official_name":null,"surface":null,"tracktype":null,"service":null,"access":null,"motor_vehicle":null,"foot":null,"tiger_reviewed":"no","rrgh_part":0,"rrgh_tile_part":0},"geometry":{"type":"LineString","coordinates":[[-83.891479,37.65885],[-83.891315,37.658943],[-83.891204,37.659032],[-83.891055,37.659279]]}},{"type":"Feature","properties":{"osm_id":16163340,"highway":"service","name":"Cr-1176","alt_name":null,"official_name":null,"surface":null,"tracktype":null,"service":null,"access":"private","motor_vehicle":null,"foot":null,"tiger_reviewed":"no","rrgh_part":0,"rrgh_tile_part":0},"geometry":{"type":"LineString","coordinates":[[-83.892246,37.659747],[-83.892523,37.659221],[-83.892603,37.659091]]}},{"type":"Feature","properties":{"osm_id":16161728,"highway":"service","name":"Cox Doe Creek Cemetery Road","alt_name":null,"official_name":null,"surface":null,"tracktype":null,"service":null,"access":null,"motor_vehicle":null,"foot":null,"tiger_reviewed":"no","rrgh_part":0,"rrgh_tile_part":0},"geometry":{"type":"LineString","coordinates":[[-83.928826,37.66348],[-83.928704,37.663402],[-83.929052,37.663347],[-83.92926,37.663281],[-83.929541,37.663207],[-83.929849,37.663141],[-83.929946,37.663109],[-83.93,37.66310278761062]]}},{"type":"Feature","properties":{"osm_id":16161728,"highway":"service","name":"Cox Doe Creek Cemetery Road","alt_name":null,"official_name":null,"surface":null,"tracktype":null,"service":null,"access":null,"motor_vehicle":null,"foot":null,"tiger_reviewed":"no","rrgh_part":1,"rrgh_tile_part":0},"geometry":{"type":"LineString","coordinates":[[-83.93,37.6635711147541],[-83.929705,37.663722],[-83.929329,37.663854],[-83.929241,37.663857],[-83.929195,37.663842],[-83.929105,37.663766],[-83.928826,37.66348]]}},{"type":"Feature","properties":{"osm_id":16161729,"highway":"service","name":"Cox Doe Creek Cemetery Road","alt_name":null,"official_name":null,"surface":null,"tracktype":null,"service":null,"access":null,"motor_vehicle":null,"foot":null,"tiger_reviewed":"no","rrgh_part":0,"rrgh_tile_part":0},"geometry":{"type":"LineString","coordinates":[[-83.92802,37.663581],[-83.928218,37.663501],[-83.928495,37.663423],[-83.928593,37.663403],[-83.928704,37.663402]]}},{"type":"Feature","properties":{"osm_id":16163425,"highway":"service","name":"Barnes Mtn Road","alt_name":null,"official_name":null,"surface":null,"tracktype":null,"service":null,"access":"private","motor_vehicle":null,"foot":null,"tiger_reviewed":"no","rrgh_part":0,"rrgh_tile_part":0},"geometry":{"type":"LineString","coordinates":[[-83.92802,37.663581],[-83.927978,37.663598],[-83.927885,37.66362],[-83.927736,37.66364],[-83.927643,37.663664],[-83.927476,37.663759],[-83.927276,37.663971],[-83.927124,37.664074],[-83.926705,37.664252],[-83.926357,37.664309]]}},{"type":"Feature","properties":{"osm_id":16161812,"highway":"service","name":"Roberts Road","alt_name":null,"official_name":null,"surface":null,"tracktype":null,"service":null,"access":null,"motor_vehicle":null,"foot":null,"tiger_reviewed":"no","rrgh_part":0,"rrgh_tile_part":0},"geometry":{"type":"LineString","coordinates":[[-83.93,37.66682885820897],[-83.929921,37.666708],[-83.929849,37.666462],[-83.929757,37.666305],[-83.929717,37.666196],[-83.929715,37.666141],[-83.929729,37.66609],[-83.929761,37.666044],[-83.929806,37.666005],[-83.929916,37.665947],[-83.93,37.6659102972973]]}},{"type":"Feature","properties":{"osm_id":16161815,"highway":"service","name":"Roberts Road","alt_name":null,"official_name":null,"surface":null,"tracktype":null,"service":null,"access":null,"motor_vehicle":null,"foot":null,"tiger_reviewed":"no","rrgh_part":0,"rrgh_tile_part":0},"geometry":{"type":"LineString","coordinates":[[-83.929921,37.666708],[-83.9296609,37.6668198],[-83.929346,37.667084],[-83.929101,37.667341],[-83.928873,37.667554],[-83.928749,37.667649],[-83.928214,37.668019]]}},{"type":"Feature","properties":{"osm_id":968775939,"highway":"track","name":null,"alt_name":null,"official_name":null,"surface":null,"tracktype":null,"service":null,"access":null,"motor_vehicle":null,"foot":null,"tiger_reviewed":null,"rrgh_part":0,"rrgh_tile_part":0},"geometry":{"type":"LineString","coordinates":[[-83.93,37.671133064654306],[-83.9298691,37.6710698],[-83.9296145,37.6710407],[-83.9293784,37.671047],[-83.929213,37.6712277],[-83.9292576,37.6715455]]}},{"type":"Feature","properties":{"osm_id":16160216,"highway":"service","name":"Tracy Lane","alt_name":null,"official_name":null,"surface":null,"tracktype":null,"service":null,"access":"private","motor_vehicle":null,"foot":null,"tiger_reviewed":"no","rrgh_part":0,"rrgh_tile_part":0},"geometry":{"type":"LineString","coordinates":[[-83.910009,37.666811],[-83.910059,37.666677],[-83.9100984,37.6664527],[-83.910105,37.666415],[-83.910212,37.666222],[-83.910277,37.666033]]}},{"type":"Feature","properties":{"osm_id":968775954,"highway":"service","name":null,"alt_name":null,"official_name":null,"surface":null,"tracktype":null,"service":null,"access":null,"motor_vehicle":null,"foot":null,"tiger_reviewed":null,"rrgh_part":0,"rrgh_tile_part":0},"geometry":{"type":"LineString","coordinates":[[-83.9022244,37.6638327],[-83.9024172,37.6634972],[-83.9027837,37.6629464],[-83.9030488,37.6624598],[-83.903238,37.6622272],[-83.9033697,37.6620989],[-83.9036534,37.661889],[-83.9039388,37.6617232],[-83.9043711,37.6615963],[-83.9048642,37.6615174],[-83.9050077,37.6615481]]}},{"type":"Feature","properties":{"osm_id":968775954,"highway":"service","name":null,"alt_name":null,"official_name":null,"surface":null,"tracktype":null,"service":null,"access":null,"motor_vehicle":null,"foot":null,"tiger_reviewed":null,"rrgh_part":1,"rrgh_tile_part":0},"geometry":{"type":"LineString","coordinates":[[-83.9050077,37.6615481],[-83.9051141,37.6616791],[-83.9051698,37.6617446],[-83.9052897,37.6617513],[-83.9054299,37.6616056],[-83.9055042,37.6614505],[-83.9054738,37.6613904],[-83.9054062,37.661365],[-83.9052982,37.661381],[-83.9050989,37.6614492],[-83.9050077,37.6615481]]}},{"type":"Feature","properties":{"osm_id":16163668,"highway":"residential","name":"Old Medford Road","alt_name":null,"official_name":null,"surface":"gravel","tracktype":null,"service":null,"access":null,"motor_vehicle":null,"foot":null,"tiger_reviewed":null,"rrgh_part":0,"rrgh_tile_part":0},"geometry":{"type":"LineString","coordinates":[[-83.8956343,37.6701041],[-83.895684,37.6700853],[-83.8957382,37.6700818],[-83.8958037,37.670095],[-83.8959143,37.6701502],[-83.8960405,37.6702153],[-83.8960829,37.6702303],[-83.8961194,37.6702405],[-83.8961544,37.6702449],[-83.896191,37.6702411],[-83.8962525,37.670217],[-83.8963025,37.6701741],[-83.8963858,37.6700566],[-83.8966353,37.6697584],[-83.8976059,37.6686702],[-83.8976665,37.6686142],[-83.8977471,37.6685883],[-83.8978017,37.668594],[-83.8978543,37.6686104],[-83.8979005,37.668634],[-83.8979697,37.6686823],[-83.898146,37.6687946],[-83.8983006,37.6688946],[-83.8984475,37.6689841],[-83.8984891,37.6690046],[-83.8985332,37.6690179],[-83.8986009,37.6690233],[-83.8986591,37.6690116],[-83.8987073,37.6689903],[-83.8987561,37.6689538],[-83.8988101,37.6689042],[-83.8989578,37.6687399],[-83.8991921,37.6684457],[-83.8994252,37.6681508],[-83.8998494,37.667557]]}},{"type":"Feature","properties":{"osm_id":16163146,"highway":"residential","name":"Mt Tabor Cem Road","alt_name":null,"official_name":null,"surface":null,"tracktype":null,"service":null,"access":null,"motor_vehicle":null,"foot":null,"tiger_reviewed":"no","rrgh_part":0,"rrgh_tile_part":0},"geometry":{"type":"LineString","coordinates":[[-83.892702,37.669162],[-83.892499,37.669185],[-83.892119,37.6692],[-83.891896,37.669225],[-83.891736,37.669233],[-83.891408,37.669217],[-83.891258,37.669195],[-83.891201,37.669167],[-83.891183,37.669143],[-83.891187,37.669058],[-83.891156,37.669006],[-83.891112,37.66896],[-83.891049,37.668921],[-83.89079,37.668809]]}},{"type":"Feature","properties":{"osm_id":16159557,"highway":"service","name":null,"alt_name":null,"official_name":null,"surface":null,"tracktype":null,"service":null,"access":"private","motor_vehicle":null,"foot":null,"tiger_reviewed":"no","rrgh_part":0,"rrgh_tile_part":0},"geometry":{"type":"LineString","coordinates":[[-83.895647,37.67287],[-83.895736,37.673364]]}},{"type":"Feature","properties":{"osm_id":16159736,"highway":"residential","name":null,"alt_name":null,"official_name":null,"surface":null,"tracktype":null,"service":null,"access":null,"motor_vehicle":null,"foot":null,"tiger_reviewed":"no","rrgh_part":0,"rrgh_tile_part":0},"geometry":{"type":"LineString","coordinates":[[-83.898204,37.671988],[-83.89725,37.672651],[-83.897089,37.673164]]}},{"type":"Feature","properties":{"osm_id":16160289,"highway":"residential","name":"Cr-1157","alt_name":null,"official_name":null,"surface":null,"tracktype":null,"service":null,"access":null,"motor_vehicle":null,"foot":null,"tiger_reviewed":null,"rrgh_part":0,"rrgh_tile_part":0},"geometry":{"type":"LineString","coordinates":[[-83.8956343,37.6701041],[-83.8955917,37.6700782],[-83.8955582,37.670049],[-83.8955033,37.6699945],[-83.8953829,37.6698869],[-83.8952535,37.669788],[-83.8951143,37.6696987],[-83.8949075,37.6695881],[-83.8946459,37.6694486]]}},{"type":"Feature","properties":{"osm_id":16161019,"highway":"residential","name":"Tuggie Bridge","alt_name":null,"official_name":null,"surface":null,"tracktype":null,"service":null,"access":null,"motor_vehicle":null,"foot":null,"tiger_reviewed":"no","rrgh_part":0,"rrgh_tile_part":0},"geometry":{"type":"LineString","coordinates":[[-83.896609,37.671371],[-83.896202,37.671751],[-83.89577,37.672537],[-83.895737,37.672637],[-83.895728,37.67276],[-83.895682,37.672838],[-83.895647,37.67287],[-83.895548,37.672957],[-83.895195,37.673157],[-83.895172,37.673179]]}},{"type":"Feature","properties":{"osm_id":16163666,"highway":"residential","name":"Old Medford Road","alt_name":null,"official_name":null,"surface":null,"tracktype":null,"service":null,"access":null,"motor_vehicle":null,"foot":null,"tiger_reviewed":null,"rrgh_part":0,"rrgh_tile_part":0},"geometry":{"type":"LineString","coordinates":[[-83.895513,37.670234],[-83.8955654,37.6701719],[-83.8955995,37.6701335],[-83.8956343,37.6701041]]}},{"type":"Feature","properties":{"osm_id":16160339,"highway":"residential","name":"Stone Fox Lane","alt_name":null,"official_name":null,"surface":null,"tracktype":null,"service":null,"access":null,"motor_vehicle":null,"foot":null,"tiger_reviewed":null,"rrgh_part":0,"rrgh_tile_part":0},"geometry":{"type":"LineString","coordinates":[[-83.9035719,37.6747674],[-83.9035354,37.6748061],[-83.9034979,37.6748457],[-83.9034433,37.6749263],[-83.9034273,37.6749855],[-83.90341964913112,37.675]]}},{"type":"Feature","properties":{"osm_id":480541699,"highway":"residential","name":"Stone Fox Lane","alt_name":null,"official_name":null,"surface":null,"tracktype":null,"service":null,"access":null,"motor_vehicle":null,"foot":null,"tiger_reviewed":"no","rrgh_part":0,"rrgh_tile_part":0},"geometry":{"type":"LineString","coordinates":[[-83.9036225,37.6747164],[-83.9035719,37.6747674]]}},{"type":"Feature","properties":{"osm_id":480541701,"highway":"residential","name":"Stone Fox Lane","alt_name":null,"official_name":null,"surface":null,"tracktype":null,"service":null,"access":null,"motor_vehicle":null,"foot":null,"tiger_reviewed":"no","rrgh_part":0,"rrgh_tile_part":0},"geometry":{"type":"LineString","coordinates":[[-83.9037424,37.6746232],[-83.9036225,37.6747164]]}},{"type":"Feature","properties":{"osm_id":16161983,"highway":"residential","name":"Macedonia Road","alt_name":null,"official_name":null,"surface":null,"tracktype":null,"service":null,"access":null,"motor_vehicle":null,"foot":null,"tiger_reviewed":"no","rrgh_part":0,"rrgh_tile_part":0},"geometry":{"type":"LineString","coordinates":[[-83.870559,37.606678],[-83.870527,37.606872],[-83.870513,37.607088],[-83.870503,37.607959],[-83.870455,37.608241],[-83.870411,37.608379],[-83.870316,37.608563],[-83.870252,37.608612],[-83.870062,37.608658],[-83.869805,37.608754],[-83.86974,37.608799],[-83.869612,37.608911],[-83.86955,37.609046],[-83.869535,37.609141],[-83.869528,37.609315],[-83.869508,37.609369],[-83.869471,37.609418],[-83.869362,37.609495],[-83.869292,37.609532],[-83.869215,37.609566],[-83.868973,37.609647],[-83.8689,37.609687],[-83.868836,37.609737],[-83.868674,37.609891],[-83.868544,37.610061],[-83.868484,37.610185],[-83.868448,37.61031],[-83.868441,37.610372],[-83.868456,37.610442],[-83.868488,37.610508],[-83.868726,37.610799],[-83.868969,37.611231],[-83.869165,37.611506],[-83.86923,37.611642],[-83.869264,37.611786],[-83.869267,37.61186],[-83.869246,37.6121],[-83.869248,37.612263],[-83.8692702,37.6123949],[-83.869394,37.613129],[-83.8693338,37.6134879],[-83.8693807,37.6137773],[-83.8694286,37.6142259],[-83.8693819,37.6146709],[-83.8693347,37.6148634],[-83.8692992,37.6150358],[-83.8692201,37.6152993],[-83.8691986,37.6153784],[-83.8692062,37.615438],[-83.869311,37.615534],[-83.869349,37.615574],[-83.869369,37.615614],[-83.869368,37.615665],[-83.869358,37.615711],[-83.869328,37.615765],[-83.869225,37.615864],[-83.868983,37.616062],[-83.868864,37.616183],[-83.868837,37.616248],[-83.868793,37.616437],[-83.868762,37.616506],[-83.868643,37.616704],[-83.868504,37.616976],[-83.868406,37.617096],[-83.868278,37.617328],[-83.868217,37.617485],[-83.868196,37.617561],[-83.86819,37.61764],[-83.868195,37.617953],[-83.868224,37.618114],[-83.868281,37.618254],[-83.868462,37.618596],[-83.868521,37.618729],[-83.868663,37.619185],[-83.868683,37.619248],[-83.868782,37.619436],[-83.869016,37.619746],[-83.869099,37.619873],[-83.869216,37.620117],[-83.869383,37.620526],[-83.869458,37.62067],[-83.869627,37.620949],[-83.86969,37.621117],[-83.869759,37.621611],[-83.869816,37.621909],[-83.869878,37.622116],[-83.869967,37.622331],[-83.870096,37.622723],[-83.870125,37.622841],[-83.870128,37.622964],[-83.870094,37.623091],[-83.870081,37.623233],[-83.870112,37.623586],[-83.870101,37.623784],[-83.870106,37.624053],[-83.870144,37.624395],[-83.870106,37.624707],[-83.870083,37.624775],[-83.870018,37.624895],[-83.869984,37.624945],[-83.869893,37.62504],[-83.869713,37.625197],[-83.869431,37.625389],[-83.869082,37.625646],[-83.869023,37.625717],[-83.868771,37.626131],[-83.868693,37.62628],[-83.8686,37.626507],[-83.868537,37.626734],[-83.868513,37.627086],[-83.868477,37.627175],[-83.868446,37.627215],[-83.86831,37.627323],[-83.868074,37.62746],[-83.867948,37.627516],[-83.867489,37.627639],[-83.867324,37.627699],[-83.867249,37.627739],[-83.867115,37.627831],[-83.866922,37.627998],[-83.866646,37.628281],[-83.866533,37.628371],[-83.866309,37.628461],[-83.866061,37.628521],[-83.865753,37.62861],[-83.865589,37.628681],[-83.865456,37.628774],[-83.865399,37.628825],[-83.865248,37.62899],[-83.865169,37.629147],[-83.865158,37.629194],[-83.8651633,37.6292345],[-83.865173,37.629308]]}},{"type":"Feature","properties":{"osm_id":16269198,"highway":"residential","name":"Ross Creek Road","alt_name":null,"official_name":null,"surface":"gravel","tracktype":null,"service":null,"access":null,"motor_vehicle":null,"foot":null,"tiger_reviewed":"no","rrgh_part":0,"rrgh_tile_part":0},"geometry":{"type":"LineString","coordinates":[[-83.855623,37.6107],[-83.855392,37.61097],[-83.855227,37.611057],[-83.855081,37.611098],[-83.854897,37.611131],[-83.854501,37.61118],[-83.8543832,37.611216],[-83.854265,37.611303],[-83.853756,37.611872],[-83.853662,37.611985],[-83.853197,37.612466],[-83.852842,37.61285],[-83.852464,37.613203],[-83.852223,37.61351],[-83.852162,37.613574],[-83.851946,37.613752],[-83.851511,37.614084],[-83.851182,37.614309],[-83.851009,37.614448],[-83.850623,37.614886],[-83.850351,37.615151],[-83.849726,37.61582],[-83.849179,37.616354],[-83.848901,37.616615],[-83.848672,37.616809],[-83.848607,37.616882],[-83.848522,37.616941],[-83.847861,37.61752],[-83.847718,37.617636],[-83.847035,37.617965],[-83.846735,37.618137],[-83.846563,37.61821],[-83.8464,37.618303],[-83.846177,37.618449],[-83.845535,37.618926],[-83.845,37.619272078125]]}},{"type":"Feature","properties":{"osm_id":968775917,"highway":"service","name":null,"alt_name":null,"official_name":null,"surface":null,"tracktype":null,"service":null,"access":null,"motor_vehicle":null,"foot":null,"tiger_reviewed":null,"rrgh_part":0,"rrgh_tile_part":0},"geometry":{"type":"LineString","coordinates":[[-83.8855896,37.6001809],[-83.8855693,37.6000808],[-83.88554027421795,37.6]]}},{"type":"Feature","properties":{"osm_id":16161720,"highway":"residential","name":"Osborne Road","alt_name":null,"official_name":null,"surface":null,"tracktype":null,"service":null,"access":null,"motor_vehicle":null,"foot":null,"tiger_reviewed":"no","rrgh_part":0,"rrgh_tile_part":0},"geometry":{"type":"LineString","coordinates":[[-83.876507,37.606382],[-83.876596,37.606469],[-83.876627,37.606515],[-83.876652,37.606589],[-83.876661,37.607004],[-83.87676,37.607344],[-83.876804,37.607432],[-83.876852,37.6075],[-83.876972,37.607618],[-83.877277,37.607879],[-83.87736,37.607974],[-83.877423,37.608079],[-83.877514,37.608287],[-83.877548,37.608408],[-83.877553,37.608498],[-83.87754,37.608579],[-83.877467,37.608749],[-83.877328,37.608994],[-83.877161,37.6092],[-83.87705,37.609309],[-83.877016,37.609366],[-83.877017,37.609408],[-83.877053,37.609476],[-83.877111,37.60952],[-83.877143,37.609533],[-83.877183,37.609531],[-83.877373,37.609475],[-83.877791,37.609226],[-83.878128,37.608956],[-83.878266,37.608829],[-83.878345,37.608808],[-83.878398,37.608826],[-83.878452,37.608864],[-83.878482,37.60892],[-83.87851,37.609007],[-83.878537,37.609615],[-83.878602,37.609927],[-83.87872,37.610072],[-83.87896,37.610326],[-83.879259,37.610699],[-83.879527,37.610852],[-83.879664,37.610904],[-83.8798,37.610969],[-83.880211,37.611226]]}},{"type":"Feature","properties":{"osm_id":16159884,"highway":"residential","name":null,"alt_name":null,"official_name":null,"surface":null,"tracktype":null,"service":null,"access":null,"motor_vehicle":null,"foot":null,"tiger_reviewed":"no","rrgh_part":0,"rrgh_tile_part":0},"geometry":{"type":"LineString","coordinates":[[-83.882376,37.605134],[-83.882491,37.604992],[-83.882696,37.604839],[-83.882779,37.60473],[-83.882872,37.604572],[-83.882936,37.604372],[-83.883111,37.60417],[-83.883204,37.604012],[-83.883292,37.603923]]}},{"type":"Feature","properties":{"osm_id":16162764,"highway":"residential","name":"McKinney Road","alt_name":null,"official_name":null,"surface":null,"tracktype":null,"service":null,"access":null,"motor_vehicle":null,"foot":null,"tiger_reviewed":"no","rrgh_part":0,"rrgh_tile_part":0},"geometry":{"type":"LineString","coordinates":[[-83.88279,37.605157],[-83.882714,37.605181],[-83.882553,37.605211],[-83.88209,37.605235],[-83.881863,37.605271],[-83.881468,37.605355],[-83.881053,37.605496],[-83.880834,37.605557],[-83.880701,37.6056],[-83.880657,37.605626],[-83.880619,37.605657],[-83.880576,37.605752],[-83.880534,37.605988],[-83.880531,37.606171],[-83.88055,37.606203],[-83.880649,37.606256],[-83.88075,37.606294],[-83.880861,37.606303],[-83.88144,37.606232],[-83.881578,37.606236],[-83.881639,37.606258],[-83.881691,37.606293],[-83.881876,37.606511],[-83.882003,37.606637],[-83.882357,37.606909],[-83.882462,37.606956],[-83.882565,37.606963],[-83.882962,37.606892],[-83.88324,37.606853],[-83.88352,37.606795]]}},{"type":"Feature","properties":{"osm_id":16160549,"highway":"residential","name":"St Timothys Road","alt_name":null,"official_name":null,"surface":null,"tracktype":null,"service":null,"access":null,"motor_vehicle":null,"foot":null,"tiger_reviewed":"no","rrgh_part":0,"rrgh_tile_part":0},"geometry":{"type":"LineString","coordinates":[[-83.877856,37.605526],[-83.877622,37.605335],[-83.877446,37.605235],[-83.877191,37.605122],[-83.87687,37.60493],[-83.876787,37.604843],[-83.876729,37.604749],[-83.876698,37.604687],[-83.876669,37.60454],[-83.876653,37.604238],[-83.876533,37.60374],[-83.876475,37.603362],[-83.876489,37.603306]]}},{"type":"Feature","properties":{"osm_id":16162136,"highway":"service","name":"Stephens Cemetery Road","alt_name":null,"official_name":null,"surface":null,"tracktype":null,"service":null,"access":"private","motor_vehicle":null,"foot":null,"tiger_reviewed":"no","rrgh_part":0,"rrgh_tile_part":0},"geometry":{"type":"LineString","coordinates":[[-83.867585,37.607365],[-83.867635,37.607424],[-83.867712,37.607489],[-83.867826,37.607557],[-83.867854,37.607592],[-83.867859,37.607622],[-83.867848,37.607652],[-83.867798,37.607751],[-83.8678,37.607831],[-83.867841,37.607916],[-83.867935,37.608034],[-83.867987,37.608128],[-83.868047,37.608315],[-83.868059,37.608414],[-83.868054,37.608462],[-83.868007,37.608551],[-83.867963,37.608596],[-83.867643,37.608818],[-83.867524,37.60892],[-83.867436,37.609027],[-83.867365,37.609146],[-83.867264,37.609238],[-83.867094,37.609315],[-83.867042,37.609319],[-83.866994,37.609311],[-83.866947,37.609289],[-83.866824,37.609165],[-83.866614,37.60889],[-83.866557,37.608763],[-83.866531,37.608568],[-83.866482,37.608363],[-83.866376,37.608089],[-83.866312,37.607969],[-83.866218,37.607859],[-83.866125,37.607764],[-83.866028,37.607684],[-83.865912,37.607618],[-83.865765,37.607562],[-83.865623,37.607521],[-83.865552,37.607513],[-83.86496,37.607535],[-83.864488,37.607515]]}},{"type":"Feature","properties":{"osm_id":16269113,"highway":"residential","name":"Little Ross Creek Road","alt_name":null,"official_name":null,"surface":"unpaved","tracktype":null,"service":null,"access":null,"motor_vehicle":null,"foot":null,"tiger_reviewed":null,"rrgh_part":0,"rrgh_tile_part":0},"geometry":{"type":"LineString","coordinates":[[-83.86269350877194,37.6],[-83.862665,37.600075],[-83.862576,37.600214],[-83.862411,37.600414],[-83.862355,37.600502],[-83.862283,37.600643],[-83.862113,37.601057],[-83.862078,37.60119],[-83.862075,37.601283],[-83.862088,37.601325],[-83.862287,37.601665],[-83.862428,37.601878],[-83.862467,37.602008],[-83.8624718,37.6020239],[-83.862519,37.602179],[-83.862492,37.602241],[-83.862463,37.602266],[-83.862385,37.602292],[-83.862303,37.602289],[-83.8622515,37.6022805],[-83.8621601,37.6022625],[-83.862111,37.6022528],[-83.8620451,37.6022459],[-83.8619748,37.6022532],[-83.8617863,37.6022924],[-83.8615963,37.6023208],[-83.8612147,37.602377],[-83.8610052,37.6024271],[-83.8608864,37.6024696],[-83.8607765,37.6025216],[-83.8606862,37.6025608],[-83.860611,37.6026092],[-83.8606064,37.6026386]]}},{"type":"Feature","properties":{"osm_id":16161407,"highway":"residential","name":"Moore Cemetary Road","alt_name":null,"official_name":null,"surface":null,"tracktype":null,"service":null,"access":null,"motor_vehicle":null,"foot":null,"tiger_reviewed":"no","rrgh_part":0,"rrgh_tile_part":0},"geometry":{"type":"LineString","coordinates":[[-83.86999,37.605293],[-83.87,37.605054],[-83.870028,37.60482],[-83.870082,37.604623],[-83.870098,37.604584],[-83.870624,37.603763],[-83.870673,37.603652],[-83.870707,37.603457],[-83.870744,37.603404]]}},{"type":"Feature","properties":{"osm_id":16163330,"highway":"service","name":"Robinson Cemetery","alt_name":null,"official_name":null,"surface":null,"tracktype":null,"service":null,"access":null,"motor_vehicle":null,"foot":null,"tiger_reviewed":"no","rrgh_part":0,"rrgh_tile_part":0},"geometry":{"type":"LineString","coordinates":[[-83.870545,37.606365],[-83.8704,37.606378],[-83.869929,37.606459]]}},{"type":"Feature","properties":{"osm_id":16163331,"highway":"service","name":"Robinson Cemetery","alt_name":null,"official_name":null,"surface":null,"tracktype":null,"service":null,"access":null,"motor_vehicle":null,"foot":null,"tiger_reviewed":"no","rrgh_part":0,"rrgh_tile_part":0},"geometry":{"type":"LineString","coordinates":[[-83.869749,37.606568],[-83.869929,37.606459],[-83.869817,37.606454],[-83.869587,37.606392],[-83.86951,37.606386],[-83.869472,37.6064],[-83.869444,37.606425],[-83.869428,37.606456],[-83.869426,37.60649],[-83.869443,37.606523],[-83.869476,37.606548],[-83.869568,37.606576],[-83.869659,37.606589],[-83.869749,37.606568]]}},{"type":"Feature","properties":{"osm_id":968775913,"highway":"service","name":null,"alt_name":null,"official_name":null,"surface":null,"tracktype":null,"service":null,"access":null,"motor_vehicle":null,"foot":null,"tiger_reviewed":null,"rrgh_part":0,"rrgh_tile_part":0},"geometry":{"type":"LineString","coordinates":[[-83.8622692,37.6022381],[-83.8622828,37.6021801],[-83.8623017,37.6020634],[-83.8622659,37.601985],[-83.8620449,37.60202],[-83.8617649,37.6021034],[-83.8614049,37.6020867],[-83.861106,37.6019833],[-83.8609355,37.6019266]]}},{"type":"Feature","properties":{"osm_id":968775914,"highway":"service","name":null,"alt_name":null,"official_name":null,"surface":null,"tracktype":null,"service":null,"access":null,"motor_vehicle":null,"foot":null,"tiger_reviewed":null,"rrgh_part":0,"rrgh_tile_part":0},"geometry":{"type":"LineString","coordinates":[[-83.864488,37.607515],[-83.8637923,37.6074308],[-83.8634123,37.6073321],[-83.8629655,37.6070744],[-83.8626372,37.6066939],[-83.8622056,37.6060582],[-83.8618773,37.6057403]]}},{"type":"Feature","properties":{"osm_id":1467925311,"highway":"unclassified","name":null,"alt_name":null,"official_name":null,"surface":null,"tracktype":null,"service":null,"access":null,"motor_vehicle":null,"foot":null,"tiger_reviewed":null,"rrgh_part":0,"rrgh_tile_part":0},"geometry":{"type":"LineString","coordinates":[[-83.8621601,37.6022625],[-83.8622692,37.6022381],[-83.8622898,37.6022335],[-83.8623973,37.6021595],[-83.8624718,37.6020239]]}},{"type":"Feature","properties":{"osm_id":16268563,"highway":"track","name":null,"alt_name":null,"official_name":null,"surface":null,"tracktype":null,"service":null,"access":null,"motor_vehicle":null,"foot":null,"tiger_reviewed":"no","rrgh_part":0,"rrgh_tile_part":0},"geometry":{"type":"LineString","coordinates":[[-83.845,37.61021703453087],[-83.8453248,37.6102372],[-83.8456661,37.6102942],[-83.8459134,37.6104616],[-83.8461169,37.610533],[-83.8469662,37.6102906],[-83.8476887,37.6101106],[-83.8490903,37.6100379],[-83.84977,37.6099678],[-83.851467,37.6100183],[-83.8522157,37.6098844],[-83.8525428,37.6098866]]}},{"type":"Feature","properties":{"osm_id":1467925307,"highway":"unclassified","name":null,"alt_name":null,"official_name":null,"surface":null,"tracktype":null,"service":null,"access":null,"motor_vehicle":null,"foot":null,"tiger_reviewed":null,"rrgh_part":0,"rrgh_tile_part":0},"geometry":{"type":"LineString","coordinates":[[-83.8568561,37.6043956],[-83.8568419,37.6043035],[-83.8570723,37.6039262],[-83.8563013,37.6043212],[-83.8557995,37.6045555],[-83.8556321,37.6046117],[-83.8555109,37.6046279],[-83.8550303,37.6046003],[-83.8549193,37.6046108],[-83.8546985,37.6046759],[-83.8541439,37.60492],[-83.8540505,37.6049469],[-83.8539519,37.6049477],[-83.8531652,37.6046499],[-83.8529357,37.6045444]]}},{"type":"Feature","properties":{"osm_id":16159892,"highway":"track","name":null,"alt_name":null,"official_name":null,"surface":null,"tracktype":null,"service":null,"access":null,"motor_vehicle":null,"foot":null,"tiger_reviewed":"no","rrgh_part":0,"rrgh_tile_part":0},"geometry":{"type":"LineString","coordinates":[[-83.8482551,37.663838],[-83.848015,37.663949],[-83.847702,37.664077],[-83.847413,37.664333],[-83.8470615,37.6648132],[-83.8464567,37.6655647],[-83.845,37.66626657100768]]}},{"type":"Feature","properties":{"osm_id":16161255,"highway":"residential","name":"Old Landing Road","alt_name":null,"official_name":null,"surface":"gravel","tracktype":null,"service":null,"access":null,"motor_vehicle":null,"foot":null,"tiger_reviewed":"no","rrgh_part":0,"rrgh_tile_part":0},"geometry":{"type":"LineString","coordinates":[[-83.846008,37.631254],[-83.845915,37.631298],[-83.845815,37.631391],[-83.845698,37.631519],[-83.845634,37.631617],[-83.84553,37.632058],[-83.845502,37.632128],[-83.84544,37.632199],[-83.845345,37.632227],[-83.845296,37.632227],[-83.84509,37.632186],[-83.845003,37.632179],[-83.845,37.63217955645162]]}},{"type":"Feature","properties":{"osm_id":16161255,"highway":"residential","name":"Old Landing Road","alt_name":null,"official_name":null,"surface":"gravel","tracktype":null,"service":null,"access":null,"motor_vehicle":null,"foot":null,"tiger_reviewed":"no","rrgh_part":0,"rrgh_tile_part":1},"geometry":{"type":"LineString","coordinates":[[-83.845,37.64024324309392],[-83.845201,37.640214],[-83.846125,37.640127],[-83.8468,37.640052],[-83.847194,37.640031],[-83.848348,37.640018],[-83.849897,37.640086],[-83.85057,37.640094],[-83.850944,37.640115],[-83.852263,37.640243],[-83.852748,37.640318],[-83.853228,37.640361],[-83.854056,37.640485],[-83.85523,37.640599],[-83.855853,37.640641],[-83.855993,37.64066],[-83.856087,37.640692],[-83.856233,37.6408],[-83.856387,37.640869],[-83.857792,37.641196],[-83.858466,37.641367],[-83.858996,37.641486],[-83.859515,37.64157],[-83.86002,37.641694],[-83.860631,37.64182],[-83.8615391,37.6420179],[-83.861809,37.642016],[-83.862388,37.641998],[-83.8630698,37.6420051]]}},{"type":"Feature","properties":{"osm_id":16269002,"highway":"residential","name":"Evelyn Road","alt_name":null,"official_name":null,"surface":null,"tracktype":null,"service":null,"access":null,"motor_vehicle":null,"foot":null,"tiger_reviewed":"no","rrgh_part":0,"rrgh_tile_part":0},"geometry":{"type":"LineString","coordinates":[[-83.859039,37.612156],[-83.859167,37.612154],[-83.85924,37.612163],[-83.859356,37.612197],[-83.859414,37.612247],[-83.859469,37.61232],[-83.859474,37.61236],[-83.859445,37.612407],[-83.859314,37.612489],[-83.858666,37.612796],[-83.858541,37.612845],[-83.85832,37.612957],[-83.857904,37.613221],[-83.857362,37.613595],[-83.857052,37.613782],[-83.856306,37.614285],[-83.856241,37.61437],[-83.856119,37.614571],[-83.856032,37.614652],[-83.855789,37.61481],[-83.855463,37.614983],[-83.855344,37.615155],[-83.855193,37.615249],[-83.855127,37.615302],[-83.854966,37.615523],[-83.854787,37.615716],[-83.854477,37.61616],[-83.854155,37.616488],[-83.854004,37.616663],[-83.853772,37.616971],[-83.85346,37.617311],[-83.85344,37.617357],[-83.853315,37.617516],[-83.853117,37.617695],[-83.852906,37.617858],[-83.852824,37.617945],[-83.852686,37.618054],[-83.852528,37.618232],[-83.852428,37.618392],[-83.852345,37.618491],[-83.852136,37.618657],[-83.851782,37.6189],[-83.85166,37.618973],[-83.851444,37.619135],[-83.850819,37.619697],[-83.850697,37.619837],[-83.850516,37.620078],[-83.850415,37.620165],[-83.850292,37.620238],[-83.850169,37.62029],[-83.849987,37.620386],[-83.849872,37.620456],[-83.84959,37.620655],[-83.849475,37.62072],[-83.849015,37.621032],[-83.848766,37.62117],[-83.848415,37.621389],[-83.848118,37.62162],[-83.848006,37.621697],[-83.847878,37.621752],[-83.847583,37.62183],[-83.847434,37.621885],[-83.847303,37.621948],[-83.847029,37.622114],[-83.846255,37.622441],[-83.84585,37.622639],[-83.8454,37.622779],[-83.845,37.62292994339622]]}},{"type":"Feature","properties":{"osm_id":968852979,"highway":"service","name":"Fike Cemetery","alt_name":null,"official_name":null,"surface":null,"tracktype":null,"service":null,"access":null,"motor_vehicle":null,"foot":null,"tiger_reviewed":null,"rrgh_part":0,"rrgh_tile_part":0},"geometry":{"type":"LineString","coordinates":[[-83.859474,37.61236],[-83.8595616,37.6123121],[-83.859665,37.6122794],[-83.8597888,37.6122628],[-83.8598956,37.612258],[-83.8600279,37.6122559],[-83.8604578,37.6122604],[-83.8607662,37.6122844],[-83.8610627,37.6123141],[-83.8613516,37.6123243],[-83.8615981,37.6123468],[-83.8619552,37.6124233],[-83.8621305,37.6124687],[-83.8622978,37.6125158],[-83.8623965,37.6125571],[-83.8625124,37.6126188],[-83.8626444,37.6126954],[-83.8627583,37.6127729],[-83.8628389,37.6128367],[-83.8629324,37.6129251],[-83.862987,37.612978],[-83.8631382,37.6130754],[-83.8632127,37.6131297],[-83.86325,37.6131688],[-83.8632699,37.6132031],[-83.8632883,37.613259],[-83.8632923,37.6133053],[-83.8632814,37.6133578],[-83.8632107,37.6134984],[-83.8630997,37.6136604],[-83.8630288,37.6138149],[-83.8628914,37.6142002],[-83.8628769,37.6142597],[-83.8628847,37.614314],[-83.8629182,37.6143664],[-83.8630062,37.6143916],[-83.8631056,37.6143935],[-83.8631963,37.6143708],[-83.8634739,37.6142217],[-83.8635221,37.6142216],[-83.8635664,37.6142384],[-83.8635913,37.6142648],[-83.8636148,37.6143022],[-83.8636269,37.6143461],[-83.8636309,37.6143836],[-83.8636185,37.6144197],[-83.8635714,37.6145034],[-83.8635179,37.6145429],[-83.8633961,37.614592],[-83.8630246,37.6147103],[-83.862976,37.614741],[-83.8629537,37.6147804],[-83.8629558,37.6148402],[-83.862987,37.6148859],[-83.8630606,37.6149424],[-83.8631311,37.6150094],[-83.8631654,37.6150749],[-83.8631795,37.6151307],[-83.8631712,37.6152103],[-83.8629601,37.6156468],[-83.8628852,37.615731],[-83.8626552,37.6158844],[-83.862591,37.6159353],[-83.8625474,37.6159878],[-83.8625326,37.6160422],[-83.8625376,37.6161196],[-83.8625718,37.6161674]]}},{"type":"Feature","properties":{"osm_id":896361501,"highway":"track","name":null,"alt_name":null,"official_name":null,"surface":null,"tracktype":null,"service":null,"access":null,"motor_vehicle":null,"foot":null,"tiger_reviewed":null,"rrgh_part":0,"rrgh_tile_part":0},"geometry":{"type":"LineString","coordinates":[[-83.8692201,37.6152993],[-83.8695614,37.6150704],[-83.8698656,37.6148442],[-83.8700728,37.6146799],[-83.8701885,37.6146372],[-83.8703543,37.614587],[-83.8705369,37.6145827],[-83.8706815,37.6146085],[-83.8708472,37.6146906],[-83.8709996,37.6147911],[-83.8711034,37.6148832]]}},{"type":"Feature","properties":{"osm_id":1467925322,"highway":"service","name":null,"alt_name":null,"official_name":null,"surface":null,"tracktype":null,"service":null,"access":null,"motor_vehicle":null,"foot":null,"tiger_reviewed":null,"rrgh_part":0,"rrgh_tile_part":0},"geometry":{"type":"LineString","coordinates":[[-83.8626552,37.6158844],[-83.8627905,37.6159145],[-83.862862,37.615911],[-83.8631112,37.6158667],[-83.8633998,37.6158253],[-83.8636249,37.6159141],[-83.8636702,37.6159338],[-83.8636389,37.6160243],[-83.8635409,37.6161759]]}},{"type":"Feature","properties":{"osm_id":1467925323,"highway":"service","name":null,"alt_name":null,"official_name":null,"surface":null,"tracktype":null,"service":null,"access":null,"motor_vehicle":null,"foot":null,"tiger_reviewed":null,"rrgh_part":0,"rrgh_tile_part":0},"geometry":{"type":"LineString","coordinates":[[-83.8640348,37.615595],[-83.8639518,37.6157012],[-83.8636702,37.6159338]]}},{"type":"Feature","properties":{"osm_id":1467925324,"highway":"service","name":null,"alt_name":null,"official_name":null,"surface":null,"tracktype":null,"service":null,"access":null,"motor_vehicle":null,"foot":null,"tiger_reviewed":null,"rrgh_part":0,"rrgh_tile_part":0},"geometry":{"type":"LineString","coordinates":[[-83.8634979,37.6156051],[-83.8633998,37.6158253]]}},{"type":"Feature","properties":{"osm_id":16161641,"highway":"residential","name":"Cr-1117","alt_name":null,"official_name":null,"surface":null,"tracktype":null,"service":null,"access":null,"motor_vehicle":null,"foot":null,"tiger_reviewed":"no","rrgh_part":0,"rrgh_tile_part":0},"geometry":{"type":"LineString","coordinates":[[-83.876782,37.630417],[-83.876511,37.630137],[-83.876121,37.629757],[-83.876077,37.629704],[-83.876036,37.629605],[-83.875981,37.629328],[-83.875912,37.629232],[-83.875795,37.629114],[-83.875675,37.628955],[-83.875387,37.628485],[-83.875341,37.628359],[-83.875312,37.628236],[-83.875296,37.62795],[-83.875223,37.627563],[-83.875228,37.627352],[-83.875273,37.627097],[-83.875265,37.626934],[-83.875215,37.626795],[-83.875142,37.626667],[-83.875039,37.626565],[-83.874926,37.626481],[-83.874815,37.626321],[-83.874632,37.625987],[-83.874524,37.625747],[-83.874449,37.625456],[-83.874387,37.625267],[-83.874262,37.624985],[-83.874246,37.624908],[-83.874241,37.62482],[-83.87425,37.624755],[-83.874278,37.624632],[-83.874303,37.62457]]}},{"type":"Feature","properties":{"osm_id":16161791,"highway":"residential","name":"Little Buck Ck Road","alt_name":null,"official_name":null,"surface":null,"tracktype":null,"service":null,"access":null,"motor_vehicle":null,"foot":null,"tiger_reviewed":"no","rrgh_part":0,"rrgh_tile_part":0},"geometry":{"type":"LineString","coordinates":[[-83.876782,37.630417],[-83.877115,37.630762],[-83.877559,37.631354],[-83.877712,37.631597],[-83.877871,37.631903],[-83.877933,37.631977],[-83.877987,37.632029],[-83.878117,37.632114],[-83.878328,37.632229],[-83.87848,37.632346],[-83.878679,37.632541],[-83.878737,37.632621],[-83.878748,37.632655],[-83.87875,37.632727],[-83.878727,37.632814],[-83.878618,37.632988],[-83.878554,37.633141],[-83.878525,37.633387],[-83.878522,37.633485],[-83.878534,37.633587],[-83.878567,37.633749],[-83.878679,37.634147],[-83.878948,37.634738],[-83.879019,37.635104],[-83.879205,37.635443],[-83.87929,37.63565],[-83.879317,37.635763],[-83.879339,37.635939],[-83.879361,37.636285],[-83.879372,37.636362],[-83.879413,37.636498],[-83.87949,37.636663],[-83.87965,37.636903],[-83.879852,37.637101],[-83.880419,37.637756],[-83.880562,37.637854],[-83.880965,37.638066],[-83.881363,37.638253],[-83.88142,37.638287],[-83.881452,37.638341],[-83.881461,37.638379],[-83.881443,37.63847],[-83.881396,37.638571],[-83.881254,37.638793],[-83.881105,37.638997],[-83.881039,37.639077],[-83.880981,37.639129],[-83.880925,37.639169],[-83.880858,37.639195],[-83.880773,37.639229],[-83.880575,37.639268],[-83.880453,37.639269],[-83.879557,37.639214],[-83.879307,37.639224],[-83.879188,37.639246],[-83.878968,37.639314],[-83.878755,37.639417],[-83.878616,37.639503],[-83.878046,37.639951],[-83.877837,37.640141],[-83.877751,37.640252],[-83.87761,37.640505],[-83.877253,37.641074],[-83.877215,37.641166],[-83.877161,37.641352],[-83.876799,37.641601],[-83.87675,37.641644],[-83.876624,37.641854],[-83.876425,37.642255],[-83.876284,37.642438],[-83.876239,37.642511],[-83.876148,37.642708],[-83.876068,37.64285],[-83.876044,37.642909],[-83.876033,37.642982],[-83.876023,37.643159],[-83.876006,37.643214],[-83.875973,37.643271],[-83.875927,37.643317],[-83.875863,37.643348],[-83.875774,37.643358],[-83.875499,37.643358],[-83.875325,37.643374],[-83.874865,37.643465],[-83.874659,37.643528],[-83.874482,37.643598],[-83.874324,37.643687],[-83.874241,37.643759],[-83.874207,37.643836]]}},{"type":"Feature","properties":{"osm_id":16160905,"highway":"track","name":"Buck Creek Road","alt_name":null,"official_name":null,"surface":null,"tracktype":null,"service":null,"access":null,"motor_vehicle":null,"foot":null,"tiger_reviewed":"no","rrgh_part":0,"rrgh_tile_part":0},"geometry":{"type":"LineString","coordinates":[[-83.865173,37.629308],[-83.8647276,37.6294363],[-83.863836,37.629653],[-83.862803,37.629762],[-83.862235,37.6305],[-83.861905,37.630753],[-83.860988,37.631092],[-83.860327,37.631617],[-83.860105,37.631686],[-83.859491,37.631466],[-83.859109,37.631265]]}},{"type":"Feature","properties":{"osm_id":1414480856,"highway":"track","name":null,"alt_name":null,"official_name":null,"surface":null,"tracktype":null,"service":null,"access":null,"motor_vehicle":null,"foot":null,"tiger_reviewed":null,"rrgh_part":0,"rrgh_tile_part":0},"geometry":{"type":"LineString","coordinates":[[-83.8680134,37.6286147],[-83.8675578,37.6291878],[-83.8670753,37.6294298],[-83.8668716,37.629502],[-83.8667376,37.6295275],[-83.8666143,37.6295275],[-83.8655422,37.6292855],[-83.8651633,37.6292345]]}},{"type":"Feature","properties":{"osm_id":16269199,"highway":"residential","name":"Evelyn - Lock Road","alt_name":null,"official_name":null,"surface":"unpaved","tracktype":null,"service":null,"access":null,"motor_vehicle":null,"foot":null,"tiger_reviewed":"no","rrgh_part":0,"rrgh_tile_part":0},"geometry":{"type":"LineString","coordinates":[[-83.854501,37.61118],[-83.8544674,37.6108422],[-83.8544008,37.6106338],[-83.8543,37.6105284],[-83.8540838,37.6102655],[-83.8537443,37.6099778],[-83.8535956,37.6099153],[-83.8532273,37.6100042],[-83.8525428,37.6098866]]}},{"type":"Feature","properties":{"osm_id":16159275,"highway":"residential","name":null,"alt_name":null,"official_name":null,"surface":null,"tracktype":null,"service":null,"access":null,"motor_vehicle":null,"foot":null,"tiger_reviewed":"no","rrgh_part":0,"rrgh_tile_part":0},"geometry":{"type":"LineString","coordinates":[[-83.846008,37.631254],[-83.847234,37.630938],[-83.847477,37.630896],[-83.847758,37.630539],[-83.848038,37.630072],[-83.848561,37.629576],[-83.848705,37.629456],[-83.848774,37.629392],[-83.849275,37.629018],[-83.851646,37.627994]]}},{"type":"Feature","properties":{"osm_id":16160906,"highway":"residential","name":"Buck Creek Road","alt_name":null,"official_name":null,"surface":null,"tracktype":null,"service":null,"access":null,"motor_vehicle":null,"foot":null,"tiger_reviewed":"no","rrgh_part":0,"rrgh_tile_part":0},"geometry":{"type":"LineString","coordinates":[[-83.850306,37.630446],[-83.846859,37.631096],[-83.846008,37.631254]]}},{"type":"Feature","properties":{"osm_id":16159591,"highway":"service","name":null,"alt_name":null,"official_name":null,"surface":null,"tracktype":null,"service":null,"access":"private","motor_vehicle":null,"foot":null,"tiger_reviewed":"no","rrgh_part":0,"rrgh_tile_part":0},"geometry":{"type":"LineString","coordinates":[[-83.859109,37.631265],[-83.858899,37.631179]]}},{"type":"Feature","properties":{"osm_id":891769757,"highway":"residential","name":"Old Landing Road","alt_name":null,"official_name":null,"surface":null,"tracktype":null,"service":null,"access":null,"motor_vehicle":null,"foot":null,"tiger_reviewed":"no","rrgh_part":0,"rrgh_tile_part":0},"geometry":{"type":"LineString","coordinates":[[-83.8630698,37.6420051],[-83.863968,37.642027],[-83.864239,37.642028],[-83.864526,37.642011],[-83.864708,37.641985],[-83.865058,37.641907],[-83.865211,37.641854],[-83.86541,37.64177],[-83.865677,37.641623],[-83.866121,37.641343],[-83.866376,37.641228],[-83.866556,37.641171],[-83.866712,37.64114],[-83.86694,37.64114],[-83.867112,37.64116],[-83.868067,37.641343],[-83.869658,37.641688],[-83.871273,37.642111],[-83.871603,37.642215],[-83.871757,37.642278],[-83.871909,37.642364],[-83.872277,37.642622],[-83.872739,37.642952],[-83.873154,37.643268],[-83.873466,37.643533],[-83.873678,37.643728],[-83.873798,37.643819],[-83.873864,37.64385],[-83.873932,37.643867],[-83.874,37.643871],[-83.874067,37.643867],[-83.874207,37.643836]]}},{"type":"Feature","properties":{"osm_id":16161550,"highway":"residential","name":"Pryse Lane","alt_name":null,"official_name":null,"surface":null,"tracktype":null,"service":null,"access":null,"motor_vehicle":null,"foot":null,"tiger_reviewed":"no","rrgh_part":0,"rrgh_tile_part":0},"geometry":{"type":"LineString","coordinates":[[-83.866234,37.649874],[-83.866506,37.64964],[-83.866719,37.64943],[-83.8668509,37.6492798],[-83.8669126,37.6492118],[-83.867146,37.648946],[-83.867912,37.648132],[-83.868712,37.647313],[-83.869352,37.646708]]}},{"type":"Feature","properties":{"osm_id":16163473,"highway":"residential","name":"Rison Circle","alt_name":null,"official_name":null,"surface":null,"tracktype":null,"service":null,"access":null,"motor_vehicle":null,"foot":null,"tiger_reviewed":"no","rrgh_part":0,"rrgh_tile_part":0},"geometry":{"type":"LineString","coordinates":[[-83.8761067,37.6599508],[-83.87617,37.659956],[-83.876193,37.659972],[-83.876213,37.660032],[-83.876208,37.660417],[-83.8761641,37.6610396],[-83.876148,37.661268],[-83.876152,37.661435],[-83.876171,37.661598],[-83.876235,37.661915],[-83.876328,37.662128],[-83.876477,37.662382],[-83.87681,37.662829],[-83.876828,37.662865],[-83.876834,37.662908],[-83.876821,37.66293],[-83.87667,37.663078],[-83.876537,37.663228],[-83.876349,37.663464],[-83.876205,37.663614],[-83.875719,37.664014],[-83.875174,37.664432],[-83.874765,37.664803],[-83.874655,37.664918],[-83.874425,37.665271],[-83.874378,37.665322],[-83.874266,37.665412],[-83.873996,37.665563],[-83.873481,37.665796],[-83.873057,37.666056],[-83.872762,37.666203],[-83.8726,37.666258],[-83.872433,37.666297],[-83.87192,37.666384],[-83.871688,37.666458]]}},{"type":"Feature","properties":{"osm_id":1435796598,"highway":"service","name":null,"alt_name":null,"official_name":null,"surface":null,"tracktype":null,"service":null,"access":null,"motor_vehicle":null,"foot":null,"tiger_reviewed":null,"rrgh_part":0,"rrgh_tile_part":0},"geometry":{"type":"LineString","coordinates":[[-83.8787907,37.6600677],[-83.8767697,37.6608019],[-83.8762819,37.6609929],[-83.8761641,37.6610396]]}},{"type":"Feature","properties":{"osm_id":480541688,"highway":"residential","name":"Rison Circle","alt_name":null,"official_name":null,"surface":null,"tracktype":null,"service":null,"access":null,"motor_vehicle":null,"foot":null,"tiger_reviewed":"no","rrgh_part":0,"rrgh_tile_part":0},"geometry":{"type":"LineString","coordinates":[[-83.875981,37.6599499],[-83.8761067,37.6599508]]}},{"type":"Feature","properties":{"osm_id":480541689,"highway":"residential","name":"Rison Circle","alt_name":null,"official_name":null,"surface":null,"tracktype":null,"service":null,"access":null,"motor_vehicle":null,"foot":null,"tiger_reviewed":"no","rrgh_part":0,"rrgh_tile_part":0},"geometry":{"type":"LineString","coordinates":[[-83.875702,37.658964],[-83.875766,37.659008],[-83.875788,37.659061],[-83.875759,37.659218],[-83.875752,37.659313],[-83.8758366,37.6598879],[-83.8758769,37.6599333],[-83.875981,37.6599499]]}},{"type":"Feature","properties":{"osm_id":16159303,"highway":"track","name":null,"alt_name":null,"official_name":null,"surface":null,"tracktype":null,"service":null,"access":null,"motor_vehicle":null,"foot":null,"tiger_reviewed":"no","rrgh_part":0,"rrgh_tile_part":0},"geometry":{"type":"LineString","coordinates":[[-83.871971,37.654143],[-83.871128,37.654384],[-83.870643,37.654541],[-83.870178,37.654639],[-83.869319,37.654871],[-83.867346,37.655091],[-83.867174,37.655035],[-83.867,37.654883],[-83.866867,37.654567],[-83.866745,37.654463],[-83.866634,37.654488],[-83.866452,37.65457],[-83.866018,37.654782],[-83.865614,37.654865],[-83.864552,37.654878],[-83.862964,37.655219],[-83.862511,37.655511],[-83.861542,37.655888],[-83.861279,37.655954],[-83.860955,37.655891],[-83.860366,37.655643],[-83.859756,37.65538],[-83.85927,37.655326],[-83.858644,37.655556],[-83.857998,37.655841],[-83.857454,37.656022],[-83.857017,37.656032],[-83.855964,37.655932],[-83.855324,37.655742],[-83.85494,37.655759],[-83.854525,37.655834]]}},{"type":"Feature","properties":{"osm_id":16162813,"highway":"residential","name":"Pryse Road","alt_name":null,"official_name":null,"surface":null,"tracktype":null,"service":null,"access":null,"motor_vehicle":null,"foot":null,"tiger_reviewed":"no","rrgh_part":0,"rrgh_tile_part":0},"geometry":{"type":"LineString","coordinates":[[-83.845377,37.64352],[-83.845756,37.643563],[-83.846021,37.643556],[-83.84619,37.643527],[-83.846559,37.643421],[-83.846661,37.6434],[-83.846869,37.643374],[-83.847295,37.643339],[-83.84863,37.64325],[-83.84883,37.643247],[-83.849007,37.643261],[-83.849086,37.643281],[-83.849164,37.643314],[-83.849414,37.643457],[-83.849602,37.643547],[-83.850064,37.643704],[-83.850305,37.643839],[-83.850379,37.643855],[-83.850465,37.643857],[-83.85097,37.643824],[-83.851563,37.64383],[-83.851845,37.64379],[-83.851939,37.643792],[-83.852036,37.643808],[-83.852357,37.643905],[-83.852873,37.644103],[-83.853391,37.644363],[-83.853433,37.644387]]}},{"type":"Feature","properties":{"osm_id":1435796599,"highway":"track","name":null,"alt_name":null,"official_name":null,"surface":null,"tracktype":null,"service":null,"access":null,"motor_vehicle":null,"foot":null,"tiger_reviewed":null,"rrgh_part":0,"rrgh_tile_part":0},"geometry":{"type":"LineString","coordinates":[[-83.845377,37.64352],[-83.845,37.643510009864606]]}},{"type":"Feature","properties":{"osm_id":16159333,"highway":"residential","name":null,"alt_name":null,"official_name":null,"surface":null,"tracktype":null,"service":null,"access":null,"motor_vehicle":null,"foot":null,"tiger_reviewed":"no","rrgh_part":0,"rrgh_tile_part":0},"geometry":{"type":"LineString","coordinates":[[-83.87667,37.663078],[-83.876616,37.663089],[-83.876581,37.663085],[-83.87653,37.663065]]}},{"type":"Feature","properties":{"osm_id":16163466,"highway":"residential","name":"Rison Circle Spur Road","alt_name":null,"official_name":null,"surface":null,"tracktype":null,"service":null,"access":null,"motor_vehicle":null,"foot":null,"tiger_reviewed":"no","rrgh_part":0,"rrgh_tile_part":0},"geometry":{"type":"LineString","coordinates":[[-83.876537,37.663228],[-83.876546,37.663164],[-83.87653,37.663065],[-83.876331,37.662649],[-83.876138,37.662301],[-83.876034,37.66215],[-83.875921,37.662042]]}},{"type":"Feature","properties":{"osm_id":16159289,"highway":"service","name":null,"alt_name":null,"official_name":null,"surface":null,"tracktype":null,"service":null,"access":"private","motor_vehicle":null,"foot":null,"tiger_reviewed":"no","rrgh_part":0,"rrgh_tile_part":0},"geometry":{"type":"LineString","coordinates":[[-83.884427,37.671665],[-83.884374,37.671825],[-83.883252,37.673053],[-83.88325,37.673141],[-83.884337,37.673883],[-83.884562,37.674283]]}},{"type":"Feature","properties":{"osm_id":16160507,"highway":"residential","name":"Driftwood Drive","alt_name":null,"official_name":null,"surface":null,"tracktype":null,"service":null,"access":null,"motor_vehicle":null,"foot":null,"tiger_reviewed":"no","rrgh_part":0,"rrgh_tile_part":0},"geometry":{"type":"LineString","coordinates":[[-83.885257,37.670028],[-83.885261,37.670265],[-83.885232,37.67079],[-83.885179,37.671055],[-83.885108,37.671163],[-83.884969,37.671307],[-83.884796,37.671452],[-83.884427,37.671665],[-83.884257,37.671763],[-83.883478,37.672306],[-83.882656,37.672819],[-83.88243,37.672922],[-83.882222,37.672989],[-83.882127,37.673011],[-83.881755,37.67305],[-83.881283,37.673123],[-83.880777,37.673219],[-83.880287,37.673339],[-83.879705,37.673504],[-83.879326,37.673621],[-83.878574,37.673886],[-83.878245,37.674034],[-83.878163,37.674082],[-83.877625,37.67449],[-83.877057,37.674865],[-83.87681516929135,37.675]]}},{"type":"Feature","properties":{"osm_id":16163477,"highway":"track","name":null,"alt_name":null,"official_name":null,"surface":null,"tracktype":null,"service":null,"access":null,"motor_vehicle":null,"foot":null,"tiger_reviewed":"no","rrgh_part":0,"rrgh_tile_part":0},"geometry":{"type":"LineString","coordinates":[[-83.8753567,37.6680358],[-83.8762383,37.6656007],[-83.8770716,37.6640088]]}},{"type":"Feature","properties":{"osm_id":16160252,"highway":"residential","name":"John Campbell Road","alt_name":null,"official_name":null,"surface":null,"tracktype":null,"service":null,"access":null,"motor_vehicle":null,"foot":null,"tiger_reviewed":"no","rrgh_part":0,"rrgh_tile_part":0},"geometry":{"type":"LineString","coordinates":[[-83.8482551,37.663838],[-83.848316,37.663803],[-83.848378,37.663773],[-83.848505,37.663726],[-83.848625,37.663696],[-83.850136,37.663467],[-83.851126,37.663292],[-83.851605,37.663179],[-83.852044,37.66302],[-83.852159,37.66296],[-83.852615,37.662655],[-83.852718,37.66257],[-83.852853,37.662476],[-83.852947,37.662423],[-83.853194,37.662308],[-83.853286,37.662253],[-83.853545,37.662038],[-83.853717,37.66192],[-83.853955,37.661784],[-83.854061,37.661707],[-83.854093,37.6617],[-83.854151,37.661711],[-83.854259,37.661773],[-83.854398,37.661958],[-83.854627,37.66222],[-83.854707,37.662294],[-83.854873,37.662375],[-83.855712,37.662851],[-83.85611,37.663106],[-83.856503,37.663407],[-83.856607,37.663518],[-83.856975,37.663994],[-83.857106,37.664149],[-83.858148,37.665288],[-83.858197,37.665326],[-83.858405,37.665466],[-83.858525,37.665529],[-83.85886,37.66568],[-83.859368,37.665864],[-83.859647,37.666016],[-83.859827,37.6661],[-83.859951,37.666143],[-83.860222,37.666214],[-83.86036,37.666284],[-83.860613,37.666454],[-83.861015,37.666701],[-83.861168,37.666814],[-83.861442,37.667065],[-83.861852,37.667498],[-83.862117,37.667707]]}},{"type":"Feature","properties":{"osm_id":16163476,"highway":"residential","name":"Metcalf Lane","alt_name":null,"official_name":null,"surface":null,"tracktype":null,"service":null,"access":null,"motor_vehicle":null,"foot":null,"tiger_reviewed":"no","rrgh_part":0,"rrgh_tile_part":0},"geometry":{"type":"LineString","coordinates":[[-83.872744,37.667004],[-83.872481,37.666872],[-83.871895,37.666496],[-83.871772,37.666455],[-83.871688,37.666458],[-83.871384,37.666499],[-83.870852,37.666594],[-83.870394,37.666663],[-83.87019,37.666678],[-83.869893,37.666677]]}},{"type":"Feature","properties":{"osm_id":16159655,"highway":"track","name":null,"alt_name":null,"official_name":null,"surface":null,"tracktype":null,"service":null,"access":null,"motor_vehicle":null,"foot":null,"tiger_reviewed":"no","rrgh_part":0,"rrgh_tile_part":0},"geometry":{"type":"LineString","coordinates":[[-83.849406,37.665265],[-83.8495962,37.6649402],[-83.8494917,37.6647599],[-83.849175,37.664719],[-83.84886,37.664524],[-83.848481,37.664119],[-83.8482551,37.663838]]}},{"type":"Feature","properties":{"osm_id":16163487,"highway":"residential","name":"Mt Sinai Cem Road","alt_name":null,"official_name":null,"surface":null,"tracktype":null,"service":null,"access":null,"motor_vehicle":null,"foot":null,"tiger_reviewed":"no","rrgh_part":0,"rrgh_tile_part":0},"geometry":{"type":"LineString","coordinates":[[-83.854579,37.666667],[-83.854533,37.667145],[-83.85455,37.667258],[-83.854631,37.667545],[-83.854636,37.667785],[-83.854624,37.667932],[-83.85465,37.668047],[-83.854694,37.66812],[-83.854773,37.668205]]}}],"rrgh_tile":{"id":"r3c1","bounds":[37.6,-83.93,37.675,-83.845]}}
