{"type":"FeatureCollection","features":[{"type":"Feature","properties":{"osm_id":16111528,"highway":"residential","name":"Old Ky 15 Loop Number 2 Road","alt_name":null,"official_name":null,"surface":null,"tracktype":null,"service":null,"access":null,"motor_vehicle":null,"foot":null,"tiger_reviewed":"no","rrgh_part":0,"rrgh_tile_part":0},"geometry":{"type":"LineString","coordinates":[[-83.42,37.6074478490566],[-83.419908,37.607506],[-83.419597,37.607714],[-83.419501,37.607791],[-83.419344,37.607963],[-83.419076,37.608189],[-83.41862,37.608597],[-83.418432,37.608752],[-83.418335,37.608824],[-83.418226,37.60888],[-83.418014,37.609005],[-83.417906,37.609064],[-83.417788,37.609106],[-83.417671,37.609141],[-83.417539,37.609153],[-83.417405,37.609157],[-83.417146,37.609173],[-83.417021,37.609203],[-83.41686,37.609229],[-83.416673,37.609279],[-83.41651,37.609364],[-83.416315,37.609474],[-83.416175,37.609609],[-83.416077,37.609774],[-83.415788,37.610202],[-83.415782,37.610207],[-83.415703,37.610475],[-83.41561,37.610844],[-83.415548,37.611078],[-83.415457,37.611365],[-83.415423,37.611458],[-83.415346,37.611634],[-83.415302,37.611716],[-83.41525,37.611789],[-83.415196,37.611855],[-83.415133,37.611903],[-83.415067,37.611937],[-83.415001,37.611953],[-83.414936,37.611952],[-83.414877,37.611936],[-83.414825,37.611905],[-83.414782,37.611863],[-83.414745,37.611812],[-83.414678,37.611696],[-83.414586,37.611511],[-83.414526,37.611413],[-83.414485,37.611384],[-83.414443,37.61137],[-83.414409,37.611367],[-83.414306,37.611391],[-83.414258,37.611398],[-83.414097,37.61144],[-83.413974,37.611462],[-83.413902,37.611459],[-83.413658,37.611498],[-83.413575,37.611503],[-83.413497,37.611494]]}},{"type":"Feature","properties":{"osm_id":16117080,"highway":"residential","name":"Airplane Hollow","alt_name":null,"official_name":null,"surface":null,"tracktype":null,"service":null,"access":null,"motor_vehicle":null,"foot":null,"tiger_reviewed":"no","rrgh_part":0,"rrgh_tile_part":0},"geometry":{"type":"LineString","coordinates":[[-83.42,37.6024688952381],[-83.419858,37.602429],[-83.419717,37.602399],[-83.419608,37.602384],[-83.419249,37.602346],[-83.41878,37.602269],[-83.418688,37.602245],[-83.418476,37.60216]]}},{"type":"Feature","properties":{"osm_id":856113585,"highway":"track","name":"Tyra Branch Road","alt_name":null,"official_name":null,"surface":null,"tracktype":null,"service":null,"access":null,"motor_vehicle":null,"foot":null,"tiger_reviewed":"no","rrgh_part":0,"rrgh_tile_part":0},"geometry":{"type":"LineString","coordinates":[[-83.381909,37.605194],[-83.382404,37.605978],[-83.382818,37.606952],[-83.383632,37.609785],[-83.38481,37.61202],[-83.385237,37.613071],[-83.38533,37.613506]]}},{"type":"Feature","properties":{"osm_id":16117016,"highway":"residential","name":"Fletcher Road","alt_name":null,"official_name":null,"surface":null,"tracktype":null,"service":null,"access":null,"motor_vehicle":null,"foot":null,"tiger_reviewed":"no","rrgh_part":0,"rrgh_tile_part":0},"geometry":{"type":"LineString","coordinates":[[-83.365825,37.607907],[-83.365891,37.607873],[-83.366101,37.607781],[-83.366132,37.607762],[-83.366156,37.60774],[-83.366169,37.607717],[-83.366173,37.607655],[-83.36616,37.607623],[-83.366121,37.607553],[-83.365985,37.607349],[-83.365965,37.607314],[-83.365949,37.60728],[-83.36594,37.607247],[-83.365938,37.607213],[-83.365944,37.607178],[-83.365954,37.607141],[-83.365997,37.607022],[-83.366019,37.606936],[-83.366023,37.606848],[-83.366019,37.606804],[-83.365999,37.606714],[-83.365964,37.606627],[-83.36594,37.606589],[-83.365907,37.606552],[-83.365866,37.606517],[-83.365817,37.606486],[-83.365761,37.606461],[-83.3657,37.606444],[-83.36558,37.606431],[-83.365464,37.606425],[-83.365341,37.606421],[-83.365277,37.606423],[-83.365145,37.606435],[-83.364574,37.606521],[-83.364342,37.606569]]}},{"type":"Feature","properties":{"osm_id":16117115,"highway":"residential","name":"Keck Road","alt_name":null,"official_name":null,"surface":null,"tracktype":null,"service":null,"access":null,"motor_vehicle":null,"foot":null,"tiger_reviewed":"no","rrgh_part":0,"rrgh_tile_part":0},"geometry":{"type":"LineString","coordinates":[[-83.364924,37.603016],[-83.364937,37.603105],[-83.364947,37.603214],[-83.365,37.603431],[-83.365015,37.603521],[-83.365021,37.603601],[-83.364998,37.603787],[-83.365005,37.603876],[-83.365012,37.603922],[-83.365022,37.603952],[-83.36503,37.604103],[-83.36503,37.604145],[-83.3650208,37.6042474],[-83.365026,37.604341],[-83.3650398,37.6043873],[-83.365063,37.604467],[-83.3651176,37.6049275],[-83.3650617,37.6051584],[-83.3650715,37.6052989],[-83.3646234,37.6058471],[-83.3643431,37.6061233],[-83.36417,37.60634],[-83.364128,37.606387],[-83.364088,37.606461]]}},{"type":"Feature","properties":{"osm_id":16107555,"highway":"residential","name":"Sheffle Lane","alt_name":null,"official_name":null,"surface":null,"tracktype":null,"service":null,"access":null,"motor_vehicle":null,"foot":null,"tiger_reviewed":"no","rrgh_part":0,"rrgh_tile_part":0},"geometry":{"type":"LineString","coordinates":[[-83.41561,37.610844],[-83.415534,37.610907],[-83.415478,37.610962],[-83.415427,37.611028],[-83.415358,37.611139],[-83.415246,37.611335],[-83.415191,37.611415],[-83.415159,37.611449],[-83.415123,37.611478],[-83.415082,37.6115],[-83.415035,37.611513],[-83.414986,37.611515],[-83.41494,37.611507],[-83.414899,37.611493],[-83.414865,37.611476],[-83.414808,37.611428],[-83.414786,37.611401],[-83.414767,37.611367],[-83.414693,37.611205],[-83.414638,37.611056],[-83.414584,37.610946],[-83.414529,37.610818],[-83.414351,37.610473],[-83.41431,37.610418],[-83.414274,37.61038],[-83.41421,37.610334],[-83.414147,37.610279],[-83.414095,37.61021],[-83.41404,37.610146],[-83.413919,37.610028],[-83.413789,37.609919],[-83.413453,37.609651],[-83.413286,37.609508],[-83.413237,37.609476],[-83.41318,37.609457],[-83.413119,37.609453],[-83.412914,37.609466],[-83.412776,37.609466],[-83.412708,37.609469],[-83.412574,37.609481],[-83.412445,37.609508],[-83.412204,37.609584],[-83.412062,37.609625],[-83.411992,37.609638],[-83.411573,37.609688],[-83.411147,37.609731],[-83.410843,37.609784],[-83.41057,37.609822],[-83.410361,37.609846]]}},{"type":"Feature","properties":{"osm_id":16105919,"highway":"residential","name":null,"alt_name":null,"official_name":null,"surface":null,"tracktype":null,"service":null,"access":null,"motor_vehicle":null,"foot":null,"tiger_reviewed":"no","rrgh_part":0,"rrgh_tile_part":0},"geometry":{"type":"LineString","coordinates":[[-83.414624,37.615897],[-83.414713,37.615949],[-83.414823,37.616016],[-83.41489,37.616053],[-83.415223,37.616214],[-83.415301,37.616257],[-83.415325,37.616274],[-83.415349,37.616294],[-83.415369,37.616317],[-83.415386,37.616344],[-83.415404,37.616402],[-83.4154028,37.6164412],[-83.4154085,37.6164672],[-83.415457,37.6165052],[-83.415495,37.616516],[-83.415514,37.616535],[-83.415526,37.61656],[-83.415531,37.616589],[-83.415519,37.616621],[-83.415498,37.616653],[-83.415396,37.616767],[-83.415174,37.616962],[-83.415149,37.616987],[-83.415128,37.617012],[-83.415112,37.617038],[-83.415106,37.617066],[-83.415109,37.617093],[-83.415124,37.617113],[-83.415144,37.617124],[-83.415165,37.61713],[-83.415189,37.617131],[-83.415247,37.617127],[-83.415363,37.617113],[-83.41544,37.617109],[-83.415471,37.617111],[-83.415491,37.617116],[-83.415515,37.617134],[-83.415522,37.617148],[-83.415522,37.617165],[-83.415514,37.617182],[-83.4155,37.6172],[-83.415444,37.617264],[-83.415414,37.617334],[-83.415406,37.617374]]}},{"type":"Feature","properties":{"osm_id":16106293,"highway":"residential","name":null,"alt_name":null,"official_name":null,"surface":null,"tracktype":null,"service":null,"access":null,"motor_vehicle":null,"foot":null,"tiger_reviewed":"no","rrgh_part":0,"rrgh_tile_part":0},"geometry":{"type":"LineString","coordinates":[[-83.414234,37.627122],[-83.414318,37.627172],[-83.414393,37.627213]]}},{"type":"Feature","properties":{"osm_id":16108958,"highway":"residential","name":"Lusk Road","alt_name":null,"official_name":null,"surface":null,"tracktype":null,"service":null,"access":null,"motor_vehicle":null,"foot":null,"tiger_reviewed":"no","rrgh_part":0,"rrgh_tile_part":0},"geometry":{"type":"LineString","coordinates":[[-83.415357,37.622981],[-83.415398,37.622982],[-83.415448,37.622988],[-83.415564,37.623015],[-83.415697,37.623061],[-83.415729,37.623076],[-83.415793,37.623103],[-83.415889,37.623154],[-83.415979,37.623207],[-83.416069,37.623268],[-83.416113,37.623299],[-83.416196,37.623365],[-83.416298,37.623463],[-83.416381,37.623534]]}},{"type":"Feature","properties":{"osm_id":16117539,"highway":"residential","name":"Bill Fugate Drive","alt_name":null,"official_name":null,"surface":null,"tracktype":null,"service":null,"access":null,"motor_vehicle":null,"foot":null,"tiger_reviewed":"no","rrgh_part":0,"rrgh_tile_part":0},"geometry":{"type":"LineString","coordinates":[[-83.415729,37.623076],[-83.415815,37.62305],[-83.415853,37.623034],[-83.415894,37.623011],[-83.416065,37.622884],[-83.416283,37.622734],[-83.416317,37.622707],[-83.416335,37.622683],[-83.416342,37.622659],[-83.416341,37.622634],[-83.416319,37.622538],[-83.416314,37.622499],[-83.416312,37.622459],[-83.416319,37.622346],[-83.416313,37.622266]]}},{"type":"Feature","properties":{"osm_id":16106192,"highway":"residential","name":null,"alt_name":null,"official_name":null,"surface":null,"tracktype":null,"service":null,"access":null,"motor_vehicle":null,"foot":null,"tiger_reviewed":"no","rrgh_part":0,"rrgh_tile_part":0},"geometry":{"type":"LineString","coordinates":[[-83.414052,37.627365],[-83.41407,37.627304],[-83.414135,37.627252],[-83.414234,37.627122],[-83.414236,37.626916]]}},{"type":"Feature","properties":{"osm_id":108835875,"highway":"unclassified","name":null,"alt_name":null,"official_name":null,"surface":null,"tracktype":null,"service":null,"access":null,"motor_vehicle":null,"foot":null,"tiger_reviewed":"no","rrgh_part":0,"rrgh_tile_part":0},"geometry":{"type":"LineString","coordinates":[[-83.4126123,37.6213538],[-83.412838,37.621285],[-83.413177,37.6212266],[-83.4133654,37.6212565],[-83.4135115,37.6213461],[-83.413657,37.621519],[-83.414014,37.622017],[-83.414092,37.622141],[-83.414157,37.622266],[-83.414209,37.622392],[-83.414247,37.622522]]}},{"type":"Feature","properties":{"osm_id":16111066,"highway":"residential","name":"Puckett Cemetery Road","alt_name":null,"official_name":null,"surface":null,"tracktype":null,"service":null,"access":null,"motor_vehicle":null,"foot":null,"tiger_reviewed":"no","rrgh_part":0,"rrgh_tile_part":0},"geometry":{"type":"LineString","coordinates":[[-83.415892,37.639554],[-83.415825,37.639568],[-83.415767,37.639585],[-83.415703,37.639617],[-83.415607,37.639696],[-83.415578,37.639725],[-83.415464,37.639807]]}},{"type":"Feature","properties":{"osm_id":16105891,"highway":"unclassified","name":null,"alt_name":null,"official_name":null,"surface":null,"tracktype":null,"service":null,"access":null,"motor_vehicle":null,"foot":null,"tiger_reviewed":"no","rrgh_part":0,"rrgh_tile_part":0},"geometry":{"type":"LineString","coordinates":[[-83.413497,37.611494],[-83.413421,37.611614],[-83.413403,37.611665],[-83.413358,37.611924],[-83.413338,37.61201],[-83.413325,37.612047],[-83.413308,37.612077],[-83.413289,37.612101],[-83.413258,37.612127]]}},{"type":"Feature","properties":{"osm_id":16116709,"highway":"residential","name":"Hoover Bridge Road","alt_name":null,"official_name":null,"surface":null,"tracktype":null,"service":null,"access":null,"motor_vehicle":null,"foot":null,"tiger_reviewed":"no","rrgh_part":0,"rrgh_tile_part":0},"geometry":{"type":"LineString","coordinates":[[-83.413497,37.611494],[-83.413431,37.611468],[-83.413376,37.611431],[-83.413337,37.611381],[-83.413261,37.611267],[-83.413221,37.611221],[-83.413104,37.61111],[-83.413049,37.611076],[-83.412931,37.611013],[-83.412887,37.610999],[-83.412831,37.610989],[-83.412663,37.61097]]}},{"type":"Feature","properties":{"osm_id":108836027,"highway":"track","name":null,"alt_name":null,"official_name":null,"surface":null,"tracktype":null,"service":null,"access":null,"motor_vehicle":null,"foot":null,"tiger_reviewed":"no","rrgh_part":0,"rrgh_tile_part":0},"geometry":{"type":"LineString","coordinates":[[-83.4132038,37.6128684],[-83.4133695,37.6130981],[-83.413398,37.61342],[-83.413404,37.613565],[-83.413393,37.613712],[-83.413362,37.613856],[-83.413309,37.613994],[-83.41324,37.614124],[-83.413164,37.614248],[-83.412947,37.614624],[-83.41289,37.614755],[-83.412848,37.614889],[-83.412797,37.61517],[-83.412762,37.615614],[-83.4126469,37.6162154],[-83.4124576,37.6169692]]}},{"type":"Feature","properties":{"osm_id":16117633,"highway":"residential","name":"Morgue Fork Road","alt_name":null,"official_name":null,"surface":null,"tracktype":null,"service":null,"access":null,"motor_vehicle":null,"foot":null,"tiger_reviewed":"no","rrgh_part":0,"rrgh_tile_part":0},"geometry":{"type":"LineString","coordinates":[[-83.376086,37.63144],[-83.376038,37.631485],[-83.376,37.631529],[-83.375977,37.631562],[-83.375924,37.631652],[-83.37587,37.631763],[-83.375823,37.631875],[-83.375804,37.631931],[-83.375789,37.631988],[-83.375779,37.632046],[-83.375774,37.632107],[-83.375776,37.63217],[-83.375788,37.632237],[-83.375813,37.63232],[-83.375837,37.632379],[-83.375875,37.632451],[-83.375918,37.632526],[-83.376064,37.632757],[-83.376111,37.632837],[-83.37615,37.63292],[-83.376179,37.633003],[-83.376214,37.633164],[-83.376274,37.633324],[-83.376312,37.633404],[-83.376346,37.633489],[-83.376368,37.633579],[-83.37638,37.633676],[-83.376377,37.633776],[-83.376336,37.634084],[-83.376302,37.634295],[-83.376248,37.634509],[-83.376213,37.634618],[-83.376122,37.634845],[-83.37606,37.63495],[-83.375984,37.635043],[-83.375914,37.635148],[-83.37585,37.635256],[-83.375793,37.635365],[-83.37565,37.635711],[-83.375599,37.635826],[-83.37549,37.636053],[-83.375441,37.636167],[-83.375399,37.636282],[-83.375363,37.636401],[-83.375259,37.636885],[-83.375226,37.63712],[-83.375206,37.637233],[-83.37518,37.637344],[-83.375147,37.637455],[-83.375107,37.637567],[-83.37506,37.637678],[-83.37478,37.638244],[-83.374664,37.63847],[-83.374547,37.638688],[-83.3745,37.638794],[-83.37446,37.638898],[-83.374413,37.638999],[-83.374355,37.639094],[-83.37416,37.63939],[-83.374091,37.639489],[-83.374029,37.6396],[-83.3739,37.639814],[-83.373756,37.640025],[-83.373294,37.640628],[-83.373211,37.640714],[-83.37313,37.640812],[-83.373071,37.640907],[-83.372991,37.641099],[-83.372959,37.641198],[-83.37294,37.641298],[-83.372943,37.641404],[-83.372926,37.641512],[-83.372844,37.641721],[-83.372705,37.642018],[-83.372546,37.642393],[-83.372475,37.64257],[-83.372382,37.642811],[-83.372367,37.642878],[-83.372371,37.642929],[-83.372387,37.643008],[-83.372474,37.643111],[-83.372536,37.643161],[-83.372609,37.643212],[-83.373023,37.643478],[-83.373099,37.643537],[-83.373168,37.643597],[-83.373291,37.643717],[-83.37334,37.64377],[-83.373371,37.643815],[-83.373401,37.643873],[-83.373425,37.643941],[-83.373438,37.643967],[-83.373502,37.644062],[-83.373612,37.644264],[-83.373641,37.644324],[-83.373739,37.644492],[-83.373764,37.644551],[-83.373797,37.644604],[-83.374091,37.644969],[-83.374312,37.64525],[-83.374397,37.645384],[-83.374572,37.645674],[-83.374646,37.645815],[-83.374711,37.645964],[-83.374785,37.646122],[-83.374865,37.646269],[-83.374883,37.646313],[-83.374905,37.646353],[-83.374924,37.646397],[-83.374958,37.646496],[-83.37497,37.646588],[-83.374968,37.646685],[-83.374974,37.64677],[-83.374994,37.646838],[-83.37502,37.646882],[-83.3751,37.646979],[-83.375205,37.647076],[-83.375344,37.647176],[-83.375392,37.647204],[-83.375436,37.647235],[-83.375518,37.647298],[-83.375632,37.647396],[-83.375693,37.647454],[-83.375743,37.647516],[-83.375827,37.647637],[-83.375906,37.64774],[-83.376118,37.648041]]}},{"type":"Feature","properties":{"osm_id":16113416,"highway":"residential","name":"Robert Taulbee Cemetery Road","alt_name":null,"official_name":null,"surface":null,"tracktype":null,"service":null,"access":null,"motor_vehicle":null,"foot":null,"tiger_reviewed":"no","rrgh_part":0,"rrgh_tile_part":0},"geometry":{"type":"LineString","coordinates":[[-83.388443,37.615599],[-83.388336,37.615553],[-83.388313,37.615535],[-83.388293,37.615512],[-83.388237,37.61543],[-83.388139,37.615262],[-83.388062,37.615138],[-83.388008,37.615099],[-83.387943,37.615073],[-83.387911,37.615068],[-83.387847,37.61507],[-83.387818,37.615076],[-83.387758,37.615096],[-83.387705,37.61513],[-83.387608,37.6152],[-83.387542,37.615239]]}},{"type":"Feature","properties":{"osm_id":16112510,"highway":"residential","name":"Falls Branch Road","alt_name":null,"official_name":null,"surface":null,"tracktype":null,"service":null,"access":null,"motor_vehicle":null,"foot":null,"tiger_reviewed":"no","rrgh_part":0,"rrgh_tile_part":0},"geometry":{"type":"LineString","coordinates":[[-83.395953,37.617036],[-83.395995,37.617111],[-83.396006,37.617133],[-83.396057,37.617207],[-83.396072,37.617237],[-83.3961,37.617308],[-83.39612,37.61739],[-83.396132,37.61747],[-83.396133,37.617587],[-83.396129,37.617665],[-83.396135,37.617744],[-83.396158,37.617819],[-83.396225,37.617965],[-83.396246,37.618031],[-83.396258,37.618128],[-83.396324,37.618409],[-83.396406,37.618988]]}},{"type":"Feature","properties":{"osm_id":16104994,"highway":"residential","name":null,"alt_name":null,"official_name":null,"surface":null,"tracktype":null,"service":null,"access":null,"motor_vehicle":null,"foot":null,"tiger_reviewed":"no","rrgh_part":0,"rrgh_tile_part":0},"geometry":{"type":"LineString","coordinates":[[-83.412613,37.631042],[-83.412601,37.631039],[-83.412552,37.631028],[-83.412511,37.631015],[-83.412464,37.630997],[-83.412411,37.630971],[-83.412352,37.63094],[-83.412222,37.630863],[-83.412086,37.630777],[-83.411956,37.630685],[-83.411899,37.630638],[-83.411847,37.630593],[-83.411802,37.630548],[-83.411709,37.630445],[-83.411677,37.630426],[-83.411642,37.63042],[-83.41161,37.630421],[-83.41155,37.630436],[-83.411455,37.630477],[-83.411421,37.630495],[-83.411328,37.630555],[-83.41129,37.630571],[-83.411248,37.63058],[-83.411204,37.630581],[-83.41116,37.630576],[-83.411073,37.630553],[-83.410985,37.63052],[-83.410797,37.630436],[-83.410694,37.630402],[-83.410593,37.630379],[-83.410298,37.630329]]}},{"type":"Feature","properties":{"osm_id":16107969,"highway":"residential","name":"Glory Branch Road","alt_name":null,"official_name":null,"surface":null,"tracktype":null,"service":null,"access":null,"motor_vehicle":null,"foot":null,"tiger_reviewed":"no","rrgh_part":0,"rrgh_tile_part":0},"geometry":{"type":"LineString","coordinates":[[-83.410298,37.630329],[-83.410217,37.630318],[-83.410028,37.630293]]}},{"type":"Feature","properties":{"osm_id":16109980,"highway":"residential","name":"Penway Drive","alt_name":null,"official_name":null,"surface":null,"tracktype":null,"service":null,"access":null,"motor_vehicle":null,"foot":null,"tiger_reviewed":"no","rrgh_part":0,"rrgh_tile_part":0},"geometry":{"type":"LineString","coordinates":[[-83.413152,37.628731],[-83.413052,37.628699],[-83.412876,37.628632],[-83.412782,37.6286],[-83.412726,37.628592],[-83.41268,37.628593],[-83.412635,37.628603],[-83.412589,37.628622],[-83.41188,37.629124],[-83.411754,37.629218],[-83.41166,37.629297],[-83.411616,37.629338],[-83.41153,37.629434]]}},{"type":"Feature","properties":{"osm_id":16106486,"highway":"residential","name":null,"alt_name":null,"official_name":null,"surface":null,"tracktype":null,"service":null,"access":null,"motor_vehicle":null,"foot":null,"tiger_reviewed":"no","rrgh_part":0,"rrgh_tile_part":0},"geometry":{"type":"LineString","coordinates":[[-83.386493,37.625489],[-83.386896,37.625476],[-83.387168,37.625467],[-83.387532,37.625465],[-83.387606,37.625467],[-83.387872,37.625462],[-83.388145,37.625471],[-83.388371,37.625493],[-83.388532,37.625518],[-83.388666,37.625549],[-83.388735,37.62557],[-83.388994,37.625661],[-83.38911,37.625695],[-83.389231,37.625716],[-83.389293,37.625719],[-83.389352,37.625717],[-83.389405,37.625722],[-83.389693,37.625811],[-83.389731,37.625829],[-83.389808,37.625856],[-83.389848,37.625846],[-83.389877,37.62583],[-83.390001,37.625739],[-83.390133,37.625654],[-83.390278,37.625566],[-83.39039,37.625489],[-83.390424,37.625462],[-83.390479,37.625408],[-83.390541,37.625333]]}},{"type":"Feature","properties":{"osm_id":16115658,"highway":"residential","name":"Tyra Branch Road","alt_name":null,"official_name":null,"surface":null,"tracktype":null,"service":null,"access":null,"motor_vehicle":null,"foot":null,"tiger_reviewed":"no","rrgh_part":0,"rrgh_tile_part":0},"geometry":{"type":"LineString","coordinates":[[-83.38533,37.613506],[-83.385348,37.613525],[-83.385617,37.613764],[-83.385666,37.613823],[-83.38571,37.613937],[-83.385748,37.61401],[-83.385831,37.61408],[-83.386094,37.614233],[-83.386298,37.614342],[-83.386456,37.614443],[-83.386475,37.614461],[-83.386501,37.614472],[-83.386549,37.614481],[-83.386572,37.614479],[-83.386602,37.61447],[-83.386682,37.614436],[-83.386721,37.614439],[-83.386756,37.614451],[-83.386905,37.61455],[-83.386958,37.614578],[-83.387071,37.614623],[-83.387188,37.614655],[-83.387242,37.614667],[-83.387344,37.614701],[-83.387378,37.614716],[-83.387406,37.614735],[-83.387424,37.614761],[-83.387447,37.614811],[-83.387505,37.614916]]}},{"type":"Feature","properties":{"osm_id":16113117,"highway":"residential","name":"Tyra Cemetery Road","alt_name":null,"official_name":null,"surface":null,"tracktype":null,"service":null,"access":null,"motor_vehicle":null,"foot":null,"tiger_reviewed":"no","rrgh_part":0,"rrgh_tile_part":0},"geometry":{"type":"LineString","coordinates":[[-83.386549,37.614481],[-83.386482,37.614607],[-83.38644,37.614665],[-83.386411,37.614694],[-83.386377,37.61472],[-83.3863,37.614768],[-83.386216,37.614813],[-83.385957,37.614943],[-83.385843,37.615013],[-83.385803,37.615033],[-83.385745,37.615055],[-83.385692,37.615071],[-83.385637,37.615082],[-83.385574,37.615083],[-83.385522,37.615074],[-83.385465,37.61505],[-83.385418,37.615026],[-83.385373,37.614975],[-83.385346,37.614918],[-83.385311,37.614869],[-83.38526,37.614827],[-83.385193,37.614781],[-83.385116,37.614714]]}},{"type":"Feature","properties":{"osm_id":16112139,"highway":"residential","name":"Graham Cemetery Road","alt_name":null,"official_name":null,"surface":null,"tracktype":null,"service":null,"access":null,"motor_vehicle":null,"foot":null,"tiger_reviewed":"no","rrgh_part":0,"rrgh_tile_part":0},"geometry":{"type":"LineString","coordinates":[[-83.373706,37.612905],[-83.373668,37.613027],[-83.373659,37.613066],[-83.373637,37.613227],[-83.373599,37.613371],[-83.373581,37.613461],[-83.373571,37.613579],[-83.37357,37.613648],[-83.373573,37.613682],[-83.373596,37.613772],[-83.373623,37.61399],[-83.373664,37.614112],[-83.373691,37.614156],[-83.373701,37.614179],[-83.373719,37.614205],[-83.373739,37.614281],[-83.373743,37.614316]]}},{"type":"Feature","properties":{"osm_id":16106504,"highway":"residential","name":null,"alt_name":null,"official_name":null,"surface":null,"tracktype":null,"service":null,"access":null,"motor_vehicle":null,"foot":null,"tiger_reviewed":"no","rrgh_part":0,"rrgh_tile_part":0},"geometry":{"type":"LineString","coordinates":[[-83.380419,37.629586],[-83.380409,37.629578],[-83.380379,37.629558],[-83.380344,37.62954],[-83.380305,37.629522],[-83.380261,37.629507],[-83.380212,37.629497],[-83.380157,37.629492],[-83.37992,37.629496],[-83.379867,37.62949],[-83.37982,37.629478],[-83.379776,37.629462],[-83.379686,37.629413],[-83.379642,37.629381],[-83.379562,37.629312],[-83.37949,37.629239],[-83.379456,37.629196],[-83.379426,37.62915],[-83.379404,37.629102],[-83.379389,37.629053],[-83.37938,37.629005],[-83.379378,37.628952],[-83.379389,37.628859],[-83.379403,37.628808],[-83.379421,37.628755],[-83.379444,37.628704],[-83.37947,37.628658],[-83.379503,37.628618],[-83.379542,37.628588],[-83.379588,37.628572],[-83.379634,37.628567],[-83.379681,37.628571],[-83.37973,37.628582],[-83.37999,37.628684],[-83.380048,37.628703],[-83.380167,37.628736],[-83.380402,37.628788],[-83.380612,37.62886],[-83.380671,37.628877],[-83.380983,37.628943],[-83.381198,37.629011],[-83.381311,37.629042],[-83.381367,37.629053],[-83.381473,37.629064],[-83.38153,37.62906],[-83.381586,37.629052],[-83.381692,37.629027],[-83.381752,37.629023],[-83.381876,37.628993],[-83.382006,37.628976],[-83.382084,37.628979],[-83.382157,37.628988],[-83.382383,37.629023],[-83.382547,37.629034],[-83.38263,37.629032],[-83.382712,37.629024],[-83.382792,37.629011],[-83.382942,37.628972],[-83.383079,37.628932],[-83.383203,37.628903],[-83.383312,37.628886],[-83.383404,37.628879]]}},{"type":"Feature","properties":{"osm_id":16109526,"highway":"residential","name":"Elmer Smith Road","alt_name":null,"official_name":null,"surface":null,"tracktype":null,"service":null,"access":null,"motor_vehicle":null,"foot":null,"tiger_reviewed":"no","rrgh_part":0,"rrgh_tile_part":0},"geometry":{"type":"LineString","coordinates":[[-83.379378,37.628952],[-83.379373,37.628929],[-83.379318,37.628798],[-83.379269,37.62867],[-83.379256,37.62862],[-83.379248,37.628569],[-83.379248,37.628463],[-83.379255,37.628403],[-83.37928,37.628272],[-83.379339,37.628067],[-83.379354,37.628002],[-83.37937,37.627873],[-83.37937,37.627806],[-83.379351,37.627558],[-83.379341,37.627506],[-83.379281,37.627054],[-83.379259,37.626944],[-83.379231,37.62685],[-83.379208,37.626737],[-83.379204,37.626664],[-83.37919,37.626599],[-83.379162,37.626542],[-83.379043,37.626391],[-83.378965,37.626307],[-83.378871,37.626183],[-83.378851,37.626144],[-83.378819,37.626063],[-83.378799,37.626026],[-83.378775,37.625996],[-83.378752,37.625975],[-83.378701,37.625948],[-83.378677,37.62594],[-83.378645,37.625931],[-83.378563,37.62592],[-83.378514,37.625924],[-83.378315,37.625968],[-83.378267,37.625975],[-83.377933,37.626006],[-83.377828,37.62602],[-83.377724,37.626041],[-83.377582,37.626089],[-83.377488,37.626129],[-83.377388,37.626181],[-83.377293,37.626242],[-83.377153,37.626342],[-83.377042,37.626439],[-83.377015,37.626457],[-83.376979,37.62647],[-83.376866,37.626497],[-83.376742,37.626522],[-83.376468,37.626559],[-83.376299,37.626573],[-83.376191,37.626585],[-83.376072,37.62659],[-83.376011,37.626587],[-83.375948,37.62658],[-83.375884,37.626569],[-83.375824,37.626555],[-83.375671,37.626505],[-83.375563,37.62646]]}},{"type":"Feature","properties":{"osm_id":16113207,"highway":"residential","name":"Cassidy Drive","alt_name":null,"official_name":null,"surface":null,"tracktype":null,"service":null,"access":null,"motor_vehicle":null,"foot":null,"tiger_reviewed":"no","rrgh_part":0,"rrgh_tile_part":0},"geometry":{"type":"LineString","coordinates":[[-83.375813,37.63232],[-83.375791,37.632336],[-83.37575,37.632364],[-83.375717,37.632382],[-83.375574,37.63245],[-83.375488,37.632495],[-83.375316,37.632603],[-83.37523,37.632644],[-83.37519,37.63265],[-83.374968,37.632659],[-83.374726,37.632676],[-83.374542,37.632705],[-83.374473,37.632723],[-83.374242,37.632815],[-83.374184,37.632845],[-83.373946,37.632957],[-83.373698,37.633066],[-83.373438,37.633169],[-83.373178,37.633281],[-83.372943,37.63336],[-83.372886,37.633382],[-83.372713,37.633467]]}},{"type":"Feature","properties":{"osm_id":16114021,"highway":"residential","name":"Graham Bridge","alt_name":null,"official_name":null,"surface":null,"tracktype":null,"service":null,"access":null,"motor_vehicle":null,"foot":null,"tiger_reviewed":"no","rrgh_part":0,"rrgh_tile_part":0},"geometry":{"type":"LineString","coordinates":[[-83.384257,37.630046],[-83.384249,37.630079],[-83.384221,37.630265],[-83.384212,37.63035],[-83.384205,37.630474],[-83.384212,37.630572],[-83.384222,37.630626],[-83.384237,37.630678],[-83.384347,37.630971],[-83.384365,37.631038],[-83.384403,37.631234],[-83.384419,37.631299],[-83.384459,37.631432],[-83.384486,37.631499],[-83.384522,37.631564],[-83.384624,37.631692],[-83.384688,37.631753],[-83.384758,37.631812],[-83.384905,37.63192],[-83.384967,37.631977],[-83.385019,37.632037],[-83.385116,37.632161],[-83.385171,37.632216],[-83.385288,37.632323],[-83.385346,37.632385],[-83.385461,37.632525],[-83.385576,37.632677],[-83.3858,37.632986],[-83.385859,37.633057],[-83.385926,37.633127],[-83.386119,37.633305],[-83.386163,37.633363],[-83.386192,37.633424],[-83.386209,37.633482],[-83.386218,37.633537],[-83.38622,37.633591],[-83.386211,37.633699],[-83.386217,37.63375],[-83.386231,37.633806],[-83.386253,37.633866],[-83.386322,37.634001],[-83.386588,37.634439],[-83.386628,37.634513],[-83.386664,37.634589],[-83.386696,37.634669],[-83.386723,37.63475],[-83.386796,37.634996],[-83.386851,37.635211],[-83.386866,37.635307]]}},{"type":"Feature","properties":{"osm_id":16115644,"highway":"residential","name":"Smith-Gillum Cemetery Road","alt_name":null,"official_name":null,"surface":null,"tracktype":null,"service":null,"access":null,"motor_vehicle":null,"foot":null,"tiger_reviewed":"no","rrgh_part":0,"rrgh_tile_part":0},"geometry":{"type":"LineString","coordinates":[[-83.382111,37.62998],[-83.38223,37.630019],[-83.382249,37.630024],[-83.382294,37.630054],[-83.382344,37.63008],[-83.382463,37.630109],[-83.382618,37.630134],[-83.382686,37.630149],[-83.38279,37.630177]]}},{"type":"Feature","properties":{"osm_id":16106236,"highway":"residential","name":null,"alt_name":null,"official_name":null,"surface":null,"tracktype":null,"service":null,"access":null,"motor_vehicle":null,"foot":null,"tiger_reviewed":"no","rrgh_part":0,"rrgh_tile_part":0},"geometry":{"type":"LineString","coordinates":[[-83.376029,37.631377],[-83.376088,37.631341],[-83.3761938,37.6313143],[-83.3763075,37.6312317],[-83.376388,37.6311324],[-83.3764336,37.6310568],[-83.3765029,37.6308917],[-83.3765446,37.630771],[-83.3765697,37.6305529],[-83.3766117,37.6303298],[-83.3766069,37.6302396]]}},{"type":"Feature","properties":{"osm_id":16110122,"highway":"residential","name":"Pelfrey Cemetery 1 Road","alt_name":null,"official_name":null,"surface":null,"tracktype":null,"service":null,"access":null,"motor_vehicle":null,"foot":null,"tiger_reviewed":"no","rrgh_part":0,"rrgh_tile_part":0},"geometry":{"type":"LineString","coordinates":[[-83.375814,37.629506],[-83.37579,37.629506],[-83.375752,37.629502],[-83.375734,37.629496],[-83.375708,37.629431]]}},{"type":"Feature","properties":{"osm_id":16115145,"highway":"residential","name":"Feltner Lane","alt_name":null,"official_name":null,"surface":null,"tracktype":null,"service":null,"access":null,"motor_vehicle":null,"foot":null,"tiger_reviewed":"no","rrgh_part":0,"rrgh_tile_part":0},"geometry":{"type":"LineString","coordinates":[[-83.381228,37.629932],[-83.381146,37.629901],[-83.380994,37.629865],[-83.380792,37.629809],[-83.380701,37.629789],[-83.38063,37.629765],[-83.380598,37.629748],[-83.380575,37.62973],[-83.380419,37.629586]]}},{"type":"Feature","properties":{"osm_id":1156415692,"highway":"residential","name":null,"alt_name":null,"official_name":null,"surface":null,"tracktype":null,"service":null,"access":null,"motor_vehicle":null,"foot":null,"tiger_reviewed":null,"rrgh_part":0,"rrgh_tile_part":0},"geometry":{"type":"LineString","coordinates":[[-83.3766069,37.6302396],[-83.3766569,37.6301427]]}},{"type":"Feature","properties":{"osm_id":16115686,"highway":"residential","name":"King Cemetery 1 Road","alt_name":null,"official_name":null,"surface":null,"tracktype":null,"service":null,"access":null,"motor_vehicle":null,"foot":null,"tiger_reviewed":"no","rrgh_part":0,"rrgh_tile_part":0},"geometry":{"type":"LineString","coordinates":[[-83.364719,37.628876],[-83.36462,37.628946],[-83.364539,37.628987],[-83.364432,37.629036],[-83.364279,37.629099],[-83.364237,37.629112],[-83.364197,37.629121],[-83.364111,37.629133],[-83.364046,37.629137],[-83.363994,37.629133],[-83.363943,37.629127],[-83.363902,37.629118],[-83.363856,37.629103],[-83.363776,37.629061],[-83.363696,37.628998],[-83.363652,37.628947],[-83.363585,37.628839]]}},{"type":"Feature","properties":{"osm_id":16104981,"highway":"residential","name":"Cardinal Branch Road","alt_name":null,"official_name":null,"surface":null,"tracktype":null,"service":null,"access":null,"motor_vehicle":null,"foot":null,"tiger_reviewed":"no","rrgh_part":0,"rrgh_tile_part":0},"geometry":{"type":"LineString","coordinates":[[-83.406992,37.657308],[-83.407026,37.657404],[-83.407092,37.657576],[-83.407138,37.657676],[-83.407243,37.657886],[-83.407305,37.657985],[-83.407354,37.658047],[-83.407374,37.65807],[-83.407506,37.658195],[-83.407554,37.658236],[-83.40766,37.658313],[-83.407831,37.658426],[-83.407888,37.658469],[-83.407942,37.658516],[-83.407992,37.658568],[-83.40804,37.658622],[-83.408084,37.658679],[-83.408162,37.658793],[-83.408197,37.658854],[-83.408415,37.659287],[-83.408451,37.659349],[-83.408489,37.659411],[-83.408669,37.659678],[-83.408796,37.659891],[-83.408913,37.660119],[-83.409056,37.660424],[-83.409151,37.660651],[-83.409192,37.660794],[-83.409206,37.660867],[-83.409354,37.661848],[-83.409387,37.661985],[-83.409426,37.662053],[-83.409465,37.662095],[-83.409505,37.662154],[-83.409541,37.662226],[-83.40959,37.662341],[-83.409616,37.662431],[-83.409647,37.662691],[-83.409661,37.662763],[-83.409669,37.6628],[-83.409728,37.663002],[-83.409752,37.66311],[-83.409757,37.663148],[-83.40976,37.663225],[-83.409756,37.663301]]}},{"type":"Feature","properties":{"osm_id":16109491,"highway":"residential","name":"Cleel Lane","alt_name":null,"official_name":null,"surface":null,"tracktype":null,"service":null,"access":null,"motor_vehicle":null,"foot":null,"tiger_reviewed":"no","rrgh_part":0,"rrgh_tile_part":0},"geometry":{"type":"LineString","coordinates":[[-83.408604,37.656097],[-83.408558,37.656064],[-83.408513,37.656037],[-83.408425,37.655973],[-83.40837,37.655941],[-83.408291,37.655908],[-83.408171,37.655874],[-83.407975,37.655825],[-83.40779,37.655785],[-83.407692,37.655768],[-83.407643,37.655764],[-83.407592,37.655765],[-83.407499,37.655778],[-83.407406,37.655796],[-83.407308,37.655803],[-83.40726,37.655799],[-83.407215,37.655788],[-83.40714,37.655757],[-83.407073,37.655716],[-83.406929,37.655639],[-83.406899,37.655624],[-83.406853,37.655608]]}},{"type":"Feature","properties":{"osm_id":16114716,"highway":"residential","name":"Trent Cemetery 1 Road","alt_name":null,"official_name":null,"surface":null,"tracktype":null,"service":null,"access":null,"motor_vehicle":null,"foot":null,"tiger_reviewed":"no","rrgh_part":0,"rrgh_tile_part":0},"geometry":{"type":"LineString","coordinates":[[-83.413711,37.65302],[-83.413735,37.653087],[-83.413771,37.653179],[-83.413777,37.65322],[-83.413774,37.653271],[-83.41374,37.653369],[-83.4137,37.653455],[-83.413679,37.653485],[-83.413653,37.653514],[-83.413619,37.653541],[-83.413352,37.65373],[-83.413245,37.653813],[-83.413033,37.654067],[-83.41291,37.654181],[-83.412828,37.654247],[-83.412799,37.65428],[-83.412759,37.65435],[-83.41275,37.654385]]}},{"type":"Feature","properties":{"osm_id":16115625,"highway":"residential","name":"Clell Lane","alt_name":null,"official_name":null,"surface":null,"tracktype":null,"service":null,"access":null,"motor_vehicle":null,"foot":null,"tiger_reviewed":"no","rrgh_part":0,"rrgh_tile_part":0},"geometry":{"type":"LineString","coordinates":[[-83.408626,37.656114],[-83.408604,37.656097]]}},{"type":"Feature","properties":{"osm_id":16117141,"highway":"residential","name":"Gillum Cemetery 1 Road","alt_name":null,"official_name":null,"surface":null,"tracktype":null,"service":null,"access":null,"motor_vehicle":null,"foot":null,"tiger_reviewed":"no","rrgh_part":0,"rrgh_tile_part":0},"geometry":{"type":"LineString","coordinates":[[-83.374711,37.645964],[-83.374786,37.64603],[-83.374878,37.646127],[-83.37492,37.646161],[-83.374966,37.646188],[-83.375016,37.646206],[-83.375069,37.646215],[-83.375124,37.646212],[-83.375175,37.646202],[-83.375222,37.646185],[-83.375265,37.646164],[-83.375368,37.646091],[-83.376943,37.645435],[-83.377329,37.645261],[-83.377348,37.645248],[-83.377369,37.645227],[-83.377368,37.645205],[-83.37736,37.645191],[-83.377347,37.645179],[-83.37733,37.645172],[-83.377004,37.645145],[-83.376543,37.645121],[-83.376211,37.645089],[-83.375983,37.645061],[-83.375948,37.645054],[-83.37589,37.645031],[-83.375868,37.645014],[-83.375853,37.644996],[-83.375837,37.64496],[-83.375837,37.644917],[-83.375859,37.644873],[-83.375899,37.644836],[-83.375923,37.644822],[-83.376197,37.644724],[-83.376384,37.644652],[-83.376428,37.644631],[-83.376561,37.644558],[-83.376658,37.644515],[-83.376776,37.644445]]}},{"type":"Feature","properties":{"osm_id":16117020,"highway":"residential","name":"South Morgue Fork Road","alt_name":null,"official_name":null,"surface":null,"tracktype":null,"service":null,"access":null,"motor_vehicle":null,"foot":null,"tiger_reviewed":"no","rrgh_part":0,"rrgh_tile_part":0},"geometry":{"type":"LineString","coordinates":[[-83.369061,37.644076],[-83.368893,37.644031],[-83.368332,37.643745],[-83.36811,37.643639]]}},{"type":"Feature","properties":{"osm_id":16117031,"highway":"residential","name":"South Morgue Fork Road","alt_name":null,"official_name":null,"surface":null,"tracktype":null,"service":null,"access":null,"motor_vehicle":null,"foot":null,"tiger_reviewed":"no","rrgh_part":0,"rrgh_tile_part":0},"geometry":{"type":"LineString","coordinates":[[-83.366255,37.64722],[-83.366364,37.647129],[-83.36651,37.647026],[-83.36656,37.646987],[-83.36668,37.646909],[-83.366806,37.646821],[-83.367063,37.646626],[-83.36728,37.646474],[-83.367424,37.646381],[-83.367566,37.646299],[-83.367631,37.646266],[-83.367693,37.64624],[-83.367751,37.646221],[-83.367806,37.646209],[-83.36786,37.646203],[-83.367974,37.646197],[-83.368033,37.646187],[-83.368082,37.646165],[-83.368115,37.646131],[-83.368132,37.646089],[-83.368138,37.646041],[-83.36812,37.645822],[-83.368122,37.645766],[-83.368129,37.64571],[-83.368151,37.645595],[-83.368165,37.645539],[-83.368185,37.645486],[-83.36821,37.645435],[-83.36835,37.645244],[-83.368432,37.645122],[-83.368696,37.644826],[-83.368854,37.644675],[-83.369082,37.644419],[-83.369106,37.644371],[-83.369117,37.644316],[-83.369115,37.644267],[-83.369102,37.644216],[-83.369071,37.644123],[-83.369061,37.644076],[-83.36906,37.644044],[-83.369065,37.644014],[-83.369086,37.643974],[-83.369141,37.643922],[-83.369191,37.643892],[-83.369416,37.643819],[-83.369591,37.643768],[-83.369673,37.643741],[-83.369849,37.643675],[-83.369937,37.643639],[-83.370109,37.64356],[-83.370191,37.643518],[-83.370346,37.643429],[-83.370621,37.643257],[-83.37076,37.643164],[-83.370833,37.643119],[-83.370908,37.643082],[-83.370985,37.643056],[-83.371062,37.643039],[-83.371142,37.643043],[-83.371217,37.643059],[-83.371399,37.643116],[-83.371505,37.643144],[-83.371566,37.643148],[-83.371629,37.643141],[-83.371694,37.643126],[-83.371822,37.643089],[-83.371888,37.643076],[-83.372164,37.642998],[-83.372371,37.642929]]}},{"type":"Feature","properties":{"osm_id":16115693,"highway":"residential","name":"Bob Gillum Drive","alt_name":null,"official_name":null,"surface":null,"tracktype":null,"service":null,"access":null,"motor_vehicle":null,"foot":null,"tiger_reviewed":"no","rrgh_part":0,"rrgh_tile_part":0},"geometry":{"type":"LineString","coordinates":[[-83.372164,37.642998],[-83.372066,37.643051],[-83.371713,37.643217],[-83.371677,37.64324],[-83.37152,37.643327],[-83.371177,37.643578],[-83.371053,37.643662],[-83.370914,37.643805],[-83.370889,37.64384],[-83.370858,37.643899],[-83.370812,37.644022],[-83.370775,37.644128],[-83.370767,37.64417]]}},{"type":"Feature","properties":{"osm_id":16105885,"highway":"residential","name":null,"alt_name":null,"official_name":null,"surface":null,"tracktype":null,"service":null,"access":null,"motor_vehicle":null,"foot":null,"tiger_reviewed":"no","rrgh_part":0,"rrgh_tile_part":0},"geometry":{"type":"LineString","coordinates":[[-83.36811,37.643639],[-83.367713,37.643452],[-83.367154,37.643192],[-83.366507,37.642909],[-83.366079,37.64278]]}},{"type":"Feature","properties":{"osm_id":16111079,"highway":"residential","name":"Murray Drive","alt_name":null,"official_name":null,"surface":null,"tracktype":null,"service":null,"access":null,"motor_vehicle":null,"foot":null,"tiger_reviewed":"no","rrgh_part":0,"rrgh_tile_part":0},"geometry":{"type":"LineString","coordinates":[[-83.35738,37.603443],[-83.357396,37.603413],[-83.357446,37.603322],[-83.357482,37.603271],[-83.357544,37.603198],[-83.357598,37.60315],[-83.35773,37.603051],[-83.357811,37.602977]]}},{"type":"Feature","properties":{"osm_id":16110428,"highway":"residential","name":"Trace Fork Road","alt_name":null,"official_name":null,"surface":null,"tracktype":null,"service":null,"access":null,"motor_vehicle":null,"foot":null,"tiger_reviewed":"no","rrgh_part":0,"rrgh_tile_part":0},"geometry":{"type":"LineString","coordinates":[[-83.33500000000001,37.60783450000001],[-83.335013,37.607846],[-83.335122,37.607933],[-83.335338,37.608094],[-83.33545,37.608171],[-83.335562,37.608253],[-83.335659,37.608347],[-83.335736,37.608452],[-83.335889,37.608649],[-83.335972,37.608739],[-83.336066,37.608823],[-83.336268,37.60898],[-83.33656,37.609219],[-83.336647,37.609294],[-83.336728,37.609366],[-83.336783,37.609426],[-83.336845,37.609486],[-83.337176,37.60979]]}},{"type":"Feature","properties":{"osm_id":16106063,"highway":"residential","name":null,"alt_name":null,"official_name":null,"surface":null,"tracktype":null,"service":null,"access":null,"motor_vehicle":null,"foot":null,"tiger_reviewed":"no","rrgh_part":0,"rrgh_tile_part":0},"geometry":{"type":"LineString","coordinates":[[-83.351309,37.633584],[-83.351242,37.633546],[-83.351096,37.633448],[-83.351037,37.633403],[-83.350612,37.633058],[-83.350531,37.632983],[-83.350403,37.632839],[-83.350337,37.632777],[-83.350154,37.632616],[-83.350018,37.632505],[-83.349984,37.632473],[-83.349934,37.632434],[-83.349882,37.6324],[-83.349822,37.632371],[-83.3496653,37.6323086],[-83.3496,37.632276],[-83.349571,37.632249],[-83.349548,37.632221],[-83.349538,37.632192],[-83.349543,37.632163],[-83.34956,37.632138],[-83.349615,37.632105],[-83.349738,37.632074],[-83.349815,37.632059],[-83.349848,37.632045],[-83.349877,37.632027],[-83.349925,37.631985],[-83.34996,37.631939],[-83.349973,37.631916],[-83.349998,37.631821],[-83.35001,37.631791],[-83.350028,37.63176],[-83.350053,37.631733],[-83.350086,37.631713],[-83.350124,37.631704],[-83.35016,37.631706],[-83.350216,37.631746],[-83.350229,37.631766],[-83.350244,37.63182],[-83.350257,37.631887],[-83.350301,37.632029],[-83.350322,37.63206],[-83.350347,37.632088],[-83.350376,37.632112],[-83.350408,37.63213],[-83.350443,37.632141],[-83.350498,37.63215],[-83.350536,37.632145],[-83.350559,37.632139],[-83.350587,37.632128],[-83.350648,37.632097],[-83.350677,37.632079],[-83.350798,37.631984],[-83.350872,37.631933],[-83.351057,37.631833],[-83.351101,37.631812],[-83.351149,37.631791],[-83.351251,37.631757],[-83.351304,37.631744],[-83.351408,37.631735],[-83.351595,37.631745],[-83.351633,37.63175],[-83.351788,37.631781],[-83.352056,37.631817],[-83.352603,37.631922],[-83.352785,37.631968],[-83.352981,37.631999],[-83.353047,37.632012],[-83.353359,37.632056],[-83.353566,37.632071],[-83.353787,37.632097],[-83.353941,37.632132],[-83.354092,37.632171],[-83.354285,37.632239],[-83.354383,37.63227],[-83.354443,37.632282],[-83.354519,37.632287],[-83.35457,37.632282],[-83.354777,37.632254],[-83.354873,37.632238],[-83.354975,37.632216],[-83.355027,37.632201],[-83.355132,37.632157],[-83.355337,37.632035],[-83.355431,37.631972],[-83.355522,37.631904],[-83.355657,37.631791],[-83.355698,37.631751],[-83.355769,37.631665],[-83.3558,37.631621],[-83.355835,37.631582],[-83.355919,37.631514],[-83.355962,37.631486],[-83.356032,37.631432],[-83.356093,37.631363],[-83.35618,37.631223],[-83.356249,37.63108],[-83.356282,37.630987],[-83.356299,37.630903],[-83.356299,37.63083],[-83.356282,37.630763],[-83.356264,37.630735],[-83.356228,37.630692],[-83.35621,37.630676],[-83.355969,37.630544],[-83.355891,37.63049],[-83.355858,37.630461],[-83.355797,37.630376],[-83.355759,37.630288],[-83.355734,37.63022],[-83.355738,37.63016],[-83.355767,37.630066],[-83.355777,37.630018],[-83.355779,37.62997],[-83.35575,37.629782],[-83.355752,37.629733],[-83.355777,37.629647],[-83.355837,37.629527],[-83.355874,37.629482],[-83.356006,37.629363],[-83.356038,37.629336],[-83.356072,37.629313],[-83.356379,37.629125],[-83.356666,37.62894],[-83.356763,37.628872],[-83.356816,37.628842],[-83.356871,37.628819],[-83.357234,37.628726],[-83.357442,37.628668],[-83.357612,37.628611],[-83.357786,37.628534],[-83.357954,37.628465],[-83.358115,37.628376],[-83.358181,37.62835],[-83.358235,37.628339],[-83.358292,37.628343],[-83.358485,37.628391],[-83.358534,37.628399],[-83.358583,37.6284],[-83.358666,37.628392],[-83.35874,37.62837],[-83.358774,37.628356],[-83.358838,37.62832],[-83.358868,37.628298],[-83.358894,37.628274],[-83.358917,37.628248],[-83.358935,37.628219],[-83.358986,37.628119],[-83.359012,37.628084],[-83.359045,37.628054],[-83.359083,37.628027],[-83.359123,37.628004],[-83.359207,37.627962],[-83.359528,37.627814],[-83.359602,37.627766],[-83.359666,37.627714]]}},{"type":"Feature","properties":{"osm_id":16105867,"highway":"residential","name":null,"alt_name":null,"official_name":null,"surface":null,"tracktype":null,"service":null,"access":null,"motor_vehicle":null,"foot":null,"tiger_reviewed":"no","rrgh_part":0,"rrgh_tile_part":0},"geometry":{"type":"LineString","coordinates":[[-83.357883,37.630359],[-83.357864,37.63032],[-83.357873,37.630258],[-83.357907,37.630187],[-83.357983,37.63013],[-83.358125,37.63008],[-83.358217,37.630058],[-83.35879,37.62996],[-83.358844,37.629898],[-83.358913,37.629828],[-83.358966,37.629727],[-83.359021,37.629639],[-83.359029,37.629633],[-83.359065,37.629228],[-83.358969,37.628641]]}},{"type":"Feature","properties":{"osm_id":16106902,"highway":"residential","name":"Stewart-Taulbee Cemetery Road","alt_name":null,"official_name":null,"surface":null,"tracktype":null,"service":null,"access":null,"motor_vehicle":null,"foot":null,"tiger_reviewed":"no","rrgh_part":0,"rrgh_tile_part":0},"geometry":{"type":"LineString","coordinates":[[-83.335121,37.631308],[-83.335168,37.631296],[-83.335199,37.631287],[-83.335258,37.631277],[-83.335333,37.631271],[-83.335471,37.631275],[-83.335519,37.631279],[-83.335615,37.631291],[-83.336125,37.631402]]}},{"type":"Feature","properties":{"osm_id":16113611,"highway":"residential","name":"Cutchin Road","alt_name":null,"official_name":null,"surface":null,"tracktype":null,"service":null,"access":null,"motor_vehicle":null,"foot":null,"tiger_reviewed":"no","rrgh_part":0,"rrgh_tile_part":0},"geometry":{"type":"LineString","coordinates":[[-83.33500000000001,37.63129249473685],[-83.335014,37.631295],[-83.335121,37.631308],[-83.335401,37.631342],[-83.335545,37.63137],[-83.335616,37.63139],[-83.335686,37.631411],[-83.335752,37.631435],[-83.335815,37.631463],[-83.336036,37.63158],[-83.33613,37.631617],[-83.336176,37.63163],[-83.336366,37.631665],[-83.336405,37.631679],[-83.336437,37.631698],[-83.336461,37.631723],[-83.336473,37.631757],[-83.33647,37.63179],[-83.336448,37.631853],[-83.336444,37.631892],[-83.336454,37.631931],[-83.336528,37.631995],[-83.336572,37.632022],[-83.336772,37.632128],[-83.336879,37.632198],[-83.336978,37.632279],[-83.337116,37.632403],[-83.337203,37.632507],[-83.337236,37.632572],[-83.337255,37.632636],[-83.337263,37.632687],[-83.337289,37.632793],[-83.337312,37.632952],[-83.337345,37.633053],[-83.337375,37.633109],[-83.337431,37.633232],[-83.337627,37.633589],[-83.337689,37.633686],[-83.337749,37.633767],[-83.337795,37.633819],[-83.337858,37.633876],[-83.337903,37.633913],[-83.338048,37.63402],[-83.338102,37.634049],[-83.338226,37.634093],[-83.338301,37.634114],[-83.338534,37.634172],[-83.338617,37.634189],[-83.338756,37.634244],[-83.338819,37.634275],[-83.338874,37.634308],[-83.338926,37.634345],[-83.339012,37.634414],[-83.339051,37.634454],[-83.339124,37.634542],[-83.339277,37.634739],[-83.33932,37.634785],[-83.339459,37.634921],[-83.339617,37.635057],[-83.339776,37.635154],[-83.339818,37.635183],[-83.339854,37.635213],[-83.339882,37.63525],[-83.339898,37.635295],[-83.33991,37.635344],[-83.33993,37.635393],[-83.339965,37.635437],[-83.340013,37.635474],[-83.340126,37.635535],[-83.340184,37.635571],[-83.340301,37.635651],[-83.340363,37.635686],[-83.340494,37.635736],[-83.340622,37.635792],[-83.340708,37.635816],[-83.340772,37.63583],[-83.34091,37.635871],[-83.340979,37.635903],[-83.34117,37.636],[-83.34133,37.63611],[-83.341366,37.636161],[-83.341392,37.636208],[-83.341438,37.636318],[-83.341474,37.636431],[-83.341488,37.636491],[-83.341494,37.636558],[-83.341515,37.636612],[-83.341561,37.636784],[-83.341579,37.636838],[-83.341622,37.636926],[-83.34166,37.63708],[-83.341669,37.63721],[-83.34172,37.637412],[-83.341799,37.637519],[-83.341884,37.637678],[-83.341938,37.637713],[-83.341969,37.637725],[-83.342031,37.637741],[-83.342083,37.637765],[-83.342103,37.637783],[-83.342118,37.637802],[-83.342176,37.637948],[-83.342255,37.638122],[-83.342296,37.6382],[-83.342383,37.638348],[-83.342429,37.638454],[-83.342474,37.638543],[-83.342499,37.638582],[-83.342548,37.638643]]}},{"type":"Feature","properties":{"osm_id":16111117,"highway":"residential","name":"Carpenter Lane","alt_name":null,"official_name":null,"surface":null,"tracktype":null,"service":null,"access":null,"motor_vehicle":null,"foot":null,"tiger_reviewed":"no","rrgh_part":0,"rrgh_tile_part":0},"geometry":{"type":"LineString","coordinates":[[-83.33794,37.640984],[-83.337979,37.640924],[-83.338046,37.64083],[-83.338059,37.640805],[-83.338061,37.640781],[-83.338053,37.640765],[-83.338041,37.640751],[-83.338027,37.640741],[-83.33798,37.640718],[-83.337813,37.640657],[-83.337424,37.640474],[-83.337193,37.640372],[-83.336902,37.64025],[-83.336822,37.640206],[-83.336743,37.640154],[-83.336584,37.640042],[-83.336444,37.639955],[-83.33639,37.639918]]}},{"type":"Feature","properties":{"osm_id":16116392,"highway":"residential","name":"Tisha Drive","alt_name":null,"official_name":null,"surface":null,"tracktype":null,"service":null,"access":null,"motor_vehicle":null,"foot":null,"tiger_reviewed":"no","rrgh_part":0,"rrgh_tile_part":0},"geometry":{"type":"LineString","coordinates":[[-83.338138,37.64131],[-83.338091,37.641275],[-83.337948,37.64117],[-83.337928,37.641148],[-83.337915,37.641127],[-83.337906,37.641098],[-83.337906,37.641067],[-83.33794,37.640984],[-83.337948,37.640964],[-83.337954,37.640924],[-83.337944,37.640883],[-83.33792,37.640848],[-83.337885,37.640818],[-83.337843,37.640793],[-83.337691,37.640723],[-83.337393,37.640599],[-83.337121,37.640481],[-83.337027,37.640443],[-83.336971,37.640424]]}},{"type":"Feature","properties":{"osm_id":16106043,"highway":"residential","name":null,"alt_name":null,"official_name":null,"surface":null,"tracktype":null,"service":null,"access":null,"motor_vehicle":null,"foot":null,"tiger_reviewed":"no","rrgh_part":0,"rrgh_tile_part":0},"geometry":{"type":"LineString","coordinates":[[-83.335946,37.643336],[-83.335876,37.643408],[-83.335827,37.643466],[-83.335814,37.643502],[-83.335814,37.643539],[-83.335828,37.643571],[-83.335849,37.643604],[-83.335877,37.643637],[-83.335946,37.643703],[-83.335981,37.643743],[-83.336241,37.644182],[-83.336915,37.645567],[-83.336948,37.645614]]}},{"type":"Feature","properties":{"osm_id":16111041,"highway":"track","name":"Carpenter Cemetery 1 Road","alt_name":null,"official_name":null,"surface":null,"tracktype":null,"service":null,"access":null,"motor_vehicle":null,"foot":null,"tiger_reviewed":"no","rrgh_part":0,"rrgh_tile_part":0},"geometry":{"type":"LineString","coordinates":[[-83.337928,37.641148],[-83.337793,37.641159],[-83.337642,37.641182],[-83.337393,37.641235],[-83.337349,37.641238],[-83.337307,37.641236],[-83.337266,37.641227],[-83.337224,37.641211],[-83.337114,37.641133],[-83.337075,37.64111],[-83.337036,37.641095],[-83.336994,37.641088],[-83.336949,37.641087],[-83.336904,37.641094],[-83.33676,37.641138],[-83.336711,37.641157],[-83.336664,37.641181],[-83.336444,37.641316],[-83.336343,37.6414],[-83.336212,37.641526],[-83.335991,37.641714],[-83.335893,37.641776],[-83.3363587,37.6408491]]}},{"type":"Feature","properties":{"osm_id":1424527761,"highway":"service","name":null,"alt_name":null,"official_name":null,"surface":null,"tracktype":null,"service":null,"access":null,"motor_vehicle":null,"foot":null,"tiger_reviewed":null,"rrgh_part":0,"rrgh_tile_part":0},"geometry":{"type":"LineString","coordinates":[[-83.3490644,37.6513828],[-83.3491771,37.6513339],[-83.3493058,37.651301],[-83.3494131,37.6512904],[-83.3495365,37.6512957],[-83.3496009,37.6513063],[-83.3496679,37.6513371],[-83.349731,37.6513929],[-83.3497397,37.6514438],[-83.3497383,37.651499],[-83.3497256,37.6515548]]}},{"type":"Feature","properties":{"osm_id":16106068,"highway":"service","name":null,"alt_name":null,"official_name":null,"surface":null,"tracktype":null,"service":null,"access":null,"motor_vehicle":null,"foot":null,"tiger_reviewed":null,"rrgh_part":0,"rrgh_tile_part":0},"geometry":{"type":"LineString","coordinates":[[-83.3487681,37.6514125],[-83.3488727,37.6514083],[-83.348984,37.6513998],[-83.3490644,37.6513828],[-83.3490604,37.651456],[-83.3490738,37.6515442],[-83.3491181,37.6516281],[-83.349153,37.6516695],[-83.3492348,37.6516981],[-83.3493327,37.6517173],[-83.349393,37.6517342],[-83.3495499,37.651713],[-83.349617,37.6516843],[-83.3497256,37.6515548],[-83.3498356,37.6514879],[-83.3499469,37.6514507],[-83.3500327,37.6514242],[-83.3501333,37.6514125],[-83.3506644,37.6514953],[-83.3514717,37.651576],[-83.3518231,37.6515697],[-83.35244,37.651438],[-83.3526894,37.6514529],[-83.353132,37.6516907],[-83.3533064,37.6518202],[-83.353816,37.6520645],[-83.3540761,37.6522896],[-83.3541754,37.652315],[-83.3544222,37.6523023],[-83.3544704,37.6523193],[-83.3545616,37.652434],[-83.3549318,37.6526739],[-83.3552161,37.652812],[-83.3553234,37.6529776],[-83.3554253,37.6530541],[-83.3558518,37.65326],[-83.356297,37.6534023],[-83.3566967,37.6534087],[-83.3568335,37.6534533],[-83.356999,37.653717],[-83.3572304,37.6540309],[-83.357614,37.6548378],[-83.358773,37.656068]]}},{"type":"Feature","properties":{"osm_id":16106580,"highway":"service","name":null,"alt_name":null,"official_name":null,"surface":null,"tracktype":null,"service":null,"access":"private","motor_vehicle":null,"foot":null,"tiger_reviewed":"no","rrgh_part":0,"rrgh_tile_part":0},"geometry":{"type":"LineString","coordinates":[[-83.418322,37.664955],[-83.418381,37.664979],[-83.418486,37.665015],[-83.418915,37.665174],[-83.418996,37.665211],[-83.419026,37.665232],[-83.419051,37.665253],[-83.419102,37.665309],[-83.419262,37.665513],[-83.419356,37.665618],[-83.419392,37.665653],[-83.419516,37.665758],[-83.419662,37.665892],[-83.419736,37.665946],[-83.419824,37.666004],[-83.419896,37.666072],[-83.419942,37.666125]]}},{"type":"Feature","properties":{"osm_id":16111129,"highway":"residential","name":"Hb Banks Road","alt_name":null,"official_name":null,"surface":null,"tracktype":null,"service":null,"access":null,"motor_vehicle":null,"foot":null,"tiger_reviewed":"no","rrgh_part":0,"rrgh_tile_part":0},"geometry":{"type":"LineString","coordinates":[[-83.418106,37.665873],[-83.418123,37.665894],[-83.418139,37.665912],[-83.418177,37.665973],[-83.418195,37.666016],[-83.418228,37.666139],[-83.418258,37.666193],[-83.418327,37.666264],[-83.41842,37.666376],[-83.418531,37.666469],[-83.418852,37.666752],[-83.418959,37.666852]]}},{"type":"Feature","properties":{"osm_id":16110843,"highway":"residential","name":"Miles Lane","alt_name":null,"official_name":null,"surface":null,"tracktype":null,"service":null,"access":null,"motor_vehicle":null,"foot":null,"tiger_reviewed":"no","rrgh_part":0,"rrgh_tile_part":0},"geometry":{"type":"LineString","coordinates":[[-83.389149,37.664126],[-83.389154,37.664176],[-83.389169,37.664251],[-83.389186,37.664301],[-83.389227,37.664467],[-83.389225,37.664507],[-83.389206,37.664594],[-83.3891704,37.6646959],[-83.38914,37.664783],[-83.389111,37.664885],[-83.389085,37.665048],[-83.3890614,37.6652643]]}},{"type":"Feature","properties":{"osm_id":16111077,"highway":"service","name":"Dunn Cemetery 1 Road","alt_name":null,"official_name":null,"surface":null,"tracktype":null,"service":null,"access":null,"motor_vehicle":null,"foot":null,"tiger_reviewed":"no","rrgh_part":0,"rrgh_tile_part":0},"geometry":{"type":"LineString","coordinates":[[-83.394181,37.66273],[-83.394084,37.66273],[-83.393956,37.662737],[-83.393799,37.662762],[-83.393697,37.662788],[-83.393606,37.662823],[-83.393524,37.662861],[-83.393444,37.662889],[-83.39338,37.662905],[-83.3932823,37.6629308],[-83.3931467,37.6629101],[-83.3930916,37.6628644],[-83.3930424,37.6627843],[-83.3929829,37.6625489]]}},{"type":"Feature","properties":{"osm_id":16111964,"highway":"residential","name":"Mudlick Road","alt_name":null,"official_name":null,"surface":null,"tracktype":null,"service":null,"access":null,"motor_vehicle":null,"foot":null,"tiger_reviewed":"no","rrgh_part":0,"rrgh_tile_part":0},"geometry":{"type":"LineString","coordinates":[[-83.394251,37.662051],[-83.394249,37.662091],[-83.394283,37.662393],[-83.394286,37.662485],[-83.394281,37.662533],[-83.394266,37.662582],[-83.394245,37.66263],[-83.394218,37.662678],[-83.394181,37.66273],[-83.394087,37.662867],[-83.394025,37.663006],[-83.39403,37.663292],[-83.394048,37.663342],[-83.394156,37.663534],[-83.394391,37.664015],[-83.394416,37.664072],[-83.394456,37.664183],[-83.3945,37.664275],[-83.394526,37.664314],[-83.394557,37.664351],[-83.39462,37.664412]]}},{"type":"Feature","properties":{"osm_id":16104752,"highway":"residential","name":null,"alt_name":null,"official_name":null,"surface":null,"tracktype":null,"service":null,"access":null,"motor_vehicle":null,"foot":null,"tiger_reviewed":"no","rrgh_part":0,"rrgh_tile_part":0},"geometry":{"type":"LineString","coordinates":[[-83.381248,37.665632],[-83.38127,37.665693],[-83.381374,37.665949],[-83.381387,37.66599],[-83.381401,37.666062],[-83.381393,37.666165],[-83.381353,37.666277],[-83.381343,37.666337],[-83.381341,37.666394],[-83.381269,37.666778]]}},{"type":"Feature","properties":{"osm_id":16112252,"highway":"residential","name":"Peg Fork Road","alt_name":null,"official_name":null,"surface":null,"tracktype":null,"service":null,"access":null,"motor_vehicle":null,"foot":null,"tiger_reviewed":"no","rrgh_part":0,"rrgh_tile_part":0},"geometry":{"type":"LineString","coordinates":[[-83.375786,37.667627],[-83.375774,37.667717],[-83.375764,37.667789],[-83.375734,37.667894],[-83.375707,37.667955],[-83.375671,37.668016],[-83.375628,37.668073],[-83.375577,37.668126],[-83.375522,37.668174],[-83.375399,37.668267],[-83.375338,37.668318],[-83.375284,37.668375],[-83.375245,37.668438],[-83.375224,37.668496],[-83.375213,37.668571],[-83.375221,37.668643],[-83.375237,37.668712],[-83.375264,37.668785],[-83.375342,37.668938],[-83.375529,37.669259],[-83.375616,37.669424],[-83.375715,37.669646],[-83.375766,37.669741],[-83.375846,37.669878],[-83.376032,37.670166],[-83.376089,37.670274],[-83.376154,37.670441],[-83.376203,37.67064],[-83.376246,37.670779],[-83.376276,37.670846],[-83.376346,37.670971],[-83.376377,37.671042],[-83.376456,37.671258],[-83.376482,37.671386],[-83.376483,37.671445],[-83.376458,37.671526],[-83.376419,37.67168],[-83.376355,37.672002],[-83.37635,37.672236],[-83.376359,37.672317],[-83.376374,37.672399],[-83.376393,37.672482],[-83.376466,37.67273],[-83.376484,37.672816],[-83.376494,37.6729],[-83.376494,37.672985],[-83.376481,37.673237],[-83.376491,37.673406],[-83.376489,37.673578],[-83.376477,37.673657],[-83.376455,37.673733],[-83.376425,37.673804],[-83.376263,37.674104],[-83.376092,37.674435],[-83.376054,37.674515],[-83.376026,37.674591],[-83.376011,37.674663],[-83.375994,37.674804],[-83.375982,37.674944],[-83.37597911764705,37.675]]}},{"type":"Feature","properties":{"osm_id":16117032,"highway":"residential","name":"Turner Cemetery 3 Road","alt_name":null,"official_name":null,"surface":null,"tracktype":null,"service":null,"access":null,"motor_vehicle":null,"foot":null,"tiger_reviewed":"no","rrgh_part":0,"rrgh_tile_part":0},"geometry":{"type":"LineString","coordinates":[[-83.375224,37.668496],[-83.375151,37.668525],[-83.375046,37.668549],[-83.374936,37.66857],[-83.374896,37.668582],[-83.374783,37.668635],[-83.37474,37.668651],[-83.374596,37.668673],[-83.374516,37.668691],[-83.374443,37.668719],[-83.374253,37.668824],[-83.374139,37.668875],[-83.374109,37.668883],[-83.374024,37.668889]]}},{"type":"Feature","properties":{"osm_id":16104917,"highway":"residential","name":null,"alt_name":null,"official_name":null,"surface":null,"tracktype":null,"service":null,"access":null,"motor_vehicle":null,"foot":null,"tiger_reviewed":"no","rrgh_part":0,"rrgh_tile_part":0},"geometry":{"type":"LineString","coordinates":[[-83.3660617,37.6680028],[-83.36635,37.668149],[-83.366451,37.668186],[-83.366533,37.668222],[-83.366941,37.668426],[-83.367251,37.668568],[-83.36753,37.668707],[-83.367634,37.668764],[-83.367735,37.668827],[-83.367873,37.66893],[-83.368007,37.66904],[-83.368055,37.669075],[-83.368109,37.669105],[-83.368167,37.669128],[-83.368227,37.669145],[-83.368287,37.669157],[-83.368392,37.669172],[-83.368433,37.66918],[-83.368464,37.66919],[-83.368505,37.669217],[-83.368542,37.669259],[-83.368572,37.669286],[-83.368616,37.669309],[-83.368672,37.669325],[-83.368738,37.669328],[-83.368809,37.669323],[-83.36916,37.669268],[-83.369277,37.669259],[-83.369325,37.66926],[-83.369366,37.669266],[-83.369436,37.669284],[-83.369535,37.669316]]}},{"type":"Feature","properties":{"osm_id":16110916,"highway":"residential","name":"Upper Boone Fork Road","alt_name":null,"official_name":null,"surface":null,"tracktype":null,"service":null,"access":null,"motor_vehicle":null,"foot":null,"tiger_reviewed":"no","rrgh_part":0,"rrgh_tile_part":0},"geometry":{"type":"LineString","coordinates":[[-83.36709,37.670695],[-83.367143,37.670765],[-83.367172,37.67081],[-83.367196,37.670863],[-83.367198,37.670921],[-83.367177,37.670973],[-83.36714,37.671026],[-83.367093,37.671081],[-83.367037,37.67114],[-83.366909,37.67126],[-83.366739,37.671406],[-83.366649,37.671467],[-83.366597,37.671512],[-83.366236,37.6718],[-83.365782,37.672154],[-83.365329,37.672531],[-83.365227,37.672611],[-83.365126,37.672687],[-83.365006,37.672766],[-83.364883,37.672834],[-83.364753,37.672897],[-83.364616,37.672953],[-83.364477,37.672998],[-83.364327,37.67304],[-83.364171,37.673073],[-83.364012,37.673099],[-83.36385,37.67312],[-83.363523,37.673154],[-83.363192,37.673181],[-83.362858,37.67322],[-83.362689,37.673245],[-83.362522,37.673276],[-83.362358,37.673316],[-83.362196,37.673361],[-83.361542,37.67356],[-83.361061,37.673693],[-83.360902,37.673741],[-83.360741,37.673794],[-83.360579,37.673842],[-83.360414,37.673886],[-83.360246,37.673921],[-83.360075,37.673947],[-83.359903,37.673962],[-83.359729,37.673966],[-83.35938,37.673951],[-83.358866,37.673921],[-83.358701,37.673918],[-83.358538,37.673922],[-83.35837,37.673932],[-83.358198,37.673947],[-83.358024,37.673966],[-83.357848,37.673987],[-83.357672,37.674012],[-83.357327,37.674073],[-83.357158,37.674114],[-83.356991,37.674161],[-83.356829,37.674221],[-83.356675,37.674292],[-83.356526,37.674369],[-83.356383,37.674452],[-83.356245,37.67454],[-83.355971,37.674724],[-83.35559246564885,37.675]]}}],"rrgh_tile":{"id":"r3c7","bounds":[37.6,-83.42,37.675,-83.33500000000001]}}
