{"type":"FeatureCollection","features":[{"type":"Feature","properties":{"osm_id":16110428,"highway":"residential","name":"Trace Fork Road","alt_name":null,"official_name":null,"surface":null,"tracktype":null,"service":null,"access":null,"motor_vehicle":null,"foot":null,"tiger_reviewed":"no","rrgh_part":0,"rrgh_tile_part":0},"geometry":{"type":"LineString","coordinates":[[-83.32620800000001,37.6],[-83.326264,37.600044],[-83.326429,37.600161],[-83.326533,37.600218],[-83.326653,37.600277],[-83.326775,37.600345],[-83.326892,37.60042],[-83.327004,37.6005],[-83.327109,37.600584],[-83.327203,37.60067],[-83.327285,37.600759],[-83.327431,37.600938],[-83.327601,37.6011],[-83.327681,37.601182],[-83.327831,37.601365],[-83.327914,37.601456],[-83.328099,37.601628],[-83.328398,37.60197],[-83.328469,37.602042],[-83.328548,37.602106],[-83.328639,37.602162],[-83.328743,37.602208],[-83.329108,37.602338],[-83.329628,37.60254],[-83.329752,37.602598],[-83.329984,37.602724],[-83.330224,37.602838],[-83.330337,37.602899],[-83.330441,37.602967],[-83.330537,37.603035],[-83.330627,37.603104],[-83.33071,37.603172],[-83.330847,37.603312],[-83.330919,37.603372],[-83.331003,37.603419],[-83.331098,37.603455],[-83.331202,37.603487],[-83.331306,37.603527],[-83.331404,37.603585],[-83.331493,37.603659],[-83.33158,37.603742],[-83.33185,37.604015],[-83.331938,37.604114],[-83.332017,37.60422],[-83.332083,37.604328],[-83.332323,37.604782],[-83.332383,37.604899],[-83.332539,37.605234],[-83.332601,37.605332],[-83.332669,37.605426],[-83.332755,37.605516],[-83.332951,37.605706],[-83.333046,37.605812],[-83.333231,37.606037],[-83.333329,37.606148],[-83.333541,37.606361],[-83.333642,37.606467],[-83.333839,37.606691],[-83.333946,37.606802],[-83.334298,37.607124],[-83.334409,37.60723],[-83.334514,37.607337],[-83.334711,37.607556],[-83.334808,37.607658],[-83.334909,37.607754],[-83.33500000000001,37.60783450000001]]}},{"type":"Feature","properties":{"osm_id":108835880,"highway":"residential","name":"Meat Scaffold Road","alt_name":null,"official_name":null,"surface":null,"tracktype":null,"service":null,"access":null,"motor_vehicle":null,"foot":null,"tiger_reviewed":"no","rrgh_part":0,"rrgh_tile_part":0},"geometry":{"type":"LineString","coordinates":[[-83.29276043373494,37.6],[-83.292877,37.600075],[-83.29291,37.600112],[-83.292959,37.600198],[-83.292984,37.60029],[-83.292999,37.600384],[-83.292994,37.600643],[-83.292978,37.600763],[-83.292942,37.600896],[-83.292896,37.601035],[-83.292839,37.60124],[-83.292798,37.601506],[-83.292793,37.601568],[-83.292796,37.601684],[-83.292806,37.601738],[-83.292819,37.601787],[-83.292859,37.601869],[-83.292938,37.601992],[-83.293011,37.602074],[-83.293112,37.602223],[-83.293341,37.602494],[-83.293453,37.602647],[-83.293515,37.602768],[-83.293541,37.60289],[-83.293546,37.602944],[-83.293531,37.603063],[-83.293513,37.603125],[-83.293468,37.603239],[-83.293393,37.603366],[-83.293349,37.603425],[-83.293254,37.603537],[-83.293164,37.603651],[-83.293079,37.603766]]}},{"type":"Feature","properties":{"osm_id":16117056,"highway":"residential","name":"Holly Fork Cemetery Road","alt_name":null,"official_name":null,"surface":null,"tracktype":null,"service":null,"access":null,"motor_vehicle":null,"foot":null,"tiger_reviewed":"no","rrgh_part":0,"rrgh_tile_part":0},"geometry":{"type":"LineString","coordinates":[[-83.293079,37.603766],[-83.29299,37.603885],[-83.292915,37.603999],[-83.292839,37.604095],[-83.292769,37.604169],[-83.292724,37.6042],[-83.292673,37.604225],[-83.292558,37.60427],[-83.292254,37.604421],[-83.29209,37.604507],[-83.292048,37.604526],[-83.291951,37.604552],[-83.291846,37.60456],[-83.291725,37.604552],[-83.291536,37.604531],[-83.29147,37.604532],[-83.291333,37.604553],[-83.291035,37.604614],[-83.290888,37.604641],[-83.2908,37.60464],[-83.290704,37.604632],[-83.290562,37.604612],[-83.290419,37.604582],[-83.290369,37.604573],[-83.290319,37.604568],[-83.290271,37.604572],[-83.290178,37.604613],[-83.290141,37.604645],[-83.290119,37.604683],[-83.290116,37.604723],[-83.290132,37.604845],[-83.290143,37.604882],[-83.290176,37.604961],[-83.290196,37.605038],[-83.290213,37.605135],[-83.290264,37.605246],[-83.290335,37.605334],[-83.290459,37.605452],[-83.290516,37.605513],[-83.290564,37.605578],[-83.290592,37.605652],[-83.290623,37.605862],[-83.290625,37.605904],[-83.290618,37.60595],[-83.290586,37.606041],[-83.290534,37.606129],[-83.29042,37.606269],[-83.290373,37.606313],[-83.290264,37.606401],[-83.290161,37.606492],[-83.289995,37.606614],[-83.289905,37.606713],[-83.289847,37.606749],[-83.289704,37.606796],[-83.289536,37.606846],[-83.289454,37.606875],[-83.289238,37.606985],[-83.289132,37.607077],[-83.288973,37.607261],[-83.28887,37.607352],[-83.288797,37.607431],[-83.288672,37.607544],[-83.288617,37.607601],[-83.288536,37.607669],[-83.288437,37.607741],[-83.288364,37.607787],[-83.288287,37.607826],[-83.288264,37.607835],[-83.288211,37.607848],[-83.288075,37.607861],[-83.287995,37.607853],[-83.287904,37.607835],[-83.287697,37.607769],[-83.287645,37.607749],[-83.287547,37.607697],[-83.287352,37.607618],[-83.287277,37.607603],[-83.287198,37.607604],[-83.287114,37.607635],[-83.287027,37.607688],[-83.286963,37.607738],[-83.28686,37.607865],[-83.286624,37.608004],[-83.286539,37.608033],[-83.286448,37.60806],[-83.286342,37.608065],[-83.286246,37.608054],[-83.286098,37.608062],[-83.286003,37.608076],[-83.285922,37.608095],[-83.285689,37.60823],[-83.285612,37.608294],[-83.285426,37.608391],[-83.28524,37.608515],[-83.285199,37.608548],[-83.285162,37.608587],[-83.285072,37.60865],[-83.284966,37.608704],[-83.284858,37.608741],[-83.284659,37.608797],[-83.284479,37.608865],[-83.284286,37.608929],[-83.284121,37.60899],[-83.28397,37.609023],[-83.283812,37.609038],[-83.283713,37.609038],[-83.283617,37.609014],[-83.283519,37.608971],[-83.283372,37.608869],[-83.283263,37.608742],[-83.28317,37.608576],[-83.283124,37.608455],[-83.283038,37.607912],[-83.283026,37.607812],[-83.28298,37.607609],[-83.282947,37.607511],[-83.282839,37.60722],[-83.282798,37.607161],[-83.282754,37.607126],[-83.282678,37.607108],[-83.282626,37.607106],[-83.282393,37.607121],[-83.281935,37.607113],[-83.281859,37.60712],[-83.281758,37.607139],[-83.281261,37.607253],[-83.281134,37.607257],[-83.281073,37.607251],[-83.280497,37.607176],[-83.280289,37.607145],[-83.280234,37.60713],[-83.280182,37.607111],[-83.280063,37.607054],[-83.27968,37.606921],[-83.279092,37.606748],[-83.278985,37.606709],[-83.278715,37.6066],[-83.278592,37.606556],[-83.278503,37.606515],[-83.278435,37.606479],[-83.278343,37.606418],[-83.278269,37.606335],[-83.278165,37.606187],[-83.278099,37.606118],[-83.278058,37.606087],[-83.277963,37.606028],[-83.277911,37.606001],[-83.277806,37.605955],[-83.277693,37.605913],[-83.277563,37.60587],[-83.27742,37.605834],[-83.277283,37.605806],[-83.277163,37.605776],[-83.276885,37.605677],[-83.276772,37.605631],[-83.276416,37.60551],[-83.276302,37.605488],[-83.276247,37.605487],[-83.276112,37.605523],[-83.276042,37.605538],[-83.275971,37.60553],[-83.275889,37.605487],[-83.275805,37.605431],[-83.275715,37.605379],[-83.275618,37.605337],[-83.275404,37.605256],[-83.275303,37.605206],[-83.275208,37.605151],[-83.274948,37.604945],[-83.274842,37.604828],[-83.274747,37.604714],[-83.274633,37.604544],[-83.274488,37.60431],[-83.27441,37.604192],[-83.274351,37.604123],[-83.274236,37.604049]]}},{"type":"Feature","properties":{"osm_id":16112232,"highway":"residential","name":"Clear Fork Road","alt_name":null,"official_name":null,"surface":null,"tracktype":null,"service":null,"access":null,"motor_vehicle":null,"foot":null,"tiger_reviewed":"no","rrgh_part":0,"rrgh_tile_part":0},"geometry":{"type":"LineString","coordinates":[[-83.321108,37.641394],[-83.320948,37.641367],[-83.320887,37.641362],[-83.320817,37.641363],[-83.320741,37.641373],[-83.320566,37.641412],[-83.320466,37.641439],[-83.320366,37.641471],[-83.32027,37.641512],[-83.320097,37.6416],[-83.319736,37.641774],[-83.319657,37.641802],[-83.319562,37.641825],[-83.319457,37.641839],[-83.319346,37.641841],[-83.319126,37.641805],[-83.31901,37.641776],[-83.318772,37.641692],[-83.318524,37.64162],[-83.318388,37.641595],[-83.31783,37.641479],[-83.317692,37.641453],[-83.317554,37.641434],[-83.317417,37.641423],[-83.317136,37.641417],[-83.316671,37.641412],[-83.31652,37.641421],[-83.316367,37.641409],[-83.316218,37.641386],[-83.316077,37.641382],[-83.315936,37.641384],[-83.315793,37.641394],[-83.315644,37.641412],[-83.315488,37.641436],[-83.315161,37.641497],[-83.314992,37.641524],[-83.314818,37.641543],[-83.314646,37.64156],[-83.314479,37.641571],[-83.314303,37.641578],[-83.314132,37.641592],[-83.313785,37.641631],[-83.313609,37.641639],[-83.313436,37.641638],[-83.313266,37.641623],[-83.313105,37.641595],[-83.312952,37.641551],[-83.312814,37.641489],[-83.312685,37.641422],[-83.31229,37.641284],[-83.312164,37.641248],[-83.31204,37.641219],[-83.311912,37.641201],[-83.311791,37.641193],[-83.311655,37.641194],[-83.311516,37.641207],[-83.311373,37.641231],[-83.311232,37.641266],[-83.311091,37.641309],[-83.310938,37.641351],[-83.310789,37.641386],[-83.31064,37.641412],[-83.310512,37.641426],[-83.310331,37.641435],[-83.310169,37.641434],[-83.309681,37.64141],[-83.309528,37.6414],[-83.309384,37.641385],[-83.309249,37.641356],[-83.308979,37.641312],[-83.308698,37.641303],[-83.308555,37.641293],[-83.30827,37.641256],[-83.308123,37.641244],[-83.30797,37.641242],[-83.307814,37.641247],[-83.307501,37.641266],[-83.307344,37.641271],[-83.307043,37.641261],[-83.306897,37.641245],[-83.306623,37.641202],[-83.306361,37.641171],[-83.306237,37.641163],[-83.306115,37.641163],[-83.306005,37.64117],[-83.30588,37.64119],[-83.305743,37.641221],[-83.305121,37.641403],[-83.304999,37.641445],[-83.304883,37.641495],[-83.304773,37.641549],[-83.304566,37.641662],[-83.304471,37.641724],[-83.304381,37.641793],[-83.304297,37.641866],[-83.3042383,37.6419269],[-83.304146,37.642032],[-83.304067,37.642114],[-83.303991,37.6421712],[-83.303974,37.642184],[-83.303869,37.642236],[-83.303757,37.642271],[-83.303639,37.642291],[-83.303513,37.642303],[-83.30338,37.642314],[-83.3031346,37.6423241],[-83.302964,37.642321],[-83.3028567,37.6423144],[-83.30211,37.642267],[-83.301991,37.642247],[-83.301883,37.642224],[-83.301782,37.642193],[-83.301595,37.642147],[-83.301506,37.642136],[-83.301409,37.642134],[-83.301311,37.642143],[-83.301096,37.642174],[-83.300981,37.642182],[-83.300845,37.642176],[-83.30045,37.642142],[-83.300336,37.64212],[-83.300232,37.642109],[-83.300124,37.642106],[-83.299897,37.642115],[-83.29978,37.642125],[-83.299545,37.642153],[-83.299435,37.642163],[-83.299333,37.642167],[-83.29927,37.6421635],[-83.299167,37.642153],[-83.29898,37.642117],[-83.298941,37.642106],[-83.29844,37.641998],[-83.29836,37.641989],[-83.29828,37.641985],[-83.298202,37.641984],[-83.29804,37.641998],[-83.297633,37.642073],[-83.297496,37.64209],[-83.297448,37.642091],[-83.297337,37.642086],[-83.297245,37.642078],[-83.297149,37.642066],[-83.296959,37.642031],[-83.296553,37.641938],[-83.296332,37.641883],[-83.295907,37.641763],[-83.295699,37.641715],[-83.295479,37.641672],[-83.295368,37.641651],[-83.29527,37.641616],[-83.295078,37.641542],[-83.294672,37.641376],[-83.294248,37.641228],[-83.294026,37.641146],[-83.29382,37.64106],[-83.293723,37.641013],[-83.293634,37.640965],[-83.293551,37.640913],[-83.293303,37.64079],[-83.293245,37.640756],[-83.293144,37.640728],[-83.292896,37.64069],[-83.292786,37.640679],[-83.292676,37.640674],[-83.292571,37.640674],[-83.292475,37.64067],[-83.292315,37.640611],[-83.292249,37.640561],[-83.292198,37.640498],[-83.292167,37.640426],[-83.292124,37.640268],[-83.292092,37.640185],[-83.291946,37.63986],[-83.291906,37.639785],[-83.291857,37.639714],[-83.291797,37.63965],[-83.291724,37.639587],[-83.291559,37.639459],[-83.291482,37.63939],[-83.291416,37.639316],[-83.291364,37.639238],[-83.291318,37.63916],[-83.291267,37.639086],[-83.291126,37.638956],[-83.291053,37.638896],[-83.290993,37.638832],[-83.290944,37.638769],[-83.290914,37.638696],[-83.290896,37.638619],[-83.29089,37.638534],[-83.290898,37.638447],[-83.290961,37.638125],[-83.290968,37.638049],[-83.290967,37.63797],[-83.290957,37.637889],[-83.29094,37.637807],[-83.290885,37.637564],[-83.290821,37.637324],[-83.290795,37.637254],[-83.2907276,37.6371551],[-83.290675,37.637078],[-83.29052,37.636919],[-83.29047,37.636861],[-83.290427,37.636797],[-83.290389,37.63673],[-83.290361,37.636657],[-83.290329,37.636593],[-83.290227,37.636336],[-83.290205,37.63629],[-83.29016,37.636209],[-83.290125,37.636161],[-83.2900658,37.6360966],[-83.290002,37.635946],[-83.289953,37.635791],[-83.2898995,37.635546],[-83.2898872,37.6355041],[-83.2898283,37.6354156],[-83.289805,37.6353948],[-83.2897352,37.6353612],[-83.2897118,37.6353609],[-83.2896812,37.6353442],[-83.2896533,37.6353467],[-83.2896087,37.6353265],[-83.289567,37.635322],[-83.289541,37.635311],[-83.289494,37.635282],[-83.289461,37.635249],[-83.289439,37.635218],[-83.28942,37.635161],[-83.289414,37.634996],[-83.289392,37.634816],[-83.289383,37.6348],[-83.289288,37.634737],[-83.289149,37.634661],[-83.289018,37.634614],[-83.288814,37.634514],[-83.288717,37.634453],[-83.288609,37.634358],[-83.288511,37.634292],[-83.288326,37.634185],[-83.288181,37.63409],[-83.288124,37.63407],[-83.288027,37.634054],[-83.287641,37.633953],[-83.287577,37.633944],[-83.287541,37.633944],[-83.287457,37.633958],[-83.287371,37.633967],[-83.287167,37.633982],[-83.287096,37.633996],[-83.287068,37.633996],[-83.286393,37.633919],[-83.286191,37.633905],[-83.285875,37.633897],[-83.28582,37.633907],[-83.28577,37.633905],[-83.285684,37.633893],[-83.285649,37.633885],[-83.2854,37.633816],[-83.285262,37.633783],[-83.285124,37.633758],[-83.284906,37.633732],[-83.284744,37.633685],[-83.284683,37.633674],[-83.284064,37.634043],[-83.283859,37.634177],[-83.283721,37.63428],[-83.283668,37.634304],[-83.283564,37.634343],[-83.283493,37.634362],[-83.28341,37.634379],[-83.283175,37.634417],[-83.28313,37.634422],[-83.283048,37.634421],[-83.282871,37.634412],[-83.282789,37.634422],[-83.282461,37.634474],[-83.282279,37.634521],[-83.28204,37.634571],[-83.281924,37.634606],[-83.281864,37.634631],[-83.281437,37.634902],[-83.281351,37.634933],[-83.281309,37.634944],[-83.281268,37.634949],[-83.281196,37.634952],[-83.28113,37.634967],[-83.2809479,37.6350386],[-83.280855,37.635079],[-83.280543,37.635175]]}},{"type":"Feature","properties":{"osm_id":16114608,"highway":"residential","name":"Lower Taulbee Fork Road","alt_name":null,"official_name":null,"surface":null,"tracktype":null,"service":null,"access":null,"motor_vehicle":null,"foot":null,"tiger_reviewed":"no","rrgh_part":0,"rrgh_tile_part":0},"geometry":{"type":"LineString","coordinates":[[-83.330844,37.643546],[-83.330828,37.643587],[-83.33074,37.643759],[-83.330661,37.643884],[-83.330311,37.64435],[-83.329917,37.644914],[-83.329637,37.645329],[-83.32956,37.645433],[-83.329136,37.645963],[-83.329047,37.64607],[-83.32895,37.646175],[-83.328848,37.646277],[-83.328759,37.646375],[-83.328553,37.646535],[-83.328159,37.646845],[-83.328041,37.646952],[-83.32769,37.647229],[-83.327576,37.647325],[-83.327467,37.647427],[-83.327361,37.647533],[-83.327261,37.647644],[-83.327167,37.647756],[-83.327081,37.647869],[-83.326923,37.648089],[-83.326683,37.648458],[-83.326593,37.648579],[-83.326493,37.648698],[-83.326384,37.648814],[-83.32615,37.649039],[-83.325787,37.649367],[-83.325678,37.64948],[-83.325579,37.649595],[-83.325491,37.649714],[-83.32534,37.649963],[-83.325211,37.650224],[-83.325154,37.650359],[-83.325067,37.650636],[-83.324842,37.652942],[-83.324776,37.653226],[-83.324423,37.654364],[-83.324156,37.654906],[-83.324053,37.655026],[-83.323943,37.655142],[-83.323802,37.65528],[-83.323707,37.655368],[-83.32358,37.655478],[-83.323318,37.655695],[-83.322921,37.656008],[-83.322664,37.656206],[-83.322402,37.656395],[-83.322008,37.656656],[-83.32189,37.656744],[-83.321786,37.656838],[-83.3217,37.656943],[-83.32164,37.657057],[-83.321598,37.657195],[-83.321231,37.658799],[-83.321113,37.659216],[-83.320982,37.659764],[-83.320134,37.661664],[-83.320087,37.661807],[-83.320059,37.661897],[-83.320042,37.661995],[-83.32004,37.662089],[-83.320051,37.662173],[-83.320109,37.66241],[-83.320121,37.662472],[-83.320129,37.662541],[-83.320132,37.662619],[-83.320128,37.662706],[-83.320037,37.663594],[-83.320024,37.663694],[-83.319907,37.664282],[-83.319905,37.66437],[-83.319912,37.664452],[-83.319939,37.664535],[-83.319977,37.664611],[-83.320119,37.664865],[-83.320346,37.665241],[-83.320401,37.665344],[-83.320505,37.665559],[-83.320589,37.665783],[-83.320619,37.665902],[-83.320635,37.666022],[-83.320633,37.666141],[-83.320615,37.666257],[-83.320591,37.666374],[-83.320538,37.666577],[-83.320483,37.666831],[-83.320462,37.666958],[-83.320447,37.66708],[-83.320456,37.667326],[-83.320518,37.66774],[-83.320498,37.667866],[-83.320476,37.667914],[-83.320459,37.667963],[-83.32043,37.668175],[-83.320411,37.668258],[-83.320383,37.668341],[-83.320342,37.668426],[-83.320235,37.668602],[-83.320121,37.668774],[-83.320051,37.668846],[-83.319974,37.668907],[-83.319744,37.669065],[-83.319681,37.669119],[-83.319626,37.669178],[-83.319585,37.669244],[-83.319564,37.669318],[-83.319562,37.669397],[-83.319578,37.669479],[-83.319578,37.669563],[-83.319588,37.669665],[-83.319576,37.669764],[-83.319535,37.669873],[-83.319433,37.670054],[-83.319384,37.670212],[-83.319385,37.670376],[-83.319394,37.670557],[-83.319434,37.670742],[-83.319472,37.671007],[-83.31948,37.671099],[-83.319445,37.671281],[-83.319449,37.671366],[-83.319443,37.671454],[-83.319455,37.671537],[-83.319482,37.671663],[-83.319511,37.671747],[-83.31953,37.671829],[-83.319528,37.671906],[-83.319502,37.671973],[-83.319458,37.67203],[-83.3194,37.672077],[-83.319188,37.672216],[-83.31904,37.672327],[-83.31897,37.672387],[-83.318905,37.67245],[-83.318845,37.672516],[-83.318787,37.672585],[-83.318732,37.672658],[-83.318566,37.672899],[-83.318447,37.673063],[-83.318175,37.673491],[-83.318126,37.67358],[-83.318041,37.673751],[-83.317941,37.674056],[-83.317913,37.674128],[-83.317874,37.674196],[-83.317836,37.674323],[-83.317799,37.674515],[-83.317793,37.674636],[-83.317794,37.674796],[-83.317818,37.675]]}},{"type":"Feature","properties":{"osm_id":108835991,"highway":"residential","name":"Strong Fork Road","alt_name":null,"official_name":null,"surface":null,"tracktype":null,"service":null,"access":null,"motor_vehicle":null,"foot":null,"tiger_reviewed":"no","rrgh_part":0,"rrgh_tile_part":0},"geometry":{"type":"LineString","coordinates":[[-83.309514,37.613895],[-83.309472,37.613879],[-83.309268,37.613825],[-83.309061,37.61379],[-83.308989,37.613785],[-83.308839,37.613783],[-83.308412,37.613813],[-83.308292,37.613832],[-83.308169,37.613859],[-83.308048,37.613896],[-83.307942,37.613936],[-83.307764,37.61404],[-83.307623,37.614132],[-83.307544,37.614174],[-83.307454,37.61421],[-83.307357,37.614238],[-83.307254,37.614259],[-83.307148,37.614278],[-83.306925,37.614309],[-83.30669,37.614331],[-83.305558,37.614361],[-83.305389,37.614337],[-83.305231,37.614307],[-83.305077,37.614273],[-83.304929,37.614247],[-83.304184,37.614162],[-83.30407,37.614127],[-83.303958,37.614074],[-83.303755,37.613949],[-83.303655,37.613909],[-83.303547,37.613888],[-83.303437,37.613882],[-83.303326,37.613887],[-83.303223,37.613905],[-83.303143,37.613928],[-83.303045,37.613963],[-83.302966,37.613996],[-83.3028,37.614075],[-83.302503,37.614237],[-83.302421,37.614275],[-83.302333,37.614311],[-83.302236,37.614342],[-83.302001,37.614376],[-83.301889,37.614395],[-83.301479,37.61452],[-83.301246,37.614575],[-83.301078,37.614621],[-83.300862,37.614667],[-83.300746,37.614673],[-83.300626,37.61466],[-83.300526,37.614647],[-83.300286,37.614603],[-83.300273,37.614603],[-83.300146,37.614573],[-83.300027,37.614553],[-83.299789,37.614524],[-83.299564,37.614502],[-83.299344,37.614471],[-83.299239,37.614464],[-83.299141,37.614466],[-83.299015,37.614482],[-83.298853,37.614525],[-83.298749,37.614549],[-83.298598,37.614593],[-83.2984,37.614674],[-83.298152,37.61477],[-83.297987,37.614828],[-83.297552,37.614917],[-83.297471,37.61493],[-83.297043,37.614957],[-83.296949,37.614954],[-83.296672,37.614963],[-83.296508,37.614952],[-83.296392,37.61495],[-83.296285,37.614959],[-83.296189,37.614957],[-83.296092,37.614959],[-83.295917,37.614967],[-83.295317,37.614968],[-83.294987,37.614943],[-83.294897,37.614941],[-83.294546,37.6149],[-83.294407,37.614871],[-83.293954,37.614802],[-83.2937012,37.6147604]]}},{"type":"Feature","properties":{"osm_id":16113611,"highway":"residential","name":"Cutchin Road","alt_name":null,"official_name":null,"surface":null,"tracktype":null,"service":null,"access":null,"motor_vehicle":null,"foot":null,"tiger_reviewed":"no","rrgh_part":0,"rrgh_tile_part":0},"geometry":{"type":"LineString","coordinates":[[-83.334797,37.631238],[-83.334834,37.631253],[-83.334919,37.631278],[-83.33500000000001,37.63129249473685]]}},{"type":"Feature","properties":{"osm_id":16105127,"highway":"residential","name":null,"alt_name":null,"official_name":null,"surface":null,"tracktype":null,"service":null,"access":null,"motor_vehicle":null,"foot":null,"tiger_reviewed":"no","rrgh_part":0,"rrgh_tile_part":0},"geometry":{"type":"LineString","coordinates":[[-83.322745,37.620492],[-83.322689,37.620533],[-83.322668,37.620552],[-83.322647,37.62058],[-83.322597,37.620683],[-83.322535,37.620865],[-83.322496,37.621],[-83.322443,37.621156],[-83.322383,37.621283],[-83.322295,37.621447],[-83.322271,37.621486],[-83.322151,37.621658],[-83.322129,37.621703],[-83.322081,37.621829],[-83.321935,37.622295],[-83.321824,37.622556],[-83.321803,37.622594],[-83.321738,37.622819],[-83.321737,37.622856],[-83.321605,37.623387],[-83.321587,37.623691],[-83.321583,37.62382],[-83.321573,37.623938],[-83.32148,37.624152],[-83.321457,37.624235],[-83.321449,37.624325],[-83.321446,37.624416],[-83.321449,37.624538]]}},{"type":"Feature","properties":{"osm_id":16109747,"highway":"service","name":"Steel Fork Road","alt_name":null,"official_name":null,"surface":null,"tracktype":null,"service":null,"access":null,"motor_vehicle":null,"foot":null,"tiger_reviewed":"no","rrgh_part":0,"rrgh_tile_part":0},"geometry":{"type":"LineString","coordinates":[[-83.2988393,37.6315399],[-83.2987244,37.6315581],[-83.2986128,37.6315269],[-83.2984946,37.6314593],[-83.2983305,37.6313059],[-83.2981368,37.6310407],[-83.2979759,37.6307625],[-83.2977494,37.6305103],[-83.2975393,37.6302269],[-83.2974703,37.6300319],[-83.2974637,37.6298785],[-83.2975458,37.6297485],[-83.2978216,37.6295899],[-83.2980087,37.6296081],[-83.2983272,37.6297277],[-83.2986785,37.6299331],[-83.2989641,37.6301073],[-83.2991151,37.6301619],[-83.2993088,37.6301177],[-83.2995879,37.6300059],[-83.2997389,37.6298733],[-83.2998899,37.6296783],[-83.299903,37.6295223],[-83.2997848,37.6293819],[-83.2993909,37.6289789],[-83.2991315,37.6286461],[-83.2990494,37.6284693],[-83.2990265,37.6282612],[-83.299079,37.6281546],[-83.2993252,37.6278894],[-83.299637,37.627527],[-83.299679,37.627497],[-83.299831,37.627363],[-83.29998,37.627244],[-83.300014,37.627213],[-83.300043,37.62718],[-83.300085,37.627108],[-83.300112,37.627034],[-83.300243,37.626816],[-83.300274,37.62677],[-83.300434,37.626592],[-83.300521,37.626502],[-83.300683,37.626343],[-83.30071,37.626306],[-83.300739,37.626238],[-83.300744,37.626174],[-83.300743,37.626044],[-83.300773,37.6259],[-83.300783,37.62578],[-83.300801,37.625715],[-83.300839,37.625634],[-83.300991,37.625475],[-83.301053,37.62543],[-83.301111,37.625378],[-83.301179,37.625327],[-83.301251,37.625278],[-83.301327,37.625232],[-83.301523,37.625137],[-83.301815,37.624912],[-83.302081,37.624717],[-83.302285,37.624559],[-83.302612,37.624263],[-83.302675,37.624169],[-83.302711,37.62408],[-83.302757,37.623998],[-83.302816,37.623905],[-83.302965,37.623759],[-83.303008,37.623705],[-83.303038,37.623652],[-83.303074,37.623563],[-83.303117,37.623371],[-83.303159,37.623268],[-83.303173,37.623224],[-83.303253,37.623112],[-83.303311,37.623047],[-83.303454,37.622904],[-83.303533,37.622831],[-83.303619,37.62276],[-83.303788,37.622639],[-83.303884,37.622574],[-83.303994,37.622506],[-83.304773,37.622066],[-83.30488,37.622011],[-83.304994,37.621961],[-83.30512,37.621919],[-83.305241,37.621864],[-83.305358,37.6218],[-83.305594,37.621664],[-83.306044,37.62138],[-83.306148,37.621307],[-83.30636,37.62117],[-83.306564,37.621025],[-83.306663,37.620951],[-83.306952,37.620749],[-83.307049,37.620692],[-83.307245,37.620588],[-83.307343,37.620531],[-83.307528,37.620411],[-83.30761,37.620351],[-83.307682,37.62029],[-83.307746,37.620231],[-83.307846,37.62012],[-83.307884,37.620063],[-83.307901,37.620005],[-83.307893,37.619948],[-83.307865,37.6199],[-83.307785,37.619823],[-83.307754,37.619775],[-83.307745,37.61972],[-83.30776,37.619653],[-83.307785,37.619576],[-83.30788,37.619231],[-83.307907,37.619147],[-83.307946,37.618985],[-83.307957,37.618904],[-83.30796,37.618736],[-83.307953,37.618476],[-83.307962,37.6183],[-83.307959,37.618217],[-83.308006,37.617957],[-83.308029,37.617873],[-83.308091,37.617698],[-83.30866,37.616944],[-83.308709,37.616859],[-83.308832,37.616596],[-83.308924,37.616421],[-83.308978,37.616335],[-83.309092,37.61617],[-83.3092,37.616006],[-83.309246,37.615922],[-83.309289,37.615836],[-83.309447,37.615384],[-83.309492,37.615138],[-83.30952,37.615065],[-83.30962,37.6147],[-83.309633,37.614636],[-83.309649,37.614518],[-83.309653,37.614462],[-83.309655,37.614406],[-83.309645,37.614333],[-83.3095878,37.6140684],[-83.309514,37.613895]]}},{"type":"Feature","properties":{"osm_id":16116676,"highway":"residential","name":"Miles Cemetery Road","alt_name":null,"official_name":null,"surface":null,"tracktype":null,"service":null,"access":null,"motor_vehicle":null,"foot":null,"tiger_reviewed":"no","rrgh_part":0,"rrgh_tile_part":0},"geometry":{"type":"LineString","coordinates":[[-83.309848,37.613995],[-83.309837,37.614098],[-83.309837,37.614139],[-83.309842,37.614185],[-83.30986,37.614294],[-83.309866,37.614352],[-83.309868,37.614476],[-83.309862,37.614542],[-83.30985,37.614606],[-83.309821,37.61473],[-83.309775,37.614902],[-83.309766,37.614957],[-83.309763,37.615008],[-83.309768,37.615055],[-83.309782,37.615097],[-83.309809,37.61513],[-83.309843,37.615154],[-83.309882,37.615169],[-83.30992,37.615175],[-83.309959,37.615173],[-83.309995,37.615163],[-83.310025,37.615146],[-83.310043,37.615131],[-83.310064,37.615098],[-83.310136,37.614882]]}},{"type":"Feature","properties":{"osm_id":1180562038,"highway":"service","name":null,"alt_name":null,"official_name":null,"surface":null,"tracktype":null,"service":null,"access":null,"motor_vehicle":null,"foot":null,"tiger_reviewed":null,"rrgh_part":0,"rrgh_tile_part":0},"geometry":{"type":"LineString","coordinates":[[-83.307893,37.619948],[-83.3081128,37.620087],[-83.3081804,37.6202298],[-83.3082521,37.6203418],[-83.3085819,37.6205706],[-83.3089507,37.6207929],[-83.3092354,37.6210022],[-83.3096452,37.6213478],[-83.3098848,37.6215571],[-83.310061,37.6218102],[-83.3102413,37.6221672],[-83.3102987,37.622409],[-83.3103499,37.6227335],[-83.310315,37.6231602],[-83.3102884,37.6235724],[-83.3102249,37.6241256],[-83.3102147,37.6243804],[-83.3102843,37.624687],[-83.3104052,37.6251835],[-83.3105281,37.625633],[-83.3106879,37.625912],[-83.310905,37.6262852],[-83.3110361,37.6265416],[-83.311157,37.6268271],[-83.3111672,37.6270137],[-83.3111345,37.6271808],[-83.3111795,37.6273252],[-83.3113168,37.6274988],[-83.3115196,37.6276432],[-83.3116507,37.6276789],[-83.3118289,37.6276465],[-83.3119641,37.6276254],[-83.3121362,37.6276789],[-83.3121915,37.6277471],[-83.3123063,37.628031],[-83.3124148,37.6283263],[-83.3124415,37.6285956],[-83.3124988,37.6288049],[-83.3125623,37.629045],[-83.312634,37.6292835],[-83.3126443,37.6295188],[-83.3125828,37.6297281],[-83.312507,37.629926],[-83.3122755,37.6302489],[-83.3119928,37.6306528],[-83.3118228,37.6308362],[-83.311495,37.6311152],[-83.3114525,37.6312302],[-83.3114157,37.6315143],[-83.3113192,37.6317983],[-83.3111031,37.6321297],[-83.3109513,37.6323299],[-83.3107536,37.6324392],[-83.3104685,37.6324975],[-83.310372,37.6325375],[-83.3101973,37.632705],[-83.3099536,37.6328543],[-83.3098028,37.6328756],[-83.3096246,37.6328366],[-83.3094464,37.6327799],[-83.3091268,37.6328253],[-83.3088933,37.6328204],[-83.3086249,37.6327588],[-83.3084282,37.6326192],[-83.3082316,37.632517],[-83.3079386,37.6324181],[-83.3076006,37.6323662],[-83.3072995,37.6323467],[-83.3069307,37.632384],[-83.3066603,37.6324375],[-83.3064329,37.6325365],[-83.3062076,37.6327247],[-83.305929,37.6329826],[-83.3056995,37.6331108],[-83.3055172,37.6331692],[-83.3053656,37.6331676],[-83.3051546,37.6331222],[-83.3048473,37.6330297],[-83.3043618,37.6328772],[-83.3038701,37.6326841],[-83.3033478,37.6324813],[-83.3031101,37.6324148],[-83.3028848,37.6324343],[-83.3025734,37.6324862],[-83.3024136,37.6324911],[-83.3022436,37.6324716],[-83.3021248,37.6324878],[-83.301922,37.632543],[-83.301586,37.6326436]]}},{"type":"Feature","properties":{"osm_id":16117499,"highway":"residential","name":"Pilot Branch Road","alt_name":null,"official_name":null,"surface":null,"tracktype":null,"service":null,"access":null,"motor_vehicle":null,"foot":null,"tiger_reviewed":"no","rrgh_part":0,"rrgh_tile_part":0},"geometry":{"type":"LineString","coordinates":[[-83.321449,37.624538],[-83.321447,37.624584],[-83.321442,37.624624]]}},{"type":"Feature","properties":{"osm_id":16116171,"highway":"residential","name":"Trusty Lane","alt_name":null,"official_name":null,"surface":null,"tracktype":null,"service":null,"access":null,"motor_vehicle":null,"foot":null,"tiger_reviewed":"no","rrgh_part":0,"rrgh_tile_part":0},"geometry":{"type":"LineString","coordinates":[[-83.328732,37.646953],[-83.328739,37.64697],[-83.328757,37.647022],[-83.328798,37.647182],[-83.328813,37.647225],[-83.328833,37.64726],[-83.328899,37.647343],[-83.328915,37.647373],[-83.328937,37.647443],[-83.328951,37.647529],[-83.328964,37.647632]]}},{"type":"Feature","properties":{"osm_id":16115327,"highway":"residential","name":"Devon Lane","alt_name":null,"official_name":null,"surface":null,"tracktype":null,"service":null,"access":null,"motor_vehicle":null,"foot":null,"tiger_reviewed":"no","rrgh_part":0,"rrgh_tile_part":0},"geometry":{"type":"LineString","coordinates":[[-83.330483,37.643409],[-83.330485,37.643404],[-83.330537,37.643183],[-83.330607,37.642971],[-83.330653,37.642797],[-83.330694,37.642673],[-83.330707,37.642611],[-83.330714,37.64255],[-83.330716,37.642492],[-83.330709,37.642425],[-83.330691,37.642372],[-83.330674,37.642338],[-83.33065,37.642301],[-83.330618,37.642263],[-83.330282,37.64192],[-83.330132,37.641778],[-83.330066,37.641706],[-83.330043,37.641675]]}},{"type":"Feature","properties":{"osm_id":16116152,"highway":"residential","name":"Litteral Cemetery 1 Road","alt_name":null,"official_name":null,"surface":null,"tracktype":null,"service":null,"access":null,"motor_vehicle":null,"foot":null,"tiger_reviewed":"no","rrgh_part":0,"rrgh_tile_part":0},"geometry":{"type":"LineString","coordinates":[[-83.333848,37.643385],[-83.333897,37.643237],[-83.333901,37.643214],[-83.333887,37.643183],[-83.333851,37.643172],[-83.333807,37.643175],[-83.333627,37.643217],[-83.333587,37.643224],[-83.333498,37.643233],[-83.333445,37.643246],[-83.333356,37.643297],[-83.33323,37.643379],[-83.333112,37.643467],[-83.332995,37.643567],[-83.332935,37.643605],[-83.332902,37.643617],[-83.332868,37.643621],[-83.332836,37.643617],[-83.33278,37.643596],[-83.33274,37.643545],[-83.332724,37.643516],[-83.332708,37.643484],[-83.332672,37.643384],[-83.332668,37.643351],[-83.332678,37.643298],[-83.332693,37.643247],[-83.332736,37.643157],[-83.332778,37.643024],[-83.33282,37.642923],[-83.333037,37.642625],[-83.33308,37.642554]]}},{"type":"Feature","properties":{"osm_id":16112683,"highway":"residential","name":"Field Cemetery Road","alt_name":null,"official_name":null,"surface":null,"tracktype":null,"service":null,"access":null,"motor_vehicle":null,"foot":null,"tiger_reviewed":"no","rrgh_part":0,"rrgh_tile_part":0},"geometry":{"type":"LineString","coordinates":[[-83.328553,37.646535],[-83.328575,37.64662],[-83.328583,37.646648],[-83.328732,37.646953]]}},{"type":"Feature","properties":{"osm_id":16117354,"highway":"residential","name":"Clear Fork Cemetery Road","alt_name":null,"official_name":null,"surface":null,"tracktype":null,"service":null,"access":null,"motor_vehicle":null,"foot":null,"tiger_reviewed":"no","rrgh_part":0,"rrgh_tile_part":0},"geometry":{"type":"LineString","coordinates":[[-83.310512,37.641426],[-83.310483,37.641444],[-83.310407,37.641486],[-83.310334,37.641519],[-83.310208,37.641564],[-83.310115,37.64159],[-83.30995,37.641629],[-83.309892,37.64164],[-83.309772,37.641659],[-83.30966,37.641673],[-83.309612,37.641674],[-83.309537,37.641669],[-83.309506,37.641664],[-83.309478,37.641655],[-83.309397,37.641612],[-83.30932,37.641576],[-83.30917,37.64153],[-83.309079,37.641517],[-83.309055,37.641518]]}},{"type":"Feature","properties":{"osm_id":16110435,"highway":"residential","name":"Field Branch Cemetery","alt_name":null,"official_name":null,"surface":null,"tracktype":null,"service":null,"access":null,"motor_vehicle":null,"foot":null,"tiger_reviewed":"no","rrgh_part":0,"rrgh_tile_part":0},"geometry":{"type":"LineString","coordinates":[[-83.328951,37.647529],[-83.328895,37.647568],[-83.328836,37.647606],[-83.328812,37.647631],[-83.328794,37.647663],[-83.328786,37.647699],[-83.328786,37.647762]]}},{"type":"Feature","properties":{"osm_id":16112686,"highway":"residential","name":"Field Cemetery Road","alt_name":null,"official_name":null,"surface":null,"tracktype":null,"service":null,"access":null,"motor_vehicle":null,"foot":null,"tiger_reviewed":"no","rrgh_part":0,"rrgh_tile_part":0},"geometry":{"type":"LineString","coordinates":[[-83.328786,37.647762],[-83.328788,37.647825],[-83.328788,37.647865],[-83.328781,37.647946],[-83.328767,37.648022],[-83.328743,37.648104]]}},{"type":"Feature","properties":{"osm_id":16104902,"highway":"residential","name":null,"alt_name":null,"official_name":null,"surface":null,"tracktype":null,"service":null,"access":null,"motor_vehicle":null,"foot":null,"tiger_reviewed":"no","rrgh_part":0,"rrgh_tile_part":0},"geometry":{"type":"LineString","coordinates":[[-83.323802,37.65528],[-83.323884,37.655319],[-83.323936,37.655339],[-83.324084,37.655406],[-83.324173,37.655438],[-83.324285,37.655471],[-83.324654,37.655562],[-83.324718,37.655581],[-83.324791,37.655609],[-83.324856,37.655644],[-83.32511,37.655814],[-83.325285,37.655969],[-83.325532,37.65616],[-83.325578,37.656207],[-83.325863,37.656427],[-83.325977,37.656498],[-83.326034,37.656541],[-83.326089,37.656588],[-83.326136,37.656641],[-83.326247,37.656813],[-83.326291,37.65687],[-83.32634,37.656927],[-83.326681,37.657296],[-83.326737,37.657362],[-83.326788,37.657432],[-83.326834,37.657507],[-83.326915,37.657658],[-83.327376,37.658315],[-83.32742,37.658372],[-83.327457,37.658434],[-83.327487,37.6585],[-83.327513,37.658574],[-83.328437,37.660634],[-83.328459,37.660697],[-83.328488,37.660817],[-83.328487,37.660894],[-83.328473,37.661049],[-83.32846,37.661275],[-83.328461,37.661348],[-83.328495,37.661479],[-83.328557,37.661614],[-83.328672,37.661837],[-83.328792,37.662142],[-83.328817,37.662214],[-83.328833,37.662285],[-83.32884,37.662355],[-83.328835,37.662424],[-83.328816,37.662492],[-83.328781,37.662561],[-83.328694,37.662699],[-83.328653,37.662773],[-83.328582,37.662933],[-83.328518,37.663098],[-83.328437,37.66336],[-83.328412,37.663447],[-83.328393,37.663532],[-83.328377,37.663615],[-83.328369,37.663697],[-83.328368,37.663986],[-83.328369,37.664045],[-83.32838,37.66415],[-83.328376,37.664201],[-83.328404,37.664312],[-83.32843,37.664372],[-83.328498,37.664491],[-83.328525,37.664552],[-83.328539,37.664613],[-83.328534,37.664672],[-83.328515,37.664727],[-83.328437,37.664825],[-83.328401,37.66488],[-83.328368,37.664939],[-83.328286,37.665133],[-83.328263,37.665202],[-83.328207,37.665418],[-83.328124,37.665688],[-83.32811,37.665749],[-83.328106,37.665807],[-83.328109,37.665863],[-83.32812,37.665918],[-83.328139,37.665974],[-83.328167,37.66603],[-83.328203,37.666086],[-83.328421,37.666373],[-83.328514,37.666481],[-83.328738,37.66671],[-83.32896,37.666955],[-83.329,37.666994],[-83.329217,37.66716],[-83.329308,37.667244],[-83.329436,37.667373],[-83.329526,37.667451],[-83.329665,37.667552],[-83.329849,37.667664],[-83.330012,37.667753],[-83.330108,37.66779],[-83.330205,37.667812],[-83.330603,37.667855]]}},{"type":"Feature","properties":{"osm_id":16109532,"highway":"residential","name":"Taulbee Cemetery 1 Road","alt_name":null,"official_name":null,"surface":null,"tracktype":null,"service":null,"access":null,"motor_vehicle":null,"foot":null,"tiger_reviewed":"no","rrgh_part":0,"rrgh_tile_part":0},"geometry":{"type":"LineString","coordinates":[[-83.312458,37.651497],[-83.312543,37.651504],[-83.312568,37.651514],[-83.312618,37.651547],[-83.312646,37.651561],[-83.312676,37.651567],[-83.312708,37.651568],[-83.312741,37.651564],[-83.312943,37.651524],[-83.313026,37.651513],[-83.313258,37.651472],[-83.313336,37.651449],[-83.313405,37.651419],[-83.313468,37.651384],[-83.313661,37.651259]]}},{"type":"Feature","properties":{"osm_id":16112971,"highway":"residential","name":"Taulbee Cemetery 2 Road","alt_name":null,"official_name":null,"surface":null,"tracktype":null,"service":null,"access":null,"motor_vehicle":null,"foot":null,"tiger_reviewed":"no","rrgh_part":0,"rrgh_tile_part":0},"geometry":{"type":"LineString","coordinates":[[-83.312195,37.65205],[-83.312233,37.652109],[-83.31228,37.652224],[-83.312307,37.652309],[-83.312324,37.65235],[-83.312352,37.652458],[-83.31238,37.652633],[-83.3124,37.652992],[-83.312407,37.653036],[-83.312424,37.653088],[-83.312453,37.653134],[-83.312465,37.653162],[-83.312478,37.6532],[-83.312495,37.653269]]}},{"type":"Feature","properties":{"osm_id":16115944,"highway":"residential","name":"Taulbee Cemetery 3 Road","alt_name":null,"official_name":null,"surface":null,"tracktype":null,"service":null,"access":null,"motor_vehicle":null,"foot":null,"tiger_reviewed":"no","rrgh_part":0,"rrgh_tile_part":0},"geometry":{"type":"LineString","coordinates":[[-83.31046,37.652359],[-83.310571,37.652408],[-83.310596,37.652415],[-83.310734,37.652429],[-83.310812,37.652444],[-83.310873,37.652466],[-83.310936,37.652503],[-83.310987,37.652541],[-83.311022,37.652586],[-83.311037,37.652612],[-83.311061,37.652662],[-83.311068,37.652686],[-83.31107,37.652709],[-83.311053,37.652749],[-83.311026,37.652776]]}},{"type":"Feature","properties":{"osm_id":16108156,"highway":"service","name":"Cabin Hill Road","alt_name":null,"official_name":null,"surface":null,"tracktype":null,"service":null,"access":null,"motor_vehicle":null,"foot":null,"tiger_reviewed":"no","rrgh_part":0,"rrgh_tile_part":0},"geometry":{"type":"LineString","coordinates":[[-83.307785,37.619823],[-83.307696,37.619892],[-83.307589,37.619967],[-83.307564,37.619988],[-83.307422,37.620073],[-83.307311,37.62013],[-83.30698,37.620289],[-83.306755,37.620357],[-83.306661,37.620391],[-83.306516,37.620451],[-83.306431,37.620497],[-83.306333,37.620537],[-83.306192,37.620606],[-83.306143,37.620625],[-83.305947,37.620681],[-83.305871,37.62071],[-83.305764,37.620767],[-83.305653,37.620805],[-83.305498,37.620888],[-83.305373,37.620944],[-83.305168,37.621015],[-83.305055,37.621044],[-83.304996,37.621055],[-83.304878,37.621049],[-83.304823,37.621031],[-83.304776,37.621006],[-83.304736,37.620976],[-83.304699,37.62094],[-83.304572,37.620793],[-83.30452,37.620741],[-83.304463,37.620698],[-83.304403,37.620666],[-83.304295,37.62065],[-83.304233,37.620653],[-83.304173,37.620664],[-83.304116,37.620684],[-83.304059,37.620713],[-83.304002,37.620752],[-83.303924,37.620863],[-83.303683,37.621455],[-83.303654,37.6215],[-83.303615,37.621542],[-83.303566,37.621578],[-83.303511,37.621607],[-83.303452,37.621628],[-83.303389,37.621644],[-83.303318,37.62165],[-83.303166,37.621647],[-83.303089,37.621651],[-83.30295,37.621692],[-83.302889,37.621725],[-83.302837,37.621766],[-83.302793,37.621807],[-83.302701,37.621905],[-83.302669,37.621934],[-83.302629,37.621963],[-83.302584,37.621989],[-83.302532,37.622012],[-83.302476,37.622032],[-83.302416,37.622048],[-83.302353,37.622059],[-83.302287,37.622065],[-83.302222,37.622066],[-83.302164,37.622054],[-83.302112,37.622036],[-83.302069,37.622008],[-83.302035,37.621973],[-83.302008,37.62193],[-83.301954,37.62183],[-83.30192,37.621778],[-83.301875,37.621728],[-83.301821,37.621681],[-83.30176,37.621636],[-83.301691,37.621591],[-83.30162,37.621551],[-83.301544,37.621516],[-83.301467,37.621489],[-83.301392,37.62147],[-83.301319,37.621461],[-83.301246,37.62146],[-83.301177,37.621467],[-83.30101,37.621492],[-83.300898,37.621505],[-83.300724,37.621512],[-83.300672,37.621509],[-83.300622,37.621505],[-83.300524,37.621487],[-83.300265,37.621417],[-83.300167,37.621394],[-83.300077,37.621378],[-83.299876,37.621356],[-83.299756,37.621349],[-83.299636,37.621346],[-83.299565,37.621348],[-83.29949,37.621354],[-83.299377,37.621369],[-83.299288,37.621391],[-83.299187,37.621428],[-83.299138,37.621453],[-83.298995,37.621544],[-83.298945,37.621579],[-83.298894,37.621617],[-83.298597,37.621857],[-83.298561,37.62188],[-83.29852,37.6219],[-83.298383,37.621961],[-83.298242,37.622039],[-83.298103,37.6221],[-83.297993,37.622136],[-83.297956,37.622144],[-83.297914,37.622147],[-83.297868,37.622142],[-83.297829,37.622129],[-83.297798,37.622109],[-83.297777,37.622085],[-83.297762,37.622056],[-83.297756,37.622021],[-83.29776,37.621982],[-83.297797,37.621836],[-83.297809,37.621777],[-83.297816,37.621714],[-83.297818,37.621648],[-83.2978102,37.6215362],[-83.297807,37.621259],[-83.297802,37.621197],[-83.297778,37.621036],[-83.297776,37.62099],[-83.297778,37.620943],[-83.297787,37.620897],[-83.297802,37.62085],[-83.297824,37.620801],[-83.297852,37.620752],[-83.297918,37.62065],[-83.298051,37.620427],[-83.298128,37.620312],[-83.298174,37.62026],[-83.298364,37.620102],[-83.298404,37.620063],[-83.298474,37.619986],[-83.298514,37.619958],[-83.298558,37.619941],[-83.298603,37.619935],[-83.298702,37.619936],[-83.2989,37.619954],[-83.299094,37.619962],[-83.299142,37.619968],[-83.299194,37.61998],[-83.299246,37.620002],[-83.299388,37.62008],[-83.299434,37.6201],[-83.299482,37.620115],[-83.299533,37.620126],[-83.299585,37.620132],[-83.299637,37.62013],[-83.299728,37.620114],[-83.299788,37.620089],[-83.299812,37.620072],[-83.299832,37.620051],[-83.299847,37.620026],[-83.299855,37.619997],[-83.299853,37.619968]]}},{"type":"Feature","properties":{"osm_id":1096443746,"highway":"service","name":null,"alt_name":null,"official_name":null,"surface":null,"tracktype":null,"service":null,"access":null,"motor_vehicle":null,"foot":null,"tiger_reviewed":"no","rrgh_part":0,"rrgh_tile_part":0},"geometry":{"type":"LineString","coordinates":[[-83.2937012,37.6147604],[-83.293614,37.614748],[-83.293513,37.614751],[-83.293292,37.6147991],[-83.2931767,37.6148842],[-83.2930288,37.6155743],[-83.2930212,37.6159322],[-83.2931306,37.6166754],[-83.2932039,37.6167983],[-83.2932662,37.6169143],[-83.2932693,37.6170352],[-83.2932568,37.61742],[-83.2933004,37.6175729],[-83.2934094,37.6177086],[-83.293562,37.6177752],[-83.2937551,37.6178072],[-83.2941381,37.6178615],[-83.2944122,37.6179429],[-83.2946426,37.6180958],[-83.2949011,37.6183302],[-83.2951315,37.6185793],[-83.2952156,37.6187322],[-83.2952156,37.6188605],[-83.2951347,37.6190184],[-83.2950194,37.619196],[-83.294898,37.6194007],[-83.2947454,37.6197189],[-83.2947111,37.6198595],[-83.2947547,37.6200223],[-83.294817,37.6201382],[-83.2949353,37.620227],[-83.2950879,37.6203208],[-83.2954445,37.6204821],[-83.295882,37.6206809],[-83.2961841,37.6207845],[-83.2966186,37.6209177],[-83.2967381,37.6209321],[-83.2970368,37.6210353],[-83.2971857,37.6210755],[-83.2973981,37.6211745],[-83.2975198,37.6212538],[-83.2976364,37.6213783],[-83.2978102,37.6215362]]}},{"type":"Feature","properties":{"osm_id":1180562044,"highway":"service","name":null,"alt_name":null,"official_name":null,"surface":null,"tracktype":null,"service":null,"access":null,"motor_vehicle":null,"foot":null,"tiger_reviewed":null,"rrgh_part":0,"rrgh_tile_part":0},"geometry":{"type":"LineString","coordinates":[[-83.2966186,37.6209177],[-83.2965566,37.620931],[-83.2965132,37.6209664],[-83.2963921,37.6211016],[-83.2964166,37.6212216],[-83.2964336,37.621329]]}},{"type":"Feature","properties":{"osm_id":1180562045,"highway":"service","name":null,"alt_name":null,"official_name":null,"surface":null,"tracktype":null,"service":null,"access":null,"motor_vehicle":null,"foot":null,"tiger_reviewed":null,"rrgh_part":0,"rrgh_tile_part":0},"geometry":{"type":"LineString","coordinates":[[-83.2963921,37.6211016],[-83.2963404,37.6210315],[-83.2962938,37.620937],[-83.2962589,37.6208655],[-83.2961841,37.6207845]]}},{"type":"Feature","properties":{"osm_id":16105604,"highway":"residential","name":null,"alt_name":null,"official_name":null,"surface":null,"tracktype":null,"service":null,"access":null,"motor_vehicle":null,"foot":null,"tiger_reviewed":"no","rrgh_part":0,"rrgh_tile_part":0},"geometry":{"type":"LineString","coordinates":[[-83.259651,37.613308],[-83.259609,37.613332],[-83.259578,37.613354],[-83.259554,37.613376],[-83.259516,37.613487],[-83.259502,37.613538],[-83.259471,37.613586],[-83.259432,37.613632],[-83.259385,37.613677],[-83.259235,37.613794],[-83.259169,37.613831],[-83.258889,37.613949],[-83.258782,37.613983],[-83.258264,37.61433],[-83.258176,37.614411],[-83.257986,37.614551],[-83.257785,37.614687],[-83.257577,37.614819],[-83.257267,37.615],[-83.257067,37.61511],[-83.256973,37.615156],[-83.256888,37.615205],[-83.256816,37.615258],[-83.256754,37.615311],[-83.256704,37.615371],[-83.256666,37.615439],[-83.256596,37.615593],[-83.256522,37.615745],[-83.25643,37.615896],[-83.256368,37.615974],[-83.2563462,37.6159942],[-83.256284,37.616052],[-83.256182,37.616131],[-83.255958,37.616296],[-83.2555,37.616627],[-83.255281,37.616791],[-83.255176,37.616866],[-83.255071,37.616933],[-83.254847,37.617052],[-83.254508,37.617213],[-83.254405,37.617258],[-83.254205,37.617312],[-83.253866,37.617384],[-83.253652,37.617403],[-83.253156,37.617392],[-83.253035,37.617404],[-83.25278,37.617422],[-83.252506,37.617432],[-83.252368,37.617431],[-83.252231,37.61741],[-83.251944,37.617353],[-83.251658,37.617304],[-83.251518,37.617285],[-83.251378,37.617272],[-83.251106,37.617256],[-83.250662,37.61717],[-83.250569,37.617161],[-83.250473,37.617156],[-83.250384,37.617181],[-83.250292,37.617215],[-83.25,37.61733937037037]]}},{"type":"Feature","properties":{"osm_id":1096443747,"highway":"service","name":null,"alt_name":null,"official_name":null,"surface":null,"tracktype":null,"service":null,"access":null,"motor_vehicle":null,"foot":null,"tiger_reviewed":null,"rrgh_part":0,"rrgh_tile_part":0},"geometry":{"type":"LineString","coordinates":[[-83.2967381,37.6209321],[-83.2967643,37.620869],[-83.2967609,37.6206446]]}},{"type":"Feature","properties":{"osm_id":1180562047,"highway":"service","name":null,"alt_name":null,"official_name":null,"surface":null,"tracktype":null,"service":null,"access":null,"motor_vehicle":null,"foot":null,"tiger_reviewed":null,"rrgh_part":0,"rrgh_tile_part":0},"geometry":{"type":"LineString","coordinates":[[-83.2954445,37.6204821],[-83.2954701,37.6206742],[-83.2955039,37.6208293],[-83.2955168,37.6209649],[-83.2955142,37.6210348],[-83.295487,37.6211416],[-83.2954286,37.6212269],[-83.2952963,37.6213995],[-83.2951991,37.6215782],[-83.2950966,37.6217611],[-83.2950616,37.6219193],[-83.2950279,37.6220641],[-83.2949838,37.6221545],[-83.2948268,37.6223518],[-83.294673,37.6224895],[-83.2944818,37.6225899],[-83.2942074,37.6226574],[-83.2938852,37.6227117],[-83.2935755,37.622748],[-83.2932429,37.6227381],[-83.2930745,37.6227298],[-83.2928688,37.6227496],[-83.2924967,37.6226986],[-83.2922348,37.622636],[-83.2920207,37.6225652],[-83.2917941,37.6224549],[-83.2915738,37.6223034],[-83.2913992,37.62218],[-83.2912287,37.6220153],[-83.2911082,37.621854],[-83.2910354,37.6217305],[-83.290971,37.621528],[-83.2909232,37.621281],[-83.2909232,37.6210966],[-83.2909627,37.6209122],[-83.2909855,37.6206965],[-83.2909959,37.6205303],[-83.2909772,37.6204414],[-83.2909148,37.6203508],[-83.2908005,37.620257],[-83.290601,37.6201269],[-83.2903557,37.6199919],[-83.290206,37.6199178],[-83.2900896,37.6199063],[-83.2900252,37.6199441],[-83.2899753,37.6200413],[-83.2898527,37.6202487],[-83.2896968,37.6204759],[-83.2895243,37.6207114],[-83.2893975,37.6208579],[-83.2891938,37.6209567],[-83.2889256,37.6210621],[-83.2887552,37.6210736],[-83.2885702,37.6209978],[-83.2883228,37.6208134],[-83.2878426,37.6204018],[-83.2876119,37.6202454],[-83.2872793,37.6200166]]}},{"type":"Feature","properties":{"osm_id":1180562043,"highway":"service","name":null,"alt_name":null,"official_name":null,"surface":null,"tracktype":null,"service":null,"access":null,"motor_vehicle":null,"foot":null,"tiger_reviewed":null,"rrgh_part":0,"rrgh_tile_part":0},"geometry":{"type":"LineString","coordinates":[[-83.298114,37.6222233],[-83.298097,37.6221803],[-83.2980653,37.6221561],[-83.297993,37.622136]]}},{"type":"Feature","properties":{"osm_id":1180562034,"highway":"service","name":null,"alt_name":null,"official_name":null,"surface":null,"tracktype":null,"service":null,"access":null,"motor_vehicle":null,"foot":null,"tiger_reviewed":null,"rrgh_part":0,"rrgh_tile_part":0},"geometry":{"type":"LineString","coordinates":[[-83.298242,37.622039],[-83.2981793,37.6221292],[-83.298114,37.6222233],[-83.298042,37.6223969],[-83.2979282,37.6226369],[-83.2978345,37.6227549],[-83.2975634,37.6229219],[-83.2971751,37.6231671],[-83.2968872,37.6233593],[-83.2966144,37.6234985],[-83.2963499,37.623704],[-83.2961709,37.6238671],[-83.296042,37.6239559],[-83.2957993,37.6240805],[-83.2954997,37.6242382],[-83.295257,37.6243854],[-83.2950395,37.6245431],[-83.2949173,37.624681],[-83.2948671,37.6247883],[-83.294862,37.6249183],[-83.2948637,37.6250243],[-83.2948336,37.6250959],[-83.2947516,37.6251396],[-83.2946461,37.6251463],[-83.294539,37.6250707],[-83.2944353,37.6249607],[-83.2943666,37.6248692],[-83.2943499,37.6247473],[-83.2943516,37.6246372],[-83.2944068,37.6244729],[-83.2945357,37.624099],[-83.2945825,37.6240115],[-83.2945825,37.6239373],[-83.294524,37.6239015],[-83.2944302,37.6239002],[-83.2943265,37.6239241],[-83.2942177,37.6239665],[-83.294144,37.6240168],[-83.2940453,37.6240911],[-83.2938947,37.62416],[-83.2936972,37.6241985],[-83.2935582,37.6242316],[-83.2934679,37.6242687],[-83.2934043,37.6243509],[-83.293262,37.6246346],[-83.2930377,37.6250601],[-83.2929607,37.6253239],[-83.2929306,37.6255704],[-83.2929708,37.6257295],[-83.2930679,37.6258899],[-83.2932419,37.6261166],[-83.2934093,37.6262796]]}},{"type":"Feature","properties":{"osm_id":1180562036,"highway":"service","name":null,"alt_name":null,"official_name":null,"surface":null,"tracktype":null,"service":null,"access":null,"motor_vehicle":null,"foot":null,"tiger_reviewed":null,"rrgh_part":0,"rrgh_tile_part":0},"geometry":{"type":"LineString","coordinates":[[-83.2948637,37.6250243],[-83.2948997,37.625141],[-83.294949,37.6252841],[-83.2949654,37.6254349],[-83.2949687,37.6256299],[-83.2949752,37.6258015],[-83.2950409,37.6259835],[-83.2951033,37.6262383],[-83.2951262,37.6262851],[-83.295274,37.6263267],[-83.2954086,37.6263969],[-83.2955071,37.626475],[-83.2955727,37.6265972],[-83.2955924,37.6267428],[-83.2955366,37.6270288],[-83.2954874,37.6271874],[-83.2953823,37.6273512],[-83.2950474,37.6280246],[-83.2946666,37.6286227],[-83.2946272,37.6287397],[-83.2946272,37.6288853],[-83.2946699,37.6290335],[-83.2948012,37.6292337],[-83.2949851,37.6294677],[-83.2951689,37.6298031],[-83.2952543,37.6300163],[-83.2952641,37.6302503],[-83.295228,37.6304505],[-83.2952608,37.6306637],[-83.2953429,37.6308509],[-83.2954184,37.6310043],[-83.2955596,37.6310823],[-83.2957139,37.6311317],[-83.29597,37.6313189],[-83.2962884,37.6316595],[-83.2967054,37.6320313],[-83.2967283,37.6320963],[-83.2967842,37.6325149],[-83.2968367,37.6327255],[-83.2969385,37.6329179],[-83.2971125,37.6330583],[-83.2973653,37.6331727],[-83.2976115,37.6331831],[-83.2978807,37.6331597],[-83.2981138,37.6331051],[-83.298337,37.6329829],[-83.2984651,37.6328321],[-83.2986095,37.6327437],[-83.2989148,37.6325383],[-83.299033,37.6323771],[-83.2990593,37.6322575],[-83.2990396,37.6320911],[-83.2989641,37.6318441],[-83.2988393,37.6315399]]}},{"type":"Feature","properties":{"osm_id":1180562037,"highway":"service","name":null,"alt_name":null,"official_name":null,"surface":null,"tracktype":null,"service":null,"access":null,"motor_vehicle":null,"foot":null,"tiger_reviewed":null,"rrgh_part":0,"rrgh_tile_part":0},"geometry":{"type":"LineString","coordinates":[[-83.2988393,37.6315399],[-83.2990291,37.6314415],[-83.2992026,37.6313505],[-83.2993435,37.6312972],[-83.2993596,37.6312911],[-83.2995026,37.6312521],[-83.2996691,37.6312168],[-83.2997933,37.6311686],[-83.2999128,37.6310832],[-83.3001426,37.6308623],[-83.3004848,37.6304687],[-83.3006067,37.6303276],[-83.3006161,37.6301977],[-83.3006536,37.6300213],[-83.3007239,37.6298691],[-83.3007754,37.6298302]]}},{"type":"Feature","properties":{"osm_id":1180562037,"highway":"service","name":null,"alt_name":null,"official_name":null,"surface":null,"tracktype":null,"service":null,"access":null,"motor_vehicle":null,"foot":null,"tiger_reviewed":null,"rrgh_part":1,"rrgh_tile_part":0},"geometry":{"type":"LineString","coordinates":[[-83.3007754,37.6298302],[-83.3008247,37.629793],[-83.3010872,37.6296872],[-83.3013943,37.6296018],[-83.3017225,37.6295182],[-83.3019522,37.6294996],[-83.3020319,37.6294718],[-83.3020436,37.6294087],[-83.3020038,37.6293159],[-83.3019264,37.629236],[-83.3018256,37.6292045],[-83.3017553,37.6291525],[-83.3017131,37.6290764],[-83.3014998,37.6290912],[-83.301324,37.6290931],[-83.3011974,37.629069],[-83.3011388,37.6290374],[-83.3010333,37.6290355],[-83.3009395,37.6290485],[-83.3007005,37.6290727],[-83.3006348,37.6290949],[-83.3006278,37.6291618],[-83.3006536,37.6293474],[-83.3006887,37.6295553],[-83.3007028,37.6297076],[-83.3007754,37.6298302]]}},{"type":"Feature","properties":{"osm_id":1180562039,"highway":"track","name":null,"alt_name":null,"official_name":null,"surface":null,"tracktype":null,"service":null,"access":null,"motor_vehicle":null,"foot":null,"tiger_reviewed":null,"rrgh_part":0,"rrgh_tile_part":0},"geometry":{"type":"LineString","coordinates":[[-83.301586,37.6326436],[-83.3013086,37.6325324],[-83.3009499,37.6322744],[-83.3004834,37.6319941],[-83.3000568,37.6317769],[-83.2995903,37.6315021],[-83.2993435,37.6312972]]}},{"type":"Feature","properties":{"osm_id":16106733,"highway":"residential","name":null,"alt_name":null,"official_name":null,"surface":null,"tracktype":null,"service":null,"access":null,"motor_vehicle":null,"foot":null,"tiger_reviewed":"no","rrgh_part":0,"rrgh_tile_part":0},"geometry":{"type":"LineString","coordinates":[[-83.297448,37.642091],[-83.297483,37.642288],[-83.297225,37.642767]]}},{"type":"Feature","properties":{"osm_id":16114056,"highway":"residential","name":"Kings Drive","alt_name":null,"official_name":null,"surface":null,"tracktype":null,"service":null,"access":null,"motor_vehicle":null,"foot":null,"tiger_reviewed":"no","rrgh_part":0,"rrgh_tile_part":0},"geometry":{"type":"LineString","coordinates":[[-83.295479,37.641672],[-83.29547,37.641631],[-83.295447,37.641575],[-83.295429,37.641544],[-83.295372,37.64148],[-83.295334,37.641449],[-83.295292,37.64142],[-83.295111,37.64131],[-83.294892,37.641157],[-83.294846,37.641131],[-83.294798,37.641111],[-83.294746,37.641097],[-83.294692,37.641087],[-83.294585,37.641074],[-83.294539,37.641064],[-83.294499,37.641049],[-83.294465,37.641028],[-83.294437,37.641006],[-83.294403,37.640956],[-83.294367,37.640855],[-83.294361,37.640829],[-83.294349,37.640804],[-83.294307,37.64074]]}},{"type":"Feature","properties":{"osm_id":16112567,"highway":"residential","name":"North Rock Lick Road","alt_name":null,"official_name":null,"surface":null,"tracktype":null,"service":null,"access":null,"motor_vehicle":null,"foot":null,"tiger_reviewed":"no","rrgh_part":0,"rrgh_tile_part":0},"geometry":{"type":"LineString","coordinates":[[-83.305901,37.657333],[-83.305926,37.657453],[-83.305964,37.65764],[-83.306097,37.658056],[-83.306327,37.658846],[-83.30639,37.659037],[-83.306729,37.659709],[-83.306795,37.659806],[-83.306918,37.660001],[-83.307045,37.660182],[-83.307258,37.660427],[-83.307411,37.660594],[-83.307491,37.660676],[-83.30773,37.660907],[-83.307789,37.660979],[-83.307808,37.661047],[-83.307805,37.661147],[-83.307794,37.661286],[-83.307763,37.661448],[-83.307742,37.661735],[-83.307715,37.661969],[-83.307688,37.662315],[-83.307679,37.6624],[-83.307664,37.662484],[-83.307623,37.662664],[-83.307598,37.662755],[-83.307569,37.662846],[-83.307504,37.663026],[-83.307479,37.663116],[-83.307442,37.663289],[-83.307417,37.663374],[-83.307383,37.663457],[-83.307343,37.663533],[-83.307303,37.6636],[-83.307282,37.663668],[-83.307275,37.663733],[-83.30728,37.663797],[-83.307295,37.663866],[-83.307359,37.664081],[-83.307377,37.664157],[-83.307418,37.66441],[-83.307436,37.664495],[-83.307499,37.664746],[-83.307512,37.664833],[-83.307518,37.664922],[-83.307511,37.665102],[-83.307512,37.665194],[-83.307545,37.665461],[-83.307552,37.665552],[-83.307544,37.665643],[-83.307521,37.665733],[-83.307487,37.665824],[-83.307413,37.665998],[-83.307388,37.666077],[-83.307367,37.666243],[-83.307368,37.666425],[-83.307363,37.666518],[-83.307346,37.666703],[-83.307333,37.666786],[-83.30731,37.666863],[-83.307266,37.66693],[-83.307205,37.666984],[-83.307125,37.667027],[-83.307021,37.667068],[-83.306928,37.667109],[-83.30689,37.667156],[-83.306866,37.667206],[-83.306845,37.667267],[-83.306838,37.667349],[-83.306835,37.667425],[-83.306849,37.667499],[-83.306873,37.667567],[-83.306903,37.667632],[-83.30707,37.667921],[-83.307105,37.667998],[-83.30713,37.668081],[-83.307165,37.668338],[-83.307234,37.668579],[-83.307268,37.668715],[-83.307306,37.66883],[-83.307321,37.668886],[-83.307324,37.668942],[-83.307311,37.668998],[-83.307285,37.669052],[-83.307252,37.669108],[-83.307212,37.669167],[-83.307163,37.669229],[-83.307108,37.669291],[-83.307047,37.66935],[-83.306981,37.669405],[-83.306916,37.66945],[-83.306851,37.669489],[-83.306638,37.669667],[-83.306584,37.669718]]}},{"type":"Feature","properties":{"osm_id":16111339,"highway":"residential","name":"Crase Drive","alt_name":null,"official_name":null,"surface":null,"tracktype":null,"service":null,"access":null,"motor_vehicle":null,"foot":null,"tiger_reviewed":"no","rrgh_part":0,"rrgh_tile_part":0},"geometry":{"type":"LineString","coordinates":[[-83.306769,37.655504],[-83.306691,37.655488],[-83.306531,37.655465],[-83.306488,37.65545],[-83.306447,37.655433],[-83.306415,37.655415],[-83.306281,37.655324]]}},{"type":"Feature","properties":{"osm_id":16112422,"highway":"residential","name":"Mullins Cemetery 3 Road","alt_name":null,"official_name":null,"surface":null,"tracktype":null,"service":null,"access":null,"motor_vehicle":null,"foot":null,"tiger_reviewed":"no","rrgh_part":0,"rrgh_tile_part":0},"geometry":{"type":"LineString","coordinates":[[-83.299338,37.657097],[-83.299442,37.657149],[-83.299469,37.65716],[-83.300126,37.657319],[-83.300386,37.657407],[-83.300467,37.657447]]}},{"type":"Feature","properties":{"osm_id":16111705,"highway":"residential","name":"Joe Ward Fork Road","alt_name":null,"official_name":null,"surface":null,"tracktype":null,"service":null,"access":null,"motor_vehicle":null,"foot":null,"tiger_reviewed":"no","rrgh_part":0,"rrgh_tile_part":0},"geometry":{"type":"LineString","coordinates":[[-83.291568,37.659279],[-83.291589,37.659389],[-83.291604,37.659575],[-83.291599,37.659746],[-83.291583,37.660027],[-83.291582,37.660124],[-83.291594,37.660311],[-83.291609,37.660404],[-83.291627,37.660496],[-83.29165,37.660588],[-83.291703,37.660774],[-83.291798,37.661079],[-83.291826,37.661183],[-83.291888,37.661464],[-83.291945,37.661648],[-83.292032,37.66182],[-83.292029,37.661914],[-83.29198,37.662099],[-83.291965,37.662189],[-83.291961,37.662276],[-83.291969,37.662431],[-83.291972,37.662691],[-83.291977,37.662729],[-83.29198,37.662828],[-83.291977,37.662861],[-83.291962,37.662929],[-83.291948,37.662966],[-83.291907,37.663044],[-83.291815,37.66319],[-83.291692,37.663375],[-83.291437,37.663749],[-83.291385,37.663831],[-83.291292,37.664],[-83.291251,37.664087],[-83.291178,37.664274],[-83.291079,37.66455],[-83.29104,37.664701],[-83.291034,37.664782],[-83.291039,37.664962],[-83.291077,37.665482],[-83.291079,37.665557],[-83.291067,37.665629],[-83.291039,37.665696],[-83.290996,37.665754],[-83.29095,37.665803],[-83.290868,37.665879],[-83.29084,37.665909],[-83.290319,37.666362],[-83.287632,37.669381],[-83.287138,37.670285],[-83.287098,37.670587]]}},{"type":"Feature","properties":{"osm_id":16113090,"highway":"residential","name":"Daniel Taulbee Cemetery Road","alt_name":null,"official_name":null,"surface":null,"tracktype":null,"service":null,"access":null,"motor_vehicle":null,"foot":null,"tiger_reviewed":"no","rrgh_part":0,"rrgh_tile_part":0},"geometry":{"type":"LineString","coordinates":[[-83.280543,37.635175],[-83.280425,37.635209],[-83.280334,37.635239],[-83.280311,37.635251],[-83.280297,37.635265],[-83.280276,37.635297],[-83.280265,37.63533],[-83.280247,37.635447],[-83.280244,37.635493],[-83.280235,37.635527],[-83.280217,37.635543],[-83.280202,37.63555],[-83.280188,37.635551],[-83.280171,37.635546],[-83.280141,37.635525],[-83.280037,37.635387],[-83.279967,37.635301],[-83.279928,37.635264],[-83.279898,37.635247],[-83.279804,37.63523],[-83.279645,37.635209],[-83.27957,37.635196],[-83.279424,37.635179],[-83.279355,37.635164],[-83.279243,37.635146],[-83.279137,37.635141],[-83.279105,37.635142],[-83.278906,37.635119],[-83.278793,37.635077],[-83.278683,37.63504],[-83.278659,37.635035],[-83.278422,37.635027],[-83.278241,37.635048],[-83.278168,37.635075],[-83.278136,37.635104],[-83.277995,37.635266],[-83.277848,37.635406],[-83.277794,37.63544],[-83.277764,37.635454],[-83.27765,37.63549],[-83.277623,37.635494],[-83.277415,37.635492],[-83.277249,37.635504],[-83.277076,37.635512],[-83.276967,37.635522],[-83.276844,37.635542],[-83.276768,37.635538],[-83.276708,37.635526],[-83.276506,37.635472],[-83.27643,37.635464],[-83.27636,37.635468],[-83.276228,37.635486],[-83.276185,37.635498],[-83.276042,37.635527],[-83.275936,37.635528],[-83.275763,37.635513],[-83.275728,37.635506],[-83.275202,37.635449],[-83.274855,37.635389],[-83.274785,37.635371],[-83.274683,37.635364],[-83.274649,37.635366],[-83.274553,37.635381],[-83.27445,37.635387],[-83.274396,37.635384],[-83.274125,37.635343],[-83.274048,37.635322],[-83.273345,37.635082],[-83.272972,37.63499],[-83.272701,37.634892],[-83.27231,37.634767],[-83.272199,37.634741],[-83.271918,37.634727],[-83.271765,37.634712],[-83.271714,37.634712],[-83.271675,37.634722],[-83.271648,37.634755]]}},{"type":"Feature","properties":{"osm_id":16109553,"highway":"residential","name":"Wilson Cemetery 1 Road","alt_name":null,"official_name":null,"surface":null,"tracktype":null,"service":null,"access":null,"motor_vehicle":null,"foot":null,"tiger_reviewed":"no","rrgh_part":0,"rrgh_tile_part":0},"geometry":{"type":"LineString","coordinates":[[-83.270669,37.661296],[-83.270707,37.661332],[-83.270713,37.661348],[-83.270712,37.661372],[-83.270695,37.66144],[-83.270669,37.661505],[-83.27064,37.661556],[-83.270615,37.661637],[-83.270611,37.661669],[-83.270612,37.661735],[-83.270622,37.661799],[-83.270662,37.661917],[-83.2707,37.662011],[-83.270776,37.662218],[-83.27083,37.662401],[-83.27091,37.662613],[-83.271028,37.662828],[-83.271103,37.662982]]}},{"type":"Feature","properties":{"osm_id":16106099,"highway":"residential","name":null,"alt_name":null,"official_name":null,"surface":null,"tracktype":null,"service":null,"access":null,"motor_vehicle":null,"foot":null,"tiger_reviewed":"no","rrgh_part":0,"rrgh_tile_part":0},"geometry":{"type":"LineString","coordinates":[[-83.273268,37.661049],[-83.273413,37.661351],[-83.273818,37.661909],[-83.274225,37.662746],[-83.274517,37.664887],[-83.274513,37.664943],[-83.274517,37.664999],[-83.274558,37.66521],[-83.274517,37.665612],[-83.2744266,37.6658156],[-83.274076,37.666315],[-83.272774,37.667703]]}}],"rrgh_tile":{"id":"r3c8","bounds":[37.6,-83.33500000000001,37.675,-83.25]}}
