{"type":"FeatureCollection","features":[{"type":"Feature","properties":{"osm_id":16381995,"highway":"track","name":null,"alt_name":null,"official_name":null,"surface":null,"tracktype":null,"service":null,"access":null,"motor_vehicle":null,"foot":null,"tiger_reviewed":"no","rrgh_part":0,"rrgh_tile_part":0},"geometry":{"type":"LineString","coordinates":[[-83.4806046,37.7120836],[-83.478951,37.712071],[-83.4779292,37.7118852],[-83.4774931,37.7115202],[-83.4768905,37.7111636],[-83.476483,37.7107758],[-83.4759362,37.7100852],[-83.475079,37.709475],[-83.474084,37.708449],[-83.473671,37.708163],[-83.473369,37.707851],[-83.47303,37.707266],[-83.472813,37.706695],[-83.472627,37.706172],[-83.4725,37.705622],[-83.47145,37.704901],[-83.469489,37.703346],[-83.469265,37.702837],[-83.469007,37.700753],[-83.46885,37.700427],[-83.468273,37.69987],[-83.466771,37.698776],[-83.46546,37.698044],[-83.464294,37.697973]]}},{"type":"Feature","properties":{"osm_id":16383314,"highway":"residential","name":"Kelse Hollins Fork Road","alt_name":null,"official_name":null,"surface":null,"tracktype":null,"service":null,"access":null,"motor_vehicle":null,"foot":null,"tiger_reviewed":"no","rrgh_part":0,"rrgh_tile_part":0},"geometry":{"type":"LineString","coordinates":[[-83.505,37.69690606276151],[-83.504783,37.696956],[-83.504748,37.696972],[-83.50445,37.697077],[-83.504397,37.69711],[-83.504337,37.697169],[-83.504258,37.697263],[-83.504215,37.697301],[-83.503727,37.697539],[-83.503653,37.697588],[-83.503454,37.697679],[-83.503243,37.697756],[-83.503082,37.697829],[-83.502975,37.697871],[-83.502863,37.697928],[-83.502729,37.698019],[-83.502646,37.69809],[-83.502605,37.698143],[-83.502536,37.698266],[-83.502512,37.698323],[-83.502475,37.698506],[-83.502453,37.698565],[-83.502404,37.698642],[-83.502289,37.6988],[-83.50227,37.698818],[-83.502163,37.698983],[-83.502099,37.699097],[-83.502072,37.69912],[-83.501987,37.69917],[-83.501775,37.699277],[-83.501728,37.699295],[-83.501586,37.699374],[-83.501363,37.699524],[-83.501168,37.699679],[-83.501103,37.699716],[-83.500966,37.699969],[-83.500873,37.700277],[-83.500837,37.700435],[-83.500786,37.700604],[-83.500769,37.700676],[-83.500768,37.700719],[-83.500782,37.700762],[-83.500834,37.700799],[-83.501062,37.70087],[-83.501159,37.700945],[-83.501231,37.701086],[-83.501251,37.701207],[-83.501231,37.701329],[-83.501172,37.701522],[-83.50109,37.701678],[-83.501003,37.701811],[-83.5009,37.701918],[-83.500741,37.702071],[-83.500587,37.702198],[-83.500448,37.702296],[-83.500298,37.702382],[-83.500183,37.702439],[-83.499854,37.702584],[-83.499664,37.702662],[-83.499476,37.702725],[-83.499248,37.702783],[-83.499053,37.702863],[-83.499002,37.702894],[-83.498981,37.702925],[-83.498978,37.70296],[-83.49899,37.703005],[-83.49901,37.703056],[-83.499025,37.703136],[-83.499025,37.703223],[-83.499015,37.703295],[-83.498985,37.703422],[-83.498966,37.703488],[-83.498943,37.703536],[-83.498927,37.703584],[-83.49892,37.703625],[-83.49891,37.703702],[-83.498902,37.703863],[-83.498875,37.70406],[-83.498799,37.705031],[-83.498761,37.705174],[-83.498759,37.705216],[-83.49877,37.70527],[-83.49878,37.705296],[-83.498819,37.70537],[-83.498834,37.705409],[-83.498845,37.705451],[-83.498849,37.705494],[-83.498848,37.705627],[-83.498852,37.705675],[-83.498923,37.705927],[-83.498961,37.706208],[-83.498931,37.706605],[-83.498904,37.706871],[-83.498815,37.70709],[-83.498705,37.707324],[-83.49852,37.707624],[-83.498375,37.707813],[-83.498088,37.708102],[-83.497934,37.708276],[-83.497696,37.708441],[-83.497087,37.708852],[-83.496969,37.708912],[-83.496734,37.709016],[-83.496636,37.709076],[-83.496592,37.709108],[-83.496554,37.709144],[-83.496522,37.709184],[-83.496473,37.709269],[-83.496434,37.709353],[-83.496409,37.709437],[-83.496399,37.709564],[-83.49639,37.709604],[-83.496352,37.709685],[-83.496265,37.709808],[-83.496191,37.709885],[-83.496108,37.709948],[-83.496024,37.70999],[-83.495828,37.71007],[-83.495571,37.710193],[-83.495365,37.710266],[-83.495229,37.710302],[-83.495026,37.710342],[-83.494958,37.710359],[-83.494831,37.710413],[-83.494713,37.710475],[-83.494303,37.710736],[-83.49413,37.710835],[-83.493989,37.710901],[-83.493911,37.710926],[-83.493825,37.710947],[-83.493736,37.710959],[-83.493552,37.71097],[-83.493368,37.710964],[-83.493277,37.710956],[-83.493186,37.710957],[-83.492931,37.710982],[-83.4923,37.711087],[-83.492164,37.711121],[-83.492061,37.711149],[-83.491923,37.711199],[-83.491855,37.711229],[-83.491792,37.711262],[-83.491681,37.711336],[-83.491463,37.711507],[-83.491397,37.71155],[-83.491324,37.71159],[-83.491248,37.711624],[-83.4911,37.711678],[-83.490966,37.711742],[-83.490902,37.71178],[-83.490648,37.71196],[-83.490578,37.712004],[-83.490175,37.712279],[-83.49001,37.712417],[-83.489884,37.712565],[-83.489734,37.712764],[-83.48965,37.71286],[-83.489547,37.712953],[-83.489483,37.712994],[-83.489401,37.713032],[-83.48933,37.713056],[-83.489086,37.713124],[-83.48901,37.713152],[-83.488572,37.713362],[-83.488244,37.71355],[-83.487545,37.71397],[-83.48738,37.714083],[-83.487206,37.714186],[-83.48686,37.714362],[-83.486744,37.714425],[-83.486681,37.714455],[-83.486548,37.714486],[-83.486474,37.714495],[-83.486246,37.714494],[-83.48617,37.714501],[-83.486094,37.714524],[-83.486022,37.714536],[-83.485881,37.714574],[-83.485548,37.714695],[-83.485248,37.71481],[-83.485119,37.714848],[-83.484829,37.714908],[-83.484442,37.714964],[-83.483952,37.715061],[-83.483829,37.715095],[-83.483769,37.715116],[-83.483713,37.715142],[-83.483662,37.715175],[-83.483618,37.715217],[-83.483552,37.715309],[-83.483529,37.715352],[-83.4835,37.715441],[-83.483489,37.715528],[-83.483489,37.71565],[-83.4835,37.715744],[-83.483519,37.715837],[-83.483531,37.715932],[-83.483541,37.715972],[-83.483539,37.716014],[-83.48353,37.716055],[-83.483479,37.716168],[-83.483423,37.716248],[-83.483351,37.716325],[-83.483301,37.716354],[-83.483183,37.7164],[-83.483049,37.716439],[-83.482923,37.716467],[-83.482829,37.716503],[-83.482714,37.716558],[-83.482664,37.716587]]}},{"type":"Feature","properties":{"osm_id":16384994,"highway":"residential","name":"Spring Branch Road","alt_name":null,"official_name":null,"surface":null,"tracktype":null,"service":null,"access":null,"motor_vehicle":null,"foot":null,"tiger_reviewed":"no","rrgh_part":0,"rrgh_tile_part":0},"geometry":{"type":"LineString","coordinates":[[-83.44083222222223,37.675],[-83.440635,37.675142],[-83.440373,37.675316],[-83.440309,37.675354],[-83.440177,37.675418],[-83.440039,37.675462],[-83.439714,37.675547],[-83.439409,37.675655],[-83.43921,37.675735],[-83.438735,37.675959],[-83.438449,37.676078],[-83.438314,37.676125],[-83.438123,37.67618],[-83.437606,37.676293],[-83.43702,37.676437],[-83.436837,37.676463],[-83.436591,37.676465],[-83.436463,37.676483],[-83.436295,37.676521],[-83.4362,37.676535],[-83.436111,37.676536],[-83.435979,37.676522],[-83.435798,37.676492],[-83.435715,37.676491],[-83.435638,37.676499],[-83.435499,37.676531],[-83.435459,37.676524]]}},{"type":"Feature","properties":{"osm_id":16380736,"highway":"residential","name":"Whetson Branch Road","alt_name":null,"official_name":null,"surface":null,"tracktype":null,"service":null,"access":null,"motor_vehicle":null,"foot":null,"tiger_reviewed":"no","rrgh_part":0,"rrgh_tile_part":0},"geometry":{"type":"LineString","coordinates":[[-83.499649,37.681343],[-83.499747,37.681361],[-83.499869,37.681365],[-83.500047,37.681348],[-83.500098,37.68134],[-83.500147,37.681319],[-83.500243,37.681291],[-83.500291,37.681271],[-83.500697,37.681061],[-83.500791,37.68103],[-83.501069,37.680947],[-83.501162,37.680928],[-83.501378,37.680891],[-83.501624,37.680834],[-83.502207,37.680722],[-83.502337,37.680692],[-83.502439,37.680658],[-83.502495,37.680647],[-83.502547,37.68063],[-83.502715,37.680601],[-83.503001,37.68058],[-83.503113,37.680576],[-83.503225,37.680559],[-83.503325,37.680535],[-83.503478,37.680488],[-83.503533,37.680479],[-83.503616,37.680475],[-83.503867,37.680433],[-83.504172,37.680371],[-83.504753,37.680224],[-83.505,37.68015536734694]]}},{"type":"Feature","properties":{"osm_id":16381241,"highway":"residential","name":null,"alt_name":null,"official_name":null,"surface":null,"tracktype":null,"service":null,"access":null,"motor_vehicle":null,"foot":null,"tiger_reviewed":"no","rrgh_part":0,"rrgh_tile_part":0},"geometry":{"type":"LineString","coordinates":[[-83.493154,37.677485],[-83.492966,37.677756],[-83.49291,37.67785],[-83.492841,37.678491],[-83.49281,37.679044],[-83.492628,37.679323],[-83.492354,37.679784],[-83.492049,37.680173],[-83.491775,37.680622],[-83.491577,37.68109]]}},{"type":"Feature","properties":{"osm_id":16382958,"highway":"residential","name":"Chris Rose Lane","alt_name":null,"official_name":null,"surface":null,"tracktype":null,"service":null,"access":null,"motor_vehicle":null,"foot":null,"tiger_reviewed":"no","rrgh_part":0,"rrgh_tile_part":0},"geometry":{"type":"LineString","coordinates":[[-83.497081,37.680675],[-83.496934,37.680681],[-83.496792,37.680666],[-83.496668,37.680575],[-83.496455,37.680282],[-83.496333,37.680129],[-83.496193,37.680019],[-83.495975,37.679933],[-83.495817,37.67988],[-83.495533,37.679855],[-83.495461,37.679892],[-83.495346,37.680041],[-83.49519,37.680233],[-83.495064,37.680438],[-83.494923,37.680656]]}},{"type":"Feature","properties":{"osm_id":16384639,"highway":"residential","name":"Whetstone Branch Road","alt_name":null,"official_name":null,"surface":null,"tracktype":null,"service":null,"access":null,"motor_vehicle":null,"foot":null,"tiger_reviewed":"no","rrgh_part":0,"rrgh_tile_part":0},"geometry":{"type":"LineString","coordinates":[[-83.497081,37.680675],[-83.497155,37.680651],[-83.497192,37.680639],[-83.497261,37.680636],[-83.49734,37.680642],[-83.497393,37.680662],[-83.497437,37.680714],[-83.49746,37.680761],[-83.497497,37.680855],[-83.497514,37.680949],[-83.497543,37.681032],[-83.497589,37.681094],[-83.497766,37.681207],[-83.497866,37.681246],[-83.497933,37.681259],[-83.498031,37.681264],[-83.498241,37.681253],[-83.498357,37.681242],[-83.498435,37.681219],[-83.498497,37.681194],[-83.49861,37.681138],[-83.498668,37.681116],[-83.498727,37.681101],[-83.498788,37.681092],[-83.498904,37.681093],[-83.499016,37.681114],[-83.499126,37.681151],[-83.49944,37.681288],[-83.499583,37.68133],[-83.499649,37.681343]]}},{"type":"Feature","properties":{"osm_id":16384648,"highway":"residential","name":"Whetstone Branch Road","alt_name":null,"official_name":null,"surface":null,"tracktype":null,"service":null,"access":null,"motor_vehicle":null,"foot":null,"tiger_reviewed":"no","rrgh_part":0,"rrgh_tile_part":0},"geometry":{"type":"LineString","coordinates":[[-83.499649,37.681343],[-83.499635,37.681417],[-83.499655,37.681483],[-83.49973,37.68154],[-83.499886,37.681629],[-83.500061,37.681706],[-83.500289,37.681851],[-83.500442,37.681987],[-83.500558,37.682144],[-83.500666,37.682264],[-83.501703,37.682987],[-83.501765,37.68301],[-83.501863,37.683026],[-83.502045,37.683081],[-83.502302,37.683204],[-83.502477,37.683274],[-83.502532,37.683313],[-83.502576,37.683357],[-83.502615,37.683428],[-83.502656,37.683491],[-83.502709,37.683533],[-83.502782,37.683567],[-83.502911,37.683603],[-83.503019,37.683644],[-83.503097,37.683655],[-83.503203,37.683647],[-83.503283,37.683636],[-83.503415,37.683602]]}},{"type":"Feature","properties":{"osm_id":16384149,"highway":"residential","name":"Kelse Holland Road","alt_name":null,"official_name":null,"surface":null,"tracktype":null,"service":null,"access":null,"motor_vehicle":null,"foot":null,"tiger_reviewed":"no","rrgh_part":0,"rrgh_tile_part":0},"geometry":{"type":"LineString","coordinates":[[-83.467919,37.678081],[-83.468004,37.678085],[-83.468126,37.67806],[-83.468445,37.677968],[-83.468598,37.677938],[-83.468708,37.677931],[-83.468826,37.677935],[-83.468938,37.677954],[-83.469042,37.677987],[-83.46914,37.678031],[-83.469288,37.678121],[-83.469389,37.678191],[-83.469709,37.678464],[-83.469773,37.678514],[-83.469844,37.678563],[-83.469949,37.678624],[-83.469992,37.678648],[-83.470141,37.678714],[-83.470277,37.678791],[-83.470403,37.678881],[-83.47064,37.679093],[-83.47092,37.679365],[-83.471036,37.679469],[-83.471181,37.679633],[-83.471273,37.679757],[-83.471353,37.6799],[-83.471497,37.680221],[-83.471635,37.680452],[-83.471779,37.680664],[-83.472167,37.681167],[-83.472529,37.681627],[-83.472641,37.681788],[-83.472751,37.681965],[-83.472814,37.682102],[-83.472839,37.682175],[-83.47287,37.682329],[-83.472881,37.682407],[-83.472901,37.682481],[-83.472928,37.682555],[-83.472966,37.682624],[-83.47306,37.682745],[-83.473218,37.682907],[-83.473517,37.683151],[-83.4737,37.683282],[-83.473951,37.683453],[-83.474188,37.683647],[-83.474352,37.683809],[-83.474762,37.684169],[-83.474873,37.684279],[-83.474973,37.684393],[-83.475016,37.684456],[-83.47505,37.684523],[-83.475079,37.684593],[-83.475102,37.684666],[-83.475117,37.684742],[-83.475122,37.68486],[-83.475124,37.684892],[-83.475071,37.685165],[-83.475064,37.685291],[-83.475061,37.685803],[-83.475048,37.685994],[-83.475019,37.686202],[-83.474957,37.6865],[-83.474943,37.686723],[-83.474955,37.687016],[-83.474966,37.687167],[-83.474966,37.687244],[-83.474973,37.687321],[-83.474987,37.687395],[-83.47503,37.687538],[-83.475152,37.687787],[-83.475251,37.687967],[-83.475281,37.688031],[-83.475352,37.688157],[-83.47557,37.688604],[-83.475668,37.68879],[-83.475771,37.689044],[-83.475846,37.689365],[-83.47587,37.689493],[-83.475881,37.689621],[-83.475912,37.689746],[-83.47596,37.689868],[-83.47599,37.689928],[-83.476067,37.69004],[-83.476345,37.690361],[-83.476554,37.690656],[-83.476652,37.690819],[-83.476761,37.690968],[-83.476843,37.691061],[-83.477033,37.691237],[-83.477131,37.691348],[-83.477174,37.691409],[-83.477233,37.691535],[-83.477253,37.691597],[-83.477295,37.691774],[-83.477314,37.69183],[-83.477338,37.691879],[-83.477375,37.691926],[-83.477421,37.691967],[-83.477477,37.692002],[-83.47754,37.692027],[-83.477607,37.692041],[-83.477675,37.692045],[-83.477741,37.692039],[-83.477869,37.692005],[-83.477939,37.691993],[-83.47801,37.691989],[-83.478082,37.691992],[-83.478157,37.692002],[-83.478234,37.692022],[-83.478453,37.692106],[-83.478586,37.692169],[-83.478703,37.692233],[-83.47891,37.692364],[-83.478965,37.692394],[-83.479026,37.692416],[-83.47909,37.692432],[-83.479155,37.692442],[-83.47942,37.692465],[-83.479491,37.692481],[-83.47956,37.692502],[-83.479628,37.692531],[-83.479755,37.692602],[-83.479869,37.692686],[-83.479986,37.692761],[-83.480046,37.69279],[-83.480173,37.692833],[-83.480306,37.692864],[-83.480595,37.692903],[-83.480962,37.692946],[-83.481176,37.692978],[-83.481309,37.693006],[-83.48163,37.693087],[-83.481765,37.693106],[-83.481847,37.69311],[-83.481905,37.693109],[-83.482122,37.693089],[-83.482266,37.693084],[-83.482948,37.693093],[-83.483243,37.693117],[-83.48375,37.693183],[-83.483989,37.693198],[-83.484767,37.69323],[-83.48494,37.693248],[-83.485028,37.693252],[-83.48519,37.693248],[-83.485267,37.693234],[-83.485606,37.69314],[-83.485738,37.69312],[-83.486213,37.693103],[-83.486419,37.693081],[-83.486555,37.693055],[-83.486806,37.692995],[-83.486866,37.692986],[-83.486927,37.692982],[-83.487058,37.692992],[-83.487228,37.693004],[-83.487401,37.693003],[-83.487502,37.693007],[-83.487647,37.693004],[-83.487768,37.693011],[-83.487801,37.693004],[-83.487827,37.692982]]}},{"type":"Feature","properties":{"osm_id":16382849,"highway":"residential","name":"Becky Patton Road","alt_name":null,"official_name":null,"surface":null,"tracktype":null,"service":null,"access":null,"motor_vehicle":null,"foot":null,"tiger_reviewed":"no","rrgh_part":0,"rrgh_tile_part":0},"geometry":{"type":"LineString","coordinates":[[-83.469949,37.678624],[-83.470009,37.678601],[-83.470038,37.678596],[-83.470111,37.678594],[-83.470194,37.678587],[-83.470262,37.678577],[-83.470323,37.678563],[-83.470406,37.678532],[-83.470479,37.678491],[-83.470622,37.678379],[-83.470661,37.678352],[-83.470743,37.678306],[-83.470833,37.678271],[-83.47093,37.678248],[-83.471083,37.678227],[-83.471193,37.678223],[-83.471304,37.678233],[-83.471415,37.678258],[-83.471587,37.678307],[-83.471713,37.678333],[-83.471847,37.67835],[-83.471979,37.678358],[-83.472042,37.678359],[-83.472232,37.678347],[-83.472419,37.678324],[-83.472661,37.67831],[-83.472853,37.67831],[-83.472991,37.678319],[-83.473483,37.678384],[-83.474126,37.678431],[-83.47431,37.678418],[-83.474359,37.678408],[-83.474514,37.678364],[-83.474622,37.678351],[-83.474833,37.678345],[-83.475089,37.67835],[-83.475214,37.678345],[-83.475248,37.678341],[-83.475278,37.678333],[-83.475301,37.67832]]}},{"type":"Feature","properties":{"osm_id":16381403,"highway":"residential","name":null,"alt_name":null,"official_name":null,"surface":null,"tracktype":null,"service":null,"access":null,"motor_vehicle":null,"foot":null,"tiger_reviewed":"no","rrgh_part":0,"rrgh_tile_part":0},"geometry":{"type":"LineString","coordinates":[[-83.475122,37.68486],[-83.475864,37.684817],[-83.47618,37.684744],[-83.476265,37.684698],[-83.4766,37.684496],[-83.476977,37.684367],[-83.477631,37.684408]]}},{"type":"Feature","properties":{"osm_id":1525655470,"highway":"track","name":null,"alt_name":null,"official_name":null,"surface":null,"tracktype":null,"service":null,"access":null,"motor_vehicle":null,"foot":null,"tiger_reviewed":null,"rrgh_part":0,"rrgh_tile_part":0},"geometry":{"type":"LineString","coordinates":[[-83.4972247,37.6870102],[-83.4968289,37.6870536],[-83.496269,37.6870563],[-83.4959549,37.6871651],[-83.4952976,37.6874311]]}},{"type":"Feature","properties":{"osm_id":16382251,"highway":"residential","name":null,"alt_name":null,"official_name":null,"surface":null,"tracktype":null,"service":null,"access":null,"motor_vehicle":null,"foot":null,"tiger_reviewed":"no","rrgh_part":0,"rrgh_tile_part":0},"geometry":{"type":"LineString","coordinates":[[-83.487058,37.692992],[-83.487327,37.693151],[-83.489156,37.693609],[-83.489787,37.694425],[-83.490241,37.69523],[-83.490771,37.695814],[-83.491629,37.696569],[-83.492448,37.696733]]}},{"type":"Feature","properties":{"osm_id":16381407,"highway":"residential","name":null,"alt_name":null,"official_name":null,"surface":null,"tracktype":null,"service":null,"access":null,"motor_vehicle":null,"foot":null,"tiger_reviewed":"no","rrgh_part":0,"rrgh_tile_part":0},"geometry":{"type":"LineString","coordinates":[[-83.477253,37.691597],[-83.477108,37.692564],[-83.477036,37.693327],[-83.476872,37.693597],[-83.47668,37.694082],[-83.476202,37.69478],[-83.475792,37.695345],[-83.47536,37.695892],[-83.475301,37.696123]]}},{"type":"Feature","properties":{"osm_id":16384059,"highway":"residential","name":"Chambers Fork Road","alt_name":null,"official_name":null,"surface":"gravel","tracktype":null,"service":null,"access":null,"motor_vehicle":null,"foot":null,"tiger_reviewed":"no","rrgh_part":0,"rrgh_tile_part":0},"geometry":{"type":"LineString","coordinates":[[-83.480454,37.7055377],[-83.4803157,37.7058015],[-83.4800921,37.7063868],[-83.4800311,37.7067953],[-83.4801612,37.7074097],[-83.4801043,37.7078246],[-83.4800444,37.7081744],[-83.4800596,37.7082781],[-83.4801531,37.708529],[-83.4801938,37.7088538],[-83.4801775,37.7092976],[-83.4801734,37.709928],[-83.4802182,37.7104555],[-83.480479,37.711479],[-83.480508,37.71161],[-83.480517,37.711749],[-83.48057,37.711972],[-83.4806046,37.7120836],[-83.480652,37.712239],[-83.480672,37.712347],[-83.480702,37.712645],[-83.480754,37.71296],[-83.480791,37.713185],[-83.480817,37.71325],[-83.480945,37.713492],[-83.481101,37.713767],[-83.481166,37.713919],[-83.481174,37.713967],[-83.481173,37.714013],[-83.48116,37.714056],[-83.481137,37.714098],[-83.48107,37.71418],[-83.48101,37.714302],[-83.480929,37.714393],[-83.480895,37.714444],[-83.480853,37.71453],[-83.480841,37.714582],[-83.480842,37.714628],[-83.480855,37.714677],[-83.480893,37.714722],[-83.480955,37.714743],[-83.481011,37.714748],[-83.48107,37.714745],[-83.481481,37.714658],[-83.481534,37.714657],[-83.481702,37.714711],[-83.481866,37.714789],[-83.481979,37.714858],[-83.482031,37.714897],[-83.482074,37.714938],[-83.482113,37.714983],[-83.482145,37.715032],[-83.482203,37.715181],[-83.482274,37.715485],[-83.482362,37.715784],[-83.482433,37.71598],[-83.4825857,37.716334]]}},{"type":"Feature","properties":{"osm_id":16383611,"highway":"residential","name":"Patton Branch Road","alt_name":null,"official_name":null,"surface":null,"tracktype":null,"service":null,"access":null,"motor_vehicle":null,"foot":null,"tiger_reviewed":"no","rrgh_part":0,"rrgh_tile_part":0},"geometry":{"type":"LineString","coordinates":[[-83.492164,37.711121],[-83.492183,37.711076],[-83.49219,37.711005],[-83.492171,37.710919],[-83.49212,37.710832],[-83.492077,37.710786],[-83.491885,37.710631],[-83.491764,37.710514],[-83.491622,37.710347],[-83.491548,37.710228],[-83.491449,37.710126],[-83.491284,37.709578],[-83.491173,37.708547],[-83.491134,37.708125],[-83.491164,37.707117],[-83.491198,37.706851],[-83.491298,37.706667],[-83.4913,37.706643],[-83.491293,37.706625]]}},{"type":"Feature","properties":{"osm_id":16382832,"highway":"residential","name":"B Patton Road","alt_name":null,"official_name":null,"surface":null,"tracktype":null,"service":null,"access":null,"motor_vehicle":null,"foot":null,"tiger_reviewed":"no","rrgh_part":0,"rrgh_tile_part":0},"geometry":{"type":"LineString","coordinates":[[-83.503269,37.717067],[-83.503259,37.717026],[-83.503269,37.717005],[-83.503287,37.716992],[-83.503373,37.716974],[-83.503671,37.716867],[-83.504125,37.716659],[-83.5044,37.716541],[-83.50461,37.716436],[-83.504669,37.716392],[-83.504913,37.716161],[-83.504979,37.716117],[-83.505,37.71610610695188]]}},{"type":"Feature","properties":{"osm_id":16383379,"highway":"residential","name":"Buchanan Fork Road","alt_name":null,"official_name":null,"surface":null,"tracktype":null,"service":null,"access":null,"motor_vehicle":null,"foot":null,"tiger_reviewed":"no","rrgh_part":0,"rrgh_tile_part":0},"geometry":{"type":"LineString","coordinates":[[-83.46787,37.741731],[-83.467673,37.741811],[-83.467551,37.741871],[-83.467458,37.741928],[-83.467369,37.741994],[-83.467186,37.742169],[-83.466988,37.742387],[-83.466939,37.742455],[-83.4668,37.742703],[-83.46676,37.742789],[-83.466692,37.742969],[-83.466593,37.743257],[-83.466485,37.743507],[-83.466403,37.743634],[-83.466271,37.743761],[-83.465928,37.744043],[-83.465776,37.744192],[-83.465477,37.744463],[-83.465304,37.744597],[-83.464995,37.74485],[-83.46489,37.744941],[-83.464703,37.745085],[-83.464453,37.74526],[-83.464408,37.745291],[-83.464314,37.74535],[-83.464157,37.745504],[-83.464014,37.745653],[-83.463857,37.745795],[-83.463774,37.745862],[-83.463681,37.745926],[-83.463578,37.745983],[-83.463463,37.746032],[-83.46321,37.746113],[-83.462278,37.746396],[-83.461958,37.746504],[-83.461346,37.746714],[-83.460627,37.746952],[-83.460373,37.747026],[-83.460303,37.747042],[-83.459437,37.747245],[-83.459177,37.747287],[-83.458936,37.747305],[-83.458723,37.747315],[-83.458123,37.747336],[-83.457802,37.747364],[-83.457636,37.747384],[-83.457456,37.747394],[-83.457178,37.747392],[-83.45693,37.747373],[-83.456788,37.747373],[-83.456649,37.747389],[-83.456262,37.747457],[-83.455611,37.747584],[-83.455421,37.747625],[-83.454146,37.74785],[-83.453578,37.747954],[-83.453487,37.747967],[-83.453215,37.74803],[-83.453108,37.748049],[-83.452573,37.748165],[-83.452426,37.748193],[-83.452206,37.74821],[-83.45211,37.748218],[-83.451952,37.74821],[-83.451833,37.748197],[-83.451478,37.748179],[-83.451392,37.74817],[-83.451149,37.748171],[-83.450617,37.748172],[-83.450455,37.748164],[-83.450383,37.748157],[-83.45031,37.748158],[-83.450134,37.748149],[-83.450077,37.74815],[-83.450029,37.748145],[-83.449729,37.748145],[-83.449505,37.748137],[-83.449407,37.748139],[-83.449309,37.748148],[-83.449235,37.748162],[-83.449157,37.748196],[-83.449013,37.74824],[-83.448868,37.74829],[-83.448409,37.748411],[-83.448237,37.748472],[-83.448105,37.748528],[-83.447972,37.748594],[-83.447686,37.748692],[-83.447553,37.74875],[-83.447353,37.748854],[-83.447295,37.748892],[-83.447152,37.748968],[-83.447072,37.749004],[-83.447006,37.749039],[-83.446925,37.749073],[-83.446858,37.749107],[-83.446555,37.749234],[-83.446414,37.749282],[-83.446275,37.749317],[-83.445918,37.749377],[-83.445776,37.749414],[-83.445577,37.74949],[-83.445518,37.749522],[-83.445302,37.749663],[-83.44512,37.749776],[-83.445069,37.749816],[-83.44477985714286,37.75]]}},{"type":"Feature","properties":{"osm_id":16382197,"highway":"service","name":null,"alt_name":null,"official_name":null,"surface":null,"tracktype":null,"service":null,"access":null,"motor_vehicle":null,"foot":null,"tiger_reviewed":null,"rrgh_part":0,"rrgh_tile_part":0},"geometry":{"type":"LineString","coordinates":[[-83.4997847,37.7186302],[-83.4998786,37.7187252],[-83.5001055,37.7189129],[-83.5004724,37.7192371]]}},{"type":"Feature","properties":{"osm_id":16381396,"highway":"service","name":null,"alt_name":null,"official_name":null,"surface":null,"tracktype":null,"service":null,"access":"private","motor_vehicle":null,"foot":null,"tiger_reviewed":"no","rrgh_part":0,"rrgh_tile_part":0},"geometry":{"type":"LineString","coordinates":[[-83.492917,37.721584],[-83.492961,37.721641],[-83.493047,37.721718],[-83.493295,37.721899],[-83.493362,37.721939]]}},{"type":"Feature","properties":{"osm_id":16381973,"highway":"service","name":null,"alt_name":null,"official_name":null,"surface":null,"tracktype":null,"service":null,"access":null,"motor_vehicle":null,"foot":null,"tiger_reviewed":null,"rrgh_part":0,"rrgh_tile_part":0},"geometry":{"type":"LineString","coordinates":[[-83.4973491,37.719937],[-83.4977021,37.7206954]]}},{"type":"Feature","properties":{"osm_id":16382347,"highway":"residential","name":null,"alt_name":null,"official_name":null,"surface":null,"tracktype":null,"service":null,"access":null,"motor_vehicle":null,"foot":null,"tiger_reviewed":"no","rrgh_part":0,"rrgh_tile_part":0},"geometry":{"type":"LineString","coordinates":[[-83.505,37.7302176869871],[-83.504795,37.730154],[-83.50439,37.7301],[-83.504015,37.730036],[-83.503463,37.729817],[-83.502633,37.729795],[-83.501635,37.729892]]}},{"type":"Feature","properties":{"osm_id":16382773,"highway":"residential","name":"Left Fork Road","alt_name":null,"official_name":null,"surface":null,"tracktype":null,"service":null,"access":null,"motor_vehicle":null,"foot":null,"tiger_reviewed":"no","rrgh_part":0,"rrgh_tile_part":0},"geometry":{"type":"LineString","coordinates":[[-83.505,37.736078846153845],[-83.504937,37.73611],[-83.504795,37.736195],[-83.504749,37.736228],[-83.504519,37.736359],[-83.504427,37.736401],[-83.504333,37.736437],[-83.504013,37.736531],[-83.503755,37.736617],[-83.503622,37.736668],[-83.503536,37.736692],[-83.503449,37.736695],[-83.50336,37.736686],[-83.503313,37.736676],[-83.503106,37.73665],[-83.502646,37.736621],[-83.502382,37.736615],[-83.50218,37.736588],[-83.502007,37.736552],[-83.501816,37.736529],[-83.501491,37.736502],[-83.501242,37.736473],[-83.500846,37.736428],[-83.500289,37.736357],[-83.500198,37.736341],[-83.500171,37.736344],[-83.499942,37.736334],[-83.499838,37.736322],[-83.499428,37.736205],[-83.499134,37.736083],[-83.499062,37.736071],[-83.498942,37.736066],[-83.498822,37.736078],[-83.498658,37.736088],[-83.498582,37.736101],[-83.498444,37.736093],[-83.49816,37.736016],[-83.498097,37.736006],[-83.498059,37.736007],[-83.497987,37.736018],[-83.497912,37.736041],[-83.497795,37.736124],[-83.497718,37.736216],[-83.497614,37.736358],[-83.497555,37.736422],[-83.497484,37.736481],[-83.497443,37.736506],[-83.497398,37.736527],[-83.497349,37.736542],[-83.497297,37.73655],[-83.497188,37.736552],[-83.496937,37.736536],[-83.496853,37.736535]]}},{"type":"Feature","properties":{"osm_id":16382091,"highway":"residential","name":null,"alt_name":null,"official_name":null,"surface":null,"tracktype":null,"service":null,"access":null,"motor_vehicle":null,"foot":null,"tiger_reviewed":"no","rrgh_part":0,"rrgh_tile_part":0},"geometry":{"type":"LineString","coordinates":[[-83.501242,37.736473],[-83.501192,37.73653],[-83.500943,37.736812],[-83.500534,37.737193],[-83.500334,37.737458]]}},{"type":"Feature","properties":{"osm_id":16382349,"highway":"residential","name":null,"alt_name":null,"official_name":null,"surface":null,"tracktype":null,"service":null,"access":null,"motor_vehicle":null,"foot":null,"tiger_reviewed":"no","rrgh_part":0,"rrgh_tile_part":0},"geometry":{"type":"LineString","coordinates":[[-83.505,37.73274449411765],[-83.502759,37.732765],[-83.502468,37.732941],[-83.502198,37.733216],[-83.50194,37.733634]]}},{"type":"Feature","properties":{"osm_id":16382638,"highway":"residential","name":"Left Fork Trace Spur","alt_name":null,"official_name":null,"surface":null,"tracktype":null,"service":null,"access":null,"motor_vehicle":null,"foot":null,"tiger_reviewed":"no","rrgh_part":0,"rrgh_tile_part":0},"geometry":{"type":"LineString","coordinates":[[-83.503536,37.736692],[-83.505,37.736673861946905]]}},{"type":"Feature","properties":{"osm_id":1344654300,"highway":"residential","name":"Chambers Fork Road","alt_name":null,"official_name":null,"surface":"asphalt","tracktype":null,"service":null,"access":null,"motor_vehicle":null,"foot":null,"tiger_reviewed":"no","rrgh_part":0,"rrgh_tile_part":0},"geometry":{"type":"LineString","coordinates":[[-83.4825857,37.716334],[-83.482607,37.716393],[-83.482664,37.716587]]}},{"type":"Feature","properties":{"osm_id":16382047,"highway":"residential","name":null,"alt_name":null,"official_name":null,"surface":null,"tracktype":null,"service":null,"access":null,"motor_vehicle":null,"foot":null,"tiger_reviewed":"no","rrgh_part":0,"rrgh_tile_part":0},"geometry":{"type":"LineString","coordinates":[[-83.481057,37.7221],[-83.480659,37.722083],[-83.479166,37.721343],[-83.478733,37.720983],[-83.478482,37.720733]]}},{"type":"Feature","properties":{"osm_id":16384056,"highway":"residential","name":"Baptist Fork Road","alt_name":null,"official_name":null,"surface":null,"tracktype":null,"service":null,"access":null,"motor_vehicle":null,"foot":null,"tiger_reviewed":"no","rrgh_part":0,"rrgh_tile_part":0},"geometry":{"type":"LineString","coordinates":[[-83.482664,37.716587],[-83.482378,37.716799],[-83.482215,37.716915],[-83.48193,37.717145],[-83.481838,37.717251],[-83.48178,37.717363],[-83.48174,37.717459],[-83.481731,37.717551],[-83.481734,37.717683],[-83.481745,37.717826],[-83.481765,37.717938],[-83.481807,37.718126],[-83.48189,37.718453],[-83.481919,37.718597],[-83.48197,37.718931],[-83.481993,37.719224],[-83.481987,37.719431],[-83.481972,37.719622],[-83.481931,37.719982],[-83.481873,37.720335],[-83.481817,37.720639],[-83.481747,37.720868],[-83.481696,37.721004],[-83.481644,37.721089],[-83.481599,37.721151],[-83.481549,37.721209],[-83.481493,37.721263],[-83.481413,37.721329],[-83.4813,37.721412],[-83.481055,37.721567],[-83.481006,37.721608],[-83.480972,37.721655],[-83.480954,37.72171],[-83.480949,37.72177],[-83.480957,37.721835],[-83.481001,37.721974],[-83.481057,37.7221],[-83.481101,37.722199],[-83.48114,37.722271],[-83.481241,37.722494],[-83.481292,37.722636],[-83.481309,37.722708],[-83.481328,37.722853],[-83.481332,37.722987],[-83.481318,37.723059],[-83.481296,37.723119],[-83.481216,37.723242],[-83.481115,37.723349],[-83.481058,37.723396],[-83.48094,37.723479],[-83.480895,37.723526],[-83.480869,37.723582],[-83.480875,37.723642],[-83.480914,37.723699],[-83.480978,37.723748],[-83.48124,37.72388],[-83.481318,37.723936],[-83.481383,37.724004],[-83.481441,37.724077],[-83.481487,37.724154],[-83.481568,37.724307],[-83.481783,37.724673],[-83.481831,37.724745],[-83.481912,37.724902],[-83.482284,37.725709],[-83.482315,37.725792],[-83.482348,37.725865],[-83.482355,37.725913],[-83.482345,37.725978],[-83.482326,37.726035],[-83.482255,37.726173],[-83.482013,37.726559],[-83.481954,37.726687],[-83.481853,37.726865],[-83.481758,37.727078],[-83.481719,37.727273],[-83.481717,37.727374],[-83.481727,37.72748],[-83.48174,37.727535],[-83.481876,37.727904],[-83.481917,37.728048],[-83.481933,37.728124],[-83.481985,37.728502],[-83.482043,37.72872],[-83.4820753,37.7288129],[-83.4821287,37.7288932]]}},{"type":"Feature","properties":{"osm_id":16382118,"highway":"service","name":null,"alt_name":null,"official_name":null,"surface":null,"tracktype":null,"service":null,"access":null,"motor_vehicle":null,"foot":null,"tiger_reviewed":null,"rrgh_part":0,"rrgh_tile_part":0},"geometry":{"type":"LineString","coordinates":[[-83.4903001,37.7236472],[-83.4903865,37.7236988],[-83.4904579,37.7237189],[-83.4905787,37.7237344],[-83.4906933,37.723738],[-83.4907813,37.7237181],[-83.4908486,37.7236795],[-83.4911163,37.7234021]]}},{"type":"Feature","properties":{"osm_id":16382050,"highway":"residential","name":null,"alt_name":null,"official_name":null,"surface":null,"tracktype":null,"service":null,"access":null,"motor_vehicle":null,"foot":null,"tiger_reviewed":"no","rrgh_part":0,"rrgh_tile_part":0},"geometry":{"type":"LineString","coordinates":[[-83.481413,37.721329],[-83.481658,37.721332],[-83.482192,37.720923],[-83.482306,37.720958],[-83.482536,37.7209],[-83.482996,37.72115],[-83.4834,37.721204]]}},{"type":"Feature","properties":{"osm_id":16382191,"highway":"residential","name":null,"alt_name":null,"official_name":null,"surface":null,"tracktype":null,"service":null,"access":null,"motor_vehicle":null,"foot":null,"tiger_reviewed":"no","rrgh_part":0,"rrgh_tile_part":0},"geometry":{"type":"LineString","coordinates":[[-83.482435,37.737599],[-83.482593,37.737911],[-83.482714,37.738177],[-83.482759,37.738425],[-83.482847,37.738602],[-83.482965,37.73892],[-83.4828379,37.7391179]]}},{"type":"Feature","properties":{"osm_id":16382194,"highway":"service","name":null,"alt_name":null,"official_name":null,"surface":null,"tracktype":null,"service":null,"access":null,"motor_vehicle":null,"foot":null,"tiger_reviewed":null,"rrgh_part":0,"rrgh_tile_part":0},"geometry":{"type":"LineString","coordinates":[[-83.481267,37.732559],[-83.4813518,37.732472],[-83.4814636,37.7323028],[-83.4815096,37.7322708],[-83.4815724,37.7322613],[-83.4816303,37.7322834],[-83.4817206,37.7323441],[-83.4818515,37.7324488],[-83.4819771,37.7325269],[-83.4823647,37.7327513]]}},{"type":"Feature","properties":{"osm_id":16382457,"highway":"residential","name":null,"alt_name":null,"official_name":null,"surface":null,"tracktype":null,"service":null,"access":null,"motor_vehicle":null,"foot":null,"tiger_reviewed":"no","rrgh_part":0,"rrgh_tile_part":0},"geometry":{"type":"LineString","coordinates":[[-83.4838403,37.7287242],[-83.484392,37.729104],[-83.487922,37.729735],[-83.488491,37.729914],[-83.48923,37.730044],[-83.491762,37.730867],[-83.492159,37.731161],[-83.492466,37.731793],[-83.492456,37.732427],[-83.492186,37.733266],[-83.492351,37.733764],[-83.492521,37.733853]]}},{"type":"Feature","properties":{"osm_id":16384279,"highway":"residential","name":"Dunn Road","alt_name":null,"official_name":null,"surface":null,"tracktype":null,"service":null,"access":null,"motor_vehicle":null,"foot":null,"tiger_reviewed":"no","rrgh_part":0,"rrgh_tile_part":0},"geometry":{"type":"LineString","coordinates":[[-83.478945,37.73729],[-83.479061,37.737311],[-83.479169,37.737317],[-83.479241,37.737304],[-83.47931,37.737278],[-83.47934,37.737258],[-83.479424,37.737187],[-83.479556,37.737095],[-83.479629,37.737053],[-83.479757,37.737021],[-83.479948,37.736999],[-83.480587,37.736984],[-83.480743,37.736987],[-83.480933,37.736999],[-83.481203,37.737077],[-83.481363,37.73713],[-83.481585,37.737194],[-83.481741,37.737255],[-83.482001,37.737393],[-83.4822,37.737507],[-83.482331,37.737569],[-83.482435,37.737599],[-83.482697,37.737625],[-83.48286,37.737633],[-83.483389,37.737638],[-83.483488,37.737651],[-83.483578,37.737672],[-83.483674,37.737705],[-83.483842,37.73779],[-83.483945,37.737855],[-83.484038,37.737924],[-83.484166,37.737981],[-83.484204,37.737987],[-83.48426,37.737985],[-83.484296,37.737975]]}},{"type":"Feature","properties":{"osm_id":16384146,"highway":"residential","name":"R Patton Road","alt_name":null,"official_name":null,"surface":null,"tracktype":null,"service":null,"access":null,"motor_vehicle":null,"foot":null,"tiger_reviewed":"no","rrgh_part":0,"rrgh_tile_part":0},"geometry":{"type":"LineString","coordinates":[[-83.473807,37.726241],[-83.473936,37.726285],[-83.474359,37.726482],[-83.474617,37.726621],[-83.474691,37.726677],[-83.47479,37.726771],[-83.474933,37.726932],[-83.47512,37.727087],[-83.475452,37.727338],[-83.47566,37.727517],[-83.475892,37.727734],[-83.476087,37.727861],[-83.476262,37.72796],[-83.476347,37.72803],[-83.476399,37.728097],[-83.476422,37.728181],[-83.476455,37.728262],[-83.476488,37.728384],[-83.476529,37.728467],[-83.476574,37.72854],[-83.476648,37.728602],[-83.476714,37.728669],[-83.476763,37.728736],[-83.476817,37.728872],[-83.476875,37.728977],[-83.477173,37.729296],[-83.477255,37.729396],[-83.477361,37.72954],[-83.477439,37.729659],[-83.477471,37.729794],[-83.477569,37.729949],[-83.477617,37.729983],[-83.477651,37.730018],[-83.47768,37.730076],[-83.477708,37.730153],[-83.477729,37.73023],[-83.477728,37.730288],[-83.477738,37.73035],[-83.477789,37.730452],[-83.477903,37.73066],[-83.477962,37.730736],[-83.478073,37.73085],[-83.478356,37.731056],[-83.478475,37.731126],[-83.47854,37.731146],[-83.478606,37.731161],[-83.47866,37.731162],[-83.478791,37.731206],[-83.478842,37.731228],[-83.478932,37.731275],[-83.4791314,37.7314052]]}},{"type":"Feature","properties":{"osm_id":16382104,"highway":"service","name":null,"alt_name":null,"official_name":null,"surface":null,"tracktype":null,"service":null,"access":"private","motor_vehicle":null,"foot":null,"tiger_reviewed":"no","rrgh_part":0,"rrgh_tile_part":0},"geometry":{"type":"LineString","coordinates":[[-83.497017,37.749996],[-83.49702546896552,37.75]]}},{"type":"Feature","properties":{"osm_id":16384219,"highway":"residential","name":null,"alt_name":null,"official_name":null,"surface":null,"tracktype":null,"service":null,"access":null,"motor_vehicle":null,"foot":null,"tiger_reviewed":"no","rrgh_part":0,"rrgh_tile_part":0},"geometry":{"type":"LineString","coordinates":[[-83.474858,37.742492],[-83.4749,37.742532],[-83.476113,37.743552],[-83.476937,37.744225],[-83.477159,37.744429],[-83.47726,37.744532],[-83.477374,37.744624],[-83.47742,37.744674],[-83.477526,37.744766],[-83.477584,37.74481],[-83.477885,37.745096],[-83.4780542,37.7452338],[-83.4783373,37.7454305],[-83.4785776,37.7456195],[-83.4790025,37.7459771],[-83.4801658,37.7469435],[-83.4804165,37.7471427],[-83.4807061,37.7473278],[-83.4809729,37.7475051],[-83.4812301,37.7477054],[-83.4819071,37.7482758],[-83.4819665,37.7482996],[-83.4820289,37.7482976],[-83.4820811,37.7482851]]}},{"type":"Feature","properties":{"osm_id":16383878,"highway":"service","name":"Sugar Orchard Cemetery Road","alt_name":null,"official_name":null,"surface":null,"tracktype":null,"service":null,"access":null,"motor_vehicle":null,"foot":null,"tiger_reviewed":null,"rrgh_part":0,"rrgh_tile_part":0},"geometry":{"type":"LineString","coordinates":[[-83.4737207,37.743537],[-83.474034,37.743853],[-83.474201,37.743987],[-83.474289,37.744037],[-83.474352,37.744045],[-83.474437,37.744036],[-83.474465,37.744026],[-83.474545,37.74398],[-83.474592,37.743942],[-83.474645,37.743873],[-83.474724,37.743728],[-83.474761,37.74363],[-83.474768,37.743502],[-83.474753,37.743454],[-83.474697,37.743365]]}},{"type":"Feature","properties":{"osm_id":16382113,"highway":"track","name":null,"alt_name":null,"official_name":null,"surface":null,"tracktype":null,"service":null,"access":null,"motor_vehicle":null,"foot":null,"tiger_reviewed":"no","rrgh_part":0,"rrgh_tile_part":0},"geometry":{"type":"LineString","coordinates":[[-83.453906,37.71237],[-83.453544,37.711988],[-83.453081,37.711334],[-83.452644,37.710986],[-83.450625,37.710485],[-83.449452,37.709962],[-83.44817,37.709134],[-83.446859,37.708764],[-83.445733,37.707974],[-83.445065,37.707951],[-83.444518,37.707806],[-83.443992,37.707613],[-83.443232,37.707128],[-83.442819,37.706572],[-83.442475,37.705823],[-83.442243,37.70529],[-83.442101,37.705056],[-83.441827,37.705096],[-83.441414,37.705354],[-83.441079,37.70549],[-83.440603,37.705],[-83.440452,37.704677],[-83.44018,37.704306],[-83.439876,37.703854],[-83.439847,37.703379],[-83.439918,37.703153],[-83.440061,37.702976],[-83.44007,37.702621],[-83.440102,37.702315],[-83.440285,37.702106],[-83.441279,37.701695],[-83.441391,37.701477],[-83.44123,37.701003],[-83.440877,37.700454],[-83.440573,37.69993],[-83.440716,37.699494],[-83.440971,37.699131],[-83.441406,37.698891],[-83.442016,37.698471],[-83.443126,37.697607],[-83.443548,37.697305],[-83.443711,37.696942],[-83.444097,37.696805],[-83.44466,37.696867],[-83.445489,37.696408],[-83.445857,37.696242],[-83.44747,37.696187],[-83.449691,37.69585],[-83.45017,37.69565],[-83.450446,37.69539],[-83.450802,37.694448],[-83.450802,37.69411],[-83.451248,37.693256],[-83.452206,37.691762],[-83.452385,37.691229],[-83.452424,37.690555]]}},{"type":"Feature","properties":{"osm_id":16385024,"highway":"residential","name":"Rockhouse Fork Road","alt_name":null,"official_name":null,"surface":null,"tracktype":null,"service":null,"access":null,"motor_vehicle":null,"foot":null,"tiger_reviewed":"no","rrgh_part":0,"rrgh_tile_part":0},"geometry":{"type":"LineString","coordinates":[[-83.42,37.70581691719745],[-83.42026,37.705908],[-83.420347,37.705947],[-83.420445,37.706008],[-83.420526,37.706053],[-83.421069,37.706284],[-83.42136,37.706416],[-83.421526,37.706485],[-83.421669,37.706568],[-83.421797,37.706659],[-83.421977,37.70681],[-83.422049,37.706857],[-83.422119,37.706895],[-83.422139,37.706906],[-83.422251,37.706932],[-83.422317,37.706941],[-83.422372,37.706948],[-83.422493,37.70695],[-83.422731,37.706942],[-83.422845,37.706943],[-83.422953,37.706958],[-83.423059,37.706985],[-83.423257,37.707072],[-83.423832,37.707364],[-83.424021,37.707446],[-83.424117,37.707483],[-83.424213,37.707514],[-83.424313,37.70754],[-83.424708,37.707625],[-83.424828,37.707659],[-83.424941,37.707711],[-83.425041,37.707779],[-83.425109,37.707835],[-83.425169,37.707895],[-83.425224,37.707964],[-83.425507,37.708262],[-83.425827,37.708544],[-83.425872,37.708577],[-83.425956,37.708622],[-83.42606,37.708654]]}},{"type":"Feature","properties":{"osm_id":16383236,"highway":"residential","name":"Terrill Road","alt_name":null,"official_name":null,"surface":null,"tracktype":null,"service":null,"access":null,"motor_vehicle":null,"foot":null,"tiger_reviewed":"no","rrgh_part":0,"rrgh_tile_part":0},"geometry":{"type":"LineString","coordinates":[[-83.464173,37.681377],[-83.463966,37.681451],[-83.463768,37.681502],[-83.463297,37.681608],[-83.463113,37.681635],[-83.462345,37.681694],[-83.462152,37.681715],[-83.462058,37.68173],[-83.461963,37.681751],[-83.461869,37.681778],[-83.461779,37.681811],[-83.461692,37.681849],[-83.461522,37.681942],[-83.461442,37.681993],[-83.461373,37.682049],[-83.461317,37.682113],[-83.461221,37.682257],[-83.461167,37.68233],[-83.461105,37.6824],[-83.461032,37.682462],[-83.460948,37.682512],[-83.460859,37.68255],[-83.460764,37.68257],[-83.460576,37.682586],[-83.460488,37.682605],[-83.4604,37.682633],[-83.460217,37.682707],[-83.460116,37.682742],[-83.459693,37.68287],[-83.459486,37.68294],[-83.459388,37.682979],[-83.459294,37.683023],[-83.459206,37.683078],[-83.459025,37.683171],[-83.458941,37.68321],[-83.458859,37.683242],[-83.458777,37.683258],[-83.458538,37.683269],[-83.458463,37.683281],[-83.458387,37.683298],[-83.458144,37.683384],[-83.457879,37.683491],[-83.457635,37.683609],[-83.456981,37.683975],[-83.456559,37.684163],[-83.456458,37.684213],[-83.456328,37.684297],[-83.456239,37.68437],[-83.456096,37.684513],[-83.455778,37.684851],[-83.455663,37.684957],[-83.455598,37.685004],[-83.455527,37.685042],[-83.455451,37.685073],[-83.455167,37.685165],[-83.455004,37.685217],[-83.454755,37.685303],[-83.454165,37.685492],[-83.453987,37.685557],[-83.453815,37.685633],[-83.453649,37.685721],[-83.453571,37.685771],[-83.4532,37.68606],[-83.45298,37.686222],[-83.452829,37.686304],[-83.452675,37.686382],[-83.452605,37.686427],[-83.452546,37.686475],[-83.452498,37.686529],[-83.452415,37.686649],[-83.45235,37.686768]]}},{"type":"Feature","properties":{"osm_id":16384430,"highway":"residential","name":"County Road 1159","alt_name":null,"official_name":null,"surface":null,"tracktype":null,"service":null,"access":null,"motor_vehicle":null,"foot":null,"tiger_reviewed":"no","rrgh_part":0,"rrgh_tile_part":0},"geometry":{"type":"LineString","coordinates":[[-83.455167,37.685165],[-83.455183,37.685197],[-83.45519,37.685285],[-83.455206,37.685723],[-83.455201,37.685975],[-83.455204,37.686113],[-83.455223,37.686378],[-83.455242,37.686944],[-83.45525,37.687067],[-83.455242,37.687207],[-83.455207,37.68739],[-83.455206,37.687467],[-83.455306,37.687914],[-83.455324,37.68812],[-83.455316,37.688408],[-83.455283,37.688673],[-83.455261,37.688737],[-83.455234,37.688785],[-83.455191,37.688833],[-83.455131,37.688878],[-83.455057,37.688919],[-83.454855,37.688996],[-83.454763,37.68902],[-83.454666,37.689033],[-83.454526,37.689043],[-83.454402,37.689047],[-83.454359,37.68906],[-83.45434,37.689077],[-83.454336,37.6891]]}},{"type":"Feature","properties":{"osm_id":16383204,"highway":"residential","name":"Terrill Fork Road","alt_name":null,"official_name":null,"surface":null,"tracktype":null,"service":null,"access":null,"motor_vehicle":null,"foot":null,"tiger_reviewed":"no","rrgh_part":0,"rrgh_tile_part":0},"geometry":{"type":"LineString","coordinates":[[-83.442548,37.683688],[-83.442543,37.683716],[-83.442548,37.683783],[-83.442588,37.683907],[-83.442665,37.684069],[-83.442729,37.684191],[-83.442825,37.684317],[-83.443036,37.684565],[-83.443095,37.684653],[-83.443173,37.684792],[-83.443193,37.684839],[-83.4433,37.685034],[-83.44342,37.685214],[-83.443605,37.685462],[-83.443707,37.685567],[-83.444152,37.685827],[-83.44419,37.685853],[-83.444247,37.685902],[-83.444274,37.685932],[-83.444296,37.685966],[-83.444325,37.686042],[-83.444339,37.686122],[-83.444338,37.686325],[-83.444373,37.686435],[-83.444373,37.686454],[-83.444393,37.686495],[-83.444439,37.686554],[-83.444548,37.68665],[-83.444577,37.686682],[-83.444599,37.686714],[-83.444624,37.686778],[-83.444646,37.686888],[-83.444676,37.686961],[-83.444697,37.686992],[-83.444743,37.687037],[-83.444803,37.687078],[-83.444893,37.687121],[-83.444989,37.68715]]}},{"type":"Feature","properties":{"osm_id":16382779,"highway":"residential","name":"Bufford-Hollon Road","alt_name":null,"official_name":null,"surface":null,"tracktype":null,"service":null,"access":null,"motor_vehicle":null,"foot":null,"tiger_reviewed":"no","rrgh_part":0,"rrgh_tile_part":0},"geometry":{"type":"LineString","coordinates":[[-83.464294,37.697073],[-83.464219,37.697056],[-83.464122,37.697024],[-83.464054,37.696992],[-83.463984,37.696949],[-83.463823,37.696815],[-83.463755,37.696772],[-83.463718,37.696758],[-83.463677,37.696753],[-83.463638,37.696757],[-83.46357,37.696777],[-83.463302,37.696906],[-83.463043,37.697002],[-83.462942,37.697046],[-83.462794,37.697126],[-83.462465,37.697325],[-83.462357,37.697382],[-83.462255,37.697447],[-83.462161,37.697513],[-83.462094,37.697582],[-83.462024,37.697636],[-83.461889,37.697692],[-83.461784,37.697708],[-83.461563,37.697728],[-83.461438,37.697749],[-83.46052,37.697959],[-83.460346,37.698004],[-83.459925,37.698142],[-83.459725,37.698214],[-83.459459,37.698303],[-83.459419,37.698324],[-83.459293,37.698427],[-83.459188,37.698529],[-83.459048,37.698683],[-83.458654,37.699189],[-83.458605,37.699265],[-83.458549,37.699391],[-83.4585,37.699556],[-83.458481,37.69969],[-83.458449,37.700066],[-83.458414,37.700367],[-83.458383,37.700554],[-83.458362,37.700819],[-83.458359,37.701055],[-83.458355,37.701099],[-83.458358,37.701185],[-83.458344,37.701319],[-83.458355,37.701442],[-83.458375,37.701548]]}},{"type":"Feature","properties":{"osm_id":16384205,"highway":"residential","name":"Terrell Fork Road","alt_name":null,"official_name":null,"surface":"gravel","tracktype":null,"service":null,"access":null,"motor_vehicle":null,"foot":null,"tiger_reviewed":"no","rrgh_part":0,"rrgh_tile_part":0},"geometry":{"type":"LineString","coordinates":[[-83.45235,37.686768],[-83.452298,37.686885],[-83.452159,37.687081],[-83.452006,37.687278],[-83.451982,37.687315],[-83.451942,37.687399],[-83.451927,37.687444],[-83.451919,37.687496],[-83.451906,37.687541],[-83.451877,37.687856],[-83.451882,37.68807],[-83.451898,37.688239],[-83.451917,37.688357],[-83.451951,37.688474],[-83.451992,37.688587],[-83.452046,37.688691],[-83.452101,37.688843],[-83.452114,37.688896],[-83.45212,37.688949],[-83.452089,37.689206],[-83.452089,37.689369],[-83.452114,37.689538],[-83.452156,37.689707],[-83.452247,37.689977],[-83.452306,37.690125],[-83.452339,37.690225],[-83.452354,37.690316],[-83.45239,37.690412],[-83.452424,37.690555]]}},{"type":"Feature","properties":{"osm_id":16383211,"highway":"residential","name":"Terrill Fork Road","alt_name":null,"official_name":null,"surface":null,"tracktype":null,"service":null,"access":null,"motor_vehicle":null,"foot":null,"tiger_reviewed":"no","rrgh_part":0,"rrgh_tile_part":0},"geometry":{"type":"LineString","coordinates":[[-83.444989,37.68715],[-83.444786,37.687118],[-83.444668,37.687081],[-83.444601,37.687056],[-83.444564,37.687048],[-83.444525,37.687045],[-83.44445,37.687056],[-83.444388,37.687076],[-83.444225,37.687158],[-83.444073,37.687245],[-83.444012,37.687296],[-83.443974,37.687341],[-83.443949,37.687397],[-83.443944,37.687437],[-83.443949,37.68748],[-83.443992,37.687591],[-83.444026,37.687655],[-83.444073,37.687718],[-83.444426,37.688084],[-83.444496,37.688175],[-83.444635,37.688427]]}},{"type":"Feature","properties":{"osm_id":1525656203,"highway":"residential","name":"Terrill Road","alt_name":null,"official_name":null,"surface":"gravel","tracktype":null,"service":null,"access":null,"motor_vehicle":null,"foot":null,"tiger_reviewed":"no","rrgh_part":0,"rrgh_tile_part":0},"geometry":{"type":"LineString","coordinates":[[-83.45235,37.686768],[-83.452078,37.686792],[-83.451205,37.686893],[-83.451086,37.6869],[-83.450778,37.686899],[-83.450651,37.686911],[-83.449857,37.687079],[-83.449734,37.687096],[-83.449671,37.6871],[-83.449607,37.687097],[-83.449542,37.687086],[-83.449481,37.687068],[-83.449424,37.687045],[-83.449277,37.686955],[-83.449223,37.686929],[-83.449165,37.686907],[-83.449103,37.686892],[-83.449035,37.686884],[-83.448964,37.686883],[-83.448888,37.686892],[-83.448812,37.686911],[-83.448611,37.686984],[-83.448545,37.687],[-83.448477,37.687005],[-83.448409,37.686996],[-83.448343,37.686976],[-83.448211,37.686928],[-83.448143,37.686914],[-83.448076,37.686908],[-83.44801,37.68691],[-83.44788,37.686927],[-83.447746,37.686962],[-83.447469,37.687052],[-83.447321,37.687089],[-83.447173,37.687112],[-83.446953,37.687138],[-83.446883,37.687152],[-83.446753,37.687197],[-83.446693,37.687225],[-83.446583,37.687284],[-83.446529,37.687307],[-83.446473,37.68732],[-83.446414,37.687322],[-83.446353,37.687313],[-83.446111,37.687233],[-83.446046,37.687223],[-83.445917,37.687217],[-83.445633,37.687223],[-83.445476,37.687218],[-83.445237,37.687195],[-83.444989,37.68715]]}},{"type":"Feature","properties":{"osm_id":16383690,"highway":"residential","name":"Tackett Road","alt_name":null,"official_name":null,"surface":null,"tracktype":null,"service":null,"access":null,"motor_vehicle":null,"foot":null,"tiger_reviewed":"no","rrgh_part":0,"rrgh_tile_part":0},"geometry":{"type":"LineString","coordinates":[[-83.453906,37.71237],[-83.453971,37.712545],[-83.454014,37.712603],[-83.454176,37.712751],[-83.454231,37.712816],[-83.454317,37.712961],[-83.454339,37.713008],[-83.454355,37.713068],[-83.454385,37.71312],[-83.454427,37.713263],[-83.45447,37.713383],[-83.454513,37.713458],[-83.454543,37.713492],[-83.45457,37.713511],[-83.454727,37.713561],[-83.454784,37.713588],[-83.454838,37.713621],[-83.454887,37.713658],[-83.455007,37.713773],[-83.455101,37.713878],[-83.455258,37.714064],[-83.455305,37.714097],[-83.455376,37.714173],[-83.455416,37.714202],[-83.455553,37.71434],[-83.455818,37.714564],[-83.455959,37.714744],[-83.456023,37.714817],[-83.45626,37.715113],[-83.456311,37.715152],[-83.456359,37.715175]]}},{"type":"Feature","properties":{"osm_id":16383990,"highway":"residential","name":"Jack Patton Road","alt_name":null,"official_name":null,"surface":null,"tracktype":null,"service":null,"access":null,"motor_vehicle":null,"foot":null,"tiger_reviewed":"no","rrgh_part":0,"rrgh_tile_part":0},"geometry":{"type":"LineString","coordinates":[[-83.464441,37.70897],[-83.464542,37.708933],[-83.464642,37.708876],[-83.464742,37.708811],[-83.464793,37.708796],[-83.464835,37.708791],[-83.464891,37.708797],[-83.464979,37.708797],[-83.465104,37.708773],[-83.465148,37.708775],[-83.465267,37.708798],[-83.465414,37.70884],[-83.465524,37.70886],[-83.465622,37.708868],[-83.465995,37.708879]]}},{"type":"Feature","properties":{"osm_id":16384390,"highway":"residential","name":"Hurst Lane","alt_name":null,"official_name":null,"surface":null,"tracktype":null,"service":null,"access":null,"motor_vehicle":null,"foot":null,"tiger_reviewed":"no","rrgh_part":0,"rrgh_tile_part":0},"geometry":{"type":"LineString","coordinates":[[-83.422273,37.70161],[-83.422349,37.701534],[-83.422383,37.701515],[-83.422553,37.701462],[-83.422671,37.701401],[-83.422829,37.701298],[-83.422986,37.701146],[-83.42311,37.701017],[-83.42321,37.700929],[-83.423401,37.70078],[-83.423435,37.700742],[-83.423461,37.700687],[-83.423489,37.700597],[-83.423517,37.700458],[-83.423538,37.700397],[-83.423567,37.700259],[-83.423574,37.700172],[-83.423572,37.700099],[-83.423543,37.699957],[-83.423537,37.699849],[-83.423557,37.699645],[-83.423559,37.699561],[-83.42352,37.699446],[-83.423497,37.699402],[-83.423486,37.699335],[-83.423488,37.699278],[-83.423502,37.699224],[-83.423508,37.699164],[-83.423494,37.699073],[-83.423464,37.698961],[-83.423417,37.698692],[-83.423391,37.69857],[-83.423374,37.698463],[-83.423305,37.69824],[-83.42319,37.697948],[-83.423177,37.697862],[-83.423188,37.697691],[-83.423193,37.697363],[-83.423174,37.69686],[-83.423168,37.696807],[-83.423123,37.696665],[-83.423018,37.696429],[-83.422868,37.696151],[-83.422768,37.695989],[-83.422689,37.695903],[-83.422634,37.695861],[-83.42261,37.695847],[-83.42254,37.695827]]}},{"type":"Feature","properties":{"osm_id":16382490,"highway":"residential","name":null,"alt_name":null,"official_name":null,"surface":null,"tracktype":null,"service":null,"access":null,"motor_vehicle":null,"foot":null,"tiger_reviewed":"no","rrgh_part":0,"rrgh_tile_part":0},"geometry":{"type":"LineString","coordinates":[[-83.4279437,37.7129783],[-83.4281272,37.7129353],[-83.4283126,37.712906],[-83.4286254,37.7128768],[-83.4288274,37.7128501],[-83.429001,37.7128166],[-83.4293243,37.7126955],[-83.429402,37.7126922],[-83.429472,37.7126997],[-83.429537,37.7127264],[-83.4295845,37.7127702],[-83.4296148,37.7128379],[-83.4296604,37.7130571],[-83.429704,37.7132651],[-83.4297296,37.7134202],[-83.4297901,37.713524]]}},{"type":"Feature","properties":{"osm_id":16382478,"highway":"residential","name":null,"alt_name":null,"official_name":null,"surface":null,"tracktype":null,"service":null,"access":null,"motor_vehicle":null,"foot":null,"tiger_reviewed":"no","rrgh_part":0,"rrgh_tile_part":0},"geometry":{"type":"LineString","coordinates":[[-83.422317,37.706941],[-83.421933,37.707377],[-83.421434,37.707987],[-83.420969,37.708366],[-83.420444,37.70877],[-83.42,37.70903957142857]]}},{"type":"Feature","properties":{"osm_id":16385122,"highway":"residential","name":"Edgar Tyra Road","alt_name":null,"official_name":null,"surface":null,"tracktype":null,"service":null,"access":null,"motor_vehicle":null,"foot":null,"tiger_reviewed":"no","rrgh_part":0,"rrgh_tile_part":0},"geometry":{"type":"LineString","coordinates":[[-83.456425,37.720491],[-83.456469,37.720474],[-83.456532,37.720472],[-83.456563,37.720475],[-83.456594,37.720483],[-83.456625,37.720499],[-83.456673,37.720549],[-83.456712,37.720607],[-83.456772,37.720741],[-83.456861,37.721007],[-83.456896,37.721063],[-83.456947,37.721101],[-83.456981,37.721119],[-83.457061,37.721141],[-83.457142,37.721151],[-83.457229,37.721149],[-83.457426,37.721118],[-83.457601,37.721115],[-83.458154,37.721127],[-83.458268,37.721139],[-83.45842,37.721173],[-83.458471,37.72118],[-83.458576,37.721182],[-83.45885,37.721168],[-83.459417,37.721179],[-83.459663,37.721192],[-83.459777,37.721205],[-83.459876,37.721225],[-83.459925,37.72123],[-83.460259,37.721234],[-83.460411,37.721244],[-83.460699,37.721237],[-83.460809,37.721245],[-83.460864,37.721254],[-83.460973,37.721284],[-83.461072,37.721324],[-83.461194,37.721383],[-83.461231,37.721406],[-83.461274,37.721425],[-83.461324,37.721441],[-83.461379,37.721453],[-83.461435,37.721458],[-83.461491,37.721458],[-83.461603,37.721437],[-83.46166,37.721431],[-83.461773,37.721408],[-83.461888,37.721395],[-83.462006,37.721392],[-83.46231,37.721413],[-83.462781,37.721419],[-83.46309,37.721416],[-83.463335,37.721422],[-83.463598,37.721436],[-83.463698,37.721435],[-83.463842,37.721419],[-83.464007,37.721395],[-83.464071,37.721397]]}},{"type":"Feature","properties":{"osm_id":16382752,"highway":"residential","name":"Johnson Fork Road","alt_name":null,"official_name":null,"surface":null,"tracktype":null,"service":null,"access":null,"motor_vehicle":null,"foot":null,"tiger_reviewed":"no","rrgh_part":0,"rrgh_tile_part":0},"geometry":{"type":"LineString","coordinates":[[-83.429492,37.748772],[-83.429432,37.748815],[-83.429361,37.748889],[-83.429329,37.748942],[-83.429314,37.748988],[-83.42931,37.749057],[-83.429313,37.749119],[-83.429326,37.749183],[-83.429372,37.749316],[-83.429441,37.749476],[-83.429588,37.749742],[-83.42976090526315,37.75]]}},{"type":"Feature","properties":{"osm_id":16384865,"highway":"residential","name":"Landsaw Road","alt_name":null,"official_name":null,"surface":null,"tracktype":null,"service":null,"access":null,"motor_vehicle":null,"foot":null,"tiger_reviewed":"no","rrgh_part":0,"rrgh_tile_part":0},"geometry":{"type":"LineString","coordinates":[[-83.459158,37.734537],[-83.459097,37.734584],[-83.459053,37.734599],[-83.458984,37.734609],[-83.458732,37.734621],[-83.458085,37.734631],[-83.457848,37.73465],[-83.457726,37.734665],[-83.45761,37.734687],[-83.457127,37.734797],[-83.456878,37.734846],[-83.456683,37.734895],[-83.456143,37.735057],[-83.455592,37.735242],[-83.455345,37.735316],[-83.45508,37.735385],[-83.454801,37.735443],[-83.454269,37.735505],[-83.454062,37.735515],[-83.453897,37.735517],[-83.453772,37.735512],[-83.453399,37.735483],[-83.453003,37.735481],[-83.452863,37.735475],[-83.452761,37.735463],[-83.452626,37.73544],[-83.452172,37.735344],[-83.451944,37.735301],[-83.451672,37.735267],[-83.451533,37.735256],[-83.451393,37.735252],[-83.451251,37.735256],[-83.450982,37.735271],[-83.450959,37.735272],[-83.450853,37.735269],[-83.45071,37.735257],[-83.450399,37.73522],[-83.450264,37.73521],[-83.450101,37.735204],[-83.44959,37.735204],[-83.449317,37.735188],[-83.449081,37.735183],[-83.448621,37.735192],[-83.448541,37.73519],[-83.448474,37.735188],[-83.4482,37.735154],[-83.448038,37.735143],[-83.447879,37.735148],[-83.447586,37.735178],[-83.447049,37.73522],[-83.446918,37.735238],[-83.446762,37.735275],[-83.446638,37.735318],[-83.446522,37.735365],[-83.446409,37.7354],[-83.446302,37.735414],[-83.446201,37.735406],[-83.445818,37.735306],[-83.445626,37.735264],[-83.445424,37.735243],[-83.445309,37.735242],[-83.445174,37.735241],[-83.444983,37.735252],[-83.4445545,37.7352838],[-83.443178,37.735386],[-83.44271,37.735436],[-83.442399,37.735487],[-83.442243,37.735518],[-83.441867,37.735606],[-83.441651,37.735662],[-83.441524,37.735703],[-83.44141,37.735752],[-83.441308,37.735811],[-83.441133,37.735943],[-83.441116,37.735955],[-83.441019,37.736013],[-83.440966,37.736036],[-83.440877,37.736061],[-83.4408,37.736071],[-83.440578,37.736088],[-83.440478,37.736114],[-83.440251,37.736208],[-83.440102,37.736261],[-83.439445,37.736454],[-83.439101,37.736545],[-83.438672,37.736674],[-83.438207,37.736806],[-83.438008,37.736867],[-83.43754,37.73701],[-83.43724,37.737115],[-83.436974,37.737225],[-83.436821,37.737282],[-83.436668,37.737331],[-83.436064,37.73751],[-83.435866,37.737577],[-83.435707,37.737642],[-83.435584,37.737701],[-83.435466,37.737767],[-83.435353,37.737838],[-83.435246,37.737915],[-83.435146,37.737995],[-83.43496,37.738162],[-83.434818,37.738303],[-83.434547,37.738587],[-83.43436,37.738807],[-83.43425,37.738961],[-83.434095,37.739206],[-83.433959,37.739459],[-83.433874,37.739633],[-83.433778,37.739846],[-83.433461,37.74055],[-83.432878,37.741895],[-83.43268,37.742369],[-83.432477,37.742817],[-83.4323847,37.7429992],[-83.432357,37.743054],[-83.432221,37.743284],[-83.432138,37.743405],[-83.432125,37.743424],[-83.43201,37.74356],[-83.431845,37.743733],[-83.431648,37.743924],[-83.43105,37.744467],[-83.430776,37.74473],[-83.430692,37.744819],[-83.430609,37.744921],[-83.430538,37.745007],[-83.430366,37.745269],[-83.430273,37.745444],[-83.430197,37.745615],[-83.430109,37.745877]]}},{"type":"Feature","properties":{"osm_id":16384201,"highway":"residential","name":"Ha Ha Hollow Road","alt_name":null,"official_name":null,"surface":null,"tracktype":null,"service":null,"access":null,"motor_vehicle":null,"foot":null,"tiger_reviewed":"no","rrgh_part":0,"rrgh_tile_part":0},"geometry":{"type":"LineString","coordinates":[[-83.4426585,37.7242545],[-83.4419308,37.724914],[-83.4412043,37.7260252],[-83.4406645,37.7266025],[-83.4400985,37.7273454],[-83.4393109,37.7279804]]}},{"type":"Feature","properties":{"osm_id":16382553,"highway":"service","name":null,"alt_name":null,"official_name":null,"surface":null,"tracktype":null,"service":null,"access":"private","motor_vehicle":null,"foot":null,"tiger_reviewed":"no","rrgh_part":0,"rrgh_tile_part":0},"geometry":{"type":"LineString","coordinates":[[-83.449584,37.726125],[-83.449532,37.72622],[-83.449474,37.726351],[-83.449423,37.72643],[-83.449273,37.72664],[-83.449243,37.7267],[-83.449235,37.72673],[-83.449235,37.726759],[-83.449264,37.726882],[-83.449286,37.726935],[-83.449344,37.72704],[-83.44936,37.727108],[-83.449374,37.727123],[-83.449407,37.727133],[-83.449442,37.72712]]}},{"type":"Feature","properties":{"osm_id":16383837,"highway":"residential","name":"Cocham Cemetery Road","alt_name":null,"official_name":null,"surface":null,"tracktype":null,"service":null,"access":null,"motor_vehicle":null,"foot":null,"tiger_reviewed":"no","rrgh_part":0,"rrgh_tile_part":0},"geometry":{"type":"LineString","coordinates":[[-83.440966,37.736036],[-83.440929,37.736187],[-83.44091,37.736431],[-83.440877,37.736666],[-83.440834,37.7369],[-83.440815,37.737105],[-83.440772,37.737281],[-83.440757,37.737379],[-83.440723,37.737681],[-83.440665,37.737984],[-83.440695,37.73819],[-83.440786,37.738437],[-83.440849,37.738791],[-83.440851,37.739124],[-83.440816,37.739466],[-83.44077,37.739769],[-83.440701,37.740013],[-83.440609,37.740187],[-83.440508,37.740273],[-83.440371,37.74031],[-83.440272,37.740328]]}},{"type":"Feature","properties":{"osm_id":16382207,"highway":"service","name":null,"alt_name":null,"official_name":null,"surface":null,"tracktype":null,"service":null,"access":null,"motor_vehicle":null,"foot":null,"tiger_reviewed":null,"rrgh_part":0,"rrgh_tile_part":0},"geometry":{"type":"LineString","coordinates":[[-83.4445545,37.7352838],[-83.4445154,37.7353503],[-83.4444747,37.735373],[-83.4443526,37.735426],[-83.4442209,37.735462],[-83.4440174,37.7355093],[-83.4438738,37.735532],[-83.4437445,37.7356191],[-83.4436871,37.7356759],[-83.4436655,37.7357516],[-83.4436847,37.7357876],[-83.4437757,37.7358501],[-83.4438499,37.7358823],[-83.4440797,37.7359618],[-83.4441826,37.7360186],[-83.4442353,37.7360848],[-83.4442162,37.7366187]]}},{"type":"Feature","properties":{"osm_id":16383334,"highway":"residential","name":"Pryor Fork Road","alt_name":null,"official_name":null,"surface":null,"tracktype":null,"service":null,"access":null,"motor_vehicle":null,"foot":null,"tiger_reviewed":"no","rrgh_part":0,"rrgh_tile_part":0},"geometry":{"type":"LineString","coordinates":[[-83.433657,37.717518],[-83.433617,37.717545],[-83.433601,37.717565],[-83.433592,37.717587],[-83.43359,37.717612],[-83.433601,37.717671],[-83.433691,37.71797],[-83.433707,37.718069],[-83.433709,37.718171],[-83.433704,37.718223],[-83.433682,37.718322],[-83.433642,37.718425],[-83.433542,37.718616],[-83.433486,37.718712],[-83.433426,37.718802],[-83.433245,37.719009],[-83.433183,37.71908],[-83.432947,37.719369],[-83.432817,37.719513],[-83.432508,37.719854],[-83.432303,37.720063],[-83.432276,37.720107],[-83.432258,37.720148],[-83.432246,37.72019],[-83.432239,37.720277],[-83.432225,37.720367],[-83.432185,37.72047],[-83.432157,37.720524],[-83.432118,37.720573],[-83.431934,37.720743],[-83.43178,37.72094],[-83.431671,37.721096],[-83.431588,37.721196],[-83.431443,37.721336],[-83.43133,37.721417],[-83.431087,37.721562],[-83.43057,37.721839],[-83.430378,37.721952],[-83.430314,37.721994],[-83.4302,37.722087],[-83.430105,37.722189],[-83.429932,37.722397],[-83.429837,37.722493],[-83.429434,37.72284],[-83.429264,37.722965],[-83.429137,37.72304],[-83.428692,37.723254],[-83.428632,37.72329],[-83.428574,37.723319],[-83.427746,37.723827],[-83.427515,37.723981],[-83.427388,37.724052],[-83.427134,37.72417],[-83.427078,37.724204],[-83.426971,37.724287],[-83.426859,37.724388],[-83.426804,37.724444],[-83.42663,37.724601],[-83.426536,37.724706],[-83.426494,37.724762],[-83.426424,37.724881],[-83.426372,37.725008],[-83.426265,37.725348],[-83.426208,37.725478],[-83.426016,37.725793],[-83.425972,37.725911],[-83.425958,37.725972],[-83.425953,37.726035],[-83.425956,37.726101],[-83.425965,37.726166],[-83.425999,37.726284],[-83.42606,37.72654],[-83.426096,37.726631],[-83.426138,37.726813]]}},{"type":"Feature","properties":{"osm_id":16384853,"highway":"residential","name":"Nevil Rose Road","alt_name":null,"official_name":null,"surface":null,"tracktype":null,"service":null,"access":null,"motor_vehicle":null,"foot":null,"tiger_reviewed":"no","rrgh_part":0,"rrgh_tile_part":0},"geometry":{"type":"LineString","coordinates":[[-83.435592,37.715564],[-83.435562,37.715548],[-83.435504,37.715537],[-83.435467,37.715538],[-83.435429,37.715544],[-83.435306,37.715582],[-83.435056,37.715598],[-83.435007,37.71562],[-83.434815,37.715739],[-83.434605,37.715882],[-83.434552,37.715903],[-83.434462,37.715967],[-83.434422,37.716003],[-83.434252,37.716121],[-83.433811,37.716427],[-83.433354,37.716751],[-83.433089,37.716948]]}},{"type":"Feature","properties":{"osm_id":16382332,"highway":"residential","name":null,"alt_name":null,"official_name":null,"surface":null,"tracktype":null,"service":null,"access":null,"motor_vehicle":null,"foot":null,"tiger_reviewed":"no","rrgh_part":0,"rrgh_tile_part":0},"geometry":{"type":"LineString","coordinates":[[-83.4385185,37.722116],[-83.4386117,37.7220419],[-83.439232,37.7212911],[-83.439378,37.7211329],[-83.4394701,37.7210531],[-83.43953,37.7209687],[-83.4397068,37.720645]]}},{"type":"Feature","properties":{"osm_id":16382499,"highway":"residential","name":null,"alt_name":null,"official_name":null,"surface":null,"tracktype":null,"service":null,"access":null,"motor_vehicle":null,"foot":null,"tiger_reviewed":"no","rrgh_part":0,"rrgh_tile_part":0},"geometry":{"type":"LineString","coordinates":[[-83.423106,37.715188],[-83.42271,37.714629],[-83.422485,37.714321],[-83.42201,37.713666],[-83.421999,37.713457]]}},{"type":"Feature","properties":{"osm_id":16384414,"highway":"residential","name":"Leslie Hollow Road","alt_name":null,"official_name":null,"surface":null,"tracktype":null,"service":null,"access":null,"motor_vehicle":null,"foot":null,"tiger_reviewed":"no","rrgh_part":0,"rrgh_tile_part":0},"geometry":{"type":"LineString","coordinates":[[-83.426011,37.737022],[-83.426047,37.737008],[-83.426273,37.737017],[-83.426393,37.737031],[-83.42667,37.737089],[-83.427756,37.737294],[-83.427922,37.737311],[-83.428048,37.737309],[-83.428191,37.737293],[-83.428305,37.737273],[-83.428365,37.737263],[-83.428544,37.737243],[-83.428695,37.737217],[-83.428833,37.737206],[-83.42897,37.73719],[-83.429291,37.737229],[-83.429873,37.737312],[-83.430013,37.737321],[-83.430138,37.737313],[-83.430429,37.737269],[-83.430547,37.737259],[-83.430608,37.737265],[-83.430665,37.737279],[-83.43072,37.737302],[-83.430869,37.737381],[-83.430976,37.737421],[-83.431088,37.737443],[-83.431891,37.737508],[-83.432154,37.737538],[-83.432415,37.737574],[-83.432514,37.737581],[-83.4325656,37.7375804],[-83.432604,37.73758],[-83.432824,37.737565],[-83.432908,37.737566],[-83.433114,37.737586],[-83.433414,37.73764],[-83.433588,37.737693]]}},{"type":"Feature","properties":{"osm_id":1524804259,"highway":"residential","name":"Leslie Hollow Road","alt_name":null,"official_name":null,"surface":null,"tracktype":null,"service":null,"access":null,"motor_vehicle":null,"foot":null,"tiger_reviewed":"no","rrgh_part":0,"rrgh_tile_part":0},"geometry":{"type":"LineString","coordinates":[[-83.433588,37.737693],[-83.433622,37.737703],[-83.433783,37.737762],[-83.433908,37.737814],[-83.434085,37.737898],[-83.4341218,37.7379179]]}},{"type":"Feature","properties":{"osm_id":16380817,"highway":"residential","name":"Bedwell Road","alt_name":null,"official_name":null,"surface":null,"tracktype":null,"service":null,"access":null,"motor_vehicle":null,"foot":null,"tiger_reviewed":"no","rrgh_part":0,"rrgh_tile_part":0},"geometry":{"type":"LineString","coordinates":[[-83.434085,37.737898],[-83.434239,37.737702],[-83.434311,37.737589],[-83.434365,37.737493],[-83.434478,37.737324],[-83.434573,37.73722],[-83.434684,37.737124],[-83.434767,37.737077],[-83.434902,37.737031],[-83.435021,37.737001],[-83.435104,37.736938],[-83.435169,37.736869],[-83.435248,37.736774],[-83.435615,37.736516],[-83.435746,37.736401],[-83.435825,37.736341],[-83.435925,37.736253],[-83.43596,37.736186],[-83.435974,37.736141],[-83.435978,37.736043],[-83.435961,37.736],[-83.435786,37.735774],[-83.435562,37.73553],[-83.435416,37.735355],[-83.435277,37.735174],[-83.435133,37.735011],[-83.434957,37.734844],[-83.434867,37.73475],[-83.434785,37.73465],[-83.434691,37.734487],[-83.43465,37.734442],[-83.434512,37.734327]]}},{"type":"Feature","properties":{"osm_id":16382265,"highway":"service","name":null,"alt_name":null,"official_name":null,"surface":null,"tracktype":null,"service":null,"access":null,"motor_vehicle":null,"foot":null,"tiger_reviewed":"no","rrgh_part":0,"rrgh_tile_part":0},"geometry":{"type":"LineString","coordinates":[[-83.438008,37.736867],[-83.438304,37.736954],[-83.439454,37.736863],[-83.439784,37.737057],[-83.43985,37.737305],[-83.439845,37.737626],[-83.439793,37.738065],[-83.439709,37.738461]]}},{"type":"Feature","properties":{"osm_id":369911399,"highway":"residential","name":"Leslie Hollow Road","alt_name":null,"official_name":null,"surface":null,"tracktype":null,"service":null,"access":null,"motor_vehicle":null,"foot":null,"tiger_reviewed":"no","rrgh_part":0,"rrgh_tile_part":0},"geometry":{"type":"LineString","coordinates":[[-83.4341218,37.7379179],[-83.4344484,37.7380979]]}},{"type":"Feature","properties":{"osm_id":369911400,"highway":"residential","name":"Leslie Hollow Road","alt_name":null,"official_name":null,"surface":null,"tracktype":null,"service":null,"access":null,"motor_vehicle":null,"foot":null,"tiger_reviewed":"no","rrgh_part":0,"rrgh_tile_part":0},"geometry":{"type":"LineString","coordinates":[[-83.4344484,37.7380979],[-83.434663,37.738216],[-83.434818,37.738303]]}},{"type":"Feature","properties":{"osm_id":16382151,"highway":"service","name":null,"alt_name":null,"official_name":null,"surface":null,"tracktype":null,"service":null,"access":"private","motor_vehicle":null,"foot":null,"tiger_reviewed":"no","rrgh_part":0,"rrgh_tile_part":0},"geometry":{"type":"LineString","coordinates":[[-83.461958,37.746504],[-83.462016,37.746646],[-83.462089,37.747004]]}},{"type":"Feature","properties":{"osm_id":16382317,"highway":"service","name":null,"alt_name":null,"official_name":null,"surface":null,"tracktype":null,"service":null,"access":"private","motor_vehicle":null,"foot":null,"tiger_reviewed":"no","rrgh_part":0,"rrgh_tile_part":0},"geometry":{"type":"LineString","coordinates":[[-83.462102,37.747019],[-83.462089,37.747004],[-83.462093,37.747092],[-83.462107,37.747148],[-83.462127,37.747184],[-83.46216,37.747212],[-83.462183,37.747221],[-83.462235,37.747224],[-83.462354,37.747213],[-83.462399,37.7472],[-83.462415,37.747177],[-83.462408,37.747119],[-83.462372,37.747026],[-83.462357,37.747012],[-83.462335,37.746999],[-83.46231,37.746994],[-83.462258,37.747001],[-83.462145,37.747031],[-83.462122,37.747029],[-83.462102,37.747019]]}},{"type":"Feature","properties":{"osm_id":16381887,"highway":"residential","name":null,"alt_name":null,"official_name":null,"surface":null,"tracktype":null,"service":null,"access":null,"motor_vehicle":null,"foot":null,"tiger_reviewed":"no","rrgh_part":0,"rrgh_tile_part":0},"geometry":{"type":"LineString","coordinates":[[-83.451149,37.748171],[-83.45091838695653,37.75]]}},{"type":"Feature","properties":{"osm_id":16381941,"highway":"service","name":null,"alt_name":null,"official_name":null,"surface":null,"tracktype":null,"service":null,"access":"private","motor_vehicle":null,"foot":null,"tiger_reviewed":"no","rrgh_part":0,"rrgh_tile_part":0},"geometry":{"type":"LineString","coordinates":[[-83.45007542671009,37.75],[-83.450262,37.749896],[-83.451149,37.748171]]}},{"type":"Feature","properties":{"osm_id":16381785,"highway":"service","name":null,"alt_name":null,"official_name":null,"surface":null,"tracktype":null,"service":null,"access":"private","motor_vehicle":null,"foot":null,"tiger_reviewed":"no","rrgh_part":0,"rrgh_tile_part":0},"geometry":{"type":"LineString","coordinates":[[-83.4438491111111,37.75],[-83.443832,37.749923],[-83.443814,37.749876],[-83.443751,37.749771],[-83.443705,37.749721],[-83.443676,37.749698],[-83.443611,37.749662],[-83.443565,37.749646]]}},{"type":"Feature","properties":{"osm_id":16382202,"highway":"service","name":null,"alt_name":null,"official_name":null,"surface":null,"tracktype":null,"service":null,"access":"private","motor_vehicle":null,"foot":null,"tiger_reviewed":"no","rrgh_part":0,"rrgh_tile_part":0},"geometry":{"type":"LineString","coordinates":[[-83.443276,37.749568],[-83.443368,37.749586],[-83.443511,37.749626],[-83.443565,37.749646],[-83.445306,37.748427]]}},{"type":"Feature","properties":{"osm_id":16382123,"highway":"service","name":"Dalton Cemetery Road","alt_name":"County Road 1004","official_name":null,"surface":null,"tracktype":null,"service":null,"access":null,"motor_vehicle":null,"foot":null,"tiger_reviewed":"no","rrgh_part":0,"rrgh_tile_part":0},"geometry":{"type":"LineString","coordinates":[[-83.4323847,37.7429992],[-83.4324947,37.7430552],[-83.4326494,37.7430493],[-83.4328164,37.7428507],[-83.4330439,37.7425675],[-83.4331219,37.7425265],[-83.4332077,37.7425011],[-83.4332828,37.7425011],[-83.4333901,37.742552]]}},{"type":"Feature","properties":{"osm_id":16382123,"highway":"service","name":"Dalton Cemetery Road","alt_name":"County Road 1004","official_name":null,"surface":null,"tracktype":null,"service":null,"access":null,"motor_vehicle":null,"foot":null,"tiger_reviewed":"no","rrgh_part":1,"rrgh_tile_part":0},"geometry":{"type":"LineString","coordinates":[[-83.4333901,37.742552],[-83.433594,37.7426962],[-83.4336798,37.7428616],[-83.4336852,37.7429889],[-83.433653,37.7430737],[-83.4335993,37.7431246],[-83.4334974,37.7431628],[-83.4333848,37.7431501],[-83.4332828,37.7431204],[-83.4332238,37.7430059],[-83.4332185,37.7427301],[-83.433256,37.7426453],[-83.4332989,37.7425817],[-83.4333901,37.742552]]}},{"type":"Feature","properties":{"osm_id":16383875,"highway":"track","name":null,"alt_name":null,"official_name":null,"surface":null,"tracktype":null,"service":null,"access":null,"motor_vehicle":null,"foot":null,"tiger_reviewed":"no","rrgh_part":0,"rrgh_tile_part":0},"geometry":{"type":"LineString","coordinates":[[-83.43201,37.74356],[-83.432091,37.743699],[-83.432099,37.743711],[-83.432172,37.744074],[-83.432295,37.744327],[-83.432463,37.744604],[-83.43266,37.744867],[-83.432804,37.74501],[-83.432996,37.74508],[-83.433204,37.745283],[-83.433247,37.74541],[-83.433353,37.745589],[-83.433498,37.745718],[-83.433662,37.745809],[-83.433798,37.745952],[-83.433804,37.746048],[-83.433839,37.746101],[-83.43419,37.746182],[-83.434598,37.746227],[-83.434765,37.746267],[-83.434903,37.746306],[-83.435013,37.746345],[-83.435078,37.746384],[-83.435141,37.746444]]}},{"type":"Feature","properties":{"osm_id":16382206,"highway":"service","name":null,"alt_name":null,"official_name":null,"surface":null,"tracktype":null,"service":null,"access":null,"motor_vehicle":null,"foot":null,"tiger_reviewed":"no","rrgh_part":0,"rrgh_tile_part":0},"geometry":{"type":"LineString","coordinates":[[-83.429752,37.748335],[-83.429948,37.748507],[-83.430265,37.748898],[-83.430481,37.749296],[-83.430665,37.749564],[-83.430981,37.74976],[-83.43145,37.749827],[-83.431909,37.749861],[-83.432164,37.749968],[-83.43228258823528,37.75]]}},{"type":"Feature","properties":{"osm_id":16383153,"highway":"residential","name":"Landsaw Fork Road","alt_name":null,"official_name":null,"surface":null,"tracktype":null,"service":null,"access":null,"motor_vehicle":null,"foot":null,"tiger_reviewed":"no","rrgh_part":0,"rrgh_tile_part":0},"geometry":{"type":"LineString","coordinates":[[-83.4298944,37.7464911],[-83.429754,37.746834],[-83.429563,37.747244],[-83.429489,37.747422],[-83.429464,37.747503],[-83.429458,37.747584],[-83.429466,37.747666],[-83.429492,37.747745],[-83.429528,37.747823],[-83.42968,37.748115],[-83.429734,37.748255],[-83.429752,37.748335],[-83.429763,37.748382],[-83.429765,37.748428],[-83.42976,37.748486],[-83.429735,37.748557],[-83.429693,37.748616],[-83.429636,37.748668],[-83.429492,37.748772]]}},{"type":"Feature","properties":{"osm_id":1524804260,"highway":"residential","name":"Landsaw Road","alt_name":null,"official_name":null,"surface":null,"tracktype":null,"service":null,"access":null,"motor_vehicle":null,"foot":null,"tiger_reviewed":"no","rrgh_part":0,"rrgh_tile_part":0},"geometry":{"type":"LineString","coordinates":[[-83.430109,37.745877],[-83.4298944,37.7464911]]}}],"rrgh_tile":{"id":"r4c6","bounds":[37.675,-83.505,37.75,-83.42]}}
