{"type":"FeatureCollection","features":[{"type":"Feature","properties":{"osm_id":16385024,"highway":"residential","name":"Rockhouse Fork Road","alt_name":null,"official_name":null,"surface":null,"tracktype":null,"service":null,"access":null,"motor_vehicle":null,"foot":null,"tiger_reviewed":"no","rrgh_part":0,"rrgh_tile_part":0},"geometry":{"type":"LineString","coordinates":[[-83.39946,37.700252],[-83.399534,37.700177],[-83.399597,37.70013],[-83.39969,37.700077],[-83.399746,37.700055],[-83.399877,37.700025],[-83.400771,37.699898],[-83.400902,37.699888],[-83.401189,37.699884],[-83.401254,37.699877],[-83.401319,37.699861],[-83.401385,37.699836],[-83.401446,37.699805],[-83.401694,37.699638],[-83.401763,37.6996],[-83.401835,37.699571],[-83.401903,37.699555],[-83.401984,37.699534],[-83.402061,37.699532],[-83.402218,37.699543],[-83.40237,37.699562],[-83.402513,37.699587],[-83.402656,37.699616],[-83.402793,37.699647],[-83.402859,37.699669],[-83.402924,37.699693],[-83.402985,37.699722],[-83.403042,37.699751],[-83.403091,37.699786],[-83.403208,37.699852],[-83.403274,37.699882],[-83.403502,37.699963],[-83.403909,37.70008],[-83.40406,37.700144],[-83.404132,37.700184],[-83.4042,37.700228],[-83.404488,37.700454],[-83.40466,37.700563],[-83.404912,37.700704],[-83.405345,37.700913],[-83.405415,37.700952],[-83.405483,37.700996],[-83.405835,37.701186],[-83.406205,37.701364],[-83.406438,37.701457],[-83.406701,37.701577],[-83.40751,37.701905],[-83.407931,37.702067],[-83.408059,37.702128],[-83.408189,37.702196],[-83.408259,37.702223],[-83.408329,37.702244],[-83.408531,37.702294],[-83.408675,37.702341],[-83.408877,37.70245],[-83.409064,37.702577],[-83.409235,37.702706],[-83.409335,37.702796],[-83.40937,37.702846],[-83.409424,37.702944],[-83.409461,37.703068],[-83.409506,37.70316],[-83.409598,37.703259],[-83.409778,37.70339],[-83.409925,37.703495],[-83.410188,37.703658],[-83.410256,37.703698],[-83.410323,37.703727],[-83.410392,37.703744],[-83.410467,37.703746],[-83.410547,37.703732],[-83.410726,37.703691],[-83.410826,37.703681],[-83.410935,37.703688],[-83.411045,37.70371],[-83.411154,37.703744],[-83.411482,37.703862],[-83.411695,37.703952],[-83.412079,37.704142],[-83.412278,37.704227],[-83.412647,37.704353],[-83.412719,37.704383],[-83.412841,37.704443],[-83.412965,37.704495],[-83.413034,37.704517],[-83.413104,37.704532],[-83.413184,37.704535],[-83.413462,37.704522],[-83.413567,37.704524],[-83.413668,37.704536],[-83.413771,37.704553],[-83.413979,37.7046],[-83.414088,37.704619],[-83.414202,37.704628],[-83.414318,37.704624],[-83.414436,37.704606],[-83.414787,37.704523],[-83.414916,37.704515],[-83.415194,37.704517],[-83.415634,37.704509],[-83.415782,37.704518],[-83.415927,37.704545],[-83.416016,37.704567],[-83.416074,37.704581],[-83.416494,37.704695],[-83.416624,37.704723],[-83.417384,37.704942],[-83.418014,37.705117],[-83.41826,37.705191],[-83.418499,37.705274],[-83.418977,37.705475],[-83.419229,37.705575],[-83.419484,37.705662],[-83.419946,37.705798],[-83.42,37.70581691719745]]}},{"type":"Feature","properties":{"osm_id":16105044,"highway":"residential","name":null,"alt_name":null,"official_name":null,"surface":null,"tracktype":null,"service":null,"access":null,"motor_vehicle":null,"foot":null,"tiger_reviewed":"no","rrgh_part":0,"rrgh_tile_part":0},"geometry":{"type":"LineString","coordinates":[[-83.419072,37.678019],[-83.41908,37.678055],[-83.419093,37.678112],[-83.419093,37.678173],[-83.419078,37.678243],[-83.419051,37.678321],[-83.419038,37.678392]]}},{"type":"Feature","properties":{"osm_id":16107681,"highway":"residential","name":"Hurst Cemetery 1 Road","alt_name":null,"official_name":null,"surface":null,"tracktype":null,"service":null,"access":null,"motor_vehicle":null,"foot":null,"tiger_reviewed":"no","rrgh_part":0,"rrgh_tile_part":0},"geometry":{"type":"LineString","coordinates":[[-83.4133386,37.6862251],[-83.413462,37.686172],[-83.413486,37.686164],[-83.413606,37.686109],[-83.413785,37.685968],[-83.414046,37.685669],[-83.414096,37.685601],[-83.414333,37.685388],[-83.414515,37.685194],[-83.414579,37.685134],[-83.414607,37.685117],[-83.414667,37.685087],[-83.41479,37.685038],[-83.414894,37.685016],[-83.415224,37.684923],[-83.41536,37.684899],[-83.415423,37.684893],[-83.415458,37.684893],[-83.415497,37.684898],[-83.415594,37.684904],[-83.415659,37.684891],[-83.415713,37.684866],[-83.415746,37.68483],[-83.415771,37.684793],[-83.415801,37.684697],[-83.415801,37.684616],[-83.415813,37.684532],[-83.415833,37.684431],[-83.415849,37.684381],[-83.415874,37.684347],[-83.41596,37.684275],[-83.415987,37.684264],[-83.416018,37.684256],[-83.416083,37.684257],[-83.416112,37.684266],[-83.41625,37.684361],[-83.416299,37.6844],[-83.416388,37.6845],[-83.416497,37.684599],[-83.416527,37.684621],[-83.416558,37.68464],[-83.416746,37.684729],[-83.416813,37.684744],[-83.416845,37.684745],[-83.416878,37.684742],[-83.41691,37.684733],[-83.416942,37.68472],[-83.416992,37.68469],[-83.417128,37.684553],[-83.417196,37.684502],[-83.417252,37.684443],[-83.417311,37.684388],[-83.417359,37.684301],[-83.417374,37.684261],[-83.417384,37.684209]]}},{"type":"Feature","properties":{"osm_id":16114840,"highway":"residential","name":"Hurst Cemetery Lane","alt_name":null,"official_name":null,"surface":null,"tracktype":null,"service":null,"access":null,"motor_vehicle":null,"foot":null,"tiger_reviewed":"no","rrgh_part":0,"rrgh_tile_part":0},"geometry":{"type":"LineString","coordinates":[[-83.419038,37.678392],[-83.419029,37.678454],[-83.418997,37.67859],[-83.418982,37.678637],[-83.418962,37.678683],[-83.418934,37.678727],[-83.418886,37.678828],[-83.41877,37.679031],[-83.418673,37.679231],[-83.418588,37.67937],[-83.418498,37.679503],[-83.418444,37.679592],[-83.418309,37.679871],[-83.418281,37.679915],[-83.41826,37.679966],[-83.418234,37.680014],[-83.418092,37.680234],[-83.417963,37.68042],[-83.417943,37.6805],[-83.41794,37.680558]]}},{"type":"Feature","properties":{"osm_id":16111360,"highway":"residential","name":"Hurst Road","alt_name":null,"official_name":null,"surface":null,"tracktype":null,"service":null,"access":null,"motor_vehicle":null,"foot":null,"tiger_reviewed":"no","rrgh_part":0,"rrgh_tile_part":0},"geometry":{"type":"LineString","coordinates":[[-83.41794,37.680558],[-83.417937,37.680592],[-83.417959,37.680684]]}},{"type":"Feature","properties":{"osm_id":16382478,"highway":"residential","name":null,"alt_name":null,"official_name":null,"surface":null,"tracktype":null,"service":null,"access":null,"motor_vehicle":null,"foot":null,"tiger_reviewed":"no","rrgh_part":0,"rrgh_tile_part":0},"geometry":{"type":"LineString","coordinates":[[-83.42,37.70903957142857],[-83.419856,37.709127],[-83.419072,37.7096]]}},{"type":"Feature","properties":{"osm_id":16383793,"highway":"residential","name":"Greenbriar Branch Road","alt_name":null,"official_name":null,"surface":null,"tracktype":null,"service":null,"access":null,"motor_vehicle":null,"foot":null,"tiger_reviewed":"no","rrgh_part":0,"rrgh_tile_part":0},"geometry":{"type":"LineString","coordinates":[[-83.361981,37.698878],[-83.361918,37.698845],[-83.361883,37.698837],[-83.361523,37.698835],[-83.361492,37.698842],[-83.361345,37.698892],[-83.361088,37.698952],[-83.36084,37.699034],[-83.360704,37.699056],[-83.360652,37.699068],[-83.360547,37.699101],[-83.360299,37.699223],[-83.360217,37.699255],[-83.360138,37.699294],[-83.359882,37.699444],[-83.3598,37.699496],[-83.359567,37.699679],[-83.35926,37.699872],[-83.35915,37.699981],[-83.358977,37.700143],[-83.358881,37.700226],[-83.35864,37.70038],[-83.358398,37.700585],[-83.358338,37.700654],[-83.3583,37.700689],[-83.358227,37.700767],[-83.358185,37.700801],[-83.3581,37.700858],[-83.358022,37.700919],[-83.357986,37.700952],[-83.357836,37.70111],[-83.357748,37.701168],[-83.357678,37.701237],[-83.357586,37.701318],[-83.357574,37.701335],[-83.35739,37.701505],[-83.357265,37.701631],[-83.357099,37.701789],[-83.356992,37.701877],[-83.356969,37.701905],[-83.356941,37.701981],[-83.356887,37.702086],[-83.356864,37.702106],[-83.356696,37.702219],[-83.356666,37.702244],[-83.356569,37.702348],[-83.356439,37.702515],[-83.356402,37.702575],[-83.356378,37.702605],[-83.356344,37.702638],[-83.356223,37.702718],[-83.356037,37.702853],[-83.355866,37.702992],[-83.355801,37.703055],[-83.355673,37.703226],[-83.355531,37.703363],[-83.355339,37.703558],[-83.355271,37.703646],[-83.355235,37.703683],[-83.355146,37.703751],[-83.354983,37.703886],[-83.354923,37.703924],[-83.354855,37.703966],[-83.354716,37.704065],[-83.354659,37.704111],[-83.354455,37.704336],[-83.354367,37.704457],[-83.354311,37.704594],[-83.354288,37.704733],[-83.354268,37.704774],[-83.354226,37.704826],[-83.354127,37.704887],[-83.354083,37.704906],[-83.353982,37.704929],[-83.353841,37.704932],[-83.353781,37.704947],[-83.353752,37.704959],[-83.353693,37.705005],[-83.353606,37.705064],[-83.353558,37.70509],[-83.353462,37.705132],[-83.353327,37.705172],[-83.353244,37.70521],[-83.353214,37.705237],[-83.353194,37.705272],[-83.35315,37.705428],[-83.353136,37.705457],[-83.353108,37.705497],[-83.35307,37.705531],[-83.352976,37.705581],[-83.352801,37.705635],[-83.352682,37.705656],[-83.352554,37.705687],[-83.352517,37.705703],[-83.352373,37.705745],[-83.35221,37.705802],[-83.3521,37.705858],[-83.351982,37.705907],[-83.351708,37.705971],[-83.351402,37.706063],[-83.35122,37.706104],[-83.351045,37.70619],[-83.350932,37.706245],[-83.350901,37.706267],[-83.350754,37.706394],[-83.350651,37.706505],[-83.350497,37.706693],[-83.350459,37.706731],[-83.350264,37.706957],[-83.350183,37.707058],[-83.350083,37.707203],[-83.350012,37.707354],[-83.349834,37.707673],[-83.349797,37.707727],[-83.349719,37.707897],[-83.34969,37.708059],[-83.34969,37.708232],[-83.349681,37.70828],[-83.349665,37.708322],[-83.34964,37.708358],[-83.349577,37.708407],[-83.349519,37.708435],[-83.34938,37.708476],[-83.349268,37.708518],[-83.349102,37.708601],[-83.348893,37.708686],[-83.348839,37.708713],[-83.348742,37.708782],[-83.348703,37.708823],[-83.348672,37.708866],[-83.348648,37.708915],[-83.348619,37.70901],[-83.348586,37.70908],[-83.348565,37.709105],[-83.348487,37.70917],[-83.348425,37.709202],[-83.348318,37.709315],[-83.348265,37.709388],[-83.348206,37.709481],[-83.348131,37.709636],[-83.348107,37.709709],[-83.34807,37.709849],[-83.348049,37.710008],[-83.348008,37.710183],[-83.347939,37.710403],[-83.347938,37.710438],[-83.347951,37.710504],[-83.347973,37.710582],[-83.34803,37.710709],[-83.348035,37.710748],[-83.348031,37.710907],[-83.347996,37.711],[-83.34797,37.711107],[-83.347899,37.71129],[-83.347876,37.711426],[-83.347869,37.711671],[-83.347877,37.711968],[-83.347875,37.712606],[-83.347889,37.712833],[-83.347879,37.712915],[-83.347869,37.712952],[-83.347837,37.713019],[-83.347793,37.713094],[-83.347772,37.713146],[-83.347749,37.713252],[-83.34772,37.713414],[-83.347701,37.713563],[-83.347693,37.71369],[-83.347724,37.713868],[-83.347757,37.713968],[-83.347819,37.7141],[-83.347856,37.714212],[-83.347893,37.714352],[-83.3478971,37.7144003],[-83.347902,37.714458],[-83.347901,37.714566],[-83.347893,37.714658],[-83.347887,37.714684],[-83.347881,37.714702],[-83.347862,37.71475],[-83.347825,37.714801],[-83.347633,37.714972],[-83.347589,37.715025],[-83.347549,37.715083],[-83.347516,37.715145],[-83.34749,37.71521],[-83.347455,37.715277],[-83.347365,37.715427],[-83.34728,37.715585],[-83.347231,37.715658],[-83.347172,37.715727],[-83.346897,37.716021],[-83.346821,37.716083],[-83.346665,37.716194],[-83.346594,37.716258],[-83.346513,37.716379],[-83.346445,37.716495],[-83.34633,37.716727],[-83.3463,37.716844],[-83.346178,37.717173],[-83.346166,37.717251],[-83.346188,37.717326],[-83.346217,37.717381],[-83.34627,37.717452],[-83.346394,37.717591],[-83.346595,37.717764],[-83.346633,37.717818],[-83.346669,37.71787],[-83.346674,37.717916],[-83.346656,37.717957],[-83.346622,37.717984],[-83.346526,37.717995],[-83.346331,37.717937],[-83.346191,37.717876],[-83.346034,37.717848],[-83.345947,37.717852],[-83.345788,37.717911],[-83.345306,37.718173],[-83.34479,37.71847],[-83.344631,37.718568],[-83.344503,37.718666],[-83.344473,37.718712],[-83.344453,37.71876],[-83.344414,37.718834],[-83.344363,37.718893],[-83.344255,37.719047],[-83.344148,37.719178],[-83.344036,37.719277],[-83.34395,37.719361],[-83.343892,37.719425],[-83.343847,37.719505],[-83.343834,37.719566],[-83.343845,37.719623],[-83.343971,37.719818],[-83.344039,37.719959],[-83.344037,37.720018],[-83.344013,37.720069],[-83.343954,37.720112],[-83.34384,37.720144],[-83.343715,37.72015],[-83.343471,37.720128],[-83.343411,37.720113],[-83.34329,37.720103],[-83.343166,37.720103],[-83.343065,37.720112],[-83.343002,37.720126],[-83.342738,37.72022],[-83.342494,37.720363],[-83.34236,37.720433],[-83.342264,37.720475],[-83.342058,37.720543],[-83.341867,37.720623],[-83.341804,37.720671],[-83.341645,37.720813],[-83.341556,37.72087],[-83.341456,37.720917],[-83.341353,37.720948],[-83.341136,37.720997],[-83.341039,37.721036],[-83.340954,37.721086],[-83.340874,37.721147],[-83.340539,37.721445],[-83.34044,37.721525],[-83.340333,37.721603],[-83.340121,37.721747],[-83.340018,37.721808],[-83.339914,37.72186],[-83.339805,37.721899],[-83.339578,37.721944],[-83.339468,37.721972],[-83.33936,37.722005],[-83.33926,37.722049],[-83.339171,37.722098],[-83.339089,37.722155],[-83.339012,37.722219],[-83.338942,37.722284],[-83.338881,37.722348],[-83.338831,37.722414],[-83.338792,37.722476],[-83.338762,37.722537],[-83.338741,37.722594],[-83.338729,37.722645],[-83.338723,37.7227],[-83.338723,37.722754],[-83.338749,37.72293],[-83.338744,37.72299],[-83.338713,37.723041],[-83.33866,37.723073],[-83.338588,37.723085],[-83.338433,37.723074],[-83.338347,37.723081],[-83.338258,37.723104],[-83.338163,37.723135],[-83.337953,37.723194],[-83.337613,37.723271],[-83.337497,37.723309],[-83.337264,37.723397],[-83.337149,37.723447],[-83.33692,37.723537],[-83.336695,37.723619],[-83.336587,37.723665],[-83.336496,37.723719],[-83.336413,37.723776],[-83.336339,37.723861],[-83.336263,37.723994],[-83.336207,37.724059],[-83.336137,37.724111],[-83.33605,37.724147],[-83.335951,37.724177],[-83.335424,37.724415],[-83.335301,37.724454],[-83.335058,37.724514],[-83.33500000000001,37.7245262601626]]}},{"type":"Feature","properties":{"osm_id":16385234,"highway":"residential","name":"Rush Fork Road","alt_name":null,"official_name":null,"surface":null,"tracktype":null,"service":null,"access":null,"motor_vehicle":null,"foot":null,"tiger_reviewed":"no","rrgh_part":0,"rrgh_tile_part":0},"geometry":{"type":"LineString","coordinates":[[-83.379967,37.699421],[-83.379945,37.699435],[-83.3799,37.699443],[-83.379846,37.699442],[-83.37951,37.69941],[-83.379435,37.699411],[-83.37939,37.699422],[-83.379344,37.69944],[-83.379298,37.699466],[-83.379254,37.699499],[-83.379215,37.699535],[-83.379108,37.699652],[-83.378054,37.700955],[-83.377974,37.701068],[-83.377572,37.701426],[-83.377519,37.701462],[-83.377263,37.70167],[-83.377211,37.701701],[-83.377179,37.701716],[-83.377103,37.701753],[-83.376982,37.701793],[-83.376548,37.701888],[-83.376407,37.701933],[-83.376345,37.701964],[-83.376291,37.702002],[-83.37615,37.702138],[-83.375941,37.702309],[-83.37574,37.702465],[-83.375696,37.702508],[-83.375614,37.702608],[-83.375482,37.702804],[-83.375421,37.702876],[-83.37527,37.703014],[-83.37519,37.703099],[-83.375107,37.703164],[-83.374847,37.70334],[-83.374744,37.703425],[-83.374573,37.703625],[-83.374428,37.703776],[-83.374371,37.703822],[-83.374115,37.704008],[-83.373995,37.70411],[-83.373696,37.704376],[-83.373298,37.704708],[-83.373073,37.704886],[-83.372932,37.705031],[-83.372778,37.705245],[-83.372732,37.70529],[-83.372681,37.705326],[-83.372627,37.705355],[-83.372404,37.705456],[-83.372303,37.705524],[-83.372165,37.705636],[-83.372014,37.705786],[-83.371972,37.705814],[-83.37193,37.705836],[-83.371849,37.705865],[-83.371764,37.705906],[-83.371618,37.70599],[-83.37154,37.706016],[-83.371468,37.70605],[-83.371262,37.706169],[-83.371101,37.706306],[-83.370985,37.706431],[-83.370932,37.706473],[-83.370863,37.706505],[-83.370776,37.70652],[-83.370697,37.706541],[-83.370509,37.706578],[-83.370417,37.706603],[-83.370238,37.706665],[-83.370156,37.706702],[-83.370001,37.706791],[-83.369933,37.706837],[-83.369793,37.706919],[-83.369518,37.707196],[-83.369449,37.707418],[-83.369452,37.707476],[-83.369462,37.707533],[-83.369459,37.707638],[-83.369437,37.707686],[-83.3694,37.707727],[-83.369349,37.707759],[-83.369286,37.707781],[-83.369071,37.707834],[-83.369002,37.707861],[-83.368936,37.707893],[-83.368874,37.707931],[-83.368816,37.707974],[-83.36871,37.708076],[-83.368613,37.708184],[-83.368528,37.708297],[-83.368427,37.708475],[-83.36832,37.708742],[-83.368301,37.708806],[-83.368219,37.70922],[-83.368047,37.709843],[-83.368025,37.709984],[-83.368002,37.710512],[-83.367992,37.710581],[-83.367986,37.710726],[-83.367973,37.710878],[-83.367934,37.711106],[-83.367785,37.711639],[-83.367753,37.711843],[-83.367763,37.712022],[-83.367788,37.712263],[-83.367816,37.712441],[-83.367859,37.712555],[-83.367919,37.712669],[-83.36794,37.712731],[-83.367943,37.712795],[-83.367925,37.712855],[-83.367891,37.712912],[-83.367844,37.712961],[-83.367627,37.713126],[-83.36758,37.713173],[-83.367544,37.713226],[-83.367517,37.713284],[-83.367508,37.713317],[-83.367501,37.713345],[-83.367495,37.713406],[-83.367513,37.713604],[-83.367542,37.713741],[-83.36752,37.713956],[-83.367481,37.714091],[-83.367471,37.714157],[-83.367473,37.714239],[-83.367497,37.714323],[-83.36755,37.714446],[-83.367648,37.714635],[-83.367706,37.714713],[-83.367726,37.714763],[-83.367806,37.71493],[-83.367851,37.715071],[-83.367868,37.715193],[-83.367847,37.71529],[-83.367818,37.71538],[-83.367767,37.71547],[-83.367651,37.715644],[-83.367417,37.715927],[-83.36736,37.715996]]}},{"type":"Feature","properties":{"osm_id":16107025,"highway":"residential","name":"Trent Elam Cemetery 1 Road","alt_name":null,"official_name":null,"surface":null,"tracktype":null,"service":null,"access":null,"motor_vehicle":null,"foot":null,"tiger_reviewed":"no","rrgh_part":0,"rrgh_tile_part":0},"geometry":{"type":"LineString","coordinates":[[-83.40862,37.676426],[-83.408685,37.676559],[-83.408757,37.676683],[-83.408829,37.676765],[-83.408871,37.676841],[-83.408901,37.676938],[-83.40897,37.67706],[-83.409134,37.677277],[-83.409173,37.677345],[-83.409219,37.677448],[-83.409236,37.677499],[-83.409308,37.677821]]}},{"type":"Feature","properties":{"osm_id":16115707,"highway":"residential","name":"Shackleford Cemetery Road","alt_name":null,"official_name":null,"surface":null,"tracktype":null,"service":null,"access":null,"motor_vehicle":null,"foot":null,"tiger_reviewed":"no","rrgh_part":0,"rrgh_tile_part":0},"geometry":{"type":"LineString","coordinates":[[-83.404255,37.678994],[-83.404296,37.678995],[-83.404371,37.678986],[-83.404428,37.678973],[-83.404662,37.678881],[-83.404737,37.678855],[-83.404809,37.678834],[-83.404884,37.678816],[-83.404921,37.678811],[-83.404994,37.678809],[-83.405032,37.678813],[-83.40507,37.678822],[-83.405105,37.678838],[-83.405137,37.67886],[-83.405166,37.678886],[-83.40526,37.678989],[-83.405352,37.679059]]}},{"type":"Feature","properties":{"osm_id":16111023,"highway":"residential","name":"Hoover Drive","alt_name":null,"official_name":null,"surface":null,"tracktype":null,"service":null,"access":null,"motor_vehicle":null,"foot":null,"tiger_reviewed":"no","rrgh_part":0,"rrgh_tile_part":0},"geometry":{"type":"LineString","coordinates":[[-83.412147,37.687738],[-83.412003,37.6877874],[-83.4119327,37.6877777],[-83.4117791,37.687767],[-83.411686,37.68774],[-83.411619,37.687738],[-83.411555,37.687726],[-83.411503,37.687705],[-83.41141,37.687653],[-83.411347,37.687611],[-83.411058,37.687387],[-83.410999,37.687351],[-83.410938,37.687321],[-83.410879,37.687302],[-83.41081,37.687274],[-83.410594,37.687178],[-83.410528,37.687139],[-83.410476,37.687092],[-83.410427,37.687028],[-83.410409,37.686966],[-83.410411,37.686893],[-83.410428,37.686726],[-83.410425,37.686677],[-83.410414,37.686635],[-83.41039,37.686592],[-83.410364,37.686558],[-83.410287,37.686496],[-83.410187,37.686434],[-83.410094,37.6864],[-83.410051,37.68639],[-83.410011,37.68639],[-83.409977,37.686397],[-83.409912,37.686434],[-83.409892,37.686457],[-83.409827,37.68664],[-83.409807,37.686691],[-83.409783,37.686738],[-83.409723,37.686829],[-83.40965,37.686915],[-83.409556,37.687017],[-83.4094916,37.6871438]]}},{"type":"Feature","properties":{"osm_id":1156997690,"highway":"track","name":null,"alt_name":null,"official_name":null,"surface":null,"tracktype":null,"service":null,"access":null,"motor_vehicle":null,"foot":null,"tiger_reviewed":null,"rrgh_part":0,"rrgh_tile_part":0},"geometry":{"type":"LineString","coordinates":[[-83.4134259,37.6862311],[-83.413481,37.6862171],[-83.4135902,37.6862055]]}},{"type":"Feature","properties":{"osm_id":1156997691,"highway":"track","name":null,"alt_name":null,"official_name":null,"surface":null,"tracktype":null,"service":null,"access":null,"motor_vehicle":null,"foot":null,"tiger_reviewed":null,"rrgh_part":0,"rrgh_tile_part":0},"geometry":{"type":"LineString","coordinates":[[-83.4134398,37.6862553],[-83.4135373,37.686268],[-83.4136714,37.6862723]]}},{"type":"Feature","properties":{"osm_id":16106234,"highway":"residential","name":null,"alt_name":null,"official_name":null,"surface":null,"tracktype":null,"service":null,"access":null,"motor_vehicle":null,"foot":null,"tiger_reviewed":"no","rrgh_part":0,"rrgh_tile_part":0},"geometry":{"type":"LineString","coordinates":[[-83.400532,37.686022],[-83.40054,37.686061],[-83.400527,37.686146],[-83.40037,37.686533],[-83.400339,37.68658],[-83.400316,37.686633]]}},{"type":"Feature","properties":{"osm_id":16112252,"highway":"residential","name":"Peg Fork Road","alt_name":null,"official_name":null,"surface":null,"tracktype":null,"service":null,"access":null,"motor_vehicle":null,"foot":null,"tiger_reviewed":"no","rrgh_part":0,"rrgh_tile_part":0},"geometry":{"type":"LineString","coordinates":[[-83.37597911764705,37.675],[-83.375975,37.67508],[-83.375968,37.675116],[-83.375946,37.67521],[-83.375857,37.675414],[-83.375806,37.675479],[-83.375752,37.67554],[-83.375687,37.675596],[-83.375612,37.675646],[-83.37552,37.67569],[-83.37533,37.675774],[-83.375035,37.675896],[-83.374853,37.675983],[-83.374699,37.676073],[-83.374363,37.676282],[-83.374254,37.676339],[-83.374184,37.676369],[-83.374127,37.676401],[-83.374012,37.676472],[-83.373968,37.676508],[-83.37392,37.676553],[-83.373867,37.676595],[-83.373797,37.676675],[-83.373696,37.676851],[-83.373652,37.676921],[-83.373562,37.677049],[-83.373466,37.677175],[-83.37341,37.677234],[-83.373348,37.677293],[-83.373282,37.677344],[-83.373094,37.677514],[-83.373032,37.677559],[-83.372994,37.677612],[-83.372975,37.677668],[-83.372975,37.677724],[-83.372996,37.6779],[-83.373002,37.678025],[-83.373001,37.678155],[-83.372995,37.678217],[-83.372947,37.678513],[-83.372878,37.67903],[-83.372874,37.679109],[-83.372858,37.679171],[-83.372835,37.679309],[-83.372804,37.679446],[-83.372722,37.679749],[-83.372692,37.679903],[-83.372684,37.679978],[-83.372686,37.680049],[-83.372699,37.680118],[-83.372721,37.680185],[-83.372809,37.680392],[-83.372835,37.680462],[-83.372859,37.680532],[-83.372911,37.680732],[-83.37292,37.680796],[-83.372923,37.680857],[-83.372918,37.68092],[-83.372907,37.680985],[-83.372886,37.681048],[-83.372859,37.681109],[-83.372827,37.681168],[-83.372789,37.681222],[-83.372745,37.681271],[-83.372699,37.681316],[-83.372649,37.681359],[-83.372499,37.681472],[-83.372319,37.681574],[-83.372254,37.681605],[-83.372046,37.681692],[-83.371821,37.681792]]}},{"type":"Feature","properties":{"osm_id":16110916,"highway":"residential","name":"Upper Boone Fork Road","alt_name":null,"official_name":null,"surface":null,"tracktype":null,"service":null,"access":null,"motor_vehicle":null,"foot":null,"tiger_reviewed":"no","rrgh_part":0,"rrgh_tile_part":0},"geometry":{"type":"LineString","coordinates":[[-83.35559246564885,37.675],[-83.355432,37.675117],[-83.355049,37.67542],[-83.354537,37.675834],[-83.354396,37.675927],[-83.354063,37.676172],[-83.353781,37.676382],[-83.353682,37.676466],[-83.353594,37.676553],[-83.353521,37.676649],[-83.353452,37.676748],[-83.353396,37.676856],[-83.353347,37.676969],[-83.353307,37.677086],[-83.353234,37.677333],[-83.353169,37.677586],[-83.353142,37.677719],[-83.353122,37.677858],[-83.353093,37.67814],[-83.353083,37.678285],[-83.353072,37.67858],[-83.353059,37.679148],[-83.35305,37.679285],[-83.353021,37.679555],[-83.352988,37.679686],[-83.352935,37.679812],[-83.352868,37.679937],[-83.352782,37.680058],[-83.352677,37.680175],[-83.352574,37.680283],[-83.352463,37.680376],[-83.352217,37.680559],[-83.351844,37.680789],[-83.351719,37.680856],[-83.3516,37.68091],[-83.351474,37.680931],[-83.351358,37.680927],[-83.351255,37.680909],[-83.351166,37.680884],[-83.351092,37.680857],[-83.351002,37.680816],[-83.350928,37.680763]]}},{"type":"Feature","properties":{"osm_id":16117221,"highway":"residential","name":"Bear Fork Road","alt_name":null,"official_name":null,"surface":null,"tracktype":null,"service":null,"access":null,"motor_vehicle":null,"foot":null,"tiger_reviewed":"no","rrgh_part":0,"rrgh_tile_part":0},"geometry":{"type":"LineString","coordinates":[[-83.375968,37.675116],[-83.375977,37.675191],[-83.375995,37.675283],[-83.376001,37.675333],[-83.375999,37.675397],[-83.375989,37.675467],[-83.375988,37.675504],[-83.375995,37.67554],[-83.37601,37.675575],[-83.376033,37.675609],[-83.376124,37.67571],[-83.376285,37.675859],[-83.376358,37.675914],[-83.376835,37.676249],[-83.376877,37.676275],[-83.377009,37.676343],[-83.37719,37.676454],[-83.377331,37.676567],[-83.377508,37.676687],[-83.377605,37.676748],[-83.377646,37.676769],[-83.377688,37.676778],[-83.37773,37.676778],[-83.377875,37.676754],[-83.377932,37.676749],[-83.37799,37.67675],[-83.378048,37.676759],[-83.378101,37.676775],[-83.378155,37.676797],[-83.378263,37.676866],[-83.378529,37.677065],[-83.378578,37.677098],[-83.378669,37.677157],[-83.378852,37.677266]]}},{"type":"Feature","properties":{"osm_id":16106729,"highway":"residential","name":null,"alt_name":null,"official_name":null,"surface":null,"tracktype":null,"service":null,"access":null,"motor_vehicle":null,"foot":null,"tiger_reviewed":"no","rrgh_part":0,"rrgh_tile_part":0},"geometry":{"type":"LineString","coordinates":[[-83.372878,37.67903],[-83.372839,37.679096],[-83.372785,37.679194],[-83.372769,37.679241],[-83.372715,37.679362],[-83.372661,37.679464],[-83.372628,37.679519],[-83.372616,37.679528],[-83.372603,37.679529],[-83.372599,37.679523],[-83.372601,37.679508],[-83.372662,37.679138],[-83.372666,37.679031],[-83.372662,37.678994],[-83.37261,37.678797],[-83.372603,37.67874],[-83.372561,37.678498],[-83.372539,37.678335],[-83.372529,37.678318],[-83.372493,37.678293],[-83.372467,37.678284],[-83.372408,37.67829],[-83.37198,37.678559],[-83.371743,37.678772],[-83.371721,37.678809],[-83.371704,37.678846],[-83.37162,37.678976],[-83.371576,37.679013],[-83.37152,37.679037],[-83.371436,37.679051],[-83.371341,37.679049],[-83.371271,37.679026],[-83.371093,37.678933],[-83.371068,37.678929],[-83.370896,37.678917],[-83.370767,37.678929],[-83.370724,37.678928],[-83.370715,37.678931],[-83.371049,37.67919],[-83.371224,37.679244],[-83.371274,37.679249],[-83.371544,37.679211],[-83.371588,37.679199],[-83.371672,37.679169]]}},{"type":"Feature","properties":{"osm_id":16104880,"highway":"service","name":null,"alt_name":null,"official_name":null,"surface":null,"tracktype":null,"service":null,"access":"private","motor_vehicle":null,"foot":null,"tiger_reviewed":"no","rrgh_part":0,"rrgh_tile_part":0},"geometry":{"type":"LineString","coordinates":[[-83.371821,37.681792],[-83.371758,37.681821],[-83.371549,37.681911],[-83.37142,37.68197],[-83.371197,37.682079],[-83.371061,37.682163],[-83.371009,37.682212]]}},{"type":"Feature","properties":{"osm_id":16384346,"highway":"residential","name":"Spencer Fork Road","alt_name":null,"official_name":null,"surface":null,"tracktype":null,"service":null,"access":null,"motor_vehicle":null,"foot":null,"tiger_reviewed":"no","rrgh_part":0,"rrgh_tile_part":0},"geometry":{"type":"LineString","coordinates":[[-83.409778,37.70339],[-83.409774,37.703531],[-83.409692,37.703751],[-83.409558,37.703889],[-83.409404,37.704034],[-83.409203,37.704244],[-83.409003,37.704388],[-83.408729,37.704501],[-83.408521,37.704629],[-83.408303,37.704773],[-83.407982,37.704943],[-83.407652,37.705078],[-83.40734,37.705234],[-83.406985,37.705315],[-83.406769,37.705348],[-83.406516,37.705447],[-83.406046,37.705607],[-83.405841,37.70564],[-83.405738,37.705638],[-83.405577,37.705709],[-83.40535,37.705852],[-83.405113,37.705988],[-83.404832,37.706086],[-83.404532,37.706161],[-83.404262,37.70617],[-83.403723,37.706159],[-83.40322,37.706194],[-83.403089,37.706214]]}},{"type":"Feature","properties":{"osm_id":16383750,"highway":"residential","name":"Fugate Cemetery Road","alt_name":null,"official_name":null,"surface":null,"tracktype":null,"service":null,"access":null,"motor_vehicle":null,"foot":null,"tiger_reviewed":"no","rrgh_part":0,"rrgh_tile_part":0},"geometry":{"type":"LineString","coordinates":[[-83.400902,37.699888],[-83.400844,37.699972],[-83.400719,37.700119],[-83.400418,37.700389],[-83.400299,37.700509],[-83.400252,37.70055],[-83.400233,37.700572]]}},{"type":"Feature","properties":{"osm_id":16381413,"highway":"residential","name":null,"alt_name":null,"official_name":null,"surface":null,"tracktype":null,"service":null,"access":null,"motor_vehicle":null,"foot":null,"tiger_reviewed":"no","rrgh_part":0,"rrgh_tile_part":0},"geometry":{"type":"LineString","coordinates":[[-83.367219,37.70834],[-83.367583,37.708142],[-83.368215,37.707404],[-83.368698,37.70674],[-83.368651,37.706345],[-83.368291,37.706032],[-83.36796,37.705775],[-83.36772,37.705439],[-83.36729,37.704795]]}},{"type":"Feature","properties":{"osm_id":16384087,"highway":"residential","name":"Orville Banks Road","alt_name":null,"official_name":null,"surface":null,"tracktype":null,"service":null,"access":null,"motor_vehicle":null,"foot":null,"tiger_reviewed":"no","rrgh_part":0,"rrgh_tile_part":0},"geometry":{"type":"LineString","coordinates":[[-83.368301,37.708806],[-83.368288,37.708519],[-83.368272,37.70846],[-83.368239,37.708404],[-83.368214,37.708378],[-83.368156,37.708339],[-83.368072,37.708306],[-83.367967,37.708283],[-83.367914,37.708278],[-83.367844,37.708271],[-83.367769,37.708273],[-83.367434,37.708335],[-83.36731,37.708344],[-83.367219,37.70834],[-83.367185,37.708338],[-83.3671,37.708329],[-83.366976,37.708299],[-83.366895,37.708268],[-83.366791,37.708213],[-83.366528,37.708029],[-83.366437,37.707971],[-83.366299,37.707898],[-83.366268,37.707885],[-83.366233,37.70788],[-83.366182,37.707891],[-83.366162,37.707906],[-83.366146,37.707926],[-83.366113,37.707983],[-83.366064,37.708046],[-83.36591,37.70818],[-83.365831,37.708241],[-83.365783,37.70826]]}},{"type":"Feature","properties":{"osm_id":16382416,"highway":"residential","name":null,"alt_name":null,"official_name":null,"surface":null,"tracktype":null,"service":null,"access":null,"motor_vehicle":null,"foot":null,"tiger_reviewed":"no","rrgh_part":0,"rrgh_tile_part":0},"geometry":{"type":"LineString","coordinates":[[-83.418616,37.716295],[-83.418559,37.716526],[-83.418469,37.716796],[-83.418165,37.717351],[-83.418048,37.717448],[-83.41787,37.717534]]}},{"type":"Feature","properties":{"osm_id":16384263,"highway":"residential","name":"Jim Spencer Road","alt_name":null,"official_name":null,"surface":null,"tracktype":null,"service":null,"access":null,"motor_vehicle":null,"foot":null,"tiger_reviewed":"no","rrgh_part":0,"rrgh_tile_part":0},"geometry":{"type":"LineString","coordinates":[[-83.412777,37.715769],[-83.412706,37.715677],[-83.412685,37.715614],[-83.412687,37.715581],[-83.412696,37.715551],[-83.41279,37.715355],[-83.412853,37.715164],[-83.412901,37.714946],[-83.412911,37.714856],[-83.412909,37.714812],[-83.412901,37.714773],[-83.412886,37.714735],[-83.412863,37.714702],[-83.412801,37.714638],[-83.412721,37.714579],[-83.412681,37.714556],[-83.412579,37.714508],[-83.412509,37.714467],[-83.412449,37.71444],[-83.412254,37.714368],[-83.412145,37.714319],[-83.412014,37.714287],[-83.411869,37.714264],[-83.411717,37.714253],[-83.411523,37.714253],[-83.411318,37.714269],[-83.411103,37.714291],[-83.411008,37.71429],[-83.410914,37.714278],[-83.410696,37.714225],[-83.410525,37.714189],[-83.410392,37.714192],[-83.410077,37.714218],[-83.409889,37.714246],[-83.409744,37.714261],[-83.409553,37.714266],[-83.409468,37.714263],[-83.409362,37.71425]]}},{"type":"Feature","properties":{"osm_id":16384415,"highway":"residential","name":"County Road 1158","alt_name":null,"official_name":null,"surface":null,"tracktype":null,"service":null,"access":null,"motor_vehicle":null,"foot":null,"tiger_reviewed":"no","rrgh_part":0,"rrgh_tile_part":0},"geometry":{"type":"LineString","coordinates":[[-83.412509,37.714467],[-83.412473,37.714481],[-83.412418,37.714474],[-83.412307,37.71443],[-83.412192,37.714432],[-83.411959,37.714427],[-83.411911,37.714432],[-83.411832,37.714456],[-83.411756,37.714495],[-83.411679,37.714525],[-83.411603,37.714546],[-83.411512,37.714554],[-83.411465,37.714534],[-83.411379,37.714485],[-83.411285,37.714448],[-83.411199,37.714434],[-83.411143,37.714433]]}},{"type":"Feature","properties":{"osm_id":305848620,"highway":"service","name":null,"alt_name":null,"official_name":null,"surface":null,"tracktype":null,"service":null,"access":null,"motor_vehicle":null,"foot":null,"tiger_reviewed":null,"rrgh_part":0,"rrgh_tile_part":0},"geometry":{"type":"LineString","coordinates":[[-83.412024,37.716327],[-83.4119135,37.7164157],[-83.4116078,37.7167173],[-83.4113076,37.717034],[-83.4111508,37.7172394],[-83.4111075,37.7174255],[-83.4110885,37.7175367],[-83.4108938,37.7176544],[-83.4107613,37.7177207]]}},{"type":"Feature","properties":{"osm_id":16384916,"highway":"residential","name":"D Trent Road","alt_name":null,"official_name":null,"surface":null,"tracktype":null,"service":null,"access":null,"motor_vehicle":null,"foot":null,"tiger_reviewed":"no","rrgh_part":0,"rrgh_tile_part":0},"geometry":{"type":"LineString","coordinates":[[-83.405481,37.726459],[-83.405738,37.726553],[-83.405891,37.726673],[-83.406072,37.72685],[-83.40627,37.727009],[-83.406408,37.727092],[-83.406546,37.727144],[-83.406762,37.727242],[-83.406915,37.727331],[-83.407043,37.727457],[-83.40714,37.727621],[-83.407153,37.727714],[-83.407173,37.727801],[-83.407195,37.727857],[-83.407248,37.727889],[-83.407342,37.727872],[-83.407398,37.727817],[-83.407417,37.727725],[-83.407418,37.727669],[-83.407412,37.727614],[-83.407282,37.727301],[-83.407262,37.727208],[-83.407271,37.727146]]}},{"type":"Feature","properties":{"osm_id":16381033,"highway":"residential","name":null,"alt_name":null,"official_name":null,"surface":null,"tracktype":null,"service":null,"access":null,"motor_vehicle":null,"foot":null,"tiger_reviewed":"no","rrgh_part":0,"rrgh_tile_part":0},"geometry":{"type":"LineString","coordinates":[[-83.39146,37.732861],[-83.393193,37.733223],[-83.395567,37.734543],[-83.39602,37.735054],[-83.396287,37.735458],[-83.397158,37.736589],[-83.397245,37.736658],[-83.397244,37.736864],[-83.397705,37.737825],[-83.398022,37.738305],[-83.398191,37.738327],[-83.398214,37.738464],[-83.398334,37.738556],[-83.398744,37.738873],[-83.401326,37.73943]]}},{"type":"Feature","properties":{"osm_id":16384679,"highway":"residential","name":"Lexie-Straight Creek Road","alt_name":null,"official_name":null,"surface":null,"tracktype":null,"service":null,"access":null,"motor_vehicle":null,"foot":null,"tiger_reviewed":"no","rrgh_part":0,"rrgh_tile_part":0},"geometry":{"type":"LineString","coordinates":[[-83.399868,37.729242],[-83.399937,37.729281],[-83.400112,37.729451],[-83.400249,37.729529],[-83.400538,37.729595],[-83.400775,37.72965],[-83.400868,37.729683],[-83.400937,37.729752],[-83.401139,37.729992],[-83.401191,37.730073],[-83.401291,37.730118],[-83.4014,37.730133],[-83.401634,37.730125],[-83.401853,37.73013],[-83.402024,37.730127],[-83.402124,37.730153],[-83.4022,37.730211],[-83.402303,37.730305]]}},{"type":"Feature","properties":{"osm_id":16383476,"highway":"residential","name":"Blue Balk Road","alt_name":null,"official_name":null,"surface":null,"tracktype":null,"service":null,"access":null,"motor_vehicle":null,"foot":null,"tiger_reviewed":"no","rrgh_part":0,"rrgh_tile_part":0},"geometry":{"type":"LineString","coordinates":[[-83.403378,37.734615],[-83.403589,37.734579],[-83.403687,37.734576],[-83.403757,37.734573],[-83.403827,37.734578],[-83.403895,37.734582],[-83.404086,37.734616],[-83.404396,37.734696],[-83.404475,37.734711],[-83.404553,37.734708],[-83.404668,37.734681],[-83.405098,37.734533],[-83.405243,37.734495],[-83.405669,37.734404],[-83.406019,37.734306],[-83.406363,37.734196],[-83.406709,37.734126],[-83.4068,37.734099],[-83.40682,37.734086]]}},{"type":"Feature","properties":{"osm_id":16381013,"highway":"service","name":null,"alt_name":null,"official_name":null,"surface":null,"tracktype":null,"service":null,"access":"private","motor_vehicle":null,"foot":null,"tiger_reviewed":"no","rrgh_part":0,"rrgh_tile_part":0},"geometry":{"type":"LineString","coordinates":[[-83.400538,37.729595],[-83.400527,37.729776],[-83.400519,37.730008],[-83.400493,37.730353],[-83.400445,37.73071],[-83.400355,37.730816],[-83.400247,37.730821],[-83.400105,37.730807],[-83.400037,37.730676]]}},{"type":"Feature","properties":{"osm_id":16382075,"highway":"residential","name":null,"alt_name":null,"official_name":null,"surface":null,"tracktype":null,"service":null,"access":null,"motor_vehicle":null,"foot":null,"tiger_reviewed":"no","rrgh_part":0,"rrgh_tile_part":0},"geometry":{"type":"LineString","coordinates":[[-83.390473,37.736518],[-83.391683,37.737457],[-83.392748,37.738121],[-83.393468,37.738419],[-83.394881,37.738785],[-83.395745,37.7389],[-83.396725,37.738786],[-83.398022,37.738305]]}},{"type":"Feature","properties":{"osm_id":16383538,"highway":"residential","name":"Straight Creek Road","alt_name":null,"official_name":null,"surface":null,"tracktype":null,"service":null,"access":null,"motor_vehicle":null,"foot":null,"tiger_reviewed":"no","rrgh_part":0,"rrgh_tile_part":0},"geometry":{"type":"LineString","coordinates":[[-83.386375,37.722297],[-83.386323,37.722333],[-83.386236,37.722384],[-83.386153,37.722441],[-83.385992,37.722551],[-83.385926,37.722587],[-83.38585,37.722614],[-83.385659,37.722701],[-83.385371,37.72285],[-83.385253,37.722943],[-83.385154,37.723021],[-83.385016,37.72315],[-83.384783,37.723311],[-83.384586,37.723424],[-83.384543,37.723445],[-83.384418,37.723496],[-83.384362,37.72353],[-83.384184,37.723635],[-83.384111,37.723648],[-83.383958,37.723685],[-83.383546,37.723771],[-83.383455,37.723795],[-83.383282,37.723848],[-83.382975,37.723962],[-83.382767,37.724049],[-83.382325,37.724263],[-83.381613,37.724667],[-83.381532,37.724701],[-83.381321,37.724834],[-83.381101,37.724995],[-83.38096,37.725068],[-83.38084,37.725153],[-83.380622,37.725341],[-83.380574,37.725392],[-83.380534,37.725447],[-83.380409,37.725596],[-83.380187,37.725839],[-83.380082,37.72593],[-83.37998,37.725979],[-83.37987,37.726021],[-83.379736,37.726057],[-83.379288,37.726166],[-83.379199,37.726182],[-83.379057,37.726241],[-83.378966,37.726293],[-83.37885,37.726381],[-83.378718,37.726473],[-83.378462,37.726672],[-83.378396,37.726719],[-83.37826,37.726806],[-83.378035,37.726917],[-83.377805,37.727014],[-83.377185,37.727228],[-83.377038,37.727279],[-83.376859,37.727353],[-83.376702,37.727437],[-83.376632,37.727483],[-83.376502,37.727577],[-83.376154,37.727874],[-83.375701,37.728225],[-83.375514,37.728376],[-83.375444,37.728423],[-83.374979,37.728819],[-83.374585,37.728984],[-83.374476,37.72908],[-83.374422,37.729174],[-83.374352,37.729425],[-83.374298,37.729548],[-83.374258,37.729656],[-83.374074,37.72983],[-83.373939,37.729977],[-83.373869,37.730083],[-83.373739,37.730266],[-83.373609,37.730417],[-83.373562,37.730515],[-83.373482,37.730702],[-83.373438,37.730895],[-83.373408,37.731058],[-83.37336,37.7312],[-83.37328,37.731323],[-83.373202,37.731455],[-83.373134,37.731632],[-83.373079,37.73179],[-83.372948,37.731956],[-83.372678,37.732213],[-83.372422,37.732422],[-83.372107,37.732713],[-83.371881,37.732946],[-83.371726,37.733117],[-83.371563,37.733326],[-83.371501,37.733374],[-83.371403,37.73342],[-83.371271,37.733469],[-83.370981,37.733568],[-83.370704,37.733637],[-83.370533,37.733687],[-83.370403,37.733734],[-83.370271,37.733772],[-83.370204,37.733782],[-83.370137,37.733785],[-83.370009,37.733777],[-83.369948,37.733765],[-83.369887,37.733748],[-83.369775,37.733707],[-83.369524,37.733605],[-83.369273,37.733545],[-83.369142,37.73353],[-83.368804,37.733517],[-83.3683463,37.7334918]]}},{"type":"Feature","properties":{"osm_id":16382418,"highway":"residential","name":null,"alt_name":null,"official_name":null,"surface":null,"tracktype":null,"service":null,"access":null,"motor_vehicle":null,"foot":null,"tiger_reviewed":"no","rrgh_part":0,"rrgh_tile_part":0},"geometry":{"type":"LineString","coordinates":[[-83.384362,37.72353],[-83.384499,37.724025],[-83.385054,37.725271]]}},{"type":"Feature","properties":{"osm_id":16383270,"highway":"residential","name":"South Hutchinson Road","alt_name":null,"official_name":null,"surface":null,"tracktype":null,"service":null,"access":null,"motor_vehicle":null,"foot":null,"tiger_reviewed":"no","rrgh_part":0,"rrgh_tile_part":0},"geometry":{"type":"LineString","coordinates":[[-83.36736,37.715996],[-83.367319,37.715938],[-83.367228,37.71584],[-83.36718,37.715817],[-83.367111,37.715766],[-83.367051,37.715693],[-83.367026,37.715594],[-83.36703,37.715469],[-83.366991,37.715177],[-83.366958,37.715036],[-83.366862,37.714786],[-83.36684,37.714708],[-83.366776,37.714597],[-83.366724,37.714535],[-83.366534,37.714347],[-83.36637,37.714159],[-83.366279,37.714073],[-83.366177,37.713996],[-83.366121,37.713961],[-83.366062,37.713931],[-83.365998,37.713909],[-83.365932,37.713896],[-83.365866,37.713891],[-83.365804,37.713895],[-83.365687,37.713928],[-83.365576,37.713973],[-83.365518,37.71399],[-83.365459,37.714],[-83.365402,37.714],[-83.365291,37.713982],[-83.365274,37.71397],[-83.365289,37.713956],[-83.365347,37.713928],[-83.365379,37.713903],[-83.36546,37.713787],[-83.365484,37.713716],[-83.365515,37.713566],[-83.365519,37.713548],[-83.36553,37.713515],[-83.36555,37.713484],[-83.365575,37.713459],[-83.365606,37.71344],[-83.365731,37.713395],[-83.365831,37.713372],[-83.365987,37.713343],[-83.366039,37.713326],[-83.366101,37.713317],[-83.366337,37.713241],[-83.366393,37.713214],[-83.366446,37.713183],[-83.366535,37.71311],[-83.366576,37.71307],[-83.366741,37.712846],[-83.366803,37.712739]]}},{"type":"Feature","properties":{"osm_id":16382520,"highway":"residential","name":null,"alt_name":null,"official_name":null,"surface":null,"tracktype":null,"service":null,"access":null,"motor_vehicle":null,"foot":null,"tiger_reviewed":"no","rrgh_part":0,"rrgh_tile_part":0},"geometry":{"type":"LineString","coordinates":[[-83.367806,37.71493],[-83.368026,37.714676],[-83.3677313,37.7142535],[-83.3677621,37.7141389],[-83.3678815,37.7138652],[-83.3679405,37.7136721],[-83.3680102,37.7135925],[-83.3681135,37.7135278],[-83.368274,37.713496],[-83.368384,37.713515]]}},{"type":"Feature","properties":{"osm_id":16385240,"highway":"residential","name":"Rush Fork Road","alt_name":null,"official_name":null,"surface":null,"tracktype":null,"service":null,"access":null,"motor_vehicle":null,"foot":null,"tiger_reviewed":"no","rrgh_part":0,"rrgh_tile_part":0},"geometry":{"type":"LineString","coordinates":[[-83.36736,37.715996],[-83.367383,37.716038],[-83.367756,37.716626],[-83.367849,37.716738],[-83.367913,37.716881],[-83.367954,37.71707],[-83.368008,37.717735],[-83.368002,37.717835],[-83.367991,37.717911],[-83.367911,37.718075],[-83.367856,37.718154],[-83.367808,37.718201],[-83.367679,37.718314],[-83.367642,37.718362],[-83.367612,37.718415],[-83.367592,37.718467],[-83.367552,37.718616],[-83.367483,37.718966],[-83.36742,37.719189],[-83.367308,37.719478],[-83.367285,37.719531],[-83.367231,37.719634],[-83.367047,37.719946],[-83.366962,37.720126]]}},{"type":"Feature","properties":{"osm_id":16384849,"highway":"residential","name":"Goff Proffit Road","alt_name":null,"official_name":null,"surface":null,"tracktype":null,"service":null,"access":null,"motor_vehicle":null,"foot":null,"tiger_reviewed":"no","rrgh_part":0,"rrgh_tile_part":0},"geometry":{"type":"LineString","coordinates":[[-83.365336,37.724946],[-83.365219,37.724796],[-83.365042,37.724605],[-83.364888,37.724466],[-83.364761,37.724407],[-83.364503,37.724316],[-83.364236,37.724231],[-83.364147,37.724198],[-83.363892,37.724083],[-83.363721,37.724],[-83.363546,37.723928],[-83.363459,37.7239],[-83.363372,37.723877],[-83.363112,37.72383],[-83.36281,37.723797],[-83.362601,37.723755],[-83.36242,37.723705]]}},{"type":"Feature","properties":{"osm_id":16383401,"highway":"residential","name":"Straight Circle Road","alt_name":null,"official_name":null,"surface":null,"tracktype":null,"service":null,"access":null,"motor_vehicle":null,"foot":null,"tiger_reviewed":"no","rrgh_part":0,"rrgh_tile_part":0},"geometry":{"type":"LineString","coordinates":[[-83.378499,37.735491],[-83.378367,37.735535],[-83.378278,37.735591],[-83.37825,37.735631],[-83.378235,37.735655],[-83.378221,37.735681],[-83.378195,37.735717],[-83.378157,37.735757],[-83.378086,37.735784],[-83.377848,37.735824],[-83.377684,37.735861],[-83.377477,37.735918],[-83.377305,37.736016],[-83.377175,37.736079],[-83.37689,37.736195],[-83.376766,37.736229],[-83.376601,37.736267],[-83.376446,37.736308],[-83.376312,37.736338],[-83.376188,37.736372],[-83.37611,37.736403],[-83.375867,37.736464],[-83.375473,37.736485],[-83.375395,37.736493],[-83.375311,37.736509],[-83.375231,37.736519],[-83.375069,37.736561],[-83.374912,37.736595],[-83.374295,37.736704],[-83.374121,37.736724],[-83.374039,37.736724],[-83.373936,37.73674],[-83.373855,37.736741],[-83.373587,37.736776],[-83.373493,37.736796],[-83.373417,37.736805],[-83.373084,37.736889],[-83.37292,37.736923],[-83.37243,37.737008],[-83.372389,37.737015],[-83.372251,37.737055],[-83.371772,37.737243],[-83.371646,37.737303],[-83.371592,37.737337],[-83.371549,37.737374],[-83.371515,37.737414],[-83.37149,37.737455],[-83.371457,37.737535],[-83.371434,37.737571],[-83.3714,37.737602],[-83.371358,37.737622],[-83.371314,37.737635],[-83.37122,37.737639],[-83.370973,37.737614],[-83.370863,37.737612],[-83.370808,37.737617],[-83.370701,37.737634],[-83.370516,37.737686],[-83.370393,37.737733],[-83.370368,37.737746],[-83.370323,37.737769],[-83.370248,37.737822],[-83.370216,37.737854],[-83.370186,37.737906],[-83.370177,37.737936],[-83.370176,37.738073],[-83.370208,37.738319],[-83.370209,37.738403],[-83.370178,37.738602]]}},{"type":"Feature","properties":{"osm_id":16382514,"highway":"residential","name":null,"alt_name":null,"official_name":null,"surface":null,"tracktype":null,"service":null,"access":null,"motor_vehicle":null,"foot":null,"tiger_reviewed":"no","rrgh_part":0,"rrgh_tile_part":0},"geometry":{"type":"LineString","coordinates":[[-83.365899,37.728433],[-83.364607,37.728491]]}},{"type":"Feature","properties":{"osm_id":16382515,"highway":"service","name":null,"alt_name":null,"official_name":null,"surface":null,"tracktype":null,"service":null,"access":"private","motor_vehicle":null,"foot":null,"tiger_reviewed":"no","rrgh_part":0,"rrgh_tile_part":0},"geometry":{"type":"LineString","coordinates":[[-83.366024,37.727302],[-83.3661921,37.7273033],[-83.366704,37.727276],[-83.3669056,37.7271633],[-83.3669439,37.7264199],[-83.3669463,37.726134]]}},{"type":"Feature","properties":{"osm_id":1162991040,"highway":"residential","name":"Straight Creek Road","alt_name":null,"official_name":null,"surface":null,"tracktype":null,"service":null,"access":null,"motor_vehicle":null,"foot":null,"tiger_reviewed":"no","rrgh_part":0,"rrgh_tile_part":0},"geometry":{"type":"LineString","coordinates":[[-83.3683463,37.7334918],[-83.3682362,37.7334857]]}},{"type":"Feature","properties":{"osm_id":16385306,"highway":"residential","name":"R Vancleve Road","alt_name":null,"official_name":null,"surface":null,"tracktype":null,"service":null,"access":null,"motor_vehicle":null,"foot":null,"tiger_reviewed":"no","rrgh_part":0,"rrgh_tile_part":0},"geometry":{"type":"LineString","coordinates":[[-83.370248,37.737822],[-83.370177,37.737788],[-83.370141,37.737765],[-83.370115,37.737736],[-83.370078,37.737674],[-83.370021,37.737619],[-83.369963,37.73758],[-83.369878,37.737546],[-83.36974,37.737513],[-83.369666,37.737507],[-83.369631,37.73751]]}},{"type":"Feature","properties":{"osm_id":16381404,"highway":"residential","name":null,"alt_name":null,"official_name":null,"surface":null,"tracktype":null,"service":null,"access":null,"motor_vehicle":null,"foot":null,"tiger_reviewed":"no","rrgh_part":0,"rrgh_tile_part":0},"geometry":{"type":"LineString","coordinates":[[-83.3680885,37.733804],[-83.3677333,37.733961],[-83.3674767,37.7340964],[-83.3671868,37.7341895],[-83.367066,37.7342048],[-83.366872,37.734202]]}},{"type":"Feature","properties":{"osm_id":1162991039,"highway":"residential","name":"Straight Creek Road","alt_name":null,"official_name":null,"surface":null,"tracktype":null,"service":null,"access":null,"motor_vehicle":null,"foot":null,"tiger_reviewed":"no","rrgh_part":0,"rrgh_tile_part":0},"geometry":{"type":"LineString","coordinates":[[-83.3682362,37.7334857],[-83.368016,37.733474]]}},{"type":"Feature","properties":{"osm_id":16382382,"highway":"service","name":null,"alt_name":null,"official_name":null,"surface":null,"tracktype":null,"service":null,"access":null,"motor_vehicle":null,"foot":null,"tiger_reviewed":"no","rrgh_part":0,"rrgh_tile_part":0},"geometry":{"type":"LineString","coordinates":[[-83.4011101,37.74779],[-83.4012738,37.7479714],[-83.4014568,37.7480387],[-83.4016118,37.7480347],[-83.4019858,37.7480336],[-83.4022089,37.7481235],[-83.4027502,37.7487632]]}},{"type":"Feature","properties":{"osm_id":16384168,"highway":"residential","name":null,"alt_name":null,"official_name":null,"surface":null,"tracktype":null,"service":null,"access":null,"motor_vehicle":null,"foot":null,"tiger_reviewed":"no","rrgh_part":0,"rrgh_tile_part":0},"geometry":{"type":"LineString","coordinates":[[-83.4006605,37.7478225],[-83.4011101,37.74779],[-83.4012806,37.747738],[-83.4015806,37.7475318],[-83.4021862,37.7469555],[-83.402436,37.746793],[-83.402803,37.746744],[-83.403356,37.746745],[-83.40371,37.746843]]}},{"type":"Feature","properties":{"osm_id":16384167,"highway":"residential","name":null,"alt_name":null,"official_name":null,"surface":null,"tracktype":null,"service":null,"access":null,"motor_vehicle":null,"foot":null,"tiger_reviewed":"no","rrgh_part":0,"rrgh_tile_part":0},"geometry":{"type":"LineString","coordinates":[[-83.404062,37.746912],[-83.40371,37.746843],[-83.40368,37.746932],[-83.403781,37.747126],[-83.403882,37.747214],[-83.404034,37.747263],[-83.404237,37.747191],[-83.404308,37.747094],[-83.404309,37.747005],[-83.404062,37.746912]]}},{"type":"Feature","properties":{"osm_id":16381378,"highway":"track","name":null,"alt_name":null,"official_name":null,"surface":null,"tracktype":null,"service":null,"access":null,"motor_vehicle":null,"foot":null,"tiger_reviewed":"no","rrgh_part":0,"rrgh_tile_part":0},"geometry":{"type":"LineString","coordinates":[[-83.388968,37.747982],[-83.3894,37.748325],[-83.389516,37.7486],[-83.389598,37.749253],[-83.389602,37.749286],[-83.390264,37.749723],[-83.39071023561644,37.75]]}},{"type":"Feature","properties":{"osm_id":16384112,"highway":"residential","name":"Lindon Road","alt_name":null,"official_name":null,"surface":null,"tracktype":null,"service":null,"access":null,"motor_vehicle":null,"foot":null,"tiger_reviewed":"no","rrgh_part":0,"rrgh_tile_part":0},"geometry":{"type":"LineString","coordinates":[[-83.369501,37.746645],[-83.369269,37.746712],[-83.369042,37.74675],[-83.368807,37.746764],[-83.368559,37.746759],[-83.368332,37.746742],[-83.368154,37.74672],[-83.367806,37.746639],[-83.367713,37.746612],[-83.367627,37.746605],[-83.367518,37.746609],[-83.367368,37.746649],[-83.367228,37.746671],[-83.366966,37.746651],[-83.366776,37.746637],[-83.366629,37.746603]]}},{"type":"Feature","properties":{"osm_id":16384472,"highway":"residential","name":"Shockey Fork Road","alt_name":null,"official_name":null,"surface":null,"tracktype":null,"service":null,"access":null,"motor_vehicle":null,"foot":null,"tiger_reviewed":"no","rrgh_part":0,"rrgh_tile_part":0},"geometry":{"type":"LineString","coordinates":[[-83.335859,37.683014],[-83.335848,37.683031],[-83.335627,37.68317],[-83.335467,37.683251],[-83.33542,37.683282],[-83.335379,37.68332],[-83.335344,37.683367],[-83.335313,37.683421],[-83.335228,37.683797],[-83.335206,37.683854],[-83.335126,37.683999],[-83.335102,37.684086],[-83.335099,37.684127],[-83.335125,37.684326],[-83.335119,37.684471],[-83.3351,37.684553],[-83.335073,37.684638],[-83.335009,37.684809],[-83.33500000000001,37.68483748623851]]}},{"type":"Feature","properties":{"osm_id":16384472,"highway":"residential","name":"Shockey Fork Road","alt_name":null,"official_name":null,"surface":null,"tracktype":null,"service":null,"access":null,"motor_vehicle":null,"foot":null,"tiger_reviewed":"no","rrgh_part":0,"rrgh_tile_part":1},"geometry":{"type":"LineString","coordinates":[[-83.33500000000001,37.69926806382981],[-83.33509,37.699787],[-83.335114,37.699902],[-83.335134,37.699949],[-83.335184,37.700021],[-83.335211,37.700044],[-83.335248,37.700064]]}},{"type":"Feature","properties":{"osm_id":16104435,"highway":"residential","name":null,"alt_name":null,"official_name":null,"surface":null,"tracktype":null,"service":null,"access":null,"motor_vehicle":null,"foot":null,"tiger_reviewed":"no","rrgh_part":0,"rrgh_tile_part":0},"geometry":{"type":"LineString","coordinates":[[-83.354063,37.676172],[-83.354124,37.676252],[-83.354254,37.676391],[-83.354329,37.676494],[-83.354346,37.676524],[-83.354376,37.676614],[-83.354383,37.676668],[-83.354327,37.677093],[-83.354297,37.677205],[-83.354242,37.677351],[-83.354213,37.677422],[-83.35414,37.677578],[-83.354129,37.67759],[-83.354113,37.677594],[-83.354084,37.677589],[-83.354052,37.677565],[-83.354045,37.677556],[-83.354003,37.677484],[-83.353981,37.677425],[-83.353972,37.677375]]}},{"type":"Feature","properties":{"osm_id":16381552,"highway":"service","name":null,"alt_name":null,"official_name":null,"surface":null,"tracktype":null,"service":null,"access":"private","motor_vehicle":null,"foot":null,"tiger_reviewed":"no","rrgh_part":0,"rrgh_tile_part":0},"geometry":{"type":"LineString","coordinates":[[-83.346073,37.685644],[-83.346125,37.685665],[-83.346202,37.685661],[-83.346415,37.685614],[-83.34657,37.685591],[-83.346611,37.685591],[-83.346722,37.685613],[-83.346946,37.685703],[-83.347064,37.685734],[-83.347187,37.685759]]}},{"type":"Feature","properties":{"osm_id":16381742,"highway":"residential","name":null,"alt_name":null,"official_name":null,"surface":null,"tracktype":null,"service":null,"access":null,"motor_vehicle":null,"foot":null,"tiger_reviewed":"no","rrgh_part":0,"rrgh_tile_part":0},"geometry":{"type":"LineString","coordinates":[[-83.335313,37.683421],[-83.3352244,37.6833689],[-83.33500000000001,37.68295801845125]]}},{"type":"Feature","properties":{"osm_id":16380759,"highway":"residential","name":"Rose Fork Road","alt_name":null,"official_name":null,"surface":null,"tracktype":null,"service":null,"access":null,"motor_vehicle":null,"foot":null,"tiger_reviewed":"no","rrgh_part":0,"rrgh_tile_part":0},"geometry":{"type":"LineString","coordinates":[[-83.350562,37.691356],[-83.350552,37.691378],[-83.350522,37.691405],[-83.350404,37.691488],[-83.35022,37.69156],[-83.350068,37.691605],[-83.349639,37.691743],[-83.349521,37.691775],[-83.349204,37.691836],[-83.349066,37.691851],[-83.348731,37.691936],[-83.34835,37.692075],[-83.348209,37.69214],[-83.347918,37.692377],[-83.347843,37.692417],[-83.34756,37.692514],[-83.347242,37.692607],[-83.347177,37.692621],[-83.347044,37.692638],[-83.346976,37.69264],[-83.346775,37.692637],[-83.346644,37.692628],[-83.346513,37.692624],[-83.346184,37.692624],[-83.346119,37.692618],[-83.345993,37.692597],[-83.345932,37.692579],[-83.345824,37.692533],[-83.345737,37.692481],[-83.345591,37.692352],[-83.345529,37.692283],[-83.34545,37.692166],[-83.345427,37.692118],[-83.345408,37.692064],[-83.345369,37.691881],[-83.345296,37.691471],[-83.345258,37.6914],[-83.345236,37.691368],[-83.345187,37.691314],[-83.345134,37.691274],[-83.34501,37.691205]]}},{"type":"Feature","properties":{"osm_id":16381056,"highway":"service","name":null,"alt_name":null,"official_name":null,"surface":null,"tracktype":null,"service":null,"access":"private","motor_vehicle":null,"foot":null,"tiger_reviewed":"no","rrgh_part":0,"rrgh_tile_part":0},"geometry":{"type":"LineString","coordinates":[[-83.345173,37.689012],[-83.345273,37.689004],[-83.345302,37.688995],[-83.345458,37.688987],[-83.345529,37.688988],[-83.345727,37.689021],[-83.345862,37.689104],[-83.345885,37.689157],[-83.345865,37.68922],[-83.345802,37.689257],[-83.345716,37.689294],[-83.345666,37.689337],[-83.345603,37.689408],[-83.345597,37.689494],[-83.345609,37.689597],[-83.345631,37.68968],[-83.34564,37.689747],[-83.345668,37.68983],[-83.345678,37.689913],[-83.3457,37.689986],[-83.345747,37.69003],[-83.345838,37.690067],[-83.345952,37.690103],[-83.34603,37.690148],[-83.346089,37.690202],[-83.346116,37.690304],[-83.346119,37.690401],[-83.346092,37.690478],[-83.345992,37.690549],[-83.345965,37.690641],[-83.345976,37.690684],[-83.346005,37.690724],[-83.346069,37.690764]]}},{"type":"Feature","properties":{"osm_id":16382546,"highway":"residential","name":null,"alt_name":null,"official_name":null,"surface":null,"tracktype":null,"service":null,"access":null,"motor_vehicle":null,"foot":null,"tiger_reviewed":"no","rrgh_part":0,"rrgh_tile_part":0},"geometry":{"type":"LineString","coordinates":[[-83.3393926,37.6975531],[-83.3395864,37.6977374],[-83.3400081,37.6981281]]}},{"type":"Feature","properties":{"osm_id":16381362,"highway":"residential","name":null,"alt_name":null,"official_name":null,"surface":null,"tracktype":null,"service":null,"access":null,"motor_vehicle":null,"foot":null,"tiger_reviewed":"no","rrgh_part":0,"rrgh_tile_part":0},"geometry":{"type":"LineString","coordinates":[[-83.33500000000001,37.6955300812209],[-83.335264,37.695507]]}},{"type":"Feature","properties":{"osm_id":16381008,"highway":"residential","name":null,"alt_name":null,"official_name":null,"surface":null,"tracktype":null,"service":null,"access":null,"motor_vehicle":null,"foot":null,"tiger_reviewed":"no","rrgh_part":0,"rrgh_tile_part":0},"geometry":{"type":"LineString","coordinates":[[-83.3352634,37.7056447],[-83.3351002,37.7056501],[-83.3350191,37.7056225],[-83.33500000000001,37.705583519471176]]}},{"type":"Feature","properties":{"osm_id":16380998,"highway":"residential","name":null,"alt_name":null,"official_name":null,"surface":null,"tracktype":null,"service":null,"access":null,"motor_vehicle":null,"foot":null,"tiger_reviewed":"no","rrgh_part":0,"rrgh_tile_part":0},"geometry":{"type":"LineString","coordinates":[[-83.3501428,37.7145486],[-83.3503565,37.7144281],[-83.3507341,37.7143265],[-83.3511932,37.7141568],[-83.3516785,37.7140421],[-83.3519783,37.7138737],[-83.3523064,37.7135377]]}},{"type":"Feature","properties":{"osm_id":16381160,"highway":"residential","name":null,"alt_name":null,"official_name":null,"surface":null,"tracktype":null,"service":null,"access":null,"motor_vehicle":null,"foot":null,"tiger_reviewed":"no","rrgh_part":0,"rrgh_tile_part":0},"geometry":{"type":"LineString","coordinates":[[-83.351131,37.716331],[-83.350831,37.716074],[-83.3501428,37.7145486],[-83.3497153,37.7147217],[-83.3492992,37.7147228],[-83.3486276,37.7145753],[-83.3481533,37.7144108],[-83.3479797,37.7143973],[-83.3478971,37.7144003]]}},{"type":"Feature","properties":{"osm_id":16380761,"highway":"residential","name":"Fred Parks Road","alt_name":null,"official_name":null,"surface":null,"tracktype":null,"service":null,"access":null,"motor_vehicle":null,"foot":null,"tiger_reviewed":"no","rrgh_part":0,"rrgh_tile_part":0},"geometry":{"type":"LineString","coordinates":[[-83.33500000000001,37.73869942647058],[-83.335498,37.73852]]}},{"type":"Feature","properties":{"osm_id":16381726,"highway":"residential","name":null,"alt_name":null,"official_name":null,"surface":null,"tracktype":null,"service":null,"access":null,"motor_vehicle":null,"foot":null,"tiger_reviewed":"no","rrgh_part":0,"rrgh_tile_part":0},"geometry":{"type":"LineString","coordinates":[[-83.35274699468086,37.75],[-83.352817,37.749877],[-83.352892,37.749688],[-83.353228,37.74915]]}},{"type":"Feature","properties":{"osm_id":963802546,"highway":"residential","name":"Stamper Branch Road","alt_name":null,"official_name":null,"surface":null,"tracktype":null,"service":null,"access":null,"motor_vehicle":null,"foot":null,"tiger_reviewed":"no","rrgh_part":0,"rrgh_tile_part":0},"geometry":{"type":"LineString","coordinates":[[-83.3391319,37.7431467],[-83.339065,37.743404],[-83.338904,37.743854],[-83.338792,37.744098],[-83.33872,37.74423],[-83.338662,37.744311]]}},{"type":"Feature","properties":{"osm_id":963802547,"highway":"residential","name":"Stamper Branch Road","alt_name":null,"official_name":null,"surface":null,"tracktype":null,"service":null,"access":null,"motor_vehicle":null,"foot":null,"tiger_reviewed":"no","rrgh_part":0,"rrgh_tile_part":0},"geometry":{"type":"LineString","coordinates":[[-83.339184,37.742951],[-83.3391319,37.7431467]]}},{"type":"Feature","properties":{"osm_id":16383195,"highway":"residential","name":"Stamper Branch Road","alt_name":null,"official_name":null,"surface":null,"tracktype":null,"service":null,"access":null,"motor_vehicle":null,"foot":null,"tiger_reviewed":"no","rrgh_part":0,"rrgh_tile_part":0},"geometry":{"type":"LineString","coordinates":[[-83.3424,37.739778],[-83.342397,37.739796],[-83.342341,37.739884],[-83.342137,37.740296],[-83.341989,37.74053],[-83.341769,37.740805],[-83.341682,37.740944],[-83.341631,37.741011],[-83.341528,37.741093],[-83.341441,37.74113],[-83.341304,37.74117],[-83.340815,37.741272],[-83.340751,37.741285],[-83.340681,37.74132],[-83.340622,37.741402],[-83.340403,37.741813],[-83.340373,37.741888],[-83.340297,37.742174],[-83.340287,37.742293],[-83.340267,37.742359],[-83.340252,37.742384],[-83.340196,37.742446],[-83.340154,37.742472],[-83.33946,37.742749],[-83.33937,37.742779],[-83.339253,37.742854],[-83.339217,37.742892],[-83.339184,37.742951]]}}],"rrgh_tile":{"id":"r4c7","bounds":[37.675,-83.42,37.75,-83.33500000000001]}}
