{"type":"FeatureCollection","features":[{"type":"Feature","properties":{"osm_id":16114608,"highway":"residential","name":"Lower Taulbee Fork Road","alt_name":null,"official_name":null,"surface":null,"tracktype":null,"service":null,"access":null,"motor_vehicle":null,"foot":null,"tiger_reviewed":"no","rrgh_part":0,"rrgh_tile_part":0},"geometry":{"type":"LineString","coordinates":[[-83.317818,37.675],[-83.317846,37.67529],[-83.317875,37.675482],[-83.31789,37.675657],[-83.317882,37.675779],[-83.317855,37.675979],[-83.31785,37.676059],[-83.317851,37.6761],[-83.317839,37.676193],[-83.317812,37.676309],[-83.317752,37.676502],[-83.317725,37.676569],[-83.317575,37.676914],[-83.31747,37.67707],[-83.317438,37.677173],[-83.317417,37.677299],[-83.317399,37.677371],[-83.317374,37.677445],[-83.317338,37.677518],[-83.317277,37.677658],[-83.317211,37.677897],[-83.317188,37.678072],[-83.317177,37.678132],[-83.317173,37.678189],[-83.317157,37.678275],[-83.317087,37.678519],[-83.317022,37.678647],[-83.316977,37.678759],[-83.316943,37.678817],[-83.316902,37.678871],[-83.316857,37.678918],[-83.316766,37.678988],[-83.316684,37.679042],[-83.316533,37.679177],[-83.316481,37.679219],[-83.316424,37.679257],[-83.316306,37.679322],[-83.316252,37.679355],[-83.316203,37.67939],[-83.316163,37.679426],[-83.316133,37.679458],[-83.31609,37.679514],[-83.315968,37.679707]]}},{"type":"Feature","properties":{"osm_id":16383793,"highway":"residential","name":"Greenbriar Branch Road","alt_name":null,"official_name":null,"surface":null,"tracktype":null,"service":null,"access":null,"motor_vehicle":null,"foot":null,"tiger_reviewed":"no","rrgh_part":0,"rrgh_tile_part":0},"geometry":{"type":"LineString","coordinates":[[-83.33500000000001,37.7245262601626],[-83.334935,37.72454],[-83.334814,37.724572],[-83.334697,37.72461],[-83.333961,37.724908],[-83.333833,37.724964],[-83.333461,37.725144],[-83.333109,37.725329],[-83.332904,37.725464],[-83.332619,37.725672],[-83.332481,37.725823],[-83.332422,37.725903],[-83.332324,37.726068],[-83.332281,37.726155],[-83.332211,37.72633],[-83.332189,37.726418],[-83.332157,37.726594],[-83.33212,37.72676],[-83.332087,37.726835],[-83.33204,37.726904],[-83.332026,37.726919],[-83.33197,37.726974],[-83.33181,37.727111],[-83.331787,37.727129],[-83.3317654,37.7271455]]}},{"type":"Feature","properties":{"osm_id":16383607,"highway":"residential","name":"Trent Fork Road","alt_name":null,"official_name":null,"surface":null,"tracktype":null,"service":null,"access":null,"motor_vehicle":null,"foot":null,"tiger_reviewed":"no","rrgh_part":0,"rrgh_tile_part":0},"geometry":{"type":"LineString","coordinates":[[-83.310722,37.68978],[-83.3108008,37.6897002],[-83.3108383,37.6896267],[-83.3108098,37.6895663],[-83.3107245,37.6895568],[-83.3106346,37.6896137],[-83.310638,37.689665],[-83.310678,37.689712],[-83.310722,37.68978]]}},{"type":"Feature","properties":{"osm_id":16383607,"highway":"residential","name":"Trent Fork Road","alt_name":null,"official_name":null,"surface":null,"tracktype":null,"service":null,"access":null,"motor_vehicle":null,"foot":null,"tiger_reviewed":"no","rrgh_part":1,"rrgh_tile_part":0},"geometry":{"type":"LineString","coordinates":[[-83.310722,37.68978],[-83.310735,37.68982],[-83.31074,37.689897],[-83.310723,37.690061],[-83.310732,37.690148],[-83.310835,37.690423],[-83.310886,37.69053],[-83.310926,37.690633],[-83.310949,37.690734],[-83.31093,37.690829],[-83.310766,37.691287],[-83.310744,37.691336],[-83.31073,37.691384],[-83.310724,37.691432],[-83.310727,37.691481],[-83.310741,37.691531],[-83.310854,37.691723],[-83.310876,37.691773],[-83.310891,37.691826],[-83.310897,37.691879],[-83.310892,37.691988],[-83.310827,37.692335],[-83.310817,37.692415],[-83.310821,37.692506],[-83.310837,37.692619],[-83.310841,37.692648],[-83.310828,37.692699],[-83.310753,37.692857],[-83.310636,37.693158],[-83.310605,37.693302],[-83.310593,37.693387],[-83.310599,37.693459],[-83.310603,37.693477],[-83.310614,37.693519],[-83.310619,37.693576],[-83.310612,37.693608],[-83.310598,37.69364],[-83.310576,37.693674],[-83.310493,37.693773],[-83.310408,37.693883],[-83.310313,37.69406],[-83.310196,37.694197],[-83.310057,37.694333],[-83.309922,37.694458],[-83.309586,37.694797],[-83.309446,37.694922],[-83.30937,37.695016],[-83.30934,37.695067],[-83.309274,37.695236],[-83.309221,37.695346],[-83.309187,37.695399],[-83.308989,37.695658],[-83.308939,37.695755],[-83.308911,37.695884],[-83.308874,37.695963],[-83.308833,37.696006],[-83.308785,37.696047],[-83.308729,37.696083],[-83.308706,37.696094],[-83.308667,37.696112],[-83.308225,37.696252],[-83.308147,37.696289],[-83.308087,37.696326],[-83.308049,37.696357],[-83.307995,37.696417],[-83.30795,37.696504],[-83.307895,37.696644],[-83.307768,37.696883],[-83.307753,37.696927],[-83.307744,37.696973],[-83.307745,37.697019],[-83.307754,37.69709],[-83.307776,37.697192],[-83.307788,37.697376],[-83.307778,37.697497],[-83.307742,37.69767],[-83.30771,37.697769],[-83.307683,37.697819],[-83.30766,37.69786],[-83.307638,37.697909],[-83.307625,37.697958],[-83.307617,37.698061],[-83.307623,37.69821],[-83.307633,37.698265],[-83.307665,37.698559],[-83.307663,37.698665],[-83.307647,37.69877],[-83.307588,37.699039],[-83.307562,37.69918],[-83.307564,37.699286],[-83.307589,37.699377],[-83.30762,37.699456],[-83.307671,37.699667],[-83.30776,37.699919],[-83.307801,37.699994],[-83.307821,37.700057],[-83.307815,37.700097],[-83.307796,37.700162],[-83.30779,37.700219],[-83.307805,37.700264],[-83.307838,37.700313],[-83.307869,37.700395],[-83.307869,37.700482],[-83.307784,37.70071],[-83.307743,37.700834],[-83.307742,37.700867],[-83.307768,37.700943],[-83.307778,37.700987],[-83.307768,37.701047],[-83.307752,37.701095],[-83.307697,37.701185],[-83.307567,37.701399],[-83.307513,37.701507],[-83.307475,37.701612],[-83.307463,37.701667],[-83.30742,37.701796],[-83.307375,37.701993],[-83.307377,37.702065],[-83.307433,37.702213],[-83.307501,37.70233],[-83.307537,37.702424],[-83.307564,37.702533],[-83.307625,37.702651],[-83.307687,37.702739],[-83.307781,37.702926],[-83.30782,37.703016],[-83.307862,37.703151],[-83.307875,37.703242],[-83.307868,37.703415],[-83.307844,37.703597],[-83.307845,37.703698],[-83.307837,37.703795],[-83.307819,37.703897],[-83.307807,37.703935],[-83.30778,37.70406],[-83.307778,37.704188],[-83.307796,37.704316],[-83.307839,37.704465],[-83.307866,37.70461],[-83.307913,37.704789],[-83.307919,37.704891],[-83.307914,37.704945],[-83.307919,37.705026],[-83.307933,37.705118],[-83.307949,37.705163],[-83.307974,37.705209],[-83.308043,37.705301],[-83.308083,37.705345],[-83.308142,37.705438],[-83.308175,37.70552],[-83.308192,37.705609],[-83.308216,37.705821],[-83.30823,37.705873],[-83.30827,37.705983],[-83.308292,37.706063],[-83.308305,37.706157],[-83.308329,37.70626],[-83.308349,37.706307],[-83.308438,37.70648],[-83.308497,37.706704],[-83.30853,37.706814],[-83.308615,37.707096],[-83.308724,37.707492],[-83.308819,37.707775],[-83.308903,37.707991],[-83.308969,37.70812],[-83.309044,37.70824],[-83.309164,37.708471],[-83.309394,37.708875],[-83.309492,37.709081],[-83.309522,37.709169],[-83.309607,37.709526],[-83.309635,37.709588],[-83.309668,37.709644],[-83.309751,37.709743],[-83.309945,37.709936],[-83.31003,37.710043],[-83.310065,37.710102],[-83.310161,37.710286],[-83.310284,37.710588],[-83.310344,37.710688],[-83.310459,37.710844],[-83.310551,37.710949],[-83.310668,37.711109],[-83.310892,37.711364],[-83.310926,37.711417],[-83.310949,37.711467],[-83.310963,37.711518],[-83.310969,37.711567],[-83.310949,37.71171],[-83.310924,37.711803],[-83.310917,37.711851],[-83.31092,37.711897],[-83.310936,37.711939],[-83.310961,37.711979],[-83.310978,37.711995],[-83.310997,37.712014],[-83.311041,37.712043],[-83.311091,37.712066],[-83.311202,37.712098],[-83.311257,37.712118],[-83.311313,37.712144],[-83.311359,37.712171],[-83.311395,37.712206],[-83.311432,37.712258],[-83.311471,37.712304],[-83.311676,37.712462],[-83.311877,37.712635],[-83.311977,37.712729],[-83.312226,37.712939],[-83.312432,37.713064],[-83.312478,37.713096],[-83.312515,37.71313],[-83.312547,37.713169],[-83.312612,37.713262],[-83.312696,37.713359],[-83.312748,37.713403],[-83.312805,37.713443],[-83.31292,37.713508],[-83.313147,37.713613],[-83.313224,37.71364],[-83.313472,37.713728],[-83.313616,37.713789],[-83.313872,37.713929],[-83.314179,37.714086],[-83.314412,37.714248],[-83.314776,37.714555],[-83.31492,37.714664],[-83.315025,37.714729],[-83.315316,37.714887],[-83.315475,37.714981],[-83.315563,37.71505],[-83.315622,37.715112],[-83.315661,37.715174],[-83.315674,37.715248],[-83.315682,37.715331],[-83.31568,37.715387],[-83.315685,37.715439],[-83.315701,37.715493],[-83.315735,37.715545],[-83.315788,37.715594],[-83.315859,37.715634],[-83.315946,37.715671],[-83.31604,37.715697],[-83.316563,37.715801],[-83.316793,37.715851],[-83.316905,37.715882],[-83.317012,37.715919],[-83.317308,37.71604],[-83.3174,37.716068],[-83.317491,37.716082],[-83.317574,37.716087],[-83.317652,37.716085],[-83.317734,37.71609],[-83.31782,37.716109],[-83.31791,37.716147],[-83.318008,37.716202],[-83.318105,37.716269],[-83.318347,37.716503],[-83.3184,37.716587],[-83.318457,37.716661],[-83.318585,37.7168],[-83.318673,37.716859],[-83.318885,37.716954],[-83.319095,37.717054],[-83.319295,37.717164],[-83.319386,37.717224],[-83.31965,37.71741],[-83.319951,37.717591],[-83.320261,37.717722],[-83.320345,37.717773],[-83.320491,37.717907],[-83.320554,37.717982],[-83.320606,37.71806],[-83.32065,37.718138],[-83.320674,37.718212],[-83.320691,37.718293],[-83.320687,37.718368],[-83.320669,37.71844],[-83.320596,37.718587],[-83.32056,37.71868],[-83.320558,37.718723],[-83.320586,37.718785],[-83.320638,37.718828],[-83.320716,37.718857],[-83.320797,37.71886],[-83.320979,37.718854],[-83.321066,37.71886],[-83.321132,37.71888],[-83.321198,37.718908],[-83.321259,37.718947],[-83.321393,37.719052],[-83.321606,37.719245],[-83.32178,37.71938],[-83.321981,37.719514],[-83.322171,37.71963],[-83.322232,37.719679],[-83.322298,37.719748],[-83.322331,37.719811],[-83.322372,37.719914],[-83.322414,37.720081],[-83.322446,37.720158],[-83.322507,37.720225],[-83.322595,37.720277],[-83.322695,37.720321],[-83.322873,37.720381],[-83.323307,37.720557],[-83.323406,37.720603],[-83.323497,37.720667],[-83.32353,37.720707],[-83.323555,37.720748],[-83.323605,37.720997],[-83.323623,37.721044],[-83.323653,37.721086],[-83.323691,37.721124],[-83.323736,37.721159],[-83.324289,37.721513],[-83.324364,37.721554],[-83.324516,37.721628],[-83.324674,37.721689],[-83.325048,37.721863],[-83.325184,37.721935],[-83.325362,37.722038],[-83.325457,37.722113],[-83.325547,37.722194],[-83.325626,37.722286],[-83.325763,37.722483],[-83.325807,37.722528],[-83.32586,37.722569],[-83.325922,37.722605],[-83.32599,37.722635],[-83.32702,37.722988],[-83.327344,37.723119],[-83.327603,37.723219],[-83.327665,37.72325],[-83.327908,37.723394],[-83.328049,37.723527],[-83.328084,37.723575],[-83.328152,37.723791],[-83.328214,37.723989],[-83.328229,37.724082],[-83.328227,37.724133],[-83.328205,37.724248],[-83.3282,37.724367],[-83.328219,37.72446],[-83.32826,37.724551],[-83.328296,37.7246],[-83.328316,37.724658],[-83.328316,37.724718],[-83.328328,37.724793],[-83.328373,37.724872],[-83.32844,37.725082],[-83.328464,37.725141],[-83.328524,37.725259],[-83.328595,37.725361],[-83.328802,37.725595],[-83.329019,37.72589],[-83.329069,37.726017],[-83.32909,37.726102],[-83.329096,37.726157],[-83.329088,37.72623],[-83.329049,37.726355],[-83.329016,37.726436],[-83.32897,37.726494],[-83.328658,37.726812],[-83.32862,37.726862],[-83.328597,37.726909],[-83.328582,37.72696],[-83.32858,37.727015],[-83.32859,37.727067],[-83.328612,37.72712],[-83.328685,37.727221],[-83.328862,37.727435],[-83.329047,37.727637],[-83.329154,37.727731],[-83.329214,37.727771],[-83.329339,37.72784],[-83.329511,37.727917],[-83.329662,37.727994],[-83.329768,37.728037],[-83.329825,37.72805],[-83.329883,37.728054],[-83.329943,37.728053],[-83.330004,37.728046],[-83.330122,37.728022],[-83.330425,37.72791],[-83.330611,37.727869]]}},{"type":"Feature","properties":{"osm_id":16384472,"highway":"residential","name":"Shockey Fork Road","alt_name":null,"official_name":null,"surface":null,"tracktype":null,"service":null,"access":null,"motor_vehicle":null,"foot":null,"tiger_reviewed":"no","rrgh_part":0,"rrgh_tile_part":0},"geometry":{"type":"LineString","coordinates":[[-83.33500000000001,37.68483748623851],[-83.3349,37.685154],[-83.334887,37.685243],[-83.334881,37.685332],[-83.334887,37.68542],[-83.334905,37.685507],[-83.334986,37.685825],[-83.334986,37.685903],[-83.334961,37.685987],[-83.334927,37.686065],[-83.334884,37.686147],[-83.33483,37.686221],[-83.334763,37.686303],[-83.334626,37.686555],[-83.334443,37.687016],[-83.334389,37.687197],[-83.334377,37.687295],[-83.334379,37.687388],[-83.334371,37.687483],[-83.334371,37.687572],[-83.334364,37.68766],[-83.334335,37.687842],[-83.334255,37.688135],[-83.334095,37.688629],[-83.334061,37.688713],[-83.33402,37.688894],[-83.334019,37.688995],[-83.334025,37.68909],[-83.334018,37.689294],[-83.333983,37.6894],[-83.333903,37.689594],[-83.333735,37.689887],[-83.333676,37.689976],[-83.333545,37.690143],[-83.333398,37.690302],[-83.333324,37.690371],[-83.333256,37.690447],[-83.333122,37.690582],[-83.332996,37.690725],[-83.332929,37.690793],[-83.332854,37.690856],[-83.332771,37.69091],[-83.332591,37.691002],[-83.332315,37.691163],[-83.332143,37.691236],[-83.332046,37.691323],[-83.331979,37.691408],[-83.331931,37.691501],[-83.331908,37.691573],[-83.331877,37.691651],[-83.331828,37.691809],[-83.331797,37.69196],[-83.331794,37.692038],[-83.331816,37.69211],[-83.331846,37.692186],[-83.331889,37.692262],[-83.331942,37.69234],[-83.332006,37.692418],[-83.332065,37.692499],[-83.332164,37.692665],[-83.332203,37.692744],[-83.332254,37.692814],[-83.332313,37.692877],[-83.332388,37.692928],[-83.332555,37.693026],[-83.33263,37.693086],[-83.332685,37.69316],[-83.332718,37.693248],[-83.332731,37.693346],[-83.332731,37.69345],[-83.332719,37.693667],[-83.332731,37.693792],[-83.33277,37.693967],[-83.33278,37.694042],[-83.332792,37.694137],[-83.332812,37.694525],[-83.33285,37.694686],[-83.332912,37.694818],[-83.332991,37.694898],[-83.333057,37.694945],[-83.333195,37.695109],[-83.333252,37.695202],[-83.333291,37.695301],[-83.333311,37.695404],[-83.333331,37.695676],[-83.333333,37.69571],[-83.333374,37.695922],[-83.333408,37.696027],[-83.333428,37.696137],[-83.333485,37.69656],[-83.333505,37.69666],[-83.33356,37.696853],[-83.3336,37.696945],[-83.333631,37.697123],[-83.333697,37.697359],[-83.333771,37.697526],[-83.333993,37.697977],[-83.334089,37.698152],[-83.334264,37.698377],[-83.334634,37.698746],[-83.334797,37.698891],[-83.334851,37.698952],[-83.3349,37.699017],[-83.334941,37.699089],[-83.334973,37.699165],[-83.334996,37.699245],[-83.33500000000001,37.69926806382981]]}},{"type":"Feature","properties":{"osm_id":16381742,"highway":"residential","name":null,"alt_name":null,"official_name":null,"surface":null,"tracktype":null,"service":null,"access":null,"motor_vehicle":null,"foot":null,"tiger_reviewed":"no","rrgh_part":0,"rrgh_tile_part":0},"geometry":{"type":"LineString","coordinates":[[-83.33500000000001,37.68295801845125],[-83.334806,37.6826028]]}},{"type":"Feature","properties":{"osm_id":16385219,"highway":"residential","name":"Left Fork Shockey Road","alt_name":null,"official_name":null,"surface":null,"tracktype":null,"service":null,"access":null,"motor_vehicle":null,"foot":null,"tiger_reviewed":"no","rrgh_part":0,"rrgh_tile_part":0},"geometry":{"type":"LineString","coordinates":[[-83.331908,37.691573],[-83.331614,37.69151],[-83.331473,37.691504],[-83.331426,37.691512],[-83.331335,37.691546],[-83.331206,37.69163],[-83.331156,37.691656],[-83.33105,37.691699],[-83.330876,37.691751],[-83.330712,37.691817],[-83.330615,37.691863],[-83.330466,37.691913],[-83.330394,37.691915],[-83.330325,37.691901],[-83.330258,37.691865],[-83.330208,37.691825],[-83.330137,37.691788],[-83.330036,37.691773],[-83.329857,37.691767],[-83.329659,37.691766],[-83.32956,37.69176],[-83.329292,37.691705],[-83.329179,37.691669],[-83.328788,37.69162],[-83.328641,37.691621],[-83.328503,37.691641],[-83.328112,37.691733],[-83.327886,37.691776],[-83.327761,37.691788],[-83.3277,37.69179],[-83.327639,37.691797],[-83.327546,37.6918],[-83.327447,37.69184],[-83.327359,37.691884],[-83.327247,37.691954],[-83.326884,37.692148],[-83.32679,37.692187],[-83.326735,37.692226],[-83.326575,37.692386],[-83.326403,37.692526],[-83.326293,37.692637],[-83.326039,37.692843],[-83.325751,37.693027],[-83.325707,37.693049],[-83.325531,37.693103],[-83.325472,37.693114],[-83.32541,37.693119],[-83.325346,37.693119],[-83.325109,37.693135],[-83.324935,37.69316],[-83.324404,37.693407],[-83.32419,37.693544],[-83.324066,37.69361],[-83.32393,37.693657]]}},{"type":"Feature","properties":{"osm_id":16381181,"highway":"residential","name":null,"alt_name":null,"official_name":null,"surface":null,"tracktype":null,"service":null,"access":null,"motor_vehicle":null,"foot":null,"tiger_reviewed":"no","rrgh_part":0,"rrgh_tile_part":0},"geometry":{"type":"LineString","coordinates":[[-83.33278,37.694042],[-83.334569,37.693811]]}},{"type":"Feature","properties":{"osm_id":16381362,"highway":"residential","name":null,"alt_name":null,"official_name":null,"surface":null,"tracktype":null,"service":null,"access":null,"motor_vehicle":null,"foot":null,"tiger_reviewed":"no","rrgh_part":0,"rrgh_tile_part":0},"geometry":{"type":"LineString","coordinates":[[-83.333331,37.695676],[-83.33500000000001,37.6955300812209]]}},{"type":"Feature","properties":{"osm_id":16381008,"highway":"residential","name":null,"alt_name":null,"official_name":null,"surface":null,"tracktype":null,"service":null,"access":null,"motor_vehicle":null,"foot":null,"tiger_reviewed":"no","rrgh_part":0,"rrgh_tile_part":0},"geometry":{"type":"LineString","coordinates":[[-83.33500000000001,37.705583519471176],[-83.3349775,37.7055376],[-83.3349564,37.7053818],[-83.3347654,37.7051316],[-83.334586,37.7049084],[-83.334529,37.7047809],[-83.334492,37.7046474],[-83.3345027,37.7044256]]}},{"type":"Feature","properties":{"osm_id":16385295,"highway":"residential","name":"Risner Road","alt_name":null,"official_name":null,"surface":null,"tracktype":null,"service":null,"access":null,"motor_vehicle":null,"foot":null,"tiger_reviewed":"no","rrgh_part":0,"rrgh_tile_part":0},"geometry":{"type":"LineString","coordinates":[[-83.333755,37.710818],[-83.333726,37.710806],[-83.333671,37.710796],[-83.333611,37.710798],[-83.333547,37.710817],[-83.333476,37.710845],[-83.333421,37.710881],[-83.333356,37.71091],[-83.333169,37.710963],[-83.333018,37.710992],[-83.332912,37.71102],[-83.332851,37.711042],[-83.332715,37.71114],[-83.332656,37.711173],[-83.332605,37.711207],[-83.33257,37.711243],[-83.33251,37.711285],[-83.332449,37.711321],[-83.33236,37.711391],[-83.332344,37.711405],[-83.33227,37.711484],[-83.332206,37.711568],[-83.332161,37.711617],[-83.332134,37.711636],[-83.332106,37.711647],[-83.332077,37.711651],[-83.332052,37.71165],[-83.332011,37.711637],[-83.33197,37.711607],[-83.331882,37.711521],[-83.331688,37.711317],[-83.33155,37.711197],[-83.331467,37.711141],[-83.331247,37.711019],[-83.330849,37.710781],[-83.330784,37.710732],[-83.330755,37.710704],[-83.330701,37.710635],[-83.330623,37.710512],[-83.330593,37.710478],[-83.330509,37.710414],[-83.330358,37.71031],[-83.3303,37.710258],[-83.330275,37.710229],[-83.3302,37.710102],[-83.329783,37.709621],[-83.329764,37.709593],[-83.329693,37.709528],[-83.329598,37.709414],[-83.329426,37.709173],[-83.329294,37.709008],[-83.329207,37.70889],[-83.329156,37.708833],[-83.329057,37.708754],[-83.328871,37.708636],[-83.328784,37.708556]]}},{"type":"Feature","properties":{"osm_id":16383869,"highway":"residential","name":"Banks Fork Road","alt_name":null,"official_name":null,"surface":null,"tracktype":null,"service":null,"access":null,"motor_vehicle":null,"foot":null,"tiger_reviewed":"no","rrgh_part":0,"rrgh_tile_part":0},"geometry":{"type":"LineString","coordinates":[[-83.2735679,37.6788377],[-83.2727759,37.6796255],[-83.2728358,37.6800143],[-83.2727242,37.6801374],[-83.2727348,37.6804589],[-83.2728712,37.681232],[-83.2729049,37.6817071],[-83.2729826,37.6821925],[-83.2728458,37.6825353],[-83.2727487,37.6827575],[-83.2725124,37.6830246],[-83.2725108,37.6832421],[-83.2727062,37.6834821],[-83.2731325,37.6840722],[-83.2737074,37.6847146],[-83.2744542,37.6853081],[-83.2745433,37.6856594],[-83.2746872,37.6861583],[-83.2749773,37.6863405],[-83.2750731,37.6864638],[-83.275124,37.686779],[-83.275648,37.6870921],[-83.2759327,37.6873834],[-83.2758399,37.6876714],[-83.2759945,37.6879395],[-83.276127,37.688076],[-83.276157,37.6881],[-83.276239,37.68814],[-83.276286,37.688153],[-83.276346,37.688157],[-83.276529,37.688135],[-83.276606,37.688142],[-83.276667,37.688161],[-83.276723,37.688188],[-83.276831,37.688255],[-83.276982,37.688381],[-83.277069,37.688476],[-83.277249,37.688659],[-83.277612,37.688953],[-83.277908,37.689149],[-83.278006,37.689221],[-83.278051,37.689265],[-83.278256,37.689526],[-83.278305,37.689581],[-83.278412,37.689686],[-83.278534,37.689787],[-83.278603,37.689835],[-83.278828,37.689972],[-83.278999,37.690053],[-83.27917,37.690122],[-83.279704,37.690308],[-83.279884,37.690378],[-83.280149,37.690491],[-83.28042,37.690593],[-83.280601,37.690646],[-83.280688,37.690663],[-83.281251,37.690753],[-83.281327,37.690762],[-83.281637,37.690785],[-83.281887,37.690794],[-83.282124,37.690794],[-83.282216,37.690798],[-83.282271,37.6908],[-83.282455,37.690822],[-83.282501,37.690856],[-83.282534,37.690903],[-83.282547,37.690956],[-83.282541,37.691011],[-83.282524,37.691072],[-83.282512,37.691139],[-83.282515,37.691209],[-83.282535,37.691278],[-83.282569,37.691344],[-83.282616,37.691403],[-83.282671,37.691456],[-83.282877,37.691603],[-83.283017,37.691718],[-83.283371,37.692034],[-83.283702,37.69236],[-83.28384,37.692476],[-83.284017,37.692648],[-83.284064,37.69271],[-83.284105,37.692774],[-83.284139,37.692839],[-83.284164,37.692905],[-83.284213,37.693101],[-83.284242,37.693161],[-83.284328,37.693268],[-83.284375,37.693318],[-83.284609,37.693592],[-83.284762,37.693828],[-83.284848,37.693949],[-83.284952,37.694063],[-83.284965,37.694082],[-83.285039,37.694194],[-83.28509,37.694258],[-83.285192,37.694473],[-83.285238,37.694623],[-83.285295,37.69477],[-83.285371,37.694907],[-83.285463,37.695038],[-83.28558,37.695158],[-83.285712,37.695271],[-83.285931,37.695417],[-83.286136,37.695564],[-83.286401,37.69579],[-83.286613,37.695991],[-83.286685,37.696113],[-83.286719,37.696186],[-83.286773,37.6963469],[-83.286832,37.696523],[-83.286852,37.69664],[-83.286859,37.696721],[-83.286855,37.69688],[-83.286829,37.697109],[-83.286832,37.697183],[-83.286846,37.697254],[-83.286871,37.697325],[-83.28691,37.697394],[-83.286963,37.697461],[-83.287025,37.697527],[-83.287163,37.697654],[-83.287645,37.698116],[-83.287701,37.698185],[-83.287742,37.69826],[-83.287912,37.698533],[-83.287928,37.698608],[-83.287951,37.698678],[-83.287988,37.698819],[-83.288017,37.699037],[-83.288026,37.699182],[-83.288047,37.699397],[-83.288077,37.699542],[-83.288102,37.699613],[-83.28814,37.699756],[-83.288184,37.700046],[-83.288195,37.700187],[-83.288196,37.700325],[-83.288177,37.700464],[-83.288142,37.700605],[-83.288093,37.700745],[-83.288022,37.700875],[-83.28794,37.700997],[-83.287847,37.701125],[-83.287742,37.701243],[-83.287698,37.701312],[-83.287667,37.701388],[-83.287646,37.701466],[-83.287633,37.701546],[-83.287618,37.701712],[-83.287619,37.701796],[-83.287627,37.70188],[-83.287643,37.701962],[-83.287669,37.70204],[-83.287742,37.702188],[-83.287981,37.702535],[-83.288012,37.702612],[-83.288038,37.702692],[-83.288138,37.703109],[-83.288223,37.703339],[-83.288332,37.703739],[-83.288344,37.70382],[-83.288326,37.704065],[-83.288306,37.704143],[-83.288235,37.704358],[-83.288177,37.70448],[-83.287994,37.704768],[-83.287958,37.704823],[-83.287871,37.704979],[-83.287837,37.705063],[-83.28781,37.705146],[-83.287792,37.705225],[-83.287766,37.705379],[-83.287764,37.705461],[-83.28777,37.705547],[-83.287787,37.705632],[-83.287811,37.705718],[-83.287913,37.705977],[-83.28796,37.706063],[-83.28811,37.706315],[-83.288233,37.706558],[-83.288317,37.706704],[-83.288376,37.70685],[-83.288395,37.706925],[-83.288415,37.707068],[-83.288419,37.707158],[-83.288412,37.707398],[-83.288398,37.707481],[-83.288373,37.707559],[-83.288335,37.707635],[-83.288286,37.707705],[-83.288225,37.707772],[-83.288153,37.707837],[-83.287991,37.707954],[-83.287829,37.708057],[-83.287665,37.708147],[-83.287589,37.708198],[-83.287524,37.708256],[-83.287473,37.708319],[-83.287436,37.708387],[-83.287409,37.708455],[-83.287393,37.708525],[-83.28737,37.708673],[-83.287375,37.708833],[-83.287436,37.709158],[-83.287479,37.70932],[-83.287562,37.709555],[-83.287609,37.709709],[-83.287626,37.709873],[-83.287619,37.709962],[-83.287605,37.710051],[-83.28756,37.710228],[-83.287528,37.710313],[-83.28745,37.710477],[-83.2874,37.710549],[-83.287341,37.710616],[-83.287215,37.710738],[-83.28697,37.710952],[-83.286864,37.711065],[-83.286774,37.711197],[-83.286685,37.711363],[-83.286505,37.711699],[-83.286352,37.71196],[-83.286339,37.711982],[-83.28608,37.712334],[-83.285755,37.712812]]}},{"type":"Feature","properties":{"osm_id":16382303,"highway":"residential","name":null,"alt_name":null,"official_name":null,"surface":null,"tracktype":null,"service":null,"access":null,"motor_vehicle":null,"foot":null,"tiger_reviewed":"no","rrgh_part":0,"rrgh_tile_part":0},"geometry":{"type":"LineString","coordinates":[[-83.2843218,37.6838557],[-83.2840399,37.6861994],[-83.2840792,37.6869592],[-83.2838562,37.6873464],[-83.28368,37.688021],[-83.283653,37.688091],[-83.283546,37.6892903],[-83.2834311,37.6900069],[-83.2830882,37.6904884],[-83.282534,37.690903]]}},{"type":"Feature","properties":{"osm_id":16381140,"highway":"service","name":null,"alt_name":null,"official_name":null,"surface":null,"tracktype":null,"service":null,"access":"private","motor_vehicle":null,"foot":null,"tiger_reviewed":"no","rrgh_part":0,"rrgh_tile_part":0},"geometry":{"type":"LineString","coordinates":[[-83.260974,37.685086],[-83.260876,37.685123],[-83.260721,37.685196],[-83.260669,37.685232],[-83.260646,37.685253],[-83.260605,37.685324],[-83.260585,37.685422],[-83.260586,37.68549],[-83.260608,37.685581],[-83.260608,37.685759],[-83.260645,37.686086],[-83.260671,37.686221],[-83.260672,37.68632],[-83.260658,37.686422],[-83.260616,37.686566],[-83.26058,37.686641],[-83.260536,37.686716],[-83.260456,37.686815],[-83.260397,37.686874],[-83.260326,37.686915],[-83.260286,37.68693],[-83.260198,37.686954],[-83.260046,37.686978],[-83.259762,37.686991],[-83.259463,37.686989],[-83.259353,37.686996],[-83.259055,37.686993],[-83.258865,37.687003],[-83.258743,37.687018],[-83.258564,37.687057],[-83.258456,37.687096],[-83.258353,37.687139],[-83.258113,37.687252],[-83.257758,37.687383],[-83.257414,37.687523],[-83.257248,37.687605],[-83.257105,37.687687],[-83.256898,37.687827],[-83.256662,37.688004],[-83.256354,37.688257],[-83.256233,37.688372],[-83.255873,37.688687],[-83.255755,37.688785],[-83.255644,37.688892],[-83.255605,37.688948],[-83.255579,37.689013],[-83.255573,37.689078],[-83.255581,37.689131],[-83.255594,37.689165],[-83.255608,37.689243],[-83.255609,37.689308],[-83.255574,37.689593],[-83.255545,37.689694],[-83.255521,37.689742],[-83.255505,37.689756],[-83.255473,37.689768]]}},{"type":"Feature","properties":{"osm_id":16382687,"highway":"residential","name":"Wolfpen Branch Road","alt_name":null,"official_name":null,"surface":null,"tracktype":null,"service":null,"access":null,"motor_vehicle":null,"foot":null,"tiger_reviewed":"no","rrgh_part":0,"rrgh_tile_part":0},"geometry":{"type":"LineString","coordinates":[[-83.285478,37.692756],[-83.285425,37.692786],[-83.285384,37.692828],[-83.285359,37.692893],[-83.285315,37.693035],[-83.285271,37.693159],[-83.285172,37.693361],[-83.285164,37.693398],[-83.285165,37.693478],[-83.285192,37.693591],[-83.285217,37.693655],[-83.285265,37.693807],[-83.285264,37.693852],[-83.285256,37.69387],[-83.285229,37.693906],[-83.285187,37.69394],[-83.285048,37.694021],[-83.284965,37.694082]]}},{"type":"Feature","properties":{"osm_id":16381625,"highway":"service","name":null,"alt_name":null,"official_name":null,"surface":null,"tracktype":null,"service":null,"access":"private","motor_vehicle":null,"foot":null,"tiger_reviewed":"no","rrgh_part":0,"rrgh_tile_part":0},"geometry":{"type":"LineString","coordinates":[[-83.289846,37.706914],[-83.289815,37.707026],[-83.289744,37.7072],[-83.289684,37.707397],[-83.289627,37.707556],[-83.289616,37.707575]]}},{"type":"Feature","properties":{"osm_id":16384638,"highway":"residential","name":"Arnoldville Road","alt_name":null,"official_name":null,"surface":null,"tracktype":null,"service":null,"access":null,"motor_vehicle":null,"foot":null,"tiger_reviewed":"no","rrgh_part":0,"rrgh_tile_part":0},"geometry":{"type":"LineString","coordinates":[[-83.288415,37.707068],[-83.288665,37.707028],[-83.289264,37.706933],[-83.289596,37.706902],[-83.289735,37.706904],[-83.289846,37.706914],[-83.289877,37.706918],[-83.289928,37.706931],[-83.290033,37.706947],[-83.290189,37.706977],[-83.290238,37.706982],[-83.290381,37.706973],[-83.290637,37.706929],[-83.29074,37.706925],[-83.290897,37.706935],[-83.291233,37.706969],[-83.291274,37.706969],[-83.291319,37.706981],[-83.291397,37.707016],[-83.291502,37.70707],[-83.291745,37.707173],[-83.291774,37.707182]]}},{"type":"Feature","properties":{"osm_id":16381047,"highway":"service","name":null,"alt_name":null,"official_name":null,"surface":null,"tracktype":null,"service":null,"access":"private","motor_vehicle":null,"foot":null,"tiger_reviewed":"no","rrgh_part":0,"rrgh_tile_part":0},"geometry":{"type":"LineString","coordinates":[[-83.265201,37.699027],[-83.265251,37.699066],[-83.265293,37.699081],[-83.26532,37.699082],[-83.265435,37.699057],[-83.265805,37.698949],[-83.265893,37.698934],[-83.265945,37.69892],[-83.266048,37.698917],[-83.266153,37.698932],[-83.266257,37.698959],[-83.266303,37.698975],[-83.266351,37.698997],[-83.266435,37.699047],[-83.266539,37.699128],[-83.266569,37.699176],[-83.266582,37.699245],[-83.266581,37.699293],[-83.26657,37.699322],[-83.266521,37.699381],[-83.266155,37.699677],[-83.266105,37.699713],[-83.266004,37.699772],[-83.265934,37.699796],[-83.265744,37.69988],[-83.265666,37.699924],[-83.265451,37.699998],[-83.265365,37.700014],[-83.265111,37.70011],[-83.26497,37.700177],[-83.264919,37.70019],[-83.264842,37.700186],[-83.2648,37.700142],[-83.26478,37.700077],[-83.264778,37.700049],[-83.264784,37.700026]]}},{"type":"Feature","properties":{"osm_id":16384285,"highway":"residential","name":"Caney Branch Road","alt_name":null,"official_name":null,"surface":null,"tracktype":null,"service":null,"access":null,"motor_vehicle":null,"foot":null,"tiger_reviewed":"no","rrgh_part":0,"rrgh_tile_part":0},"geometry":{"type":"LineString","coordinates":[[-83.266244,37.698413],[-83.26607,37.698542],[-83.265966,37.69863],[-83.265757,37.698767],[-83.265576,37.69887],[-83.265533,37.698888],[-83.265399,37.698958],[-83.265201,37.699027],[-83.265149,37.699044],[-83.264956,37.699088],[-83.264503,37.699212],[-83.264268,37.699229],[-83.264056,37.699223],[-83.263897,37.699228],[-83.263733,37.699243],[-83.263653,37.699257],[-83.263418,37.699317],[-83.263284,37.699375],[-83.263224,37.699414],[-83.263116,37.6995],[-83.263073,37.699544],[-83.262887,37.699763],[-83.262803,37.69985],[-83.262756,37.699882],[-83.262706,37.699902],[-83.262658,37.699909],[-83.26261,37.699905],[-83.262563,37.699887],[-83.262525,37.69986],[-83.262421,37.699648],[-83.262335,37.699437],[-83.262255,37.699342],[-83.262172,37.699279],[-83.262059,37.699205],[-83.261842,37.699089],[-83.261713,37.699031],[-83.261514,37.698951],[-83.261454,37.698921],[-83.261395,37.698882],[-83.261255,37.698819],[-83.26118,37.698792],[-83.261013,37.698746],[-83.260923,37.698727],[-83.260285,37.698556],[-83.259966,37.698492],[-83.259793,37.698467],[-83.259625,37.698456],[-83.259488,37.69846],[-83.259351,37.698476],[-83.25928,37.698488],[-83.25921,37.698505],[-83.259142,37.698533],[-83.259079,37.698568],[-83.259018,37.698608],[-83.258907,37.698698],[-83.258557,37.699044],[-83.258422,37.699163],[-83.258013,37.699487],[-83.257548,37.699786],[-83.257514,37.699812],[-83.257492,37.699844],[-83.257481,37.699879],[-83.257482,37.699913]]}},{"type":"Feature","properties":{"osm_id":16381550,"highway":"service","name":null,"alt_name":null,"official_name":null,"surface":null,"tracktype":null,"service":null,"access":"private","motor_vehicle":null,"foot":null,"tiger_reviewed":"no","rrgh_part":0,"rrgh_tile_part":0},"geometry":{"type":"LineString","coordinates":[[-83.271374,37.702538],[-83.271342,37.702516],[-83.271309,37.702514],[-83.271285,37.702519],[-83.27125,37.702546],[-83.271208,37.702606],[-83.27117,37.702643],[-83.270992,37.702745],[-83.270892,37.702809],[-83.270815,37.702847],[-83.270643,37.702972],[-83.270562,37.703024],[-83.270503,37.703077],[-83.270406,37.703146],[-83.270342,37.703186],[-83.27023,37.703237],[-83.270203,37.703239],[-83.270174,37.703232],[-83.270149,37.703215],[-83.270127,37.703185],[-83.27012,37.703152],[-83.270123,37.703118],[-83.27018,37.703025],[-83.270317,37.702862],[-83.27034,37.70284],[-83.270408,37.70279],[-83.270415,37.70277]]}},{"type":"Feature","properties":{"osm_id":16381338,"highway":"service","name":null,"alt_name":null,"official_name":null,"surface":null,"tracktype":null,"service":null,"access":"private","motor_vehicle":null,"foot":null,"tiger_reviewed":"no","rrgh_part":0,"rrgh_tile_part":0},"geometry":{"type":"LineString","coordinates":[[-83.274528,37.706265],[-83.274717,37.70596],[-83.274729,37.705932],[-83.274815,37.705727],[-83.274881,37.705603],[-83.274895,37.705544],[-83.274862,37.705419],[-83.274869,37.705357],[-83.274907,37.705256],[-83.274917,37.705195],[-83.274916,37.705169],[-83.274909,37.705145],[-83.274896,37.705123],[-83.274876,37.705103],[-83.274608,37.70492],[-83.274472,37.704797],[-83.274404,37.704722],[-83.274346,37.704636],[-83.274307,37.704553],[-83.274288,37.704478],[-83.274286,37.704444],[-83.27429,37.704413]]}},{"type":"Feature","properties":{"osm_id":16384792,"highway":"residential","name":"Poor Branch Road","alt_name":null,"official_name":null,"surface":null,"tracktype":null,"service":null,"access":null,"motor_vehicle":null,"foot":null,"tiger_reviewed":"no","rrgh_part":0,"rrgh_tile_part":0},"geometry":{"type":"LineString","coordinates":[[-83.274029,37.705951],[-83.273857,37.70614],[-83.273764,37.706215],[-83.273589,37.706319],[-83.273298,37.706484],[-83.272965,37.706666],[-83.272894,37.706697]]}},{"type":"Feature","properties":{"osm_id":16381185,"highway":"residential","name":null,"alt_name":null,"official_name":null,"surface":null,"tracktype":null,"service":null,"access":null,"motor_vehicle":null,"foot":null,"tiger_reviewed":"no","rrgh_part":0,"rrgh_tile_part":0},"geometry":{"type":"LineString","coordinates":[[-83.273539,37.708118],[-83.2737497,37.7079608],[-83.2738838,37.7078964],[-83.2740441,37.7077847],[-83.2744583,37.7074248],[-83.2746905,37.7072676],[-83.2748342,37.7071919],[-83.2749587,37.7071218],[-83.275041,37.707067]]}},{"type":"Feature","properties":{"osm_id":1162991138,"highway":"residential","name":null,"alt_name":null,"official_name":null,"surface":null,"tracktype":null,"service":null,"access":null,"motor_vehicle":null,"foot":null,"tiger_reviewed":"no","rrgh_part":0,"rrgh_tile_part":0},"geometry":{"type":"LineString","coordinates":[[-83.328754,37.722285],[-83.329238,37.721753],[-83.329876,37.721159],[-83.330372,37.720653],[-83.330592,37.720616]]}},{"type":"Feature","properties":{"osm_id":16381186,"highway":"service","name":null,"alt_name":null,"official_name":null,"surface":null,"tracktype":null,"service":null,"access":"private","motor_vehicle":null,"foot":null,"tiger_reviewed":"no","rrgh_part":0,"rrgh_tile_part":0},"geometry":{"type":"LineString","coordinates":[[-83.329984,37.722613],[-83.32965,37.722614]]}},{"type":"Feature","properties":{"osm_id":16381345,"highway":"residential","name":null,"alt_name":null,"official_name":null,"surface":null,"tracktype":null,"service":null,"access":null,"motor_vehicle":null,"foot":null,"tiger_reviewed":"no","rrgh_part":0,"rrgh_tile_part":0},"geometry":{"type":"LineString","coordinates":[[-83.328754,37.722285],[-83.327631,37.721872]]}},{"type":"Feature","properties":{"osm_id":1162991234,"highway":"residential","name":"Greenbriar Branch Road","alt_name":null,"official_name":null,"surface":null,"tracktype":null,"service":null,"access":null,"motor_vehicle":null,"foot":null,"tiger_reviewed":"no","rrgh_part":0,"rrgh_tile_part":0},"geometry":{"type":"LineString","coordinates":[[-83.331662,37.7272244],[-83.331635,37.727245],[-83.331443,37.72738],[-83.331239,37.727512],[-83.331029,37.727629],[-83.330931,37.727676],[-83.330839,37.727714],[-83.330598,37.727792]]}},{"type":"Feature","properties":{"osm_id":1162991235,"highway":"residential","name":"Greenbriar Branch Road","alt_name":null,"official_name":null,"surface":null,"tracktype":null,"service":null,"access":null,"motor_vehicle":null,"foot":null,"tiger_reviewed":"no","rrgh_part":0,"rrgh_tile_part":0},"geometry":{"type":"LineString","coordinates":[[-83.3317654,37.7271455],[-83.331662,37.7272244]]}},{"type":"Feature","properties":{"osm_id":16380761,"highway":"residential","name":"Fred Parks Road","alt_name":null,"official_name":null,"surface":null,"tracktype":null,"service":null,"access":null,"motor_vehicle":null,"foot":null,"tiger_reviewed":"no","rrgh_part":0,"rrgh_tile_part":0},"geometry":{"type":"LineString","coordinates":[[-83.334382,37.738928],[-83.334954,37.738716],[-83.33500000000001,37.73869942647058]]}},{"type":"Feature","properties":{"osm_id":16382397,"highway":"residential","name":null,"alt_name":null,"official_name":null,"surface":null,"tracktype":null,"service":null,"access":null,"motor_vehicle":null,"foot":null,"tiger_reviewed":"no","rrgh_part":0,"rrgh_tile_part":0},"geometry":{"type":"LineString","coordinates":[[-83.327506,37.738028],[-83.327192,37.739163]]}},{"type":"Feature","properties":{"osm_id":16384623,"highway":"residential","name":"Cook Branch Road","alt_name":null,"official_name":null,"surface":null,"tracktype":null,"service":null,"access":null,"motor_vehicle":null,"foot":null,"tiger_reviewed":"no","rrgh_part":0,"rrgh_tile_part":0},"geometry":{"type":"LineString","coordinates":[[-83.32276,37.739053],[-83.322797,37.739011],[-83.322825,37.738966],[-83.32287,37.738847],[-83.322877,37.738828],[-83.322917,37.738744],[-83.322943,37.738706],[-83.322975,37.738675],[-83.323058,37.738638],[-83.323162,37.738598],[-83.323378,37.738531],[-83.32362,37.738432],[-83.323667,37.738407],[-83.323805,37.73835],[-83.324111,37.738208],[-83.324161,37.738195],[-83.324522,37.738],[-83.324585,37.737961],[-83.324785,37.737863],[-83.325061,37.737697],[-83.325441,37.737448],[-83.325666,37.73726],[-83.325729,37.7372],[-83.325834,37.737078],[-83.325853,37.737062],[-83.325938,37.737022]]}},{"type":"Feature","properties":{"osm_id":16382720,"highway":"residential","name":"Back Street","alt_name":null,"official_name":null,"surface":null,"tracktype":null,"service":null,"access":null,"motor_vehicle":null,"foot":null,"tiger_reviewed":"no","rrgh_part":0,"rrgh_tile_part":0},"geometry":{"type":"LineString","coordinates":[[-83.332867,37.739163],[-83.332822,37.739263],[-83.332777,37.739385],[-83.33273,37.739449],[-83.332697,37.739476],[-83.332678,37.739486],[-83.332627,37.739497],[-83.332602,37.739498],[-83.332475,37.739485],[-83.332409,37.739479],[-83.332135,37.739433],[-83.332105,37.739428],[-83.332072,37.739407],[-83.33205,37.739366],[-83.332036,37.739321],[-83.332019,37.739235],[-83.331975,37.739125],[-83.331961,37.739073],[-83.33196,37.73901],[-83.331972,37.738962]]}},{"type":"Feature","properties":{"osm_id":16384047,"highway":"residential","name":"School Street","alt_name":null,"official_name":null,"surface":null,"tracktype":null,"service":null,"access":null,"motor_vehicle":null,"foot":null,"tiger_reviewed":"no","rrgh_part":0,"rrgh_tile_part":0},"geometry":{"type":"LineString","coordinates":[[-83.332072,37.739407],[-83.33195,37.739624],[-83.331933,37.739681],[-83.331932,37.739705],[-83.33194,37.739728],[-83.331953,37.739748],[-83.331996,37.739785],[-83.332021,37.7398],[-83.332133,37.739841],[-83.332415,37.739905],[-83.33254,37.739948],[-83.332656,37.740002],[-83.332702,37.740016],[-83.332968,37.740059],[-83.333074,37.740071],[-83.333303,37.740127],[-83.333342,37.74014],[-83.333386,37.740148],[-83.333432,37.740151],[-83.333525,37.740139],[-83.333614,37.740119],[-83.333723,37.740108],[-83.333793,37.740114],[-83.33388,37.740131],[-83.333917,37.740143],[-83.333947,37.74016],[-83.333968,37.740183],[-83.33398,37.740206],[-83.333981,37.740233],[-83.333966,37.740282],[-83.333938,37.740335]]}},{"type":"Feature","properties":{"osm_id":16384048,"highway":"residential","name":"School Street","alt_name":null,"official_name":null,"surface":null,"tracktype":null,"service":null,"access":null,"motor_vehicle":null,"foot":null,"tiger_reviewed":"no","rrgh_part":0,"rrgh_tile_part":0},"geometry":{"type":"LineString","coordinates":[[-83.33194,37.739728],[-83.331878,37.739773],[-83.33105,37.740698]]}},{"type":"Feature","properties":{"osm_id":16384628,"highway":"residential","name":"Cook Branch Road","alt_name":null,"official_name":null,"surface":null,"tracktype":null,"service":null,"access":null,"motor_vehicle":null,"foot":null,"tiger_reviewed":"no","rrgh_part":0,"rrgh_tile_part":0},"geometry":{"type":"LineString","coordinates":[[-83.32276,37.739053],[-83.322714,37.739089],[-83.322611,37.73914],[-83.322555,37.739156],[-83.322496,37.739168],[-83.322311,37.739192],[-83.32208,37.739234],[-83.321585,37.739337],[-83.321204,37.739447],[-83.321068,37.739481],[-83.320996,37.739495],[-83.320711,37.73957],[-83.320643,37.739593],[-83.320152,37.739726],[-83.320036,37.739753],[-83.319909,37.739767],[-83.31983,37.739752],[-83.319763,37.739751],[-83.319626,37.73976],[-83.319499,37.739808],[-83.319249,37.73993],[-83.319183,37.739956],[-83.319114,37.739975],[-83.319037,37.739979],[-83.318893,37.740001],[-83.318817,37.740008],[-83.318593,37.740061],[-83.318439,37.740109],[-83.318218,37.740199],[-83.318074,37.740269],[-83.317862,37.740362],[-83.31779,37.740388],[-83.317758,37.740395],[-83.317716,37.740404],[-83.317644,37.740415],[-83.317501,37.740417],[-83.31729,37.740396],[-83.316908,37.740327],[-83.316828,37.740319],[-83.316589,37.740315],[-83.31651,37.740307],[-83.316429,37.740294],[-83.316214,37.740276],[-83.316149,37.740279],[-83.316021,37.740293],[-83.315955,37.740294],[-83.315891,37.740289],[-83.315827,37.740279],[-83.315708,37.740235],[-83.315567,37.740207],[-83.315301,37.740168],[-83.31523,37.740161],[-83.315085,37.740157],[-83.314927,37.740143],[-83.31465,37.740147],[-83.314526,37.740165],[-83.314472,37.740168],[-83.314425,37.740161],[-83.314386,37.740143],[-83.314231,37.740018],[-83.314175,37.739985],[-83.314114,37.739956],[-83.314051,37.739934],[-83.313858,37.739886],[-83.313461,37.739796],[-83.313261,37.739762],[-83.313058,37.739741],[-83.312875,37.739727],[-83.312709,37.739704],[-83.312469,37.739659],[-83.312336,37.739656],[-83.312267,37.739667],[-83.312199,37.739686],[-83.312066,37.739743],[-83.311938,37.739803],[-83.311807,37.739849],[-83.311678,37.739884],[-83.311617,37.739896],[-83.311502,37.739928],[-83.31134,37.740009],[-83.311279,37.740031],[-83.311146,37.740055],[-83.310952,37.740072],[-83.31089,37.740074],[-83.310652,37.740129],[-83.310591,37.740134],[-83.310429,37.740116],[-83.310338,37.74012],[-83.310251,37.740124],[-83.310185,37.740133]]}},{"type":"Feature","properties":{"osm_id":16322760,"highway":"residential","name":"Wheelrim Road","alt_name":null,"official_name":null,"surface":null,"tracktype":null,"service":null,"access":null,"motor_vehicle":null,"foot":null,"tiger_reviewed":"no","rrgh_part":0,"rrgh_tile_part":0},"geometry":{"type":"LineString","coordinates":[[-83.25,37.742651842767295],[-83.250119,37.742577],[-83.250388,37.74238],[-83.25053,37.742308],[-83.25068,37.742245],[-83.250812,37.742163],[-83.250914,37.742059],[-83.251244,37.741567],[-83.251582,37.741029],[-83.252008,37.740496],[-83.252226,37.740242],[-83.252447,37.740015],[-83.252551,37.739927],[-83.252716,37.73982],[-83.252882,37.739712],[-83.253096,37.739537],[-83.25328,37.739326],[-83.253359,37.739207],[-83.253407,37.739087],[-83.253483,37.738967],[-83.253577,37.738848],[-83.253684,37.738729],[-83.254194,37.738232],[-83.254311,37.738094],[-83.254638,37.737654],[-83.254912,37.737384],[-83.255439,37.7368],[-83.255789,37.736438],[-83.255891,37.73635],[-83.256185,37.736143],[-83.256248,37.736066],[-83.256279,37.735977],[-83.256307,37.735583],[-83.256328,37.735489],[-83.25637,37.735399],[-83.256438,37.735316],[-83.256618,37.735153],[-83.257084,37.734798],[-83.257318,37.734603],[-83.257639,37.734356],[-83.257883,37.734215],[-83.258121,37.734102],[-83.258439,37.733972],[-83.25852,37.733926],[-83.258574,37.733869],[-83.258594,37.733799],[-83.258584,37.733728],[-83.258545,37.733663],[-83.25843,37.733539],[-83.25838,37.733467],[-83.25835,37.733386],[-83.258352,37.733298],[-83.258384,37.733207],[-83.258488,37.733018],[-83.258548,37.732931],[-83.258622,37.732852],[-83.259131,37.732422],[-83.259168,37.732386],[-83.259219,37.732336],[-83.259252,37.732293],[-83.259291,37.732241],[-83.25933,37.732138],[-83.25938,37.73184],[-83.259415,37.73175],[-83.259659,37.731401],[-83.259709,37.731307],[-83.259737,37.731208],[-83.259765,37.731013],[-83.259813,37.730927],[-83.259878,37.730849],[-83.259967,37.730787],[-83.260069,37.730735],[-83.260316,37.730641],[-83.260581,37.7305],[-83.260853,37.730323],[-83.261305,37.730049],[-83.261776,37.729814],[-83.261933,37.729764],[-83.262452,37.729672],[-83.262623,37.72962],[-83.262792,37.729551],[-83.262954,37.729467],[-83.263802,37.729007],[-83.263963,37.728905],[-83.264661,37.72836],[-83.26488,37.728209],[-83.26502,37.72813],[-83.265414,37.727976],[-83.265496,37.727924],[-83.265555,37.727864],[-83.265594,37.727797],[-83.265631,37.727643],[-83.265617,37.727404],[-83.265625,37.72731],[-83.26565,37.727211],[-83.265703,37.727114],[-83.26579,37.727027],[-83.266002,37.726862],[-83.266418,37.726515],[-83.266514,37.726448],[-83.266618,37.726398],[-83.266725,37.726371],[-83.266851,37.726361],[-83.26728,37.726379],[-83.268027,37.726354],[-83.268379,37.726336],[-83.2684787,37.7263262],[-83.268971,37.726278],[-83.269799,37.726228],[-83.270049,37.726198],[-83.270171,37.726168],[-83.27082,37.725961],[-83.270953,37.725927],[-83.271212,37.725878],[-83.271607,37.725825],[-83.271849,37.725769],[-83.272043,37.725687],[-83.272238,37.725559],[-83.272427,37.725452],[-83.272646,37.725359],[-83.272686,37.725342],[-83.272747,37.725296],[-83.272858,37.725177],[-83.272913,37.725097],[-83.273209,37.724666],[-83.273575,37.724253],[-83.273703,37.724078],[-83.273825,37.723879],[-83.274105,37.723472],[-83.274248,37.723294],[-83.274439,37.723082],[-83.274484,37.723018],[-83.274507,37.722953],[-83.274458,37.722669],[-83.274457,37.72251],[-83.274498,37.722346],[-83.274555,37.722186],[-83.2747,37.721873],[-83.274745,37.721796],[-83.274804,37.721723],[-83.274877,37.721659],[-83.274966,37.721604],[-83.275066,37.721557],[-83.275281,37.721483],[-83.275562,37.721438],[-83.275725,37.721445],[-83.276015,37.721439],[-83.276139,37.721465],[-83.276218,37.721531],[-83.276316,37.721658],[-83.276366,37.721688],[-83.276429,37.7217],[-83.276598,37.721665],[-83.276678,37.721516],[-83.276847,37.721402],[-83.276917,37.721385],[-83.277062,37.721386],[-83.277332,37.721417],[-83.277615,37.72138],[-83.277698,37.72138],[-83.277775,37.721392],[-83.277855,37.721413],[-83.277988,37.721476],[-83.278092,37.721575],[-83.278213,37.721773],[-83.278273,37.721912],[-83.278343,37.722124],[-83.278382,37.722198],[-83.278411,37.722256],[-83.278456,37.722306]]}},{"type":"Feature","properties":{"osm_id":16383513,"highway":"residential","name":"Wheel Rim Road","alt_name":null,"official_name":null,"surface":null,"tracktype":null,"service":null,"access":null,"motor_vehicle":null,"foot":null,"tiger_reviewed":"no","rrgh_part":0,"rrgh_tile_part":0},"geometry":{"type":"LineString","coordinates":[[-83.286458,37.713193],[-83.286192,37.713427],[-83.286091,37.713508],[-83.285972,37.713617],[-83.285821,37.713774],[-83.285678,37.713912],[-83.285637,37.713945],[-83.28551,37.71409],[-83.285441,37.71416],[-83.285229,37.714392],[-83.285197,37.714435],[-83.285119,37.714518],[-83.28499,37.714698],[-83.284554,37.715412],[-83.284476,37.715506],[-83.2844,37.715587],[-83.284367,37.715628],[-83.284339,37.715672],[-83.284317,37.715717],[-83.284284,37.715807],[-83.284263,37.715848],[-83.284231,37.715884],[-83.284187,37.715909],[-83.284133,37.71592],[-83.284077,37.715914],[-83.284025,37.715896],[-83.283921,37.715848],[-83.2838,37.715801],[-83.283603,37.715747],[-83.283538,37.715739],[-83.283433,37.715741],[-83.28341,37.715742],[-83.283216,37.715779],[-83.283143,37.715798],[-83.283089,37.715811],[-83.283026,37.715833],[-83.282959,37.715848],[-83.282876,37.715857],[-83.282746,37.715872],[-83.282674,37.715878],[-83.282581,37.715881],[-83.282467,37.715885],[-83.282401,37.715892],[-83.282205,37.715902],[-83.281947,37.715902],[-83.281851,37.715899],[-83.281754,37.715896],[-83.281462,37.715873],[-83.281299,37.715846],[-83.28104,37.715779],[-83.280944,37.715763],[-83.280789,37.715757],[-83.280761,37.71576]]}},{"type":"Feature","properties":{"osm_id":16385169,"highway":"residential","name":"Maddix Branch Road","alt_name":null,"official_name":null,"surface":null,"tracktype":null,"service":null,"access":null,"motor_vehicle":null,"foot":null,"tiger_reviewed":"no","rrgh_part":0,"rrgh_tile_part":0},"geometry":{"type":"LineString","coordinates":[[-83.294177,37.721136],[-83.293973,37.721128],[-83.293862,37.721137],[-83.293806,37.721146],[-83.29346,37.721235],[-83.293236,37.721331],[-83.293131,37.721381],[-83.293081,37.72141],[-83.292917,37.721489],[-83.292859,37.721511],[-83.292687,37.721593],[-83.292582,37.72166],[-83.29236,37.721814],[-83.292299,37.721852],[-83.292167,37.721922],[-83.29196,37.721987],[-83.291891,37.722005],[-83.29182,37.72203],[-83.291625,37.722121],[-83.291177,37.722295],[-83.291044,37.722352],[-83.290963,37.722386],[-83.290886,37.722415],[-83.290747,37.722468],[-83.290597,37.722517],[-83.290352,37.722574],[-83.290004,37.722636],[-83.289833,37.722649],[-83.289671,37.722646],[-83.289443,37.722669],[-83.289288,37.72269],[-83.289132,37.722719],[-83.288889,37.722778],[-83.288714,37.722812],[-83.288623,37.722826],[-83.288341,37.722858],[-83.288243,37.722859],[-83.28796,37.722894],[-83.287867,37.722902],[-83.287295,37.722917],[-83.287181,37.722888],[-83.287041,37.722824]]}},{"type":"Feature","properties":{"osm_id":16381520,"highway":"residential","name":null,"alt_name":null,"official_name":null,"surface":null,"tracktype":null,"service":null,"access":null,"motor_vehicle":null,"foot":null,"tiger_reviewed":"no","rrgh_part":0,"rrgh_tile_part":0},"geometry":{"type":"LineString","coordinates":[[-83.307001,37.727628],[-83.306479,37.728256],[-83.306409,37.728518]]}},{"type":"Feature","properties":{"osm_id":16383890,"highway":"residential","name":"Will Lindon Branch Road","alt_name":null,"official_name":null,"surface":null,"tracktype":null,"service":null,"access":null,"motor_vehicle":null,"foot":null,"tiger_reviewed":"no","rrgh_part":0,"rrgh_tile_part":0},"geometry":{"type":"LineString","coordinates":[[-83.306652,37.727201],[-83.306566,37.727223],[-83.306526,37.727243],[-83.306479,37.727273],[-83.306431,37.72731],[-83.306387,37.727357],[-83.306346,37.727409],[-83.306161,37.727577],[-83.305962,37.727748],[-83.30585,37.727866],[-83.305803,37.727922],[-83.30576,37.727983],[-83.305701,37.728106],[-83.30564,37.728315],[-83.305622,37.728394],[-83.305566,37.728554],[-83.305535,37.72863],[-83.305494,37.728703],[-83.305387,37.728846],[-83.305264,37.728986],[-83.305212,37.72906],[-83.305147,37.72914],[-83.305079,37.729295],[-83.30505,37.729379],[-83.305022,37.729552],[-83.305021,37.729719],[-83.305016,37.729804],[-83.304998,37.729885],[-83.30496,37.72996],[-83.304906,37.730025],[-83.304837,37.730081],[-83.304685,37.730178],[-83.304407,37.730342],[-83.304365,37.730367],[-83.304273,37.730404],[-83.304175,37.730433],[-83.304071,37.730458],[-83.303751,37.730519],[-83.303524,37.73054],[-83.303403,37.730547],[-83.30303,37.730588],[-83.302774,37.730623],[-83.302649,37.730645],[-83.302525,37.730672],[-83.302285,37.730741],[-83.30217,37.730782],[-83.301643,37.73102],[-83.301469,37.731118],[-83.301313,37.731227],[-83.301079,37.731416],[-83.300813,37.731614],[-83.300611,37.731729],[-83.300405,37.731819],[-83.300307,37.731867],[-83.300217,37.731921],[-83.299969,37.732101],[-83.299623,37.732257],[-83.299455,37.73232],[-83.298959,37.732498],[-83.29855,37.732677],[-83.298339,37.732788],[-83.298163,37.732902],[-83.297903,37.733087],[-83.297848,37.73312],[-83.29779,37.733147],[-83.297676,37.733184],[-83.297605,37.733212],[-83.297569,37.733231],[-83.297472,37.733306],[-83.297239,37.733556],[-83.297106,37.733714],[-83.297035,37.733833],[-83.296922,37.73399],[-83.296875,37.734036],[-83.296765,37.734119],[-83.296465,37.734287],[-83.296409,37.734312],[-83.296155,37.734392],[-83.296093,37.734411],[-83.295989,37.734458],[-83.295936,37.734486],[-83.295862,37.734507]]}},{"type":"Feature","properties":{"osm_id":16318139,"highway":"residential","name":null,"alt_name":null,"official_name":null,"surface":null,"tracktype":null,"service":null,"access":null,"motor_vehicle":null,"foot":null,"tiger_reviewed":"no","rrgh_part":0,"rrgh_tile_part":0},"geometry":{"type":"LineString","coordinates":[[-83.276015,37.721439],[-83.276284,37.72131],[-83.277715,37.720686]]}},{"type":"Feature","properties":{"osm_id":16322904,"highway":"residential","name":"Elam Cemetery No 2 Road","alt_name":null,"official_name":null,"surface":null,"tracktype":null,"service":null,"access":null,"motor_vehicle":null,"foot":null,"tiger_reviewed":"no","rrgh_part":0,"rrgh_tile_part":0},"geometry":{"type":"LineString","coordinates":[[-83.272913,37.725097],[-83.273878,37.725648],[-83.275724,37.72665],[-83.276447,37.726868],[-83.27723,37.726947]]}},{"type":"Feature","properties":{"osm_id":16320648,"highway":"residential","name":"Wheelrim Church Road","alt_name":null,"official_name":null,"surface":null,"tracktype":null,"service":null,"access":null,"motor_vehicle":null,"foot":null,"tiger_reviewed":"no","rrgh_part":0,"rrgh_tile_part":0},"geometry":{"type":"LineString","coordinates":[[-83.278382,37.722198],[-83.278226,37.722227],[-83.277856,37.722153],[-83.277631,37.722191],[-83.277534,37.722252],[-83.277461,37.722297],[-83.277432,37.722404],[-83.27747,37.722462],[-83.277616,37.722508],[-83.277868,37.722541],[-83.278321,37.722665],[-83.278588,37.722824],[-83.278921,37.722892],[-83.279244,37.722874],[-83.279484,37.722729],[-83.279234,37.722506],[-83.278456,37.722306]]}},{"type":"Feature","properties":{"osm_id":16296599,"highway":"residential","name":null,"alt_name":null,"official_name":null,"surface":null,"tracktype":null,"service":null,"access":null,"motor_vehicle":null,"foot":null,"tiger_reviewed":"no","rrgh_part":0,"rrgh_tile_part":0},"geometry":{"type":"LineString","coordinates":[[-83.257914,37.716959],[-83.257538,37.717342],[-83.256843,37.717813],[-83.254911,37.718545],[-83.254592,37.718837],[-83.253822,37.719205],[-83.253672,37.71924],[-83.252733,37.71946],[-83.251431,37.71998],[-83.25,37.72003503846154]]}},{"type":"Feature","properties":{"osm_id":963802539,"highway":"road","name":null,"alt_name":null,"official_name":null,"surface":null,"tracktype":null,"service":null,"access":null,"motor_vehicle":null,"foot":null,"tiger_reviewed":null,"rrgh_part":0,"rrgh_tile_part":0},"geometry":{"type":"LineString","coordinates":[[-83.2700318,37.7288144],[-83.2705729,37.7293758],[-83.2707668,37.7295509],[-83.2710948,37.7295471],[-83.2712528,37.7295642],[-83.2713916,37.7295509],[-83.2714802,37.729426],[-83.2713892,37.7293692],[-83.2712551,37.729301],[-83.2711211,37.7291874],[-83.27109,37.7291306],[-83.2702497,37.727985],[-83.270051,37.7277559],[-83.2699337,37.7274568],[-83.2697445,37.726919],[-83.2696823,37.7267581],[-83.2695889,37.7267013],[-83.2695315,37.726671],[-83.2694214,37.726635],[-83.2692215,37.7266776],[-83.2690515,37.7266653],[-83.2688683,37.7265375],[-83.2684787,37.7263262]]}},{"type":"Feature","properties":{"osm_id":16319768,"highway":"residential","name":"Elam Church Cemetery Road","alt_name":null,"official_name":null,"surface":null,"tracktype":null,"service":null,"access":null,"motor_vehicle":null,"foot":null,"tiger_reviewed":"no","rrgh_part":0,"rrgh_tile_part":0},"geometry":{"type":"LineString","coordinates":[[-83.26502,37.72813],[-83.265042,37.728142],[-83.265085,37.728141],[-83.265236,37.728114],[-83.265505,37.728042],[-83.265692,37.727975],[-83.265753,37.727961],[-83.26582,37.727959],[-83.265961,37.727997],[-83.266304,37.728214],[-83.266814,37.728586],[-83.267031,37.728785],[-83.26714,37.728869],[-83.267369,37.729047],[-83.267693,37.729354],[-83.267975,37.72968],[-83.268132,37.729825],[-83.268517,37.730077],[-83.268757,37.730291],[-83.268845,37.730358],[-83.268948,37.730415],[-83.269227,37.730624],[-83.269554,37.730931],[-83.269811,37.731213],[-83.269853,37.731248]]}},{"type":"Feature","properties":{"osm_id":16317697,"highway":"residential","name":null,"alt_name":null,"official_name":null,"surface":null,"tracktype":null,"service":null,"access":null,"motor_vehicle":null,"foot":null,"tiger_reviewed":"no","rrgh_part":0,"rrgh_tile_part":0},"geometry":{"type":"LineString","coordinates":[[-83.259168,37.732386],[-83.25849,37.731881],[-83.258292,37.731882],[-83.257327,37.73184]]}},{"type":"Feature","properties":{"osm_id":977108218,"highway":"track","name":null,"alt_name":null,"official_name":null,"surface":null,"tracktype":null,"service":null,"access":null,"motor_vehicle":null,"foot":null,"tiger_reviewed":null,"rrgh_part":0,"rrgh_tile_part":0},"geometry":{"type":"LineString","coordinates":[[-83.2863965,37.7496559],[-83.2864958,37.7494774],[-83.2866182,37.7492515],[-83.2867654,37.7490355],[-83.2869038,37.7487395],[-83.2870653,37.7485192],[-83.2871593,37.7483369],[-83.2872374,37.7480942],[-83.2873474,37.7477939],[-83.2874432,37.7475695],[-83.2874751,37.7474418],[-83.2874574,37.7473029],[-83.2874414,37.7471598],[-83.2874982,37.7470841],[-83.2876579,37.7469213],[-83.2876721,37.7468147],[-83.2876348,37.7466632],[-83.2876384,37.7465959],[-83.2877359,37.7464514],[-83.2879222,37.7462606],[-83.2879897,37.7461413],[-83.2880482,37.7459561],[-83.2881458,37.745827],[-83.2883818,37.7455759],[-83.288616,37.7453416],[-83.2888484,37.7450428],[-83.2890897,37.7447692],[-83.2893842,37.7445363],[-83.2895368,37.7444816]]}},{"type":"Feature","properties":{"osm_id":977108219,"highway":"track","name":null,"alt_name":null,"official_name":null,"surface":null,"tracktype":null,"service":null,"access":null,"motor_vehicle":null,"foot":null,"tiger_reviewed":null,"rrgh_part":0,"rrgh_tile_part":0},"geometry":{"type":"LineString","coordinates":[[-83.2833742,37.7490449],[-83.2836766,37.748816],[-83.2837971,37.7487354],[-83.2838079,37.7486511],[-83.2837368,37.748441],[-83.283658,37.7482664],[-83.2833708,37.7478341],[-83.283346,37.7477303],[-83.2833569,37.7476106],[-83.2833986,37.7475336],[-83.2834943,37.7474677],[-83.283658,37.7474261],[-83.2838372,37.7473871],[-83.2839948,37.7472833],[-83.2842187,37.7470146],[-83.2846064,37.7467056],[-83.2846435,37.7466164],[-83.2847763,37.7463123],[-83.284835,37.7461719],[-83.2849987,37.7459447],[-83.2853771,37.7454965],[-83.2855038,37.7453707],[-83.2856397,37.7453157],[-83.2858173,37.7452375],[-83.2859857,37.7451069],[-83.2862652,37.7449163],[-83.2864089,37.7448369],[-83.2866205,37.7447319],[-83.2867363,37.7446281],[-83.286812,37.7445279],[-83.286934,37.7443484],[-83.2870731,37.744153],[-83.2873171,37.7439429],[-83.2874654,37.7437902],[-83.2876059,37.7435618],[-83.2876893,37.7433933],[-83.2877496,37.7432699],[-83.2877295,37.7431893]]}},{"type":"Feature","properties":{"osm_id":16319401,"highway":"residential","name":"Whitley Cemetery Road","alt_name":null,"official_name":null,"surface":null,"tracktype":null,"service":null,"access":null,"motor_vehicle":null,"foot":null,"tiger_reviewed":"no","rrgh_part":0,"rrgh_tile_part":0},"geometry":{"type":"LineString","coordinates":[[-83.28614050560748,37.75],[-83.2862385,37.7499073],[-83.2863776,37.749738],[-83.2863965,37.7496559]]}},{"type":"Feature","properties":{"osm_id":16317688,"highway":"residential","name":null,"alt_name":null,"official_name":null,"surface":null,"tracktype":null,"service":null,"access":null,"motor_vehicle":null,"foot":null,"tiger_reviewed":"no","rrgh_part":0,"rrgh_tile_part":0},"geometry":{"type":"LineString","coordinates":[[-83.278831,37.74348],[-83.279345,37.743371],[-83.279524,37.743373],[-83.279751,37.743575],[-83.279809,37.743659]]}},{"type":"Feature","properties":{"osm_id":16320214,"highway":"residential","name":"Bayleys Cemetery Road","alt_name":null,"official_name":null,"surface":null,"tracktype":null,"service":null,"access":null,"motor_vehicle":null,"foot":null,"tiger_reviewed":"no","rrgh_part":0,"rrgh_tile_part":0},"geometry":{"type":"LineString","coordinates":[[-83.27662,37.742784],[-83.277456,37.742714]]}},{"type":"Feature","properties":{"osm_id":16320265,"highway":"residential","name":"O'Wagers Road","alt_name":null,"official_name":null,"surface":null,"tracktype":null,"service":null,"access":null,"motor_vehicle":null,"foot":null,"tiger_reviewed":"no","rrgh_part":0,"rrgh_tile_part":0},"geometry":{"type":"LineString","coordinates":[[-83.278534,37.740784],[-83.278263,37.740953],[-83.278172,37.741009],[-83.278146,37.741043],[-83.278136,37.74108],[-83.27815,37.741117],[-83.278233,37.74119],[-83.278255,37.741233],[-83.278253,37.741276],[-83.27824,37.7413],[-83.278227,37.741322],[-83.278175,37.741364],[-83.277921,37.74149],[-83.277865,37.741529],[-83.277604,37.74176],[-83.277458,37.741911],[-83.277209,37.742205],[-83.277178,37.742301],[-83.277199,37.742399]]}},{"type":"Feature","properties":{"osm_id":16322021,"highway":"residential","name":"Jones Cemetery Road","alt_name":null,"official_name":null,"surface":null,"tracktype":null,"service":null,"access":null,"motor_vehicle":null,"foot":null,"tiger_reviewed":"no","rrgh_part":0,"rrgh_tile_part":0},"geometry":{"type":"LineString","coordinates":[[-83.271122,37.745768],[-83.27125,37.746187]]}},{"type":"Feature","properties":{"osm_id":16296888,"highway":"residential","name":null,"alt_name":null,"official_name":null,"surface":null,"tracktype":null,"service":null,"access":null,"motor_vehicle":null,"foot":null,"tiger_reviewed":"no","rrgh_part":0,"rrgh_tile_part":0},"geometry":{"type":"LineString","coordinates":[[-83.253822,37.719205],[-83.253954,37.719364],[-83.254112,37.719472],[-83.254241,37.719512]]}},{"type":"Feature","properties":{"osm_id":16321840,"highway":"residential","name":"Magoffin County Road","alt_name":null,"official_name":null,"surface":null,"tracktype":null,"service":null,"access":null,"motor_vehicle":null,"foot":null,"tiger_reviewed":"no","rrgh_part":0,"rrgh_tile_part":0},"geometry":{"type":"LineString","coordinates":[[-83.251433,37.748308],[-83.251404,37.748372],[-83.251379,37.748396],[-83.251124,37.748506],[-83.251078,37.748544],[-83.251043,37.748591],[-83.251019,37.748643],[-83.250998,37.748761],[-83.25102,37.748994],[-83.251059,37.749175],[-83.251154,37.749462],[-83.25119,37.749558],[-83.251331,37.749841],[-83.25142420689654,37.75]]}}],"rrgh_tile":{"id":"r4c8","bounds":[37.675,-83.33500000000001,37.75,-83.25]}}
