{"type":"FeatureCollection","features":[{"type":"Feature","properties":{"osm_id":16383379,"highway":"residential","name":"Buchanan Fork Road","alt_name":null,"official_name":null,"surface":null,"tracktype":null,"service":null,"access":null,"motor_vehicle":null,"foot":null,"tiger_reviewed":"no","rrgh_part":0,"rrgh_tile_part":0},"geometry":{"type":"LineString","coordinates":[[-83.44477985714286,37.75],[-83.444409,37.750236],[-83.444299,37.750313],[-83.444211,37.75039],[-83.444145,37.750466],[-83.444093,37.750543],[-83.443959,37.750808],[-83.443823,37.751046],[-83.443545,37.751607],[-83.443382,37.751999],[-83.443312,37.752218],[-83.443258,37.752451],[-83.443178,37.752897],[-83.443111,37.753182],[-83.443074,37.753413],[-83.443068,37.753516],[-83.443077,37.753618],[-83.443086,37.753669],[-83.443141,37.753812],[-83.443172,37.75393],[-83.443206,37.754111],[-83.443237,37.754378],[-83.443246,37.754747],[-83.443235,37.754889],[-83.443236,37.754945],[-83.443211,37.755195],[-83.443194,37.755296],[-83.443174,37.755347],[-83.443163,37.755399],[-83.443163,37.755453],[-83.443081,37.755753],[-83.443006,37.755949],[-83.44299,37.756016],[-83.442964,37.756081],[-83.442931,37.756144],[-83.442845,37.756367],[-83.44276,37.756536],[-83.442616,37.756776],[-83.442553,37.756904],[-83.44244,37.757164],[-83.442338,37.757353],[-83.442167,37.757596],[-83.44212,37.757652],[-83.442069,37.757704],[-83.442014,37.757749],[-83.441954,37.757786],[-83.441892,37.757816],[-83.441776,37.757854],[-83.441656,37.757873],[-83.441516,37.757878],[-83.441371,37.75787],[-83.441227,37.757852],[-83.441157,37.757843],[-83.440848,37.757786],[-83.440371,37.757678],[-83.440218,37.757654],[-83.440145,37.757653],[-83.440075,37.757657],[-83.440007,37.757669],[-83.439937,37.757687],[-83.439866,37.757711],[-83.43973,37.757771],[-83.439611,37.75784],[-83.439507,37.757917],[-83.439461,37.757961],[-83.439385,37.758055],[-83.439319,37.758156],[-83.439245,37.758313],[-83.439189,37.758463],[-83.439174,37.758515],[-83.439167,37.758567],[-83.439166,37.758619],[-83.439175,37.758675],[-83.439193,37.758731],[-83.439249,37.758846],[-83.439402,37.759083],[-83.439472,37.759208],[-83.439531,37.759336],[-83.439569,37.759465],[-83.439581,37.759531],[-83.439589,37.75967],[-83.439577,37.759884],[-83.439534,37.760245],[-83.439424,37.760818],[-83.439367,37.761203],[-83.439335,37.761346],[-83.439288,37.761473],[-83.439217,37.761606],[-83.439112,37.761775],[-83.439048,37.761848],[-83.438791,37.76209],[-83.438607,37.76223],[-83.438515,37.762286],[-83.438149,37.762551],[-83.438059,37.762625],[-83.437979,37.762706],[-83.437836,37.762885],[-83.437745,37.763023],[-83.4377,37.763107],[-83.437591,37.763308],[-83.437412,37.763625],[-83.437271,37.763904],[-83.437198,37.764075],[-83.437161,37.764184],[-83.437078,37.76454],[-83.437019,37.764717],[-83.436933,37.764943],[-83.436871,37.765057],[-83.436707,37.765296],[-83.436563,37.765478],[-83.436356,37.765715],[-83.436197,37.765872],[-83.436077,37.765997],[-83.435918,37.766283],[-83.435854,37.766435],[-83.435795,37.766615],[-83.43563,37.767069],[-83.435572,37.767198],[-83.435498,37.767322],[-83.435406,37.76744],[-83.43525,37.767576],[-83.435232,37.767588],[-83.435181,37.767612],[-83.43511,37.767634],[-83.435039,37.767646],[-83.434968,37.76765],[-83.434819,37.767648],[-83.434409,37.767615],[-83.434323,37.767616],[-83.434233,37.767624],[-83.434144,37.767641],[-83.433907,37.767736],[-83.433843,37.76778],[-83.433786,37.767828],[-83.433694,37.767931],[-83.43358,37.768094],[-83.433535,37.768145],[-83.43348,37.768192],[-83.433417,37.768229],[-83.433348,37.768258],[-83.433273,37.768278],[-83.432789,37.768347],[-83.432712,37.768367],[-83.432558,37.768419],[-83.432253,37.768547],[-83.432023,37.768638],[-83.431867,37.768691],[-83.431787,37.768711],[-83.431705,37.768724],[-83.43154,37.768737],[-83.431371,37.768738],[-83.431193,37.768729],[-83.430715,37.768685],[-83.43052,37.768674],[-83.430327,37.768678],[-83.429739,37.768722],[-83.429547,37.768743],[-83.429457,37.768766],[-83.429374,37.768799],[-83.429302,37.768846],[-83.429245,37.768905],[-83.429056,37.769211],[-83.428899,37.769353],[-83.42888,37.769366],[-83.42877,37.769442],[-83.42806,37.769974],[-83.427937,37.770042],[-83.427792,37.770109],[-83.427592,37.770158],[-83.427376,37.770193],[-83.427166,37.770245],[-83.427054,37.770291],[-83.426987,37.770338],[-83.426916,37.770395],[-83.426769,37.770499],[-83.426606,37.770598],[-83.42652,37.770639],[-83.426435,37.770671],[-83.426347,37.770699],[-83.425849,37.770829],[-83.4253,37.770995],[-83.42509,37.771074],[-83.424993,37.771124],[-83.424905,37.771183],[-83.424823,37.771249],[-83.424559,37.771441],[-83.424454,37.771486],[-83.424004,37.771595],[-83.423899,37.771625],[-83.423586,37.771725],[-83.423419,37.771772],[-83.423276,37.771807],[-83.423049,37.771846],[-83.422681,37.771857],[-83.422455,37.771885],[-83.422229,37.771919],[-83.422002,37.771942],[-83.421887,37.771937],[-83.421783,37.771933],[-83.421606,37.77192],[-83.421262,37.771914],[-83.421094,37.771943],[-83.420861,37.772009],[-83.420627,37.772104],[-83.420477,37.772172],[-83.420165,37.772322],[-83.42,37.77240935294118]]}},{"type":"Feature","properties":{"osm_id":16382104,"highway":"service","name":null,"alt_name":null,"official_name":null,"surface":null,"tracktype":null,"service":null,"access":"private","motor_vehicle":null,"foot":null,"tiger_reviewed":"no","rrgh_part":0,"rrgh_tile_part":0},"geometry":{"type":"LineString","coordinates":[[-83.49702546896552,37.75],[-83.497324,37.750141],[-83.49747,37.750216]]}},{"type":"Feature","properties":{"osm_id":16382752,"highway":"residential","name":"Johnson Fork Road","alt_name":null,"official_name":null,"surface":null,"tracktype":null,"service":null,"access":null,"motor_vehicle":null,"foot":null,"tiger_reviewed":"no","rrgh_part":0,"rrgh_tile_part":0},"geometry":{"type":"LineString","coordinates":[[-83.42976090526315,37.75],[-83.429779,37.750027],[-83.429873,37.750173],[-83.430091,37.75051],[-83.430173,37.750659],[-83.430228,37.750794],[-83.430245,37.750858],[-83.430253,37.750931],[-83.430251,37.751048],[-83.430238,37.751125],[-83.430185,37.751291],[-83.430132,37.751385],[-83.430056,37.751495],[-83.430001,37.751562],[-83.429888,37.751674],[-83.429588,37.751931],[-83.429482,37.752029],[-83.429106,37.752341],[-83.429072,37.752369],[-83.428975,37.752457],[-83.428759,37.752678],[-83.428683,37.752745],[-83.428542,37.752856],[-83.428431,37.752929],[-83.428215,37.75304],[-83.42803,37.75311],[-83.427712,37.753195],[-83.427639,37.753219],[-83.427122,37.753426],[-83.427047,37.753459],[-83.426969,37.753501],[-83.426763,37.753641],[-83.426681,37.753686],[-83.426613,37.753712],[-83.426543,37.753726],[-83.426348,37.753749],[-83.426174,37.753781],[-83.426016,37.753841],[-83.425948,37.753872],[-83.425799,37.753949],[-83.425611,37.754064],[-83.425533,37.754101],[-83.425069,37.754251],[-83.424669,37.754401],[-83.424527,37.754442],[-83.424438,37.754457],[-83.424307,37.754463],[-83.424097,37.754461],[-83.424026,37.754468],[-83.423834,37.754506],[-83.423637,37.754568],[-83.423443,37.754618],[-83.423356,37.754646],[-83.423236,37.754706],[-83.423201,37.754728],[-83.42309,37.754816],[-83.423018,37.754906],[-83.422932,37.755041],[-83.422854,37.755186],[-83.422766,37.755414],[-83.422739,37.755519],[-83.422688,37.755664],[-83.422645,37.755745],[-83.422508,37.755936],[-83.422468,37.755999],[-83.422412,37.756107],[-83.42238,37.756198],[-83.42235,37.756319],[-83.422294,37.756466],[-83.42224,37.756559],[-83.422105,37.756753],[-83.421996,37.756967],[-83.421921,37.757142],[-83.421863,37.757353],[-83.421818,37.757609],[-83.421771,37.757779],[-83.421751,37.757873],[-83.421746,37.757942],[-83.421768,37.758123],[-83.421798,37.758211],[-83.421877,37.758391],[-83.421904,37.758492],[-83.421908,37.75851],[-83.421914,37.7586],[-83.421908,37.758671],[-83.421876,37.758789],[-83.421848,37.758855],[-83.4217107,37.7590405],[-83.421646,37.759095],[-83.421447,37.759257],[-83.421391,37.759315],[-83.421328,37.759398],[-83.421278,37.759488],[-83.421072,37.759998],[-83.420972,37.760292],[-83.420874,37.760524],[-83.420782,37.760687],[-83.420552,37.761017],[-83.420442,37.761196],[-83.420227,37.761673],[-83.420161,37.761839],[-83.42011,37.761986],[-83.420058,37.762173],[-83.42,37.7624347631579]]}},{"type":"Feature","properties":{"osm_id":16381887,"highway":"residential","name":null,"alt_name":null,"official_name":null,"surface":null,"tracktype":null,"service":null,"access":null,"motor_vehicle":null,"foot":null,"tiger_reviewed":"no","rrgh_part":0,"rrgh_tile_part":0},"geometry":{"type":"LineString","coordinates":[[-83.45091838695653,37.75],[-83.450917,37.750011],[-83.450943,37.750985],[-83.451174,37.751561],[-83.451175,37.752691],[-83.450859,37.75359],[-83.450859,37.754397],[-83.450341,37.756102],[-83.450342,37.757602],[-83.450255,37.75774],[-83.450255,37.758316],[-83.450372,37.758846],[-83.450602,37.759147],[-83.450833,37.759746]]}},{"type":"Feature","properties":{"osm_id":16381941,"highway":"service","name":null,"alt_name":null,"official_name":null,"surface":null,"tracktype":null,"service":null,"access":"private","motor_vehicle":null,"foot":null,"tiger_reviewed":"no","rrgh_part":0,"rrgh_tile_part":0},"geometry":{"type":"LineString","coordinates":[[-83.448059,37.751124],[-83.45007542671009,37.75]]}},{"type":"Feature","properties":{"osm_id":16381785,"highway":"service","name":null,"alt_name":null,"official_name":null,"surface":null,"tracktype":null,"service":null,"access":"private","motor_vehicle":null,"foot":null,"tiger_reviewed":"no","rrgh_part":0,"rrgh_tile_part":0},"geometry":{"type":"LineString","coordinates":[[-83.444145,37.750466],[-83.444062,37.750417],[-83.443988,37.750341],[-83.44394,37.750251],[-83.443891,37.750119],[-83.44385,37.750004],[-83.4438491111111,37.75]]}},{"type":"Feature","properties":{"osm_id":16382206,"highway":"service","name":null,"alt_name":null,"official_name":null,"surface":null,"tracktype":null,"service":null,"access":null,"motor_vehicle":null,"foot":null,"tiger_reviewed":"no","rrgh_part":0,"rrgh_tile_part":0},"geometry":{"type":"LineString","coordinates":[[-83.43228258823528,37.75],[-83.432605,37.750087],[-83.432867,37.750383],[-83.43315,37.750625],[-83.433241,37.75077],[-83.433322,37.7509],[-83.43332,37.751166],[-83.433188,37.751448],[-83.432964,37.751641],[-83.432801,37.751705],[-83.432557,37.751826]]}},{"type":"Feature","properties":{"osm_id":16382525,"highway":"service","name":null,"alt_name":null,"official_name":null,"surface":null,"tracktype":null,"service":null,"access":"private","motor_vehicle":null,"foot":null,"tiger_reviewed":"no","rrgh_part":0,"rrgh_tile_part":0},"geometry":{"type":"LineString","coordinates":[[-83.496744,37.750345],[-83.496778,37.750382],[-83.496983,37.750514]]}},{"type":"Feature","properties":{"osm_id":16381965,"highway":"service","name":null,"alt_name":null,"official_name":null,"surface":null,"tracktype":null,"service":null,"access":"private","motor_vehicle":null,"foot":null,"tiger_reviewed":"no","rrgh_part":0,"rrgh_tile_part":0},"geometry":{"type":"LineString","coordinates":[[-83.493829,37.75324],[-83.493968,37.753333],[-83.494207,37.753474],[-83.494338,37.753563],[-83.494534,37.753704],[-83.494648,37.753859],[-83.494708,37.753956],[-83.494743,37.754031],[-83.494778,37.754151],[-83.494834,37.754246],[-83.494963,37.754496],[-83.495122,37.754851],[-83.495338,37.755243],[-83.495462,37.755437],[-83.495699,37.75575],[-83.495797,37.755912],[-83.495851,37.756044],[-83.495872,37.756129],[-83.495916,37.756243],[-83.495992,37.756384],[-83.496004,37.756439],[-83.495998,37.756469],[-83.495972,37.756519],[-83.49576,37.756696],[-83.495715,37.756718],[-83.495693,37.756724],[-83.495649,37.756721],[-83.495622,37.756706],[-83.4956,37.756685],[-83.495586,37.756632],[-83.495582,37.756552],[-83.495562,37.756494],[-83.495545,37.756467],[-83.495523,37.756443],[-83.495444,37.75639],[-83.495376,37.756364],[-83.495297,37.756353],[-83.495058,37.75636],[-83.495017,37.756357],[-83.494976,37.756347],[-83.494905,37.756308],[-83.494883,37.756279],[-83.494868,37.756248],[-83.494872,37.756182],[-83.494954,37.755984],[-83.494948,37.755926]]}},{"type":"Feature","properties":{"osm_id":1415525271,"highway":"residential","name":"Stillwater-Brewers Cemetery Road","alt_name":null,"official_name":null,"surface":null,"tracktype":null,"service":null,"access":null,"motor_vehicle":null,"foot":null,"tiger_reviewed":"no","rrgh_part":0,"rrgh_tile_part":0},"geometry":{"type":"LineString","coordinates":[[-83.488006,37.755622],[-83.488042,37.755764],[-83.488046,37.7558],[-83.488035,37.755838],[-83.488015,37.755877],[-83.487978,37.755914],[-83.487818,37.756042],[-83.487616,37.756216],[-83.487459,37.756333],[-83.4873,37.756438],[-83.487146,37.756522],[-83.486969,37.756603],[-83.486868,37.756644],[-83.486781,37.756672]]}},{"type":"Feature","properties":{"osm_id":16384268,"highway":"residential","name":"Stillwater-Brewers Cemetery Road","alt_name":null,"official_name":null,"surface":null,"tracktype":null,"service":null,"access":null,"motor_vehicle":null,"foot":null,"tiger_reviewed":"no","rrgh_part":0,"rrgh_tile_part":0},"geometry":{"type":"LineString","coordinates":[[-83.486199,37.756855],[-83.486069,37.756876],[-83.485994,37.756882],[-83.485902,37.756883],[-83.485801,37.756876],[-83.485701,37.756856],[-83.485599,37.756828],[-83.485507,37.756788],[-83.48542,37.756739],[-83.485338,37.756681],[-83.485182,37.756553],[-83.485015,37.756402],[-83.484564,37.755985],[-83.484176,37.755635],[-83.484014,37.755462],[-83.483995,37.755406],[-83.483995,37.755353],[-83.484002,37.755304],[-83.484002,37.75526],[-83.483973,37.755175]]}},{"type":"Feature","properties":{"osm_id":16381587,"highway":"service","name":null,"alt_name":null,"official_name":null,"surface":null,"tracktype":null,"service":null,"access":"private","motor_vehicle":null,"foot":null,"tiger_reviewed":"no","rrgh_part":0,"rrgh_tile_part":0},"geometry":{"type":"LineString","coordinates":[[-83.486781,37.756672],[-83.486778,37.756787],[-83.486636,37.757054],[-83.486482,37.757241],[-83.4864,37.757406],[-83.486298,37.757642]]}},{"type":"Feature","properties":{"osm_id":16382038,"highway":"service","name":null,"alt_name":null,"official_name":null,"surface":null,"tracktype":null,"service":null,"access":"private","motor_vehicle":null,"foot":null,"tiger_reviewed":"no","rrgh_part":0,"rrgh_tile_part":0},"geometry":{"type":"LineString","coordinates":[[-83.485726,37.760572],[-83.486986,37.763575]]}},{"type":"Feature","properties":{"osm_id":16383224,"highway":"residential","name":"Shady Lane","alt_name":null,"official_name":null,"surface":null,"tracktype":null,"service":null,"access":null,"motor_vehicle":null,"foot":null,"tiger_reviewed":"no","rrgh_part":0,"rrgh_tile_part":0},"geometry":{"type":"LineString","coordinates":[[-83.485015,37.756402],[-83.485008,37.756482],[-83.485017,37.756524],[-83.485052,37.756605],[-83.485059,37.756637],[-83.485058,37.756705],[-83.485052,37.756738],[-83.48504,37.75677],[-83.484997,37.756833],[-83.484848,37.756989],[-83.484789,37.757068],[-83.484738,37.757158],[-83.484723,37.757209],[-83.484706,37.757324],[-83.484731,37.75754],[-83.484772,37.757814],[-83.484796,37.757924],[-83.484816,37.75798],[-83.484874,37.758086],[-83.484913,37.758146],[-83.484963,37.758198],[-83.485061,37.758324],[-83.485168,37.758433],[-83.48532,37.758547],[-83.485479,37.758654],[-83.485648,37.758747],[-83.485783,37.758814],[-83.485913,37.758886],[-83.485989,37.758946],[-83.486035,37.759005],[-83.486063,37.759061],[-83.486082,37.759127],[-83.486075,37.759267],[-83.48605,37.759338],[-83.485953,37.759545],[-83.485774,37.759773],[-83.485679,37.759914],[-83.485639,37.759981],[-83.485608,37.760071],[-83.485524,37.760183],[-83.485153,37.760493],[-83.485006,37.760626],[-83.484874,37.760763],[-83.484618,37.761049],[-83.484559,37.761121],[-83.484586,37.761169],[-83.484619,37.761185]]}},{"type":"Feature","properties":{"osm_id":16383714,"highway":"residential","name":"North Shady Lane Road","alt_name":null,"official_name":null,"surface":null,"tracktype":null,"service":null,"access":null,"motor_vehicle":null,"foot":null,"tiger_reviewed":"no","rrgh_part":0,"rrgh_tile_part":0},"geometry":{"type":"LineString","coordinates":[[-83.485726,37.760572],[-83.48585,37.760498],[-83.485917,37.760447],[-83.486057,37.760359],[-83.486234,37.760232],[-83.486288,37.760198],[-83.486329,37.760186],[-83.48637,37.760187],[-83.486427,37.7602],[-83.486448,37.760223],[-83.486482,37.760422],[-83.486514,37.760512],[-83.486628,37.760729],[-83.486705,37.760853],[-83.487213,37.761578],[-83.487388,37.761723],[-83.487546,37.761842],[-83.487696,37.761967],[-83.487846,37.762105],[-83.487935,37.762179],[-83.488069,37.762271],[-83.488274,37.762393],[-83.488515,37.762507],[-83.488729,37.762593],[-83.489033,37.762725],[-83.489297,37.762816],[-83.489469,37.762885],[-83.489658,37.762971],[-83.489838,37.763097],[-83.489938,37.763191],[-83.490012,37.763235],[-83.490109,37.763276],[-83.490262,37.763313],[-83.490435,37.763341],[-83.490518,37.763367],[-83.490598,37.7634],[-83.490672,37.763442],[-83.490741,37.763488],[-83.490804,37.763537],[-83.490977,37.763695],[-83.49109,37.763804],[-83.49115,37.763856],[-83.491218,37.763902],[-83.491675,37.764153],[-83.491884,37.764295],[-83.492017,37.764398],[-83.492131,37.764502],[-83.492236,37.764613],[-83.492281,37.764671],[-83.492319,37.764732],[-83.492347,37.764799],[-83.492361,37.764865],[-83.492357,37.764936],[-83.492338,37.765002],[-83.492309,37.765067],[-83.492235,37.765194],[-83.492102,37.765443],[-83.492001,37.765616],[-83.491926,37.765723],[-83.491793,37.765889],[-83.491587,37.766231],[-83.491492,37.766341],[-83.491389,37.766445],[-83.491333,37.766494],[-83.491206,37.766585],[-83.491068,37.766669],[-83.490717,37.766846],[-83.490661,37.766878],[-83.490624,37.766909],[-83.490595,37.766942],[-83.490562,37.767002],[-83.490556,37.767043],[-83.490597,37.767184],[-83.490613,37.76729],[-83.49061,37.767346],[-83.49058,37.767462],[-83.490456,37.767789],[-83.490388,37.767984],[-83.490383,37.768029]]}},{"type":"Feature","properties":{"osm_id":16384295,"highway":"residential","name":"Reed Hurt Road","alt_name":null,"official_name":null,"surface":null,"tracktype":null,"service":null,"access":null,"motor_vehicle":null,"foot":null,"tiger_reviewed":"no","rrgh_part":0,"rrgh_tile_part":0},"geometry":{"type":"LineString","coordinates":[[-83.485015,37.756402],[-83.484759,37.75652],[-83.484683,37.75656],[-83.484232,37.756759],[-83.484022,37.756818],[-83.483822,37.756845],[-83.483618,37.756885],[-83.483411,37.75696],[-83.4832,37.757046],[-83.482968,37.757168],[-83.482771,37.757294],[-83.482618,37.757422],[-83.482414,37.757604],[-83.482317,37.757724],[-83.482248,37.757857],[-83.482159,37.757989],[-83.482027,37.758084],[-83.481916,37.75815],[-83.481788,37.758211],[-83.481659,37.758305],[-83.481565,37.758408],[-83.481514,37.758474],[-83.481457,37.75856],[-83.481437,37.758641],[-83.481367,37.75875],[-83.481316,37.758864],[-83.481203,37.758987],[-83.48115,37.759149],[-83.481087,37.75921],[-83.480965,37.759256],[-83.480844,37.759292],[-83.480726,37.759361],[-83.480627,37.759441],[-83.480502,37.759587],[-83.48042,37.75972],[-83.4803,37.759867],[-83.480218,37.75998],[-83.480019,37.760168],[-83.479921,37.760229],[-83.479468,37.760426],[-83.479203,37.760594],[-83.479112,37.76066],[-83.478956,37.760743],[-83.478854,37.76079],[-83.478835,37.760808],[-83.478827,37.760825]]}},{"type":"Feature","properties":{"osm_id":16382167,"highway":"service","name":null,"alt_name":null,"official_name":null,"surface":null,"tracktype":null,"service":null,"access":"private","motor_vehicle":null,"foot":null,"tiger_reviewed":"no","rrgh_part":0,"rrgh_tile_part":0},"geometry":{"type":"LineString","coordinates":[[-83.484619,37.761185],[-83.484449,37.761425],[-83.484205,37.761788],[-83.48404,37.762053],[-83.483795,37.762246],[-83.483517,37.76243],[-83.482915,37.763024],[-83.482586,37.763321],[-83.482146,37.763587],[-83.482027,37.763683],[-83.481907,37.763859]]}},{"type":"Feature","properties":{"osm_id":16383833,"highway":"residential","name":"Shady Lane Road","alt_name":null,"official_name":null,"surface":null,"tracktype":null,"service":null,"access":null,"motor_vehicle":null,"foot":null,"tiger_reviewed":"no","rrgh_part":0,"rrgh_tile_part":0},"geometry":{"type":"LineString","coordinates":[[-83.484619,37.761185],[-83.484681,37.76119],[-83.484724,37.761172],[-83.484764,37.761134],[-83.484953,37.761031],[-83.485016,37.761002],[-83.4851,37.760947],[-83.485726,37.760572]]}},{"type":"Feature","properties":{"osm_id":16382130,"highway":"service","name":null,"alt_name":null,"official_name":null,"surface":null,"tracktype":null,"service":null,"access":"private","motor_vehicle":null,"foot":null,"tiger_reviewed":"no","rrgh_part":0,"rrgh_tile_part":0},"geometry":{"type":"LineString","coordinates":[[-83.474004,37.753646],[-83.47403,37.754318],[-83.474041,37.754767],[-83.474033,37.754918],[-83.474025,37.754939],[-83.473992,37.754968],[-83.47397,37.754975],[-83.473947,37.754974],[-83.47391,37.75496],[-83.473777,37.754833],[-83.473745,37.75479],[-83.473711,37.754683],[-83.473617,37.754324],[-83.473571,37.754165],[-83.473566,37.754068],[-83.473604,37.753906],[-83.473616,37.753831],[-83.47363,37.753785]]}},{"type":"Feature","properties":{"osm_id":16384654,"highway":"residential","name":"Tyra Subdivision Road","alt_name":null,"official_name":null,"surface":null,"tracktype":null,"service":null,"access":null,"motor_vehicle":null,"foot":null,"tiger_reviewed":"no","rrgh_part":0,"rrgh_tile_part":0},"geometry":{"type":"LineString","coordinates":[[-83.476154,37.752834],[-83.476143,37.752797],[-83.476128,37.752783],[-83.476107,37.752775],[-83.476057,37.752781],[-83.475938,37.752818],[-83.475603,37.752944],[-83.474839,37.753211],[-83.474122,37.753503],[-83.47402,37.753536],[-83.473984,37.753566],[-83.473969,37.753594],[-83.473966,37.753612],[-83.473977,37.753628],[-83.474004,37.753646]]}},{"type":"Feature","properties":{"osm_id":16384977,"highway":"residential","name":"Hubert Edwards Road","alt_name":null,"official_name":null,"surface":null,"tracktype":null,"service":null,"access":null,"motor_vehicle":null,"foot":null,"tiger_reviewed":"no","rrgh_part":0,"rrgh_tile_part":0},"geometry":{"type":"LineString","coordinates":[[-83.469247,37.757427],[-83.469165,37.757339],[-83.469122,37.75731],[-83.469041,37.757275],[-83.468992,37.75726],[-83.46883,37.757237],[-83.468537,37.757205],[-83.468422,37.757181],[-83.468211,37.757116],[-83.46816,37.757106],[-83.46806,37.7571],[-83.467867,37.757104],[-83.46777,37.757102],[-83.467685,37.757113],[-83.467651,37.757122],[-83.467578,37.757158],[-83.467534,37.757191],[-83.467517,37.757218],[-83.467516,37.757239],[-83.46753,37.75726],[-83.467562,37.757276],[-83.467734,37.757304],[-83.467816,37.757313],[-83.467982,37.757358],[-83.46808,37.757375],[-83.468145,37.757377],[-83.468236,37.757366],[-83.468324,37.757344],[-83.468428,37.757349],[-83.468593,37.757376],[-83.468657,37.757393],[-83.468723,37.757404],[-83.468793,37.757426],[-83.468835,37.757468],[-83.468863,37.757552],[-83.468868,37.757597],[-83.468859,37.757752]]}},{"type":"Feature","properties":{"osm_id":16381792,"highway":"service","name":null,"alt_name":null,"official_name":null,"surface":null,"tracktype":null,"service":null,"access":"private","motor_vehicle":null,"foot":null,"tiger_reviewed":"no","rrgh_part":0,"rrgh_tile_part":0},"geometry":{"type":"LineString","coordinates":[[-83.465874,37.764486],[-83.465909,37.764437],[-83.465951,37.764353],[-83.465989,37.76431],[-83.466052,37.764267],[-83.466163,37.764215],[-83.466509,37.7641],[-83.466574,37.764071],[-83.46665,37.76402],[-83.466686,37.76398],[-83.466711,37.763932],[-83.466723,37.763886],[-83.46672,37.763812],[-83.4667,37.763759],[-83.466687,37.763743]]}},{"type":"Feature","properties":{"osm_id":16382335,"highway":"service","name":null,"alt_name":null,"official_name":null,"surface":null,"tracktype":null,"service":null,"access":"private","motor_vehicle":null,"foot":null,"tiger_reviewed":"no","rrgh_part":0,"rrgh_tile_part":0},"geometry":{"type":"LineString","coordinates":[[-83.466793,37.765269],[-83.46675,37.765264],[-83.466706,37.76527],[-83.466604,37.765325],[-83.466467,37.765416],[-83.466293,37.765561],[-83.466216,37.765618],[-83.466179,37.765636],[-83.466098,37.765661],[-83.466008,37.765672],[-83.465963,37.765671],[-83.46592,37.765663],[-83.465873,37.765644],[-83.465835,37.765622],[-83.465804,37.765598],[-83.465635,37.765406],[-83.465485,37.765179],[-83.465453,37.765147],[-83.465381,37.765099]]}},{"type":"Feature","properties":{"osm_id":16383829,"highway":"residential","name":"Stacy Edwards Road","alt_name":null,"official_name":null,"surface":null,"tracktype":null,"service":null,"access":null,"motor_vehicle":null,"foot":null,"tiger_reviewed":"no","rrgh_part":0,"rrgh_tile_part":0},"geometry":{"type":"LineString","coordinates":[[-83.468688,37.759023],[-83.468616,37.759018],[-83.468585,37.759024],[-83.468286,37.759166],[-83.468134,37.759246],[-83.468009,37.759324],[-83.467895,37.759405],[-83.467865,37.759436],[-83.467753,37.759509],[-83.467617,37.75959],[-83.467465,37.75967],[-83.467339,37.759746],[-83.467256,37.759791],[-83.467195,37.759853],[-83.467032,37.759999],[-83.467009,37.760026],[-83.466986,37.760042],[-83.466968,37.760065]]}},{"type":"Feature","properties":{"osm_id":16383872,"highway":"residential","name":"Harrison Sheffield Road","alt_name":null,"official_name":null,"surface":null,"tracktype":null,"service":null,"access":null,"motor_vehicle":null,"foot":null,"tiger_reviewed":"no","rrgh_part":0,"rrgh_tile_part":0},"geometry":{"type":"LineString","coordinates":[[-83.468364,37.760021],[-83.468425,37.760057],[-83.468441,37.760102],[-83.468452,37.760249],[-83.468486,37.760443],[-83.468511,37.76055],[-83.468577,37.760755],[-83.46863,37.76084],[-83.468693,37.760983],[-83.468779,37.761259],[-83.468823,37.761455],[-83.468842,37.76157],[-83.468883,37.761704],[-83.469066,37.762096],[-83.469128,37.762179],[-83.469212,37.762259],[-83.469491,37.762491],[-83.469508,37.762513],[-83.469516,37.762535],[-83.469513,37.762567],[-83.469504,37.762586]]}},{"type":"Feature","properties":{"osm_id":16382198,"highway":"service","name":null,"alt_name":null,"official_name":null,"surface":null,"tracktype":null,"service":null,"access":"private","motor_vehicle":null,"foot":null,"tiger_reviewed":"no","rrgh_part":0,"rrgh_tile_part":0},"geometry":{"type":"LineString","coordinates":[[-83.443891,37.750119],[-83.443805,37.750138],[-83.443651,37.750142],[-83.443305,37.750115],[-83.443019,37.75008]]}},{"type":"Feature","properties":{"osm_id":16382145,"highway":"service","name":null,"alt_name":null,"official_name":null,"surface":null,"tracktype":null,"service":null,"access":"private","motor_vehicle":null,"foot":null,"tiger_reviewed":"no","rrgh_part":0,"rrgh_tile_part":0},"geometry":{"type":"LineString","coordinates":[[-83.465031,37.76566],[-83.465008,37.765611],[-83.465001,37.765583],[-83.465001,37.765524],[-83.465055,37.76533],[-83.465059,37.765301],[-83.465012,37.765045],[-83.465013,37.765009],[-83.465027,37.764974],[-83.465165,37.764763],[-83.465207,37.764684],[-83.465248,37.764562],[-83.465267,37.764477],[-83.465288,37.764029],[-83.465272,37.763893],[-83.465279,37.763871],[-83.465311,37.763832],[-83.465374,37.763775],[-83.465483,37.76369],[-83.465494,37.763673]]}},{"type":"Feature","properties":{"osm_id":16382036,"highway":"service","name":null,"alt_name":null,"official_name":null,"surface":null,"tracktype":null,"service":null,"access":null,"motor_vehicle":null,"foot":null,"tiger_reviewed":"no","rrgh_part":0,"rrgh_tile_part":0},"geometry":{"type":"LineString","coordinates":[[-83.430227,37.757666],[-83.428634,37.758046],[-83.426594,37.758833],[-83.425853,37.759308],[-83.425203,37.75951],[-83.424142,37.759504],[-83.422637,37.7591152],[-83.4220008,37.7590634],[-83.4217107,37.7590405]]}},{"type":"Feature","properties":{"osm_id":16385171,"highway":"residential","name":"Cockerham Road","alt_name":null,"official_name":null,"surface":null,"tracktype":null,"service":null,"access":null,"motor_vehicle":null,"foot":null,"tiger_reviewed":"no","rrgh_part":0,"rrgh_tile_part":0},"geometry":{"type":"LineString","coordinates":[[-83.424438,37.754457],[-83.424403,37.754386],[-83.424392,37.754348],[-83.424355,37.75426],[-83.424333,37.754182],[-83.424312,37.754029],[-83.424293,37.754007],[-83.424233,37.753937],[-83.424166,37.753901],[-83.424093,37.753888],[-83.424055,37.753889],[-83.423975,37.753902],[-83.423896,37.753925],[-83.423781,37.753966],[-83.423662,37.754003],[-83.423553,37.75403],[-83.423303,37.754036],[-83.423217,37.754034],[-83.423171,37.754024],[-83.423124,37.754008],[-83.42306,37.753975],[-83.423001,37.75393],[-83.422938,37.753847],[-83.422867,37.753704],[-83.422795,37.753405],[-83.422777,37.753288],[-83.422766,37.753116],[-83.422755,37.753081],[-83.422729,37.753059],[-83.422692,37.753054],[-83.422665,37.753045],[-83.422639,37.753018],[-83.4226,37.752884],[-83.422603,37.752845],[-83.422614,37.752805],[-83.422665,37.75272],[-83.422708,37.752617],[-83.422748,37.752498],[-83.422766,37.752418],[-83.422771,37.75237],[-83.422769,37.752311],[-83.422793,37.752186],[-83.422785,37.752085]]}},{"type":"Feature","properties":{"osm_id":16382100,"highway":"service","name":null,"alt_name":null,"official_name":null,"surface":null,"tracktype":null,"service":null,"access":null,"motor_vehicle":null,"foot":null,"tiger_reviewed":"no","rrgh_part":0,"rrgh_tile_part":0},"geometry":{"type":"LineString","coordinates":[[-83.42,37.76267169230769],[-83.42145,37.763039]]}},{"type":"Feature","properties":{"osm_id":1521970253,"highway":"service","name":null,"alt_name":null,"official_name":null,"surface":null,"tracktype":null,"service":null,"access":null,"motor_vehicle":null,"foot":null,"tiger_reviewed":null,"rrgh_part":0,"rrgh_tile_part":0},"geometry":{"type":"LineString","coordinates":[[-83.421908,37.758671],[-83.4214697,37.758604],[-83.4212284,37.7585574],[-83.4210963,37.7586377],[-83.4209337,37.7587642],[-83.4207474,37.7588048]]}},{"type":"Feature","properties":{"osm_id":16381622,"highway":"residential","name":null,"alt_name":null,"official_name":null,"surface":null,"tracktype":null,"service":null,"access":null,"motor_vehicle":null,"foot":null,"tiger_reviewed":"no","rrgh_part":0,"rrgh_tile_part":0},"geometry":{"type":"LineString","coordinates":[[-83.503205,37.769071],[-83.502544,37.769062],[-83.502174,37.770118],[-83.502204,37.770703],[-83.50365,37.770981],[-83.504489,37.771335],[-83.504952,37.771624],[-83.505,37.771694675862065]]}},{"type":"Feature","properties":{"osm_id":16381759,"highway":"service","name":null,"alt_name":null,"official_name":null,"surface":null,"tracktype":null,"service":null,"access":"private","motor_vehicle":null,"foot":null,"tiger_reviewed":"no","rrgh_part":0,"rrgh_tile_part":0},"geometry":{"type":"LineString","coordinates":[[-83.502953,37.776336],[-83.503102,37.776662],[-83.504477,37.777514],[-83.504974,37.777385],[-83.505,37.77736822866895]]}},{"type":"Feature","properties":{"osm_id":16382021,"highway":"track","name":null,"alt_name":null,"official_name":null,"surface":null,"tracktype":null,"service":null,"access":null,"motor_vehicle":null,"foot":null,"tiger_reviewed":"no","rrgh_part":0,"rrgh_tile_part":0},"geometry":{"type":"LineString","coordinates":[[-83.500102,37.785537],[-83.500185,37.785555],[-83.501075,37.785809],[-83.501905,37.786267],[-83.502681,37.786061],[-83.502909,37.786084],[-83.503053,37.786198],[-83.503422,37.787138],[-83.504049,37.788212],[-83.504594,37.788671],[-83.504848,37.789312],[-83.504693,37.791142],[-83.504286,37.791623],[-83.504486,37.791806],[-83.505,37.79174789565218]]}},{"type":"Feature","properties":{"osm_id":16382021,"highway":"track","name":null,"alt_name":null,"official_name":null,"surface":null,"tracktype":null,"service":null,"access":null,"motor_vehicle":null,"foot":null,"tiger_reviewed":"no","rrgh_part":0,"rrgh_tile_part":1},"geometry":{"type":"LineString","coordinates":[[-83.505,37.7958220712743],[-83.504564,37.796017],[-83.503633,37.796886],[-83.503111,37.797092],[-83.502127,37.797206],[-83.501606,37.797388],[-83.500967,37.797846],[-83.50008,37.798051],[-83.498093,37.798689],[-83.497457,37.798713],[-83.497282,37.798576],[-83.497136,37.798233],[-83.49704,37.796883],[-83.497238,37.796059],[-83.497032,37.795533],[-83.496626,37.79519],[-83.495786,37.794847],[-83.494656,37.794917],[-83.494338,37.794803],[-83.493812,37.793933],[-83.493291,37.793728],[-83.492943,37.793682],[-83.492596,37.793774],[-83.489816,37.795446],[-83.489034,37.795652],[-83.488571,37.795583],[-83.487585,37.795973],[-83.487035,37.795836]]}},{"type":"Feature","properties":{"osm_id":16384233,"highway":"residential","name":"Big Branch Road","alt_name":null,"official_name":null,"surface":null,"tracktype":null,"service":null,"access":null,"motor_vehicle":null,"foot":null,"tiger_reviewed":"no","rrgh_part":0,"rrgh_tile_part":0},"geometry":{"type":"LineString","coordinates":[[-83.482533,37.804983],[-83.482495,37.805035],[-83.482476,37.805074],[-83.482465,37.805115],[-83.482463,37.805196],[-83.482481,37.805291],[-83.482498,37.805342],[-83.482552,37.80551],[-83.482588,37.805578],[-83.482641,37.805706],[-83.482687,37.80579],[-83.482731,37.805885],[-83.482879,37.806153],[-83.482979,37.806387],[-83.483044,37.806591],[-83.483063,37.80666],[-83.4831,37.806794],[-83.483126,37.806944],[-83.48315,37.807439],[-83.483157,37.807502],[-83.483179,37.80756],[-83.483205,37.80768],[-83.483319,37.807968],[-83.483349,37.808018],[-83.483429,37.808124],[-83.48355,37.808336],[-83.483704,37.808656],[-83.483725,37.808714],[-83.483802,37.809115],[-83.483808,37.809178],[-83.483821,37.809246],[-83.483822,37.80931],[-83.483742,37.809844],[-83.483748,37.80998],[-83.483739,37.810096],[-83.483703,37.810353],[-83.483663,37.810565],[-83.483667,37.810687],[-83.483683,37.810818],[-83.483696,37.810883],[-83.483719,37.810959],[-83.483745,37.811018],[-83.483828,37.81115],[-83.483968,37.811316],[-83.484088,37.811487],[-83.484157,37.811607],[-83.484203,37.811734],[-83.484289,37.812032],[-83.484294,37.812141],[-83.48427,37.812327],[-83.484265,37.812462],[-83.484285,37.812601],[-83.484298,37.812662],[-83.484385,37.812961],[-83.484435,37.813216],[-83.484458,37.813364],[-83.484474,37.813436],[-83.484519,37.813567],[-83.484546,37.813613],[-83.484563,37.813642],[-83.484607,37.813706],[-83.4847,37.813822],[-83.484798,37.81393],[-83.484891,37.814042],[-83.485253,37.814517],[-83.485289,37.814577],[-83.485306,37.814642],[-83.485331,37.8147],[-83.485437,37.814799],[-83.485497,37.814846],[-83.485689,37.814982],[-83.485776,37.815056],[-83.485868,37.815162],[-83.485948,37.815343],[-83.486039,37.81564],[-83.486047,37.815754],[-83.486045,37.815808],[-83.486018,37.816026],[-83.486013,37.816138],[-83.486026,37.816252],[-83.486097,37.81649],[-83.486192,37.816728],[-83.486222,37.816854],[-83.48626,37.816974],[-83.486311,37.81731],[-83.486328,37.817608],[-83.486355,37.818623],[-83.486353,37.818773],[-83.486347,37.818849],[-83.48638,37.818986],[-83.486404,37.819053],[-83.486433,37.819119],[-83.486461,37.819184],[-83.486493,37.819249],[-83.486535,37.819314],[-83.486571,37.819378],[-83.486711,37.819609],[-83.486728,37.819664],[-83.486733,37.819818],[-83.486786,37.820394],[-83.486797,37.820461],[-83.486829,37.820645],[-83.486847,37.820721],[-83.486888,37.820892],[-83.486903,37.821016],[-83.486894,37.821139],[-83.486859,37.821262],[-83.486833,37.821323],[-83.486754,37.821651],[-83.486764,37.821794],[-83.486801,37.821936],[-83.486904,37.822227],[-83.486949,37.822374],[-83.487175,37.823043],[-83.487225,37.823246],[-83.487257,37.823402],[-83.487351,37.82397],[-83.487471,37.824388],[-83.487522,37.824507],[-83.48753,37.824525],[-83.487688,37.824804],[-83.48780833488372,37.825]]}},{"type":"Feature","properties":{"osm_id":16384788,"highway":"residential","name":"Cow Branch Road","alt_name":null,"official_name":null,"surface":null,"tracktype":null,"service":null,"access":null,"motor_vehicle":null,"foot":null,"tiger_reviewed":"no","rrgh_part":0,"rrgh_tile_part":0},"geometry":{"type":"LineString","coordinates":[[-83.480093,37.786469],[-83.480113,37.786523],[-83.480125,37.78658],[-83.480119,37.786613],[-83.480107,37.786633],[-83.480061,37.786676],[-83.479976,37.786722],[-83.479842,37.786773],[-83.479681,37.786821],[-83.479592,37.786836],[-83.47941,37.786859],[-83.479028,37.786929],[-83.478832,37.786978],[-83.478738,37.787012],[-83.478538,37.787072],[-83.478168,37.787205],[-83.477635,37.78739],[-83.477486,37.787464],[-83.477355,37.787541],[-83.477244,37.787631],[-83.477199,37.787678],[-83.477081,37.787818],[-83.477049,37.787867],[-83.477008,37.787948],[-83.476955,37.788139],[-83.476963,37.788232],[-83.476978,37.788283],[-83.477002,37.788335],[-83.477155,37.788512],[-83.477293,37.78867],[-83.477348,37.78874],[-83.477419,37.788855],[-83.477468,37.788977],[-83.477475,37.789017],[-83.477477,37.789145],[-83.477483,37.789231],[-83.477488,37.789297],[-83.47747,37.789388],[-83.477458,37.789487],[-83.477446,37.789535],[-83.477403,37.789633],[-83.477351,37.78972],[-83.477308,37.789765],[-83.477254,37.789807],[-83.477041,37.789942],[-83.476978,37.789982],[-83.476624,37.790237],[-83.476351,37.790451],[-83.475979,37.790789],[-83.475747,37.791028],[-83.475696,37.79109],[-83.475576,37.791282],[-83.475444,37.791533],[-83.475253,37.791815],[-83.475141,37.791999],[-83.474995,37.792274],[-83.474907,37.792408],[-83.474859,37.792471],[-83.474695,37.792649],[-83.474472,37.792873],[-83.474415,37.792923],[-83.474327,37.793035],[-83.474146,37.793295],[-83.474002,37.793483],[-83.473715,37.793797],[-83.473311,37.794213],[-83.473257,37.794252],[-83.472975,37.794544],[-83.472569,37.794943],[-83.472394,37.795133],[-83.472296,37.795229],[-83.471977,37.795559],[-83.471844,37.795721],[-83.471727,37.795892],[-83.471392,37.79634],[-83.471317,37.796449],[-83.471261,37.796563],[-83.471243,37.796619],[-83.471213,37.796796],[-83.471169,37.796987],[-83.471126,37.79711],[-83.470988,37.797442],[-83.470938,37.797531],[-83.470905,37.797572],[-83.470688,37.797769],[-83.470609,37.797861],[-83.470544,37.797958],[-83.470493,37.798058],[-83.470452,37.798165],[-83.470429,37.798262],[-83.470386,37.798368],[-83.470307,37.798531],[-83.470243,37.798649],[-83.470161,37.798822],[-83.47011,37.79897],[-83.47,37.799213],[-83.469925,37.799345],[-83.469834,37.799552],[-83.469763,37.799732],[-83.469689,37.800165],[-83.469685,37.800512],[-83.469715,37.800685],[-83.469737,37.800743],[-83.469796,37.800856],[-83.46991,37.801012],[-83.469973,37.801117],[-83.470017,37.80122],[-83.470042,37.80132],[-83.470043,37.801426],[-83.470002,37.801715],[-83.470005,37.801768],[-83.47002,37.801819],[-83.470048,37.801865],[-83.470086,37.801906],[-83.470135,37.801942],[-83.470193,37.801975],[-83.470263,37.802003],[-83.470494,37.802083],[-83.470632,37.802136],[-83.470692,37.802167],[-83.470746,37.802201],[-83.470793,37.802239],[-83.470834,37.802279],[-83.470901,37.802365],[-83.470952,37.802457],[-83.47099,37.802547],[-83.471057,37.802764],[-83.471082,37.802992],[-83.471081,37.803147],[-83.471065,37.80326],[-83.471049,37.803315],[-83.471004,37.80342],[-83.470944,37.803516],[-83.470727,37.803803],[-83.470655,37.803913],[-83.470629,37.803973],[-83.470612,37.804034],[-83.470605,37.804094],[-83.47061,37.804311],[-83.470601,37.804362],[-83.470582,37.804411],[-83.470553,37.804459],[-83.470514,37.804502],[-83.470464,37.804543],[-83.470407,37.80458],[-83.470273,37.804644],[-83.469911,37.804773],[-83.469706,37.804865],[-83.469408,37.804988],[-83.469263,37.805058],[-83.469132,37.805136],[-83.468956,37.80526],[-83.46877,37.805382],[-83.468703,37.805417],[-83.46856,37.805481],[-83.4684,37.805535],[-83.468316,37.805557],[-83.468157,37.805616],[-83.467632,37.805835],[-83.467397,37.805965],[-83.467157,37.806112],[-83.467015,37.806212],[-83.466954,37.806247],[-83.466826,37.806311],[-83.466729,37.806339],[-83.466525,37.80638],[-83.466361,37.806439],[-83.466172,37.80656],[-83.466022,37.806664],[-83.465883,37.806813],[-83.46579,37.806945],[-83.4657,37.807091],[-83.465635,37.807222],[-83.465564,37.807337],[-83.465531,37.807419],[-83.46536,37.80779],[-83.46518,37.8081],[-83.465091,37.808206],[-83.464966,37.808324],[-83.464913,37.808354],[-83.464851,37.808371],[-83.464784,37.808378],[-83.46457,37.80835],[-83.46441,37.80831],[-83.46396,37.808212],[-83.463747,37.808154],[-83.463614,37.808108],[-83.463426,37.808028],[-83.463001,37.80781],[-83.462818,37.807699],[-83.462637,37.807578],[-83.462149,37.807263],[-83.461832,37.80709],[-83.461449,37.806867],[-83.460616,37.806364],[-83.459306,37.805561],[-83.459109,37.805433]]}},{"type":"Feature","properties":{"osm_id":16382106,"highway":"service","name":null,"alt_name":null,"official_name":null,"surface":null,"tracktype":null,"service":null,"access":"private","motor_vehicle":null,"foot":null,"tiger_reviewed":"no","rrgh_part":0,"rrgh_tile_part":0},"geometry":{"type":"LineString","coordinates":[[-83.488913,37.771199],[-83.489231,37.771454],[-83.490821,37.772012],[-83.490822,37.772243],[-83.490448,37.772635],[-83.490507,37.773096],[-83.490624,37.773212],[-83.491895,37.773379],[-83.492386,37.773497],[-83.493169,37.773936],[-83.494008,37.774883],[-83.49459,37.776128],[-83.494712,37.77788],[-83.494828,37.778226]]}},{"type":"Feature","properties":{"osm_id":16384083,"highway":"residential","name":"Walker Luke Road","alt_name":null,"official_name":null,"surface":null,"tracktype":null,"service":null,"access":null,"motor_vehicle":null,"foot":null,"tiger_reviewed":"no","rrgh_part":0,"rrgh_tile_part":0},"geometry":{"type":"LineString","coordinates":[[-83.496,37.778271],[-83.495921,37.778235],[-83.495781,37.778199],[-83.495691,37.778182],[-83.495475,37.778162],[-83.495242,37.778161],[-83.495038,37.778171],[-83.494995,37.778176],[-83.494896,37.778199],[-83.494828,37.778226],[-83.494731,37.778262],[-83.494689,37.778273],[-83.494642,37.778279],[-83.494596,37.778292],[-83.49444,37.778308],[-83.493787,37.778336],[-83.493721,37.778344],[-83.492995,37.77837],[-83.492826,37.778391],[-83.492713,37.778412],[-83.492574,37.778462],[-83.492433,37.778526],[-83.492157,37.778675],[-83.492007,37.778745],[-83.491958,37.778776],[-83.491811,37.778848],[-83.491715,37.778886],[-83.491666,37.778901],[-83.491566,37.778919],[-83.491465,37.778917],[-83.491293,37.778878],[-83.491002,37.778801],[-83.490621,37.778706],[-83.490492,37.778683],[-83.490305,37.778667],[-83.490243,37.77867],[-83.490109,37.778692],[-83.489883,37.778738],[-83.489728,37.778781],[-83.48942,37.778878],[-83.489396,37.77889],[-83.489365,37.77892],[-83.489358,37.778938],[-83.489363,37.778964]]}},{"type":"Feature","properties":{"osm_id":16380990,"highway":"service","name":null,"alt_name":null,"official_name":null,"surface":null,"tracktype":null,"service":null,"access":"private","motor_vehicle":null,"foot":null,"tiger_reviewed":"no","rrgh_part":0,"rrgh_tile_part":0},"geometry":{"type":"LineString","coordinates":[[-83.495732,37.784824],[-83.495534,37.784709],[-83.495335,37.784605],[-83.495166,37.784439]]}},{"type":"Feature","properties":{"osm_id":16382597,"highway":"service","name":null,"alt_name":null,"official_name":null,"surface":null,"tracktype":null,"service":null,"access":"private","motor_vehicle":null,"foot":null,"tiger_reviewed":"no","rrgh_part":0,"rrgh_tile_part":0},"geometry":{"type":"LineString","coordinates":[[-83.492086,37.787412],[-83.492434,37.787638],[-83.492543,37.787803],[-83.492716,37.787899],[-83.49291,37.78797]]}},{"type":"Feature","properties":{"osm_id":16384690,"highway":"residential","name":"Stillwater Ridge Road","alt_name":null,"official_name":null,"surface":null,"tracktype":null,"service":null,"access":null,"motor_vehicle":null,"foot":null,"tiger_reviewed":"no","rrgh_part":0,"rrgh_tile_part":0},"geometry":{"type":"LineString","coordinates":[[-83.495822,37.784197],[-83.495916,37.784244],[-83.495994,37.784272],[-83.496049,37.784277],[-83.496229,37.784254],[-83.496332,37.784284],[-83.496418,37.784318],[-83.496505,37.784367],[-83.496547,37.784398],[-83.496796,37.78463],[-83.496884,37.784693],[-83.49706,37.78478],[-83.497246,37.784853],[-83.497443,37.784914],[-83.497564,37.784943],[-83.49787,37.785039],[-83.497993,37.785068],[-83.498132,37.785088],[-83.498414,37.785111],[-83.4986,37.78514],[-83.49876,37.785181],[-83.499065,37.785306],[-83.499246,37.785366],[-83.499372,37.785393],[-83.499628,37.785431],[-83.500102,37.785537]]}},{"type":"Feature","properties":{"osm_id":16383740,"highway":"residential","name":"Trent-Gosneyville Road","alt_name":null,"official_name":null,"surface":null,"tracktype":null,"service":null,"access":null,"motor_vehicle":null,"foot":null,"tiger_reviewed":"no","rrgh_part":0,"rrgh_tile_part":0},"geometry":{"type":"LineString","coordinates":[[-83.469226,37.772351],[-83.469272,37.77234],[-83.46935,37.77235],[-83.469563,37.772424],[-83.469721,37.772467],[-83.469813,37.772483],[-83.470115,37.772516],[-83.47022,37.77252],[-83.470668,37.772521],[-83.471225,37.772507],[-83.471319,37.77251],[-83.471411,37.772507],[-83.471578,37.772513],[-83.471654,37.772526],[-83.471723,37.772544],[-83.471844,37.772597],[-83.471946,37.772664],[-83.472043,37.772745],[-83.472104,37.77278],[-83.472177,37.772802],[-83.472262,37.772803],[-83.472353,37.77278],[-83.472442,37.772747],[-83.472533,37.772705],[-83.472627,37.772675],[-83.472722,37.77266],[-83.472818,37.772652],[-83.472918,37.772654],[-83.473119,37.772669],[-83.473302,37.772689],[-83.473491,37.772726],[-83.473663,37.772759],[-83.473728,37.772763],[-83.4738,37.772757],[-83.473885,37.77274],[-83.474084,37.772686],[-83.474197,37.772661],[-83.474312,37.772645],[-83.474428,37.772639],[-83.474543,37.77264],[-83.474653,37.772648],[-83.474761,37.772663],[-83.474861,37.772685],[-83.474953,37.772718],[-83.475034,37.772761],[-83.475101,37.772814],[-83.475159,37.772876],[-83.475208,37.772943],[-83.475252,37.773015],[-83.475281,37.773095],[-83.475353,37.77325],[-83.475383,37.773328],[-83.475393,37.773412],[-83.475409,37.773495],[-83.475414,37.773576],[-83.47541,37.773659],[-83.475381,37.773823],[-83.475357,37.773997],[-83.475355,37.774432],[-83.475345,37.774523],[-83.475355,37.774712],[-83.475373,37.774797],[-83.475374,37.774885],[-83.475354,37.774981],[-83.475341,37.775128],[-83.475336,37.775288],[-83.475299,37.775467],[-83.475291,37.77573],[-83.475317,37.775911],[-83.475397,37.776063],[-83.475451,37.776203],[-83.475499,37.776367],[-83.475557,37.776691],[-83.475554,37.776799],[-83.475569,37.777089],[-83.475554,37.777214],[-83.475505,37.777665],[-83.475456,37.777953],[-83.475394,37.77816],[-83.475337,37.778326],[-83.475307,37.778428],[-83.475297,37.778524],[-83.475309,37.778625],[-83.475417,37.778922],[-83.475481,37.779245],[-83.475512,37.779458],[-83.475519,37.779565],[-83.47552,37.77967],[-83.475505,37.780174],[-83.475513,37.78069],[-83.475561,37.781111],[-83.47563,37.78153],[-83.475684,37.781732],[-83.475751,37.781919],[-83.475826,37.782093],[-83.475958,37.782349],[-83.476103,37.782596],[-83.476422,37.783075],[-83.476476,37.783167],[-83.476532,37.783249],[-83.476587,37.783311],[-83.476639,37.783406],[-83.476688,37.783484],[-83.476829,37.783689],[-83.476879,37.783748],[-83.477164,37.784015],[-83.477272,37.784134],[-83.477399,37.784321],[-83.477594,37.784585],[-83.477642,37.78466],[-83.477684,37.784738],[-83.47772,37.784818],[-83.477779,37.784981],[-83.477876,37.785322],[-83.477938,37.785503],[-83.478019,37.785668],[-83.478112,37.785818],[-83.47815,37.785891],[-83.478173,37.785964],[-83.478182,37.786036],[-83.478177,37.786109],[-83.478151,37.786199],[-83.478136,37.786291],[-83.478134,37.786354],[-83.478162,37.786407],[-83.478448,37.786632],[-83.47853,37.786669],[-83.47862,37.786692],[-83.478712,37.786702],[-83.478806,37.786696],[-83.478893,37.786679],[-83.479131,37.786583],[-83.479291,37.786531],[-83.479474,37.786534],[-83.479662,37.786564],[-83.479758,37.786569],[-83.479857,37.786552],[-83.479929,37.786533],[-83.480093,37.786469],[-83.480194,37.786444],[-83.480253,37.786451],[-83.480309,37.786489],[-83.480437,37.786617],[-83.480596,37.786747],[-83.480677,37.786807],[-83.480775,37.786857],[-83.480878,37.786899],[-83.481316,37.78703],[-83.481534,37.787111],[-83.481636,37.78716],[-83.481819,37.787263],[-83.481902,37.787318],[-83.481977,37.787377],[-83.482043,37.787437],[-83.482163,37.787558],[-83.482235,37.787612],[-83.48232,37.787646],[-83.482411,37.787661],[-83.482513,37.787664],[-83.482616,37.787656],[-83.482954,37.78761],[-83.483187,37.787585],[-83.4833,37.787579],[-83.48341,37.787579],[-83.483515,37.787586],[-83.483613,37.787604],[-83.483707,37.787635],[-83.48379,37.787676],[-83.483941,37.787773],[-83.484011,37.787827],[-83.484074,37.787882],[-83.484145,37.787963],[-83.484176,37.788008],[-83.484208,37.788079],[-83.484232,37.788154],[-83.484224,37.788263],[-83.484249,37.788382],[-83.484312,37.788493],[-83.484413,37.788612],[-83.484526,37.788709],[-83.484674,37.788852],[-83.484872,37.789102],[-83.485019,37.789435],[-83.485111,37.789585],[-83.485192,37.789821],[-83.485233,37.789911],[-83.485292,37.790068],[-83.485339,37.79026],[-83.485408,37.790443],[-83.48551,37.790596],[-83.485546,37.790641],[-83.485626,37.790713],[-83.485674,37.79074],[-83.485728,37.790761],[-83.485787,37.790778],[-83.485932,37.790806],[-83.486557,37.79089],[-83.486923,37.79092],[-83.487026,37.79092],[-83.487203,37.790911]]}},{"type":"Feature","properties":{"osm_id":16384269,"highway":"residential","name":"Stillwater-Brewers Cemetery Road","alt_name":null,"official_name":null,"surface":null,"tracktype":null,"service":null,"access":null,"motor_vehicle":null,"foot":null,"tiger_reviewed":"no","rrgh_part":0,"rrgh_tile_part":0},"geometry":{"type":"LineString","coordinates":[[-83.489656,37.770641],[-83.489638,37.770847],[-83.489434,37.771025],[-83.488913,37.771199],[-83.487587,37.771291],[-83.486492,37.771475],[-83.484099,37.770858],[-83.483205,37.770767],[-83.481475,37.770882],[-83.479544,37.770722],[-83.479085,37.770693]]}},{"type":"Feature","properties":{"osm_id":16381670,"highway":"residential","name":null,"alt_name":null,"official_name":null,"surface":null,"tracktype":null,"service":null,"access":null,"motor_vehicle":null,"foot":null,"tiger_reviewed":"no","rrgh_part":0,"rrgh_tile_part":0},"geometry":{"type":"LineString","coordinates":[[-83.479085,37.770693],[-83.478213,37.770844]]}},{"type":"Feature","properties":{"osm_id":16381661,"highway":"residential","name":null,"alt_name":null,"official_name":null,"surface":null,"tracktype":null,"service":null,"access":null,"motor_vehicle":null,"foot":null,"tiger_reviewed":"no","rrgh_part":0,"rrgh_tile_part":0},"geometry":{"type":"LineString","coordinates":[[-83.473491,37.772726],[-83.473469,37.772895],[-83.473131,37.77345],[-83.472913,37.77395],[-83.472633,37.774704],[-83.472521,37.774804],[-83.472327,37.774965],[-83.472215,37.775051]]}},{"type":"Feature","properties":{"osm_id":16383876,"highway":"residential","name":"Bruce Ratliff Road","alt_name":null,"official_name":null,"surface":null,"tracktype":null,"service":null,"access":null,"motor_vehicle":null,"foot":null,"tiger_reviewed":"no","rrgh_part":0,"rrgh_tile_part":0},"geometry":{"type":"LineString","coordinates":[[-83.476185,37.777267],[-83.476087,37.777266],[-83.475838,37.777246],[-83.475554,37.777214]]}},{"type":"Feature","properties":{"osm_id":16381448,"highway":"residential","name":null,"alt_name":null,"official_name":null,"surface":null,"tracktype":null,"service":null,"access":null,"motor_vehicle":null,"foot":null,"tiger_reviewed":"no","rrgh_part":0,"rrgh_tile_part":0},"geometry":{"type":"LineString","coordinates":[[-83.491293,37.778878],[-83.491107,37.77905],[-83.490821,37.779414],[-83.490595,37.779777],[-83.490426,37.779943],[-83.490311,37.780035]]}},{"type":"Feature","properties":{"osm_id":16381012,"highway":"service","name":null,"alt_name":null,"official_name":null,"surface":null,"tracktype":null,"service":null,"access":"private","motor_vehicle":null,"foot":null,"tiger_reviewed":"no","rrgh_part":0,"rrgh_tile_part":0},"geometry":{"type":"LineString","coordinates":[[-83.469762,37.791268],[-83.469169,37.79166],[-83.46854,37.791913],[-83.468336,37.792163],[-83.468303,37.792394],[-83.468116,37.792776],[-83.467881,37.792925],[-83.467362,37.793308],[-83.467128,37.793337],[-83.467038,37.793276],[-83.466889,37.792875],[-83.46657,37.792174],[-83.466329,37.791956],[-83.466106,37.791937],[-83.465781,37.792146],[-83.465321,37.792406],[-83.464956,37.792525],[-83.464337,37.792649],[-83.463911,37.792791]]}},{"type":"Feature","properties":{"osm_id":16383241,"highway":"residential","name":"Gal-Stamper Link Road","alt_name":null,"official_name":null,"surface":null,"tracktype":null,"service":null,"access":null,"motor_vehicle":null,"foot":null,"tiger_reviewed":"no","rrgh_part":0,"rrgh_tile_part":0},"geometry":{"type":"LineString","coordinates":[[-83.477155,37.788512],[-83.476607,37.788564],[-83.476088,37.788762],[-83.475647,37.789161],[-83.47535,37.789506],[-83.475174,37.789601],[-83.474885,37.789623],[-83.474752,37.789574],[-83.47423,37.789295],[-83.473767,37.78926],[-83.47355,37.78929],[-83.473096,37.789769],[-83.47302,37.790197],[-83.472884,37.790317],[-83.472381,37.790676],[-83.471982,37.790996],[-83.471682,37.791114],[-83.471385,37.791079],[-83.471119,37.790964],[-83.470687,37.790872],[-83.470409,37.790886],[-83.469762,37.791268]]}},{"type":"Feature","properties":{"osm_id":16383245,"highway":"residential","name":"Gal-Stamper Link Road","alt_name":null,"official_name":null,"surface":null,"tracktype":null,"service":null,"access":null,"motor_vehicle":null,"foot":null,"tiger_reviewed":"no","rrgh_part":0,"rrgh_tile_part":0},"geometry":{"type":"LineString","coordinates":[[-83.469762,37.791268],[-83.470024,37.790748],[-83.470038,37.790411],[-83.469871,37.790048],[-83.469592,37.789716],[-83.468919,37.789261],[-83.46885,37.789108],[-83.468873,37.788963],[-83.46901,37.788635],[-83.468435,37.788438],[-83.467943,37.788048],[-83.467679,37.787379],[-83.46742,37.787046],[-83.467188,37.78694],[-83.466684,37.786728],[-83.466475,37.786484],[-83.46633,37.785929],[-83.466162,37.785687],[-83.466094,37.785445],[-83.466138,37.785253],[-83.466366,37.784941],[-83.466357,37.784773],[-83.466238,37.784636],[-83.46625,37.784491],[-83.466061,37.784256],[-83.46588,37.784166],[-83.465569,37.783954],[-83.465489,37.783063]]}},{"type":"Feature","properties":{"osm_id":16384582,"highway":"residential","name":"Lawson Ridge Road","alt_name":null,"official_name":null,"surface":null,"tracktype":null,"service":null,"access":null,"motor_vehicle":null,"foot":null,"tiger_reviewed":"no","rrgh_part":0,"rrgh_tile_part":0},"geometry":{"type":"LineString","coordinates":[[-83.505,37.81043379069767],[-83.504965,37.810446],[-83.504887,37.810485],[-83.504817,37.810533],[-83.504755,37.810588],[-83.504699,37.810649],[-83.504649,37.810714],[-83.504603,37.810783],[-83.504422,37.811089],[-83.504323,37.811222],[-83.504233,37.811353],[-83.504205,37.811422],[-83.504165,37.811559],[-83.504137,37.811621],[-83.504101,37.811679],[-83.504058,37.811733],[-83.503833,37.811957],[-83.503771,37.812031],[-83.503535,37.812398],[-83.503427,37.812653],[-83.503355,37.812948],[-83.503287,37.813256],[-83.503219,37.813697],[-83.503193,37.81392],[-83.503212,37.814206],[-83.503242,37.814403],[-83.503297,37.814511],[-83.503377,37.814732],[-83.503472,37.814949],[-83.503483,37.814988],[-83.503485,37.815026],[-83.503478,37.815061],[-83.503463,37.815091],[-83.503451,37.815115],[-83.503439,37.815133],[-83.5034,37.815192]]}},{"type":"Feature","properties":{"osm_id":16382032,"highway":"residential","name":null,"alt_name":null,"official_name":null,"surface":null,"tracktype":null,"service":null,"access":null,"motor_vehicle":null,"foot":null,"tiger_reviewed":"no","rrgh_part":0,"rrgh_tile_part":0},"geometry":{"type":"LineString","coordinates":[[-83.492424,37.810656],[-83.493048,37.80998],[-83.493151,37.809884],[-83.493488,37.809905],[-83.49392,37.810027],[-83.49419,37.810092],[-83.494291,37.810098],[-83.494373,37.810103]]}},{"type":"Feature","properties":{"osm_id":16384221,"highway":"residential","name":"Falling Water Road","alt_name":null,"official_name":null,"surface":null,"tracktype":null,"service":null,"access":null,"motor_vehicle":null,"foot":null,"tiger_reviewed":"no","rrgh_part":0,"rrgh_tile_part":0},"geometry":{"type":"LineString","coordinates":[[-83.503216,37.815037],[-83.503161,37.815141],[-83.503069,37.815425],[-83.503011,37.815567],[-83.502985,37.815614],[-83.502967,37.815663],[-83.502944,37.815705],[-83.502803,37.816106],[-83.502779,37.816162],[-83.502768,37.816206],[-83.50273,37.816301],[-83.502666,37.81652],[-83.502603,37.81681],[-83.502544,37.817111],[-83.502511,37.817229],[-83.502443,37.817395],[-83.502318,37.817584],[-83.502284,37.817626],[-83.502252,37.817683],[-83.502203,37.817795],[-83.502169,37.817917],[-83.502102,37.818295],[-83.502041,37.818526],[-83.501861,37.819434],[-83.501857,37.819492],[-83.501729,37.820082],[-83.501648,37.820427],[-83.501594,37.820655],[-83.501582,37.820768],[-83.501501,37.821224],[-83.501474,37.821336],[-83.501465,37.821373],[-83.501415,37.82153],[-83.501389,37.821689],[-83.501321,37.822518],[-83.501294,37.82272],[-83.501296,37.822768],[-83.501276,37.822944],[-83.501282,37.823005],[-83.501268,37.823234],[-83.50125,37.823406],[-83.501257,37.82367],[-83.501231,37.823778],[-83.501091,37.824175],[-83.501074,37.82429],[-83.501075,37.824349],[-83.501085,37.824407],[-83.501124,37.824515],[-83.501198,37.82465],[-83.501218,37.824699],[-83.501232,37.824754],[-83.501235,37.824852],[-83.501221,37.82491],[-83.5012,37.82496],[-83.5011738095238,37.825]]}},{"type":"Feature","properties":{"osm_id":16382496,"highway":"service","name":null,"alt_name":null,"official_name":null,"surface":null,"tracktype":null,"service":null,"access":"private","motor_vehicle":null,"foot":null,"tiger_reviewed":"no","rrgh_part":0,"rrgh_tile_part":0},"geometry":{"type":"LineString","coordinates":[[-83.502679,37.814558],[-83.502693,37.81422],[-83.502622,37.813954],[-83.50259,37.813516],[-83.502589,37.813226],[-83.502354,37.812812],[-83.50218,37.812577],[-83.502138,37.812303],[-83.501935,37.812047],[-83.501742,37.811908],[-83.501477,37.811738],[-83.501344,37.81159],[-83.501333,37.81141]]}},{"type":"Feature","properties":{"osm_id":16383515,"highway":"residential","name":"Big Branch River Access Road","alt_name":null,"official_name":null,"surface":null,"tracktype":null,"service":null,"access":null,"motor_vehicle":null,"foot":null,"tiger_reviewed":"no","rrgh_part":0,"rrgh_tile_part":0},"geometry":{"type":"LineString","coordinates":[[-83.482422,37.804877],[-83.482459,37.804838],[-83.482568,37.804757],[-83.483078,37.804442],[-83.483208,37.804349],[-83.483336,37.804239],[-83.48342,37.804156],[-83.483494,37.804065],[-83.483592,37.803918],[-83.483677,37.803768],[-83.483787,37.803517],[-83.483834,37.803379],[-83.483855,37.803282],[-83.483889,37.803197],[-83.483962,37.803064],[-83.484009,37.80295],[-83.484017,37.802875],[-83.484012,37.802841],[-83.483989,37.802781],[-83.483954,37.802737],[-83.483905,37.802702],[-83.483842,37.802677],[-83.4836281,37.8026139]]}},{"type":"Feature","properties":{"osm_id":16383518,"highway":"residential","name":"Big Branch River Access Road","alt_name":null,"official_name":null,"surface":"gravel","tracktype":null,"service":null,"access":null,"motor_vehicle":null,"foot":null,"tiger_reviewed":"no","rrgh_part":0,"rrgh_tile_part":0},"geometry":{"type":"LineString","coordinates":[[-83.483855,37.803282],[-83.483751,37.803256],[-83.4837,37.803252],[-83.483649,37.803258],[-83.483323,37.803343],[-83.483137,37.803378],[-83.483071,37.803396],[-83.483051,37.803406]]}},{"type":"Feature","properties":{"osm_id":16383521,"highway":"residential","name":"Big Branch River Access Road","alt_name":null,"official_name":null,"surface":"gravel","tracktype":null,"service":null,"access":null,"motor_vehicle":null,"foot":null,"tiger_reviewed":"no","rrgh_part":0,"rrgh_tile_part":0},"geometry":{"type":"LineString","coordinates":[[-83.482985,37.803399],[-83.483051,37.803406],[-83.482999,37.803437],[-83.482909,37.803525],[-83.482877,37.803546],[-83.482839,37.803559],[-83.482804,37.803563],[-83.482773,37.80356],[-83.482744,37.803552],[-83.482718,37.80354],[-83.482696,37.803523],[-83.482668,37.803482],[-83.482659,37.803438],[-83.482666,37.803405],[-83.482692,37.80337],[-83.482726,37.80335],[-83.482783,37.803338],[-83.482845,37.803341],[-83.482907,37.803363],[-83.482963,37.803393],[-83.482985,37.803399]]}},{"type":"Feature","properties":{"osm_id":16381529,"highway":"service","name":null,"alt_name":null,"official_name":null,"surface":null,"tracktype":null,"service":null,"access":null,"motor_vehicle":null,"foot":null,"tiger_reviewed":"no","rrgh_part":0,"rrgh_tile_part":0},"geometry":{"type":"LineString","coordinates":[[-83.484546,37.813613],[-83.484748,37.813444],[-83.485016,37.813248],[-83.485275,37.813099],[-83.485585,37.812943],[-83.485835,37.812826],[-83.485924,37.812739],[-83.48602,37.812648],[-83.486189,37.812345],[-83.486291,37.812114]]}},{"type":"Feature","properties":{"osm_id":16382907,"highway":"residential","name":"Everett Sweeney Road","alt_name":null,"official_name":null,"surface":null,"tracktype":null,"service":null,"access":null,"motor_vehicle":null,"foot":null,"tiger_reviewed":"no","rrgh_part":0,"rrgh_tile_part":0},"geometry":{"type":"LineString","coordinates":[[-83.472846,37.807163],[-83.472979,37.807301],[-83.473015,37.80736],[-83.473035,37.807428],[-83.473038,37.807506],[-83.473026,37.807611],[-83.472989,37.807741],[-83.472946,37.807847],[-83.472862,37.808003],[-83.472835,37.808083],[-83.472826,37.808136],[-83.472835,37.808187],[-83.472861,37.808239],[-83.472899,37.808284],[-83.472979,37.808358],[-83.472988,37.808393],[-83.472959,37.808443]]}},{"type":"Feature","properties":{"osm_id":16382493,"highway":"residential","name":null,"alt_name":null,"official_name":null,"surface":null,"tracktype":null,"service":null,"access":null,"motor_vehicle":null,"foot":null,"tiger_reviewed":"no","rrgh_part":0,"rrgh_tile_part":0},"geometry":{"type":"LineString","coordinates":[[-83.501474,37.821336],[-83.501397,37.821363],[-83.501259,37.821429],[-83.501227,37.821691],[-83.501111,37.821992],[-83.50095,37.822124],[-83.500865,37.822198],[-83.500738,37.822223],[-83.500556,37.822129],[-83.50012,37.821917],[-83.499907,37.821759]]}},{"type":"Feature","properties":{"osm_id":16381932,"highway":"residential","name":null,"alt_name":null,"official_name":null,"surface":null,"tracktype":null,"service":null,"access":null,"motor_vehicle":null,"foot":null,"tiger_reviewed":"no","rrgh_part":0,"rrgh_tile_part":0},"geometry":{"type":"LineString","coordinates":[[-83.468073,37.820057],[-83.468418,37.819978],[-83.468746,37.81993],[-83.469065,37.819908],[-83.469349,37.819906],[-83.469654,37.819865],[-83.469868,37.819866],[-83.470113,37.820003],[-83.4703,37.820068],[-83.470626,37.820198],[-83.470852,37.820319],[-83.471099,37.820344],[-83.471366,37.820344],[-83.471514,37.820377],[-83.471739,37.82053],[-83.471945,37.820708],[-83.472249,37.820886],[-83.472614,37.821032]]}},{"type":"Feature","properties":{"osm_id":16384655,"highway":"residential","name":"Raymond Patton Road","alt_name":null,"official_name":null,"surface":null,"tracktype":null,"service":null,"access":null,"motor_vehicle":null,"foot":null,"tiger_reviewed":"no","rrgh_part":0,"rrgh_tile_part":0},"geometry":{"type":"LineString","coordinates":[[-83.464864,37.766014],[-83.464817,37.766013],[-83.464762,37.766023],[-83.46472,37.766049],[-83.464691,37.766076],[-83.464638,37.766175],[-83.464598,37.76629],[-83.464571,37.766344],[-83.464511,37.766422],[-83.464454,37.766488],[-83.46437,37.766537],[-83.464264,37.766582],[-83.464151,37.766606],[-83.464063,37.766633],[-83.463924,37.766691],[-83.463755,37.766742],[-83.463003,37.767006],[-83.46282,37.767066],[-83.462682,37.767086],[-83.462621,37.767079],[-83.462575,37.767085],[-83.462531,37.767108],[-83.462442,37.767132],[-83.462343,37.767148],[-83.462267,37.76715],[-83.462181,37.767125],[-83.46205,37.767048],[-83.461918,37.766985],[-83.461861,37.766941],[-83.461813,37.76689],[-83.461764,37.766801],[-83.461671,37.766659],[-83.461623,37.766569],[-83.461599,37.766505],[-83.461594,37.766447],[-83.461611,37.766384],[-83.461606,37.766272]]}},{"type":"Feature","properties":{"osm_id":16383254,"highway":"residential","name":"Jim Brown Road","alt_name":null,"official_name":null,"surface":null,"tracktype":null,"service":null,"access":null,"motor_vehicle":null,"foot":null,"tiger_reviewed":"no","rrgh_part":0,"rrgh_tile_part":0},"geometry":{"type":"LineString","coordinates":[[-83.4617333,37.7715755],[-83.4616077,37.7715705],[-83.4615603,37.7715903],[-83.4612992,37.7717935],[-83.4612037,37.7718678],[-83.4611285,37.771881],[-83.460965,37.771859],[-83.460803,37.771782],[-83.460616,37.771709],[-83.460425,37.771648],[-83.460233,37.771601],[-83.460034,37.771569],[-83.459747,37.771541],[-83.459179,37.771493],[-83.458912,37.771439],[-83.458627,37.771345],[-83.458474,37.771304],[-83.458067,37.77122],[-83.457925,37.771205],[-83.457795,37.771177],[-83.457587,37.771087],[-83.457468,37.771052],[-83.457181,37.770978],[-83.45691,37.770898],[-83.456755,37.770864],[-83.456515,37.770826],[-83.456268,37.770809],[-83.456187,37.770811],[-83.456078,37.770799],[-83.456,37.770785],[-83.455855,37.770729],[-83.455748,37.770693],[-83.455685,37.77068],[-83.455611,37.770673],[-83.455469,37.770645],[-83.455227,37.770582],[-83.45517,37.770563],[-83.455105,37.770553],[-83.455043,37.770551],[-83.454935,37.77057],[-83.454877,37.770585],[-83.454807,37.770594],[-83.454753,37.770588],[-83.45469,37.770571],[-83.454329,37.7704],[-83.454234,37.770367],[-83.454083,37.770334],[-83.453919,37.770285],[-83.453855,37.770276],[-83.453821,37.770275]]}},{"type":"Feature","properties":{"osm_id":16383892,"highway":"residential","name":"O'Hare Cemetery Road","alt_name":null,"official_name":null,"surface":null,"tracktype":null,"service":null,"access":null,"motor_vehicle":null,"foot":null,"tiger_reviewed":"no","rrgh_part":0,"rrgh_tile_part":0},"geometry":{"type":"LineString","coordinates":[[-83.463774,37.771375],[-83.463823,37.771519],[-83.463856,37.771804],[-83.463885,37.771901],[-83.464014,37.772083],[-83.464052,37.772159],[-83.464073,37.77224],[-83.464081,37.772323],[-83.46408,37.772409],[-83.464056,37.772539],[-83.463974,37.772845]]}},{"type":"Feature","properties":{"osm_id":16384009,"highway":"residential","name":"Childers Subdivision Road","alt_name":null,"official_name":null,"surface":null,"tracktype":null,"service":null,"access":null,"motor_vehicle":null,"foot":null,"tiger_reviewed":"no","rrgh_part":0,"rrgh_tile_part":0},"geometry":{"type":"LineString","coordinates":[[-83.459692,37.77244],[-83.459768,37.77242],[-83.459856,37.772377],[-83.46003,37.772283],[-83.460168,37.772225],[-83.460208,37.77222],[-83.460288,37.772222],[-83.460503,37.772272],[-83.460577,37.772286],[-83.460652,37.77229],[-83.460724,37.772287],[-83.460818,37.772264],[-83.46093,37.772229],[-83.461161,37.772131],[-83.4612288,37.772066],[-83.461265,37.7720066],[-83.4612992,37.7717935]]}},{"type":"Feature","properties":{"osm_id":16383894,"highway":"residential","name":"O'Hare Cemetery Road","alt_name":null,"official_name":null,"surface":null,"tracktype":null,"service":null,"access":null,"motor_vehicle":null,"foot":null,"tiger_reviewed":"no","rrgh_part":0,"rrgh_tile_part":0},"geometry":{"type":"LineString","coordinates":[[-83.463902,37.772874],[-83.463974,37.772845],[-83.463861,37.773227],[-83.46382,37.773351],[-83.463712,37.773628],[-83.463681,37.77368],[-83.463661,37.773699],[-83.463618,37.773726],[-83.463594,37.773727],[-83.463564,37.773719],[-83.463536,37.773698],[-83.463451,37.773571],[-83.463424,37.77349],[-83.463426,37.773357],[-83.463432,37.773337],[-83.463431,37.773263],[-83.463457,37.773155],[-83.463451,37.773013],[-83.463463,37.772984],[-83.463481,37.772964],[-83.46354,37.772939],[-83.46371,37.772907],[-83.463779,37.772889],[-83.463902,37.772874]]}},{"type":"Feature","properties":{"osm_id":16384669,"highway":"residential","name":"Chapel Branch Road","alt_name":null,"official_name":null,"surface":null,"tracktype":null,"service":null,"access":null,"motor_vehicle":null,"foot":null,"tiger_reviewed":"no","rrgh_part":0,"rrgh_tile_part":0},"geometry":{"type":"LineString","coordinates":[[-83.457726,37.813453],[-83.457511,37.813668],[-83.457442,37.813759],[-83.457392,37.81385],[-83.457259,37.814206],[-83.457137,37.81447],[-83.457064,37.814599],[-83.456964,37.81473],[-83.456678,37.815042],[-83.456611,37.815133],[-83.456553,37.815267],[-83.4565,37.815464],[-83.456457,37.815677],[-83.456417,37.815821],[-83.456354,37.815962],[-83.456234,37.81617],[-83.456142,37.816381],[-83.456083,37.816499],[-83.455969,37.816805],[-83.455947,37.816879],[-83.455894,37.816994],[-83.455853,37.817061],[-83.455806,37.81712],[-83.455644,37.817278],[-83.455465,37.817474],[-83.455265,37.817719],[-83.455158,37.81783],[-83.454988,37.817992],[-83.454935,37.818049],[-83.454863,37.818102],[-83.454734,37.818214],[-83.454593,37.818324],[-83.454431,37.818423],[-83.453914,37.818685],[-83.45369,37.818823],[-83.453621,37.818872],[-83.453492,37.818985],[-83.453428,37.819052],[-83.453379,37.819115],[-83.453217,37.819366],[-83.453163,37.81943],[-83.453048,37.819541],[-83.452986,37.819593],[-83.452918,37.819637],[-83.452828,37.819687],[-83.452536,37.819819],[-83.452258,37.819951],[-83.452195,37.819987],[-83.45214,37.820027],[-83.452094,37.820072],[-83.452054,37.820123],[-83.451984,37.820239],[-83.451955,37.820304],[-83.451878,37.820519],[-83.451841,37.820668],[-83.451819,37.820809],[-83.451804,37.820954],[-83.451798,37.821014],[-83.451765,37.821208],[-83.451732,37.821335],[-83.45167,37.821535],[-83.451446,37.822105],[-83.451186,37.822722],[-83.451049,37.823013],[-83.450975,37.823156],[-83.45089,37.823292],[-83.450874,37.823312],[-83.450841,37.823355],[-83.45079,37.823415],[-83.450739,37.823473],[-83.450686,37.823529],[-83.450576,37.823634],[-83.450446,37.82374],[-83.450184,37.823952],[-83.450131,37.824003],[-83.450031,37.824118],[-83.449982,37.824183],[-83.449936,37.82425],[-83.449908,37.824294],[-83.44989,37.82432],[-83.449605,37.82476],[-83.44945768403171,37.825]]}},{"type":"Feature","properties":{"osm_id":16381612,"highway":"service","name":null,"alt_name":null,"official_name":null,"surface":null,"tracktype":null,"service":null,"access":"private","motor_vehicle":null,"foot":null,"tiger_reviewed":"no","rrgh_part":0,"rrgh_tile_part":0},"geometry":{"type":"LineString","coordinates":[[-83.458606,37.773726],[-83.458655,37.773769],[-83.458725,37.773797],[-83.459003,37.77388],[-83.459021,37.773901],[-83.45903,37.773923],[-83.459037,37.773997],[-83.459033,37.774019],[-83.459012,37.774056],[-83.45898,37.774091],[-83.458943,37.774116],[-83.458777,37.774195],[-83.458661,37.774264],[-83.458608,37.774288]]}},{"type":"Feature","properties":{"osm_id":16382568,"highway":"residential","name":null,"alt_name":null,"official_name":null,"surface":null,"tracktype":null,"service":null,"access":null,"motor_vehicle":null,"foot":null,"tiger_reviewed":"no","rrgh_part":0,"rrgh_tile_part":0},"geometry":{"type":"LineString","coordinates":[[-83.434968,37.76765],[-83.435117,37.767816],[-83.435769,37.768244],[-83.438783,37.769409],[-83.439292,37.769552],[-83.44069,37.76988],[-83.441695,37.769807],[-83.442015,37.7697]]}},{"type":"Feature","properties":{"osm_id":16384451,"highway":"residential","name":"Brewer Subdivision Road","alt_name":null,"official_name":null,"surface":null,"tracktype":null,"service":null,"access":null,"motor_vehicle":null,"foot":null,"tiger_reviewed":"no","rrgh_part":0,"rrgh_tile_part":0},"geometry":{"type":"LineString","coordinates":[[-83.440474,37.777639],[-83.440413,37.777819],[-83.440408,37.777854],[-83.440414,37.778062],[-83.440422,37.778178],[-83.440405,37.778338],[-83.440373,37.778453],[-83.440315,37.778578],[-83.440205,37.778736],[-83.440172,37.778772],[-83.440006,37.778903],[-83.439961,37.778925],[-83.439931,37.778953],[-83.43991,37.778984],[-83.439897,37.77902],[-83.439895,37.77906],[-83.439903,37.779103],[-83.43994,37.779198],[-83.440033,37.779405],[-83.440059,37.779485]]}},{"type":"Feature","properties":{"osm_id":16384773,"highway":"residential","name":"Wilford Laruso Subdivision Road","alt_name":null,"official_name":null,"surface":null,"tracktype":null,"service":null,"access":null,"motor_vehicle":null,"foot":null,"tiger_reviewed":"no","rrgh_part":0,"rrgh_tile_part":0},"geometry":{"type":"LineString","coordinates":[[-83.449188,37.776284],[-83.449162,37.776343],[-83.449182,37.776776],[-83.449171,37.776828],[-83.449145,37.776875],[-83.449137,37.77695],[-83.449113,37.777004],[-83.449094,37.777029],[-83.449038,37.777074],[-83.449001,37.777094],[-83.448963,37.777109],[-83.448921,37.777117],[-83.448874,37.777134],[-83.448753,37.77719],[-83.448717,37.777227],[-83.4487,37.777263],[-83.448699,37.777335],[-83.448714,37.77744],[-83.448766,37.777622]]}},{"type":"Feature","properties":{"osm_id":16381131,"highway":"residential","name":null,"alt_name":null,"official_name":null,"surface":null,"tracktype":null,"service":null,"access":null,"motor_vehicle":null,"foot":null,"tiger_reviewed":"no","rrgh_part":0,"rrgh_tile_part":0},"geometry":{"type":"LineString","coordinates":[[-83.452048,37.787042],[-83.452294,37.786905],[-83.452505,37.786504],[-83.452716,37.78631],[-83.452918,37.786132],[-83.453287,37.785992],[-83.453479,37.785848],[-83.453638,37.785612],[-83.453684,37.785487],[-83.453778,37.785394],[-83.454,37.785233],[-83.454124,37.785115]]}},{"type":"Feature","properties":{"osm_id":16382933,"highway":"residential","name":"Carl Brooks Road","alt_name":null,"official_name":null,"surface":null,"tracktype":null,"service":null,"access":null,"motor_vehicle":null,"foot":null,"tiger_reviewed":"no","rrgh_part":0,"rrgh_tile_part":0},"geometry":{"type":"LineString","coordinates":[[-83.449671,37.783946],[-83.449706,37.783966],[-83.449726,37.783985],[-83.44974,37.784006],[-83.449784,37.784097],[-83.449875,37.784307],[-83.449952,37.784427],[-83.450046,37.784549],[-83.450434,37.784989],[-83.450475,37.785025],[-83.450587,37.78515],[-83.450686,37.78529],[-83.450927,37.785601],[-83.451053,37.785734],[-83.45109,37.785762],[-83.451264,37.785852],[-83.45138,37.785922],[-83.451478,37.786015],[-83.451568,37.786127],[-83.451696,37.786253],[-83.451738,37.78628],[-83.451853,37.786384],[-83.45203,37.786572],[-83.452081,37.786654],[-83.452121,37.786742],[-83.452145,37.78683],[-83.452077,37.787005],[-83.452048,37.787042],[-83.452019,37.787078],[-83.45201,37.787104],[-83.451984,37.787144],[-83.45191,37.787236],[-83.451828,37.787315],[-83.451665,37.787497],[-83.451609,37.787579],[-83.451583,37.78763],[-83.451564,37.787681],[-83.451505,37.787802],[-83.451301,37.788273],[-83.451264,37.788378],[-83.451256,37.788428],[-83.451256,37.788477],[-83.451265,37.788525],[-83.451284,37.788571],[-83.451457,37.78888],[-83.451469,37.788932],[-83.451539,37.789027],[-83.451617,37.789114],[-83.451665,37.789145],[-83.451729,37.789217],[-83.451782,37.789299],[-83.4518,37.789342],[-83.451802,37.789364],[-83.451822,37.789424],[-83.451838,37.789506],[-83.451838,37.78958],[-83.451775,37.78983],[-83.451778,37.789889],[-83.451791,37.789918],[-83.451814,37.789944],[-83.451842,37.789967],[-83.451876,37.789988],[-83.451951,37.790018],[-83.452059,37.790042],[-83.452088,37.790053],[-83.452116,37.790058],[-83.452169,37.790078],[-83.452186,37.79009],[-83.452237,37.790108]]}},{"type":"Feature","properties":{"osm_id":16381236,"highway":"residential","name":null,"alt_name":null,"official_name":null,"surface":null,"tracktype":null,"service":null,"access":null,"motor_vehicle":null,"foot":null,"tiger_reviewed":"no","rrgh_part":0,"rrgh_tile_part":0},"geometry":{"type":"LineString","coordinates":[[-83.435088,37.778603],[-83.435163,37.779134],[-83.435104,37.779736],[-83.435034,37.780337],[-83.434954,37.780818],[-83.434986,37.781141],[-83.435099,37.781734],[-83.435181,37.781959],[-83.435246,37.782323],[-83.435239,37.782737],[-83.43517,37.783207]]}},{"type":"Feature","properties":{"osm_id":16382173,"highway":"service","name":null,"alt_name":null,"official_name":null,"surface":null,"tracktype":null,"service":null,"access":"private","motor_vehicle":null,"foot":null,"tiger_reviewed":"no","rrgh_part":0,"rrgh_tile_part":0},"geometry":{"type":"LineString","coordinates":[[-83.4367,37.778511],[-83.43686,37.77993],[-83.436761,37.780005]]}},{"type":"Feature","properties":{"osm_id":16381388,"highway":"residential","name":null,"alt_name":null,"official_name":null,"surface":null,"tracktype":null,"service":null,"access":null,"motor_vehicle":null,"foot":null,"tiger_reviewed":"no","rrgh_part":0,"rrgh_tile_part":0},"geometry":{"type":"LineString","coordinates":[[-83.430972,37.779133],[-83.430876,37.778903],[-83.430717,37.778663],[-83.430519,37.778527],[-83.430318,37.778427],[-83.430117,37.778386]]}},{"type":"Feature","properties":{"osm_id":16381200,"highway":"service","name":null,"alt_name":null,"official_name":null,"surface":null,"tracktype":null,"service":null,"access":null,"motor_vehicle":null,"foot":null,"tiger_reviewed":"no","rrgh_part":0,"rrgh_tile_part":0},"geometry":{"type":"LineString","coordinates":[[-83.422372,37.785657],[-83.422123,37.785592],[-83.422047,37.785433],[-83.422022,37.785197],[-83.421968,37.78501],[-83.421882,37.784887],[-83.421562,37.784508],[-83.4213,37.784243],[-83.421129,37.78392],[-83.421019,37.783573],[-83.420756,37.783298],[-83.420443,37.78312],[-83.420129,37.783047],[-83.42,37.78302211417323]]}},{"type":"Feature","properties":{"osm_id":16381203,"highway":"service","name":null,"alt_name":null,"official_name":null,"surface":null,"tracktype":null,"service":null,"access":null,"motor_vehicle":null,"foot":null,"tiger_reviewed":"no","rrgh_part":0,"rrgh_tile_part":0},"geometry":{"type":"LineString","coordinates":[[-83.4213,37.784243],[-83.42062,37.784451],[-83.42,37.78463308516886]]}},{"type":"Feature","properties":{"osm_id":16385050,"highway":"residential","name":"Clark Branch Road","alt_name":null,"official_name":null,"surface":null,"tracktype":null,"service":null,"access":null,"motor_vehicle":null,"foot":null,"tiger_reviewed":"no","rrgh_part":0,"rrgh_tile_part":0},"geometry":{"type":"LineString","coordinates":[[-83.463911,37.792791],[-83.463833,37.792871],[-83.463656,37.793151],[-83.463231,37.793838],[-83.462915,37.7943],[-83.462767,37.794557],[-83.46261,37.794776],[-83.462479,37.794903],[-83.462379,37.794987],[-83.462183,37.795174],[-83.462062,37.795331],[-83.462027,37.795386],[-83.461897,37.795641],[-83.461887,37.795695],[-83.461861,37.795744],[-83.461704,37.79599],[-83.461526,37.796215],[-83.461287,37.796529],[-83.461214,37.79665],[-83.460809,37.79716],[-83.460371,37.797627],[-83.460252,37.797772],[-83.460178,37.797877],[-83.460149,37.797933],[-83.460039,37.798209],[-83.459979,37.798377],[-83.459887,37.798535],[-83.459849,37.798583],[-83.459799,37.798624],[-83.459705,37.798714],[-83.45963,37.798816],[-83.459572,37.798923],[-83.459504,37.799077],[-83.459373,37.79932],[-83.459183,37.799702],[-83.459053,37.79995],[-83.45892,37.800177],[-83.45867,37.800536],[-83.458585,37.800673],[-83.458521,37.800818],[-83.458506,37.800867],[-83.45845,37.801113],[-83.458327,37.801483],[-83.458293,37.801642],[-83.458255,37.801943],[-83.458254,37.802102],[-83.458282,37.802307],[-83.458278,37.802423],[-83.458243,37.802533],[-83.458162,37.80274],[-83.457999,37.803001],[-83.457975,37.803055],[-83.457957,37.80311],[-83.457944,37.803168],[-83.457937,37.803226],[-83.457933,37.803344],[-83.45794,37.803398],[-83.458113,37.803975],[-83.458137,37.804092],[-83.458145,37.80417],[-83.458138,37.80425],[-83.458126,37.804288],[-83.458057,37.804425],[-83.458031,37.804493],[-83.458027,37.804528],[-83.458031,37.804563],[-83.458044,37.804595],[-83.458063,37.804622],[-83.458113,37.804664],[-83.458199,37.80471],[-83.458391,37.80478],[-83.459001,37.805031],[-83.459082,37.805071],[-83.459123,37.805108],[-83.459178,37.805172],[-83.459195,37.805206],[-83.459205,37.805241],[-83.459204,37.805274],[-83.459186,37.805332],[-83.45913,37.805412],[-83.459109,37.805433]]}},{"type":"Feature","properties":{"osm_id":16381063,"highway":"service","name":null,"alt_name":null,"official_name":null,"surface":null,"tracktype":null,"service":null,"access":"private","motor_vehicle":null,"foot":null,"tiger_reviewed":"no","rrgh_part":0,"rrgh_tile_part":0},"geometry":{"type":"LineString","coordinates":[[-83.448852,37.793032],[-83.448938,37.793063],[-83.449043,37.793122],[-83.449223,37.793246],[-83.449319,37.793302],[-83.449425,37.793379],[-83.449724,37.793567],[-83.449749,37.79359],[-83.44992,37.793709],[-83.44994,37.793758],[-83.449937,37.793823],[-83.449895,37.793978],[-83.449892,37.794003],[-83.449896,37.794024],[-83.449922,37.794062],[-83.449955,37.794089],[-83.449999,37.794109],[-83.450062,37.794115]]}},{"type":"Feature","properties":{"osm_id":16381718,"highway":"residential","name":null,"alt_name":null,"official_name":null,"surface":null,"tracktype":null,"service":null,"access":null,"motor_vehicle":null,"foot":null,"tiger_reviewed":"no","rrgh_part":0,"rrgh_tile_part":0},"geometry":{"type":"LineString","coordinates":[[-83.456938,37.808568],[-83.456813,37.808721]]}},{"type":"Feature","properties":{"osm_id":16385040,"highway":"residential","name":"Gal Branch Road","alt_name":null,"official_name":null,"surface":null,"tracktype":null,"service":null,"access":null,"motor_vehicle":null,"foot":null,"tiger_reviewed":"no","rrgh_part":0,"rrgh_tile_part":0},"geometry":{"type":"LineString","coordinates":[[-83.459109,37.805433],[-83.458982,37.805551],[-83.458303,37.806153],[-83.457704,37.806699],[-83.45747,37.806925],[-83.45735,37.807065],[-83.457206,37.807266],[-83.457019,37.807577],[-83.456867,37.807809],[-83.456715,37.808004],[-83.456694,37.808047],[-83.456682,37.808093],[-83.456681,37.808139],[-83.456687,37.808186],[-83.4567,37.808232],[-83.456748,37.808321],[-83.456938,37.808568],[-83.457011,37.808658],[-83.457067,37.808713],[-83.457175,37.808796],[-83.457245,37.808838]]}},{"type":"Feature","properties":{"osm_id":16383423,"highway":"residential","name":"Buck Creek Road","alt_name":null,"official_name":null,"surface":null,"tracktype":null,"service":null,"access":null,"motor_vehicle":null,"foot":null,"tiger_reviewed":"no","rrgh_part":0,"rrgh_tile_part":0},"geometry":{"type":"LineString","coordinates":[[-83.463965,37.81386],[-83.463944,37.813813],[-83.46394,37.813774],[-83.463945,37.813706],[-83.464034,37.813521],[-83.464075,37.813446],[-83.464117,37.813386],[-83.464216,37.813228],[-83.464253,37.813182],[-83.46432,37.813129],[-83.464475,37.81304],[-83.46488,37.812851],[-83.465157,37.812707],[-83.465233,37.812679],[-83.465316,37.81267],[-83.46536,37.812673],[-83.465402,37.812682],[-83.465502,37.812738],[-83.465562,37.812779],[-83.465647,37.812867],[-83.465682,37.812892],[-83.465703,37.812901]]}},{"type":"Feature","properties":{"osm_id":16383340,"highway":"residential","name":"Dry Branch Road","alt_name":null,"official_name":null,"surface":null,"tracktype":null,"service":null,"access":null,"motor_vehicle":null,"foot":null,"tiger_reviewed":"no","rrgh_part":0,"rrgh_tile_part":0},"geometry":{"type":"LineString","coordinates":[[-83.440675,37.811488],[-83.440765,37.81168],[-83.440884,37.811977],[-83.440921,37.812085],[-83.441016,37.812261],[-83.441042,37.812301],[-83.441137,37.81241],[-83.441162,37.81245],[-83.441395,37.813131],[-83.441416,37.813183],[-83.441511,37.813365],[-83.441645,37.813748],[-83.441678,37.813857],[-83.441704,37.813906],[-83.441838,37.814316],[-83.44194,37.814596],[-83.441995,37.814775],[-83.442067,37.815067],[-83.442153,37.815333],[-83.442227,37.815538],[-83.442291,37.815757],[-83.442324,37.815938],[-83.44234,37.816125],[-83.442323,37.816418],[-83.442305,37.816634],[-83.442318,37.816846],[-83.442309,37.816951],[-83.442284,37.817053],[-83.442222,37.817202],[-83.442206,37.817256],[-83.442181,37.817308],[-83.442164,37.817363],[-83.442104,37.817754],[-83.442028,37.81805],[-83.44199,37.818168],[-83.441912,37.818337],[-83.441819,37.818498],[-83.441769,37.81865],[-83.441718,37.818749],[-83.44165,37.818843],[-83.44151,37.819014],[-83.441406,37.81915],[-83.441229,37.819313],[-83.441153,37.819415],[-83.440973,37.819739],[-83.440911,37.819844],[-83.440872,37.819922],[-83.440838,37.81999],[-83.440818,37.820034],[-83.440771,37.820163]]}},{"type":"Feature","properties":{"osm_id":16381540,"highway":"service","name":null,"alt_name":null,"official_name":null,"surface":null,"tracktype":null,"service":null,"access":null,"motor_vehicle":null,"foot":null,"tiger_reviewed":"no","rrgh_part":0,"rrgh_tile_part":0},"geometry":{"type":"LineString","coordinates":[[-83.431861,37.801393],[-83.432234,37.80135],[-83.432607,37.801352],[-83.433118,37.801395],[-83.433245,37.801323],[-83.433341,37.801171],[-83.433378,37.801067],[-83.433404,37.800962]]}},{"type":"Feature","properties":{"osm_id":16380808,"highway":"residential","name":"Walnut Street","alt_name":null,"official_name":null,"surface":null,"tracktype":null,"service":null,"access":null,"motor_vehicle":null,"foot":null,"tiger_reviewed":"no","rrgh_part":0,"rrgh_tile_part":0},"geometry":{"type":"LineString","coordinates":[[-83.42,37.801982175257734],[-83.420063,37.802014],[-83.42011,37.802038],[-83.420157,37.802068],[-83.420223,37.802126],[-83.420281,37.802195],[-83.420388,37.802393],[-83.420538,37.802707],[-83.420592,37.802785],[-83.420633,37.802823],[-83.420697,37.802862],[-83.420731,37.802871],[-83.420753,37.802876],[-83.42078,37.802889],[-83.420871,37.80291],[-83.420921,37.802931],[-83.420957,37.802956]]}},{"type":"Feature","properties":{"osm_id":16384818,"highway":"residential","name":"Gibbs Street","alt_name":null,"official_name":null,"surface":null,"tracktype":null,"service":null,"access":null,"motor_vehicle":null,"foot":null,"tiger_reviewed":"no","rrgh_part":0,"rrgh_tile_part":0},"geometry":{"type":"LineString","coordinates":[[-83.420945,37.80058],[-83.420809,37.801539],[-83.420809,37.801567],[-83.420747,37.80189]]}},{"type":"Feature","properties":{"osm_id":16384902,"highway":"residential","name":"Spring Street","alt_name":null,"official_name":null,"surface":null,"tracktype":null,"service":null,"access":null,"motor_vehicle":null,"foot":null,"tiger_reviewed":"no","rrgh_part":0,"rrgh_tile_part":0},"geometry":{"type":"LineString","coordinates":[[-83.42078,37.802889],[-83.420678,37.803724]]}},{"type":"Feature","properties":{"osm_id":16382538,"highway":"residential","name":null,"alt_name":null,"official_name":null,"surface":null,"tracktype":null,"service":null,"access":null,"motor_vehicle":null,"foot":null,"tiger_reviewed":"no","rrgh_part":0,"rrgh_tile_part":0},"geometry":{"type":"LineString","coordinates":[[-83.450446,37.82374],[-83.450483,37.823772],[-83.451175,37.824365],[-83.4513310252936,37.825]]}}],"rrgh_tile":{"id":"r5c6","bounds":[37.75,-83.505,37.825,-83.42]}}
