{"type":"FeatureCollection","features":[{"type":"Feature","properties":{"osm_id":16383379,"highway":"residential","name":"Buchanan Fork Road","alt_name":null,"official_name":null,"surface":null,"tracktype":null,"service":null,"access":null,"motor_vehicle":null,"foot":null,"tiger_reviewed":"no","rrgh_part":0,"rrgh_tile_part":0},"geometry":{"type":"LineString","coordinates":[[-83.42,37.77240935294118],[-83.419995,37.772412],[-83.419831,37.77251],[-83.419755,37.772563],[-83.41967,37.77263]]}},{"type":"Feature","properties":{"osm_id":16382752,"highway":"residential","name":"Johnson Fork Road","alt_name":null,"official_name":null,"surface":null,"tracktype":null,"service":null,"access":null,"motor_vehicle":null,"foot":null,"tiger_reviewed":"no","rrgh_part":0,"rrgh_tile_part":0},"geometry":{"type":"LineString","coordinates":[[-83.42,37.7624347631579],[-83.419982,37.762516],[-83.419969,37.762562],[-83.419942,37.762657],[-83.419907,37.76278],[-83.419849,37.763064],[-83.419794,37.763502],[-83.419746,37.764012],[-83.419685,37.764383],[-83.419664,37.764604],[-83.419665,37.764728],[-83.419699,37.764938],[-83.419701,37.765103],[-83.419577,37.76557],[-83.419557,37.765665],[-83.419546,37.765758],[-83.419544,37.765848],[-83.419557,37.76613],[-83.419548,37.766218],[-83.419494,37.76648],[-83.419483,37.766565],[-83.419479,37.766701],[-83.419485,37.766842],[-83.419555,37.767586],[-83.419559,37.767778],[-83.419554,37.767856],[-83.419514,37.768053],[-83.419454,37.768237],[-83.419423,37.768353],[-83.419396,37.768545],[-83.419387,37.768718],[-83.419393,37.768868],[-83.419416,37.769064],[-83.419448,37.769233],[-83.419527,37.769566],[-83.419543,37.76968],[-83.419552,37.770141],[-83.419571,37.770488],[-83.419621,37.770943],[-83.419633,37.77105],[-83.419737,37.772211],[-83.419741,37.772319],[-83.419738,37.772463],[-83.419718,37.772545],[-83.419701,37.772585],[-83.41967,37.77263],[-83.419598,37.772704],[-83.419123,37.773122],[-83.418948,37.773263],[-83.418624,37.773511],[-83.418437,37.773681],[-83.418263,37.773873],[-83.417801,37.774424],[-83.417638,37.774598],[-83.417554,37.774666],[-83.417441,37.77474],[-83.417318,37.774802],[-83.416952,37.774957],[-83.416296,37.775274],[-83.415632,37.775589],[-83.415522,37.775651],[-83.41544,37.77572],[-83.415358,37.775804],[-83.415286,37.775901],[-83.41516,37.776092],[-83.415047,37.7763],[-83.415008,37.776403],[-83.414984,37.776504],[-83.414977,37.776603],[-83.414987,37.776678],[-83.415029,37.776877],[-83.415032,37.776961],[-83.415011,37.777043],[-83.41496,37.777117],[-83.414889,37.777182],[-83.414805,37.777237],[-83.414712,37.777289],[-83.41453,37.777377],[-83.4136661,37.7777801]]}},{"type":"Feature","properties":{"osm_id":16381378,"highway":"track","name":null,"alt_name":null,"official_name":null,"surface":null,"tracktype":null,"service":null,"access":null,"motor_vehicle":null,"foot":null,"tiger_reviewed":"no","rrgh_part":0,"rrgh_tile_part":0},"geometry":{"type":"LineString","coordinates":[[-83.39071023561644,37.75],[-83.390852,37.750088],[-83.390886,37.750102],[-83.391814,37.750473],[-83.391879,37.750484],[-83.394312,37.750888],[-83.394502,37.750919],[-83.394678,37.750949],[-83.395129,37.751023],[-83.395794,37.751318],[-83.396108,37.751458],[-83.396871,37.751935],[-83.398425,37.75249],[-83.400424,37.753064]]}},{"type":"Feature","properties":{"osm_id":16381726,"highway":"residential","name":null,"alt_name":null,"official_name":null,"surface":null,"tracktype":null,"service":null,"access":null,"motor_vehicle":null,"foot":null,"tiger_reviewed":"no","rrgh_part":0,"rrgh_tile_part":0},"geometry":{"type":"LineString","coordinates":[[-83.353793,37.752994],[-83.353717,37.752955],[-83.353531,37.752878],[-83.35331,37.752706],[-83.353185,37.752406],[-83.35299,37.752012],[-83.352806,37.751752],[-83.352661,37.751469],[-83.352554,37.751138],[-83.352555,37.750909],[-83.352578,37.750814],[-83.352574,37.750641],[-83.352525,37.750522],[-83.352584,37.750372],[-83.352671,37.750216],[-83.35271,37.750065],[-83.35274699468086,37.75]]}},{"type":"Feature","properties":{"osm_id":16382100,"highway":"service","name":null,"alt_name":null,"official_name":null,"surface":null,"tracktype":null,"service":null,"access":null,"motor_vehicle":null,"foot":null,"tiger_reviewed":"no","rrgh_part":0,"rrgh_tile_part":0},"geometry":{"type":"LineString","coordinates":[[-83.419942,37.762657],[-83.42,37.76267169230769]]}},{"type":"Feature","properties":{"osm_id":16381039,"highway":"service","name":null,"alt_name":null,"official_name":null,"surface":null,"tracktype":null,"service":null,"access":null,"motor_vehicle":null,"foot":null,"tiger_reviewed":"no","rrgh_part":0,"rrgh_tile_part":0},"geometry":{"type":"LineString","coordinates":[[-83.419969,37.762562],[-83.4197573,37.7624695],[-83.4193373,37.7624366],[-83.4188899,37.7624067],[-83.4186534,37.7623419],[-83.4185312,37.7622973],[-83.4183603,37.7621982]]}},{"type":"Feature","properties":{"osm_id":16384701,"highway":"residential","name":"Amburgey Lane","alt_name":null,"official_name":null,"surface":null,"tracktype":null,"service":null,"access":null,"motor_vehicle":null,"foot":null,"tiger_reviewed":"no","rrgh_part":0,"rrgh_tile_part":0},"geometry":{"type":"LineString","coordinates":[[-83.403645,37.763491],[-83.403619,37.763503],[-83.403552,37.763559],[-83.403376,37.763736],[-83.403211,37.763935],[-83.403124,37.764033],[-83.402978,37.764181],[-83.402869,37.764277],[-83.402812,37.764322],[-83.402752,37.764363],[-83.402689,37.7644],[-83.402623,37.764433],[-83.402554,37.764461],[-83.402342,37.764522],[-83.402078,37.764573],[-83.402015,37.764598],[-83.401958,37.764632],[-83.401908,37.764676],[-83.40182,37.764781],[-83.40164,37.765013],[-83.401383,37.765312],[-83.401129,37.765682],[-83.401043,37.765795],[-83.400955,37.765897],[-83.400907,37.765946],[-83.400744,37.766086],[-83.400569,37.766237],[-83.40046,37.766338],[-83.400357,37.766442],[-83.40008,37.766754],[-83.39997,37.766849],[-83.399908,37.766892],[-83.399776,37.766972],[-83.399511,37.767116],[-83.399152,37.767336],[-83.399023,37.7674],[-83.398799,37.767522],[-83.398712,37.767556],[-83.398621,37.767585],[-83.398431,37.767632],[-83.398235,37.767659],[-83.397573,37.767739],[-83.397297,37.767791],[-83.397127,37.767833],[-83.396879,37.767907],[-83.396635,37.767961],[-83.396474,37.767987],[-83.396301,37.768007],[-83.396213,37.76801],[-83.396031,37.768003],[-83.395939,37.767996],[-83.395588,37.767955],[-83.395509,37.767951],[-83.395398,37.767959],[-83.39533,37.767973],[-83.395233,37.768028],[-83.395159,37.768097],[-83.395065,37.768172],[-83.394985,37.768227],[-83.394696,37.768377],[-83.394541,37.76847],[-83.394471,37.768526],[-83.394411,37.768589],[-83.394362,37.768658],[-83.394283,37.768805],[-83.394208,37.768957],[-83.394116,37.769104],[-83.39401,37.769243],[-83.393895,37.769372],[-83.39377,37.769487],[-83.393514,37.769694],[-83.3934,37.769795],[-83.393301,37.769897],[-83.39316,37.770071],[-83.393059,37.770185],[-83.392984,37.770282],[-83.392876,37.770387],[-83.392782,37.770495],[-83.3927,37.770574],[-83.392626,37.770625],[-83.392562,37.770677],[-83.392506,37.770735],[-83.392464,37.770794],[-83.392414,37.770893],[-83.392351,37.771028],[-83.392269,37.771135],[-83.392134,37.771299],[-83.392097,37.771361],[-83.392085,37.771406],[-83.392081,37.771469],[-83.392089,37.771515],[-83.392092,37.771529],[-83.392131,37.771632],[-83.392169,37.771687],[-83.392211,37.771746],[-83.392262,37.771791],[-83.392401,37.771895],[-83.392438,37.77193],[-83.392472,37.771972],[-83.392502,37.772018],[-83.392547,37.772124],[-83.392592,37.772281],[-83.392695,37.772691],[-83.392727,37.772856],[-83.39274,37.772978],[-83.392738,37.773166],[-83.39272,37.773337],[-83.392689,37.773451],[-83.392564,37.773688],[-83.392331,37.774065],[-83.392265,37.774218],[-83.392186,37.774431],[-83.392151,37.774499],[-83.392079,37.7746],[-83.391874,37.774846],[-83.391796,37.774933],[-83.391677,37.775077],[-83.391524,37.775252],[-83.39137,37.775407],[-83.391221,37.775572],[-83.391134,37.775658],[-83.390999,37.775777],[-83.390833,37.775902],[-83.390619,37.776054],[-83.390515,37.776137],[-83.39025,37.776303],[-83.390083,37.776429],[-83.38996,37.776536],[-83.389936,37.77661],[-83.38993,37.776678],[-83.389945,37.776728],[-83.390049,37.77678],[-83.390086,37.776783],[-83.390126,37.776781],[-83.39038,37.776731],[-83.390413,37.776716],[-83.390486,37.776691],[-83.390705,37.776604],[-83.390846,37.776563],[-83.390963,37.776551],[-83.39104,37.776552],[-83.391074,37.776556],[-83.391161,37.77658],[-83.391208,37.776601],[-83.391229,37.776615],[-83.391354,37.776738],[-83.39139,37.776785],[-83.39143,37.776875],[-83.391446,37.777035],[-83.391438,37.777171],[-83.391441,37.777237],[-83.391478,37.77732],[-83.391573,37.777418],[-83.391609,37.777473],[-83.39162,37.777501],[-83.391629,37.777671],[-83.391607,37.777695],[-83.391572,37.777705],[-83.391385,37.77768],[-83.391309,37.777676],[-83.391084,37.777704],[-83.391014,37.777703],[-83.390949,37.777697],[-83.390891,37.777678],[-83.390849,37.777672],[-83.390556,37.777686],[-83.390479,37.777693],[-83.390401,37.777713],[-83.390379,37.777733],[-83.390365,37.777756],[-83.390345,37.77781],[-83.390328,37.777896],[-83.390309,37.778542],[-83.390413,37.778824],[-83.390457,37.778871],[-83.390548,37.779084],[-83.390577,37.779137],[-83.390609,37.779225],[-83.390674,37.779296],[-83.390807,37.779372],[-83.390877,37.779444],[-83.390914,37.779505],[-83.390952,37.779585],[-83.390985,37.779699],[-83.391011,37.779884],[-83.391035,37.779983],[-83.391044,37.780182],[-83.39103,37.780258],[-83.390957,37.780566],[-83.390924,37.780748],[-83.390837,37.78092],[-83.390753,37.781019],[-83.390698,37.781072],[-83.390459,37.781328],[-83.390376,37.78141],[-83.390121,37.781599],[-83.390034,37.781658],[-83.389983,37.781704],[-83.389947,37.781756],[-83.389939,37.781785],[-83.389952,37.781968],[-83.389954,37.782065]]}},{"type":"Feature","properties":{"osm_id":16381626,"highway":"service","name":null,"alt_name":null,"official_name":null,"surface":null,"tracktype":null,"service":null,"access":null,"motor_vehicle":null,"foot":null,"tiger_reviewed":null,"rrgh_part":0,"rrgh_tile_part":0},"geometry":{"type":"LineString","coordinates":[[-83.4109497,37.7534861],[-83.4108585,37.7533737],[-83.4106842,37.7532995],[-83.4102738,37.7532168],[-83.4099117,37.7530471],[-83.4090024,37.7528117],[-83.4085384,37.7527311],[-83.4082487,37.7526993],[-83.4073636,37.752693],[-83.4069613,37.7527311],[-83.4065107,37.7528223],[-83.4054646,37.7529156],[-83.4046036,37.7529644],[-83.4033591,37.7529623],[-83.4032089,37.7529793],[-83.4028173,37.7532316],[-83.4022218,37.7534988],[-83.4012127,37.7541242],[-83.401062,37.7541917],[-83.4008188,37.7542609]]}},{"type":"Feature","properties":{"osm_id":16381037,"highway":"residential","name":null,"alt_name":null,"official_name":null,"surface":null,"tracktype":null,"service":null,"access":null,"motor_vehicle":null,"foot":null,"tiger_reviewed":"no","rrgh_part":0,"rrgh_tile_part":0},"geometry":{"type":"LineString","coordinates":[[-83.402535,37.760776],[-83.402617,37.760785],[-83.4026994,37.7608376],[-83.4027972,37.7609411],[-83.4029586,37.7611267],[-83.4030565,37.7612011],[-83.4032496,37.7613557],[-83.4034744,37.7614195],[-83.4037013,37.761372],[-83.4043626,37.7608987],[-83.4047504,37.7605228],[-83.4051921,37.760273],[-83.405446,37.760139],[-83.4057114,37.7600247]]}},{"type":"Feature","properties":{"osm_id":16381210,"highway":"residential","name":null,"alt_name":null,"official_name":null,"surface":null,"tracktype":null,"service":null,"access":null,"motor_vehicle":null,"foot":null,"tiger_reviewed":"no","rrgh_part":0,"rrgh_tile_part":0},"geometry":{"type":"LineString","coordinates":[[-83.392177,37.756564],[-83.390699,37.758055]]}},{"type":"Feature","properties":{"osm_id":16381780,"highway":"track","name":null,"alt_name":null,"official_name":null,"surface":null,"tracktype":null,"service":null,"access":null,"motor_vehicle":null,"foot":null,"tiger_reviewed":"no","rrgh_part":0,"rrgh_tile_part":0},"geometry":{"type":"LineString","coordinates":[[-83.374802,37.751583],[-83.372822,37.752311],[-83.371298,37.752792]]}},{"type":"Feature","properties":{"osm_id":16384892,"highway":"residential","name":"8th Branch Road","alt_name":null,"official_name":null,"surface":null,"tracktype":null,"service":null,"access":null,"motor_vehicle":null,"foot":null,"tiger_reviewed":"no","rrgh_part":0,"rrgh_tile_part":0},"geometry":{"type":"LineString","coordinates":[[-83.370542,37.751203],[-83.370341,37.751194],[-83.370088,37.751191],[-83.369669,37.751122],[-83.369487,37.751177],[-83.36911,37.751434],[-83.368746,37.751679],[-83.368257,37.751869],[-83.36774,37.751724],[-83.367181,37.751791],[-83.366468,37.751802],[-83.36559,37.752041],[-83.364973,37.752304],[-83.36454,37.752449],[-83.363645,37.752326],[-83.362933,37.752155],[-83.362261,37.75198],[-83.361996,37.751802],[-83.361744,37.751345],[-83.36092,37.750887],[-83.360417,37.750765],[-83.360179,37.750887],[-83.360095,37.751133],[-83.359858,37.751222],[-83.359396,37.7512],[-83.359243,37.751434],[-83.358753,37.751668],[-83.358069,37.75178],[-83.357775,37.752059],[-83.357216,37.75236],[-83.355986,37.752884],[-83.354274,37.75368],[-83.354067,37.753793],[-83.353918,37.753816]]}},{"type":"Feature","properties":{"osm_id":16381955,"highway":"residential","name":null,"alt_name":null,"official_name":null,"surface":null,"tracktype":null,"service":null,"access":null,"motor_vehicle":null,"foot":null,"tiger_reviewed":"no","rrgh_part":0,"rrgh_tile_part":0},"geometry":{"type":"LineString","coordinates":[[-83.370088,37.751191],[-83.369967,37.751418],[-83.369585,37.75168]]}},{"type":"Feature","properties":{"osm_id":16382041,"highway":"residential","name":null,"alt_name":null,"official_name":null,"surface":null,"tracktype":null,"service":null,"access":null,"motor_vehicle":null,"foot":null,"tiger_reviewed":"no","rrgh_part":0,"rrgh_tile_part":0},"geometry":{"type":"LineString","coordinates":[[-83.3765219,37.7603077],[-83.3748701,37.7611884],[-83.3731188,37.7619266],[-83.3722106,37.7621105],[-83.3716017,37.7620956],[-83.371209,37.7620213],[-83.3711699,37.7616164],[-83.3710212,37.7615297],[-83.370653,37.7613925],[-83.3704521,37.7613677],[-83.3699203,37.7613077]]}},{"type":"Feature","properties":{"osm_id":16382395,"highway":"residential","name":null,"alt_name":null,"official_name":null,"surface":null,"tracktype":null,"service":null,"access":null,"motor_vehicle":null,"foot":null,"tiger_reviewed":"no","rrgh_part":0,"rrgh_tile_part":0},"geometry":{"type":"LineString","coordinates":[[-83.3724989,37.7659685],[-83.3726773,37.7660183],[-83.3727577,37.7660046],[-83.372798,37.7659929],[-83.3728369,37.7659632],[-83.3727121,37.7653261],[-83.3727148,37.7651554],[-83.3728328,37.7642139],[-83.372806,37.7640485],[-83.3725619,37.7639043],[-83.3723286,37.7639277],[-83.3720979,37.7639637],[-83.371937,37.7640104],[-83.3716419,37.7640803],[-83.3714944,37.7640888],[-83.3713764,37.7641079],[-83.37095,37.764165]]}},{"type":"Feature","properties":{"osm_id":16382394,"highway":"residential","name":null,"alt_name":null,"official_name":null,"surface":null,"tracktype":null,"service":null,"access":null,"motor_vehicle":null,"foot":null,"tiger_reviewed":"no","rrgh_part":0,"rrgh_tile_part":0},"geometry":{"type":"LineString","coordinates":[[-83.37055,37.7642],[-83.370603,37.764229],[-83.370629,37.76428],[-83.370638,37.764352],[-83.370658,37.764418],[-83.370673,37.764518]]}},{"type":"Feature","properties":{"osm_id":16383753,"highway":"residential","name":"Gibbs Hollow Road","alt_name":null,"official_name":null,"surface":null,"tracktype":null,"service":null,"access":null,"motor_vehicle":null,"foot":null,"tiger_reviewed":"no","rrgh_part":0,"rrgh_tile_part":0},"geometry":{"type":"LineString","coordinates":[[-83.37095,37.764165],[-83.370856,37.764183],[-83.370753,37.764181],[-83.370644,37.764187],[-83.37055,37.7642],[-83.370485,37.764209],[-83.370213,37.764254],[-83.369941,37.764307],[-83.369819,37.764341],[-83.369798,37.764349],[-83.369758,37.764371],[-83.369673,37.764354],[-83.369646,37.76434],[-83.369547,37.764257],[-83.369402,37.764064]]}},{"type":"Feature","properties":{"osm_id":16383757,"highway":"residential","name":"Gibbs Hollow Road","alt_name":null,"official_name":null,"surface":null,"tracktype":null,"service":null,"access":null,"motor_vehicle":null,"foot":null,"tiger_reviewed":"no","rrgh_part":0,"rrgh_tile_part":0},"geometry":{"type":"LineString","coordinates":[[-83.36997,37.765045],[-83.369958,37.764983],[-83.369894,37.764821],[-83.369816,37.764686],[-83.369743,37.764574],[-83.369716,37.764516],[-83.369708,37.764485],[-83.369708,37.764454],[-83.369715,37.764425],[-83.369728,37.7644],[-83.369758,37.764371]]}},{"type":"Feature","properties":{"osm_id":16382119,"highway":"residential","name":null,"alt_name":null,"official_name":null,"surface":null,"tracktype":null,"service":null,"access":null,"motor_vehicle":null,"foot":null,"tiger_reviewed":"no","rrgh_part":0,"rrgh_tile_part":0},"geometry":{"type":"LineString","coordinates":[[-83.353918,37.753816],[-83.353981,37.753791],[-83.35379,37.753508],[-83.353793,37.752994]]}},{"type":"Feature","properties":{"osm_id":16384900,"highway":"residential","name":"8th Branch Road","alt_name":null,"official_name":null,"surface":null,"tracktype":null,"service":null,"access":null,"motor_vehicle":null,"foot":null,"tiger_reviewed":"no","rrgh_part":0,"rrgh_tile_part":0},"geometry":{"type":"LineString","coordinates":[[-83.353918,37.753816],[-83.353927,37.753799],[-83.353921,37.753755],[-83.353905,37.753717],[-83.353811,37.753616],[-83.353699,37.753538],[-83.353583,37.753473],[-83.353506,37.753449],[-83.353417,37.753449],[-83.353273,37.753472],[-83.353223,37.753491],[-83.353012,37.75359],[-83.352767,37.753696],[-83.352704,37.753719],[-83.352384,37.753816],[-83.352086,37.753924],[-83.351983,37.753983],[-83.351922,37.75401],[-83.351707,37.754143],[-83.35154,37.754183],[-83.35136,37.75419],[-83.351244,37.754201],[-83.351141,37.75423],[-83.351091,37.754254],[-83.351036,37.754271],[-83.350917,37.754295],[-83.350856,37.754297],[-83.350483,37.754326],[-83.350298,37.754362],[-83.349664,37.754545],[-83.349566,37.754573],[-83.349331,37.75466],[-83.349201,37.754697],[-83.348512,37.754834],[-83.348047,37.754942],[-83.347837,37.754982],[-83.347426,37.755034],[-83.347365,37.755046],[-83.347307,37.755062],[-83.347252,37.755083],[-83.347202,37.75511],[-83.347022,37.755232],[-83.34697,37.755255],[-83.346916,37.755271],[-83.346742,37.755289],[-83.346684,37.7553],[-83.346629,37.755306],[-83.346588,37.755314],[-83.34647,37.755337],[-83.346418,37.755353],[-83.346396,37.755362],[-83.346369,37.755373],[-83.346325,37.755396],[-83.346285,37.755423],[-83.346216,37.755489],[-83.346147,37.755605],[-83.346112,37.755681],[-83.346066,37.755736],[-83.346039,37.755759],[-83.345992,37.755771]]}},{"type":"Feature","properties":{"osm_id":655722512,"highway":"service","name":null,"alt_name":null,"official_name":null,"surface":null,"tracktype":null,"service":null,"access":null,"motor_vehicle":null,"foot":null,"tiger_reviewed":null,"rrgh_part":0,"rrgh_tile_part":0},"geometry":{"type":"LineString","coordinates":[[-83.343083,37.755984],[-83.3430281,37.7560553],[-83.3430201,37.7561295],[-83.3430617,37.7567519],[-83.343067,37.7570159],[-83.3430389,37.7572789],[-83.3430026,37.7574962],[-83.343,37.7576659],[-83.3430228,37.7579415]]}},{"type":"Feature","properties":{"osm_id":963802548,"highway":"residential","name":"8th Branch Road","alt_name":null,"official_name":null,"surface":null,"tracktype":null,"service":null,"access":null,"motor_vehicle":null,"foot":null,"tiger_reviewed":"no","rrgh_part":0,"rrgh_tile_part":0},"geometry":{"type":"LineString","coordinates":[[-83.345865,37.755784],[-83.345811,37.755785],[-83.345768,37.755793],[-83.345637,37.755827],[-83.345485,37.755892],[-83.345373,37.755922],[-83.345265,37.755934],[-83.34483,37.755965],[-83.344534,37.755981],[-83.344076,37.755993]]}},{"type":"Feature","properties":{"osm_id":963802549,"highway":"residential","name":"8th Branch Road","alt_name":null,"official_name":null,"surface":null,"tracktype":null,"service":null,"access":null,"motor_vehicle":null,"foot":null,"tiger_reviewed":"no","rrgh_part":0,"rrgh_tile_part":0},"geometry":{"type":"LineString","coordinates":[[-83.345992,37.755771],[-83.345899,37.755781],[-83.345865,37.755784]]}},{"type":"Feature","properties":{"osm_id":16382249,"highway":"service","name":null,"alt_name":null,"official_name":null,"surface":null,"tracktype":null,"service":null,"access":"private","motor_vehicle":null,"foot":null,"tiger_reviewed":null,"rrgh_part":0,"rrgh_tile_part":0},"geometry":{"type":"LineString","coordinates":[[-83.343053,37.764395],[-83.34302,37.764358],[-83.342974,37.764328],[-83.342948,37.764317],[-83.342915,37.764309],[-83.34288,37.764308],[-83.342803,37.76432],[-83.34251,37.764416],[-83.342365,37.764445],[-83.342261,37.764443],[-83.34211,37.764428],[-83.341953,37.764399],[-83.3416188,37.7643295],[-83.3413353,37.7642362],[-83.3407401,37.7640229],[-83.3405259,37.7639689],[-83.3400749,37.7638794],[-83.3399275,37.7638386],[-83.3398658,37.7637856]]}},{"type":"Feature","properties":{"osm_id":16382942,"highway":"residential","name":"Lee City Road","alt_name":null,"official_name":null,"surface":null,"tracktype":null,"service":null,"access":null,"motor_vehicle":null,"foot":null,"tiger_reviewed":"no","rrgh_part":0,"rrgh_tile_part":0},"geometry":{"type":"LineString","coordinates":[[-83.344076,37.755993],[-83.343805,37.755996],[-83.343305,37.755987],[-83.343165,37.755998],[-83.343109,37.755992],[-83.343083,37.755984],[-83.343039,37.755959],[-83.343024,37.755943],[-83.342981,37.755843],[-83.342903,37.75563],[-83.342852,37.755434],[-83.342844,37.755372],[-83.342793,37.755157],[-83.342763,37.755069],[-83.342706,37.754995],[-83.342625,37.754911],[-83.342397,37.754716],[-83.342182,37.754512],[-83.342126,37.754449],[-83.342104,37.75441],[-83.342087,37.754361],[-83.342043,37.754158],[-83.342005,37.754055],[-83.341971,37.754],[-83.341952,37.753978],[-83.341911,37.753953],[-83.341869,37.753945],[-83.341846,37.753947],[-83.34183,37.753953]]}},{"type":"Feature","properties":{"osm_id":16382258,"highway":"service","name":null,"alt_name":null,"official_name":null,"surface":null,"tracktype":null,"service":null,"access":null,"motor_vehicle":null,"foot":null,"tiger_reviewed":null,"rrgh_part":0,"rrgh_tile_part":0},"geometry":{"type":"LineString","coordinates":[[-83.3453184,37.7591747],[-83.3439394,37.759439]]}},{"type":"Feature","properties":{"osm_id":655722521,"highway":"service","name":null,"alt_name":null,"official_name":null,"surface":null,"tracktype":null,"service":null,"access":null,"motor_vehicle":null,"foot":null,"tiger_reviewed":null,"rrgh_part":0,"rrgh_tile_part":0},"geometry":{"type":"LineString","coordinates":[[-83.3434868,37.7601702],[-83.3435725,37.7602428],[-83.343754,37.7603237],[-83.3445239,37.760697],[-83.3446909,37.7607997],[-83.3449969,37.7610311],[-83.3456868,37.7613161],[-83.3458935,37.7613705],[-83.346043,37.7613634]]}},{"type":"Feature","properties":{"osm_id":835163444,"highway":"residential","name":null,"alt_name":null,"official_name":null,"surface":null,"tracktype":null,"service":null,"access":null,"motor_vehicle":null,"foot":null,"tiger_reviewed":"no","rrgh_part":0,"rrgh_tile_part":0},"geometry":{"type":"LineString","coordinates":[[-83.3452809,37.7631078],[-83.3450479,37.7633136],[-83.3449475,37.7633884],[-83.3448331,37.7634668],[-83.344721,37.7635314],[-83.3446117,37.7635936],[-83.343053,37.764395]]}},{"type":"Feature","properties":{"osm_id":16381200,"highway":"service","name":null,"alt_name":null,"official_name":null,"surface":null,"tracktype":null,"service":null,"access":null,"motor_vehicle":null,"foot":null,"tiger_reviewed":"no","rrgh_part":0,"rrgh_tile_part":0},"geometry":{"type":"LineString","coordinates":[[-83.42,37.78302211417323],[-83.419875,37.782998],[-83.419652,37.783013]]}},{"type":"Feature","properties":{"osm_id":16381203,"highway":"service","name":null,"alt_name":null,"official_name":null,"surface":null,"tracktype":null,"service":null,"access":null,"motor_vehicle":null,"foot":null,"tiger_reviewed":"no","rrgh_part":0,"rrgh_tile_part":0},"geometry":{"type":"LineString","coordinates":[[-83.42,37.78463308516886],[-83.419939,37.784651],[-83.419289,37.784867]]}},{"type":"Feature","properties":{"osm_id":16384314,"highway":"residential","name":"River Road","alt_name":null,"official_name":null,"surface":null,"tracktype":null,"service":null,"access":null,"motor_vehicle":null,"foot":null,"tiger_reviewed":"no","rrgh_part":0,"rrgh_tile_part":0},"geometry":{"type":"LineString","coordinates":[[-83.419669,37.794221],[-83.41944,37.79406],[-83.419375,37.794022],[-83.419262,37.793972],[-83.419143,37.793931],[-83.419033,37.793898],[-83.418838,37.793852],[-83.418772,37.793832],[-83.418656,37.793789],[-83.418582,37.793745],[-83.418472,37.793665],[-83.418319,37.793573],[-83.418208,37.793496],[-83.418081,37.79338],[-83.41787,37.793124],[-83.417653,37.792793],[-83.417566,37.792623],[-83.417512,37.792453],[-83.417428,37.792248],[-83.417402,37.792172],[-83.417359,37.792079],[-83.417257,37.791919],[-83.417181,37.791848],[-83.416663,37.791446],[-83.416195,37.791123],[-83.415988,37.791035],[-83.415486,37.790953],[-83.414954,37.790844],[-83.41477,37.79079],[-83.414658,37.790737],[-83.414556,37.790712],[-83.414495,37.790678],[-83.414477,37.790606],[-83.414467,37.790585],[-83.414414,37.790525],[-83.414126,37.790421],[-83.414002,37.790394],[-83.413906,37.790339],[-83.413753,37.790267],[-83.413677,37.790226],[-83.413576,37.790162],[-83.413552,37.790132],[-83.413528,37.790074],[-83.413506,37.790042],[-83.413501,37.789987],[-83.413518,37.789925],[-83.413573,37.789795],[-83.413698,37.789682],[-83.413776,37.789621],[-83.4139,37.789554],[-83.414003,37.78949],[-83.4141,37.789445],[-83.414215,37.789425],[-83.414296,37.789398],[-83.414458,37.789275],[-83.414481,37.789263],[-83.414542,37.789251],[-83.414574,37.789262],[-83.414594,37.789279],[-83.414603,37.789318],[-83.414603,37.789374],[-83.414575,37.789493],[-83.414551,37.789573],[-83.414534,37.789661],[-83.414533,37.789708],[-83.414545,37.789758],[-83.414547,37.789787],[-83.414601,37.789868],[-83.414623,37.789882],[-83.414651,37.789893],[-83.41468,37.789899],[-83.414709,37.789899],[-83.41485,37.789973],[-83.414921,37.790002],[-83.415035,37.790014],[-83.415194,37.790012],[-83.41535,37.790003],[-83.415626,37.789972],[-83.415657,37.789974],[-83.415777,37.789963],[-83.415801,37.789965]]}},{"type":"Feature","properties":{"osm_id":16383495,"highway":"residential","name":"Broadway Street","alt_name":null,"official_name":null,"surface":null,"tracktype":null,"service":null,"access":null,"motor_vehicle":null,"foot":null,"tiger_reviewed":"no","rrgh_part":0,"rrgh_tile_part":0},"geometry":{"type":"LineString","coordinates":[[-83.414434,37.795595],[-83.414675,37.795805],[-83.414793,37.795915],[-83.414886,37.796013],[-83.415087,37.796179],[-83.41544,37.796493],[-83.415744,37.796783],[-83.415836,37.796862],[-83.415877,37.796893],[-83.415963,37.79696],[-83.415994,37.796989],[-83.416439,37.797381],[-83.416625,37.797566]]}},{"type":"Feature","properties":{"osm_id":16384218,"highway":"residential","name":"Shop Street","alt_name":null,"official_name":null,"surface":null,"tracktype":null,"service":null,"access":null,"motor_vehicle":null,"foot":null,"tiger_reviewed":"no","rrgh_part":0,"rrgh_tile_part":0},"geometry":{"type":"LineString","coordinates":[[-83.417085,37.796151],[-83.416778,37.796391],[-83.416559,37.79655],[-83.416161,37.796865],[-83.416096,37.796909],[-83.415994,37.796989]]}},{"type":"Feature","properties":{"osm_id":16384859,"highway":"residential","name":"Carey Street","alt_name":null,"official_name":null,"surface":null,"tracktype":null,"service":null,"access":null,"motor_vehicle":null,"foot":null,"tiger_reviewed":"no","rrgh_part":0,"rrgh_tile_part":0},"geometry":{"type":"LineString","coordinates":[[-83.415789,37.794817],[-83.415814,37.794837],[-83.416032,37.795107],[-83.416106,37.795192],[-83.416175,37.795271],[-83.416387,37.795473],[-83.416783,37.795873],[-83.416817,37.795907],[-83.417085,37.796151],[-83.417641,37.796629],[-83.417721,37.796688],[-83.4178,37.796739]]}},{"type":"Feature","properties":{"osm_id":16380808,"highway":"residential","name":"Walnut Street","alt_name":null,"official_name":null,"surface":null,"tracktype":null,"service":null,"access":null,"motor_vehicle":null,"foot":null,"tiger_reviewed":"no","rrgh_part":0,"rrgh_tile_part":0},"geometry":{"type":"LineString","coordinates":[[-83.418471,37.801316],[-83.418636,37.801406],[-83.418962,37.801552],[-83.41933,37.801696],[-83.419966,37.801965],[-83.42,37.801982175257734]]}},{"type":"Feature","properties":{"osm_id":16382073,"highway":"service","name":null,"alt_name":null,"official_name":null,"surface":null,"tracktype":null,"service":null,"access":"private","motor_vehicle":null,"foot":null,"tiger_reviewed":"no","rrgh_part":0,"rrgh_tile_part":0},"geometry":{"type":"LineString","coordinates":[[-83.414769,37.798779],[-83.414732,37.798744],[-83.414657,37.798706],[-83.414582,37.798681],[-83.414297,37.798611],[-83.414045,37.798559],[-83.413995,37.798547],[-83.413972,37.798544],[-83.413948,37.798542],[-83.413918,37.798546],[-83.413907,37.798548],[-83.413878,37.798566]]}},{"type":"Feature","properties":{"osm_id":16383420,"highway":"residential","name":"College Street","alt_name":null,"official_name":null,"surface":null,"tracktype":null,"service":null,"access":null,"motor_vehicle":null,"foot":null,"tiger_reviewed":"no","rrgh_part":0,"rrgh_tile_part":0},"geometry":{"type":"LineString","coordinates":[[-83.415789,37.794817],[-83.415757,37.794804],[-83.415708,37.794802],[-83.415652,37.794815],[-83.4156,37.79484],[-83.415485,37.794922],[-83.415069,37.795184],[-83.414925,37.795282],[-83.414434,37.795595],[-83.41423,37.79574],[-83.41358,37.79614],[-83.413542,37.796172],[-83.41353,37.79619],[-83.413508,37.796225]]}},{"type":"Feature","properties":{"osm_id":16380810,"highway":"residential","name":"Walnut Street","alt_name":null,"official_name":null,"surface":null,"tracktype":null,"service":null,"access":null,"motor_vehicle":null,"foot":null,"tiger_reviewed":"no","rrgh_part":0,"rrgh_tile_part":0},"geometry":{"type":"LineString","coordinates":[[-83.418493,37.800641],[-83.418507,37.800735],[-83.418595,37.801005],[-83.418603,37.801087],[-83.418596,37.801126],[-83.418562,37.801193],[-83.418471,37.801316]]}},{"type":"Feature","properties":{"osm_id":16382086,"highway":"residential","name":null,"alt_name":null,"official_name":null,"surface":null,"tracktype":null,"service":null,"access":null,"motor_vehicle":null,"foot":null,"tiger_reviewed":"no","rrgh_part":0,"rrgh_tile_part":0},"geometry":{"type":"LineString","coordinates":[[-83.418471,37.801316],[-83.418359,37.801442],[-83.418327,37.801473],[-83.418276,37.801544],[-83.418246,37.801578],[-83.418129,37.801734],[-83.418101,37.801761]]}},{"type":"Feature","properties":{"osm_id":16383435,"highway":"residential","name":"State Street","alt_name":null,"official_name":null,"surface":null,"tracktype":null,"service":null,"access":null,"motor_vehicle":null,"foot":null,"tiger_reviewed":"no","rrgh_part":0,"rrgh_tile_part":0},"geometry":{"type":"LineString","coordinates":[[-83.415691,37.798182],[-83.415813,37.798297],[-83.416001,37.798508],[-83.416042,37.79856],[-83.416284,37.798809],[-83.416468,37.799015],[-83.416566,37.799098],[-83.416874,37.799408],[-83.416965,37.799494],[-83.41701,37.799544],[-83.417116,37.799645],[-83.417345,37.799866],[-83.417514,37.800003],[-83.417612,37.800095],[-83.417762,37.800213],[-83.418035,37.800404],[-83.418081,37.800436],[-83.418189,37.800497],[-83.418277,37.800558],[-83.418367,37.800602],[-83.418493,37.800641],[-83.418516,37.800644],[-83.418602,37.800643],[-83.418707,37.800633],[-83.418937,37.800593],[-83.419458,37.800478],[-83.419542,37.800447],[-83.419576,37.80043]]}},{"type":"Feature","properties":{"osm_id":16384681,"highway":"residential","name":"Mize Avenue","alt_name":null,"official_name":null,"surface":null,"tracktype":null,"service":null,"access":null,"motor_vehicle":null,"foot":null,"tiger_reviewed":"no","rrgh_part":0,"rrgh_tile_part":0},"geometry":{"type":"LineString","coordinates":[[-83.417116,37.799645],[-83.417073,37.799682],[-83.416693,37.800091],[-83.41659,37.800189],[-83.416579,37.800205]]}},{"type":"Feature","properties":{"osm_id":16382045,"highway":"service","name":null,"alt_name":null,"official_name":null,"surface":null,"tracktype":null,"service":null,"access":"private","motor_vehicle":null,"foot":null,"tiger_reviewed":"no","rrgh_part":0,"rrgh_tile_part":0},"geometry":{"type":"LineString","coordinates":[[-83.400744,37.766086],[-83.400823,37.766102],[-83.401546,37.766253],[-83.402208,37.766305]]}},{"type":"Feature","properties":{"osm_id":16385061,"highway":"residential","name":"Landsaw-Johnson Fork Road","alt_name":null,"official_name":null,"surface":null,"tracktype":null,"service":null,"access":null,"motor_vehicle":null,"foot":null,"tiger_reviewed":"no","rrgh_part":0,"rrgh_tile_part":0},"geometry":{"type":"LineString","coordinates":[[-83.4135186,37.7778489],[-83.413047,37.778069],[-83.412998,37.778084],[-83.412969,37.778084]]}},{"type":"Feature","properties":{"osm_id":1162991313,"highway":"residential","name":"Johnson Fork Road","alt_name":null,"official_name":null,"surface":null,"tracktype":null,"service":null,"access":null,"motor_vehicle":null,"foot":null,"tiger_reviewed":"no","rrgh_part":0,"rrgh_tile_part":0},"geometry":{"type":"LineString","coordinates":[[-83.4136661,37.7777801],[-83.4135186,37.7778489]]}},{"type":"Feature","properties":{"osm_id":16318528,"highway":"residential","name":"Daysboro-Grassy Road","alt_name":null,"official_name":null,"surface":null,"tracktype":null,"service":null,"access":null,"motor_vehicle":null,"foot":null,"tiger_reviewed":"no","rrgh_part":0,"rrgh_tile_part":0},"geometry":{"type":"LineString","coordinates":[[-83.362621,37.798325],[-83.362439,37.798592],[-83.362256,37.798781],[-83.362018,37.79897],[-83.361754,37.799144],[-83.361466,37.799263],[-83.36131,37.799303],[-83.360801,37.799485],[-83.360677,37.799529],[-83.360349,37.799607],[-83.360028,37.799695],[-83.359156,37.800041],[-83.358798,37.800202],[-83.358422,37.800347],[-83.358225,37.800401],[-83.358026,37.80045],[-83.357425,37.80057],[-83.35666,37.800749],[-83.356477,37.800779],[-83.355914,37.800832],[-83.355729,37.800875],[-83.355546,37.800929],[-83.355376,37.801007],[-83.355005,37.80112],[-83.354831,37.801186],[-83.354668,37.801262],[-83.354535,37.801304],[-83.354323,37.80137],[-83.353012,37.801646],[-83.352467,37.801809],[-83.352289,37.801872],[-83.352151,37.801909],[-83.351582,37.802062],[-83.351245,37.802141],[-83.350921,37.802199],[-83.350614,37.802235],[-83.35047,37.802264],[-83.349652,37.802502],[-83.349279,37.802592],[-83.349081,37.802619],[-83.348035,37.802722],[-83.34763,37.80278],[-83.346683,37.802978],[-83.345701,37.803138],[-83.345535,37.803152],[-83.345361,37.803152],[-83.345031,37.803103],[-83.344859,37.803086],[-83.344684,37.803087],[-83.344499,37.803101],[-83.343023,37.803327],[-83.342734,37.803387],[-83.342612,37.803431],[-83.342507,37.803487],[-83.342354,37.803644],[-83.342064,37.80397],[-83.341991,37.804034],[-83.341909,37.804082],[-83.341815,37.804108],[-83.34171,37.804113],[-83.341602,37.804098],[-83.341376,37.804049],[-83.341259,37.804035],[-83.341141,37.804033],[-83.340685,37.804058]]}},{"type":"Feature","properties":{"osm_id":16382981,"highway":"service","name":"Amburgey Road","alt_name":null,"official_name":null,"surface":null,"tracktype":null,"service":null,"access":"private","motor_vehicle":null,"foot":null,"tiger_reviewed":"no","rrgh_part":0,"rrgh_tile_part":0},"geometry":{"type":"LineString","coordinates":[[-83.392414,37.770893],[-83.392343,37.770905],[-83.392129,37.770964],[-83.392092,37.77097],[-83.391743,37.771086],[-83.391705,37.771103],[-83.391531,37.771163],[-83.391464,37.771178]]}},{"type":"Feature","properties":{"osm_id":16384067,"highway":"residential","name":"Stovall Road","alt_name":null,"official_name":null,"surface":null,"tracktype":null,"service":null,"access":null,"motor_vehicle":null,"foot":null,"tiger_reviewed":"no","rrgh_part":0,"rrgh_tile_part":0},"geometry":{"type":"LineString","coordinates":[[-83.406237,37.790869],[-83.406241,37.790924],[-83.406257,37.791124],[-83.406295,37.791329],[-83.406463,37.791986],[-83.406503,37.7921014],[-83.406528,37.792122],[-83.406562,37.792142]]}},{"type":"Feature","properties":{"osm_id":16383321,"highway":"residential","name":"Red River Road","alt_name":null,"official_name":null,"surface":null,"tracktype":null,"service":null,"access":null,"motor_vehicle":null,"foot":null,"tiger_reviewed":"no","rrgh_part":0,"rrgh_tile_part":0},"geometry":{"type":"LineString","coordinates":[[-83.3872013,37.7855935],[-83.388048,37.7862153],[-83.3895467,37.7871324],[-83.3903222,37.7874784],[-83.3909387,37.787909],[-83.391953,37.789129],[-83.3926481,37.7897242],[-83.3930199,37.7900059],[-83.3949246,37.7908513],[-83.3953001,37.7910352],[-83.395984,37.791075]]}},{"type":"Feature","properties":{"osm_id":16384073,"highway":"residential","name":"Brooks Road","alt_name":null,"official_name":null,"surface":null,"tracktype":null,"service":null,"access":null,"motor_vehicle":null,"foot":null,"tiger_reviewed":"no","rrgh_part":0,"rrgh_tile_part":0},"geometry":{"type":"LineString","coordinates":[[-83.398908,37.784706],[-83.398861,37.784804],[-83.398716,37.785027],[-83.398608,37.785226],[-83.398349,37.78563],[-83.398326,37.78568],[-83.39826,37.785767],[-83.398065,37.785968],[-83.397874,37.786187],[-83.397753,37.786295],[-83.397677,37.786363],[-83.39765,37.786411],[-83.397581,37.786506],[-83.397381,37.78676],[-83.397319,37.786842],[-83.397225,37.786976],[-83.397086,37.787145],[-83.396994,37.787265],[-83.396952,37.787348],[-83.396888,37.787565],[-83.396868,37.787599],[-83.396815,37.787628],[-83.396793,37.78764],[-83.396752,37.787677],[-83.396714,37.787728],[-83.39669,37.787788],[-83.396661,37.787985],[-83.396568,37.788277],[-83.396557,37.788391],[-83.39654,37.788488],[-83.396526,37.788541],[-83.396529,37.788657],[-83.396536,37.788705],[-83.396553,37.788744],[-83.396559,37.788795],[-83.396559,37.788856],[-83.396573,37.789002],[-83.396616,37.78927],[-83.396614,37.789355],[-83.396584,37.789434],[-83.396581,37.789489],[-83.396565,37.789558],[-83.396566,37.789633],[-83.396581,37.789704],[-83.396587,37.789747],[-83.396581,37.789797],[-83.396472,37.790134],[-83.396459,37.790188],[-83.396409,37.790291],[-83.396378,37.790342],[-83.39634,37.79039],[-83.396292,37.790434],[-83.396137,37.790553],[-83.396053,37.790635],[-83.396019,37.790681],[-83.395994,37.790727],[-83.395977,37.790775],[-83.395958,37.790874],[-83.395959,37.790976],[-83.395984,37.791075],[-83.396152,37.791301],[-83.396343,37.791482],[-83.396593,37.791752],[-83.396845,37.792015],[-83.397045,37.792195],[-83.397189,37.792346],[-83.397304,37.792505],[-83.397468,37.792755],[-83.397504,37.7928],[-83.397559,37.792892],[-83.39757,37.792938],[-83.397569,37.792984],[-83.397558,37.793025],[-83.397516,37.793091]]}},{"type":"Feature","properties":{"osm_id":16381778,"highway":"residential","name":null,"alt_name":null,"official_name":null,"surface":null,"tracktype":null,"service":null,"access":null,"motor_vehicle":null,"foot":null,"tiger_reviewed":"no","rrgh_part":0,"rrgh_tile_part":0},"geometry":{"type":"LineString","coordinates":[[-83.396815,37.787628],[-83.396781,37.787327],[-83.396578,37.7871],[-83.39609,37.786836],[-83.395195,37.786397]]}},{"type":"Feature","properties":{"osm_id":16381114,"highway":"residential","name":null,"alt_name":null,"official_name":null,"surface":null,"tracktype":null,"service":null,"access":null,"motor_vehicle":null,"foot":null,"tiger_reviewed":"no","rrgh_part":0,"rrgh_tile_part":0},"geometry":{"type":"LineString","coordinates":[[-83.3775265,37.7753284],[-83.3760756,37.775502],[-83.3754504,37.7758412],[-83.3752696,37.7761189],[-83.3752595,37.7764293],[-83.3751693,37.7767378],[-83.3749363,37.7772641],[-83.3747734,37.7778287],[-83.3747305,37.7778807],[-83.3746359,37.7779249],[-83.3732727,37.7781287],[-83.3726798,37.7782305]]}},{"type":"Feature","properties":{"osm_id":16382850,"highway":"residential","name":"East B Little Road","alt_name":null,"official_name":null,"surface":null,"tracktype":null,"service":null,"access":null,"motor_vehicle":null,"foot":null,"tiger_reviewed":"no","rrgh_part":0,"rrgh_tile_part":0},"geometry":{"type":"LineString","coordinates":[[-83.371035,37.768932],[-83.370629,37.768975],[-83.370545,37.768971],[-83.370469,37.768957],[-83.370319,37.768929]]}},{"type":"Feature","properties":{"osm_id":16384839,"highway":"residential","name":"Lexie Gibbs Lane","alt_name":null,"official_name":null,"surface":null,"tracktype":null,"service":null,"access":null,"motor_vehicle":null,"foot":null,"tiger_reviewed":"no","rrgh_part":0,"rrgh_tile_part":0},"geometry":{"type":"LineString","coordinates":[[-83.370528,37.767871],[-83.37064,37.767842],[-83.370697,37.767831],[-83.370902,37.767792],[-83.371126,37.76776],[-83.37127,37.767755],[-83.371384,37.767764],[-83.37145,37.767775],[-83.371547,37.767783],[-83.371583,37.767776]]}},{"type":"Feature","properties":{"osm_id":16381258,"highway":"residential","name":null,"alt_name":null,"official_name":null,"surface":null,"tracktype":null,"service":null,"access":null,"motor_vehicle":null,"foot":null,"tiger_reviewed":"no","rrgh_part":0,"rrgh_tile_part":0},"geometry":{"type":"LineString","coordinates":[[-83.3784118,37.7830215],[-83.3787244,37.7833934],[-83.3786971,37.7835122],[-83.3785191,37.7836715],[-83.3783664,37.7838377],[-83.3779472,37.7840305],[-83.3764467,37.7846792],[-83.3762215,37.7846815],[-83.376073,37.784599],[-83.3758718,37.7843697],[-83.3756642,37.7842672]]}},{"type":"Feature","properties":{"osm_id":16381206,"highway":"track","name":null,"alt_name":null,"official_name":null,"surface":null,"tracktype":null,"service":null,"access":null,"motor_vehicle":null,"foot":null,"tiger_reviewed":"no","rrgh_part":0,"rrgh_tile_part":0},"geometry":{"type":"LineString","coordinates":[[-83.3743024,37.7830958],[-83.3745676,37.7829446],[-83.3748774,37.7828335],[-83.3749701,37.7827836],[-83.3750256,37.7827536],[-83.3750799,37.7827198],[-83.3751098,37.782696],[-83.3752127,37.7825719],[-83.3753514,37.7823814],[-83.3754932,37.7822235],[-83.3757389,37.7820616],[-83.3759218,37.7819912],[-83.3767451,37.7816922]]}},{"type":"Feature","properties":{"osm_id":1162991294,"highway":"residential","name":"Neff Road","alt_name":null,"official_name":null,"surface":null,"tracktype":null,"service":null,"access":null,"motor_vehicle":null,"foot":null,"tiger_reviewed":"no","rrgh_part":0,"rrgh_tile_part":0},"geometry":{"type":"LineString","coordinates":[[-83.3816364,37.7873902],[-83.381606,37.78741],[-83.381212,37.787674],[-83.381049,37.787775],[-83.380573,37.788113],[-83.380485,37.788167],[-83.3804,37.788227],[-83.380302,37.788289],[-83.379793,37.788648],[-83.379524,37.788822],[-83.379414,37.78891],[-83.37899,37.789194],[-83.378889,37.789256],[-83.378749,37.789364],[-83.378703,37.789393],[-83.378471,37.789559],[-83.378224,37.789759],[-83.378072,37.789904],[-83.377887,37.790098],[-83.377804,37.790179],[-83.377729,37.790219],[-83.377656,37.790247]]}},{"type":"Feature","properties":{"osm_id":16384076,"highway":"residential","name":"Neff Road","alt_name":null,"official_name":null,"surface":null,"tracktype":null,"service":null,"access":null,"motor_vehicle":null,"foot":null,"tiger_reviewed":"no","rrgh_part":0,"rrgh_tile_part":0},"geometry":{"type":"LineString","coordinates":[[-83.3872013,37.7855935],[-83.3865033,37.7858453],[-83.385883,37.78626],[-83.38585,37.786291],[-83.385829,37.786302],[-83.385624,37.786467],[-83.385555,37.786504],[-83.385487,37.786525],[-83.385256,37.786626],[-83.385179,37.786647],[-83.385081,37.786684],[-83.384914,37.786721],[-83.384716,37.786755],[-83.384561,37.786768],[-83.384476,37.786785],[-83.384358,37.786834],[-83.384269,37.786863],[-83.384135,37.786886],[-83.384047,37.786887],[-83.383922,37.786874],[-83.383846,37.786879],[-83.383815,37.786886],[-83.383433,37.787025],[-83.3826498,37.7872779],[-83.3823907,37.7873243],[-83.3820585,37.7873335],[-83.3817657,37.7873202],[-83.3817299,37.7873346]]}},{"type":"Feature","properties":{"osm_id":1162991295,"highway":"residential","name":"Neff Road","alt_name":null,"official_name":null,"surface":null,"tracktype":null,"service":null,"access":null,"motor_vehicle":null,"foot":null,"tiger_reviewed":"no","rrgh_part":0,"rrgh_tile_part":0},"geometry":{"type":"LineString","coordinates":[[-83.3817299,37.7873346],[-83.3816364,37.7873902]]}},{"type":"Feature","properties":{"osm_id":16383444,"highway":"residential","name":"Hoot Owl Holler","alt_name":null,"official_name":null,"surface":null,"tracktype":null,"service":null,"access":null,"motor_vehicle":null,"foot":null,"tiger_reviewed":"no","rrgh_part":0,"rrgh_tile_part":0},"geometry":{"type":"LineString","coordinates":[[-83.374033,37.782174],[-83.373963,37.782139],[-83.373862,37.782089],[-83.373812,37.782079],[-83.373789,37.782084],[-83.37358,37.782211],[-83.373446,37.782312],[-83.373126,37.782577],[-83.373084,37.782623],[-83.372952,37.78279],[-83.372924,37.78288],[-83.372892,37.783037],[-83.372909,37.783117],[-83.372939,37.783126],[-83.372962,37.783124]]}},{"type":"Feature","properties":{"osm_id":16381812,"highway":"residential","name":null,"alt_name":null,"official_name":null,"surface":null,"tracktype":null,"service":null,"access":null,"motor_vehicle":null,"foot":null,"tiger_reviewed":"no","rrgh_part":0,"rrgh_tile_part":0},"geometry":{"type":"LineString","coordinates":[[-83.362643,37.782002],[-83.3631886,37.78204]]}},{"type":"Feature","properties":{"osm_id":16384824,"highway":"residential","name":"Fallen Road","alt_name":null,"official_name":null,"surface":null,"tracktype":null,"service":null,"access":null,"motor_vehicle":null,"foot":null,"tiger_reviewed":"no","rrgh_part":0,"rrgh_tile_part":0},"geometry":{"type":"LineString","coordinates":[[-83.361391,37.781723],[-83.361563,37.781377],[-83.361585,37.781344],[-83.36161,37.78133],[-83.361633,37.781327],[-83.361654,37.781334],[-83.361672,37.781348],[-83.361684,37.781365],[-83.36177,37.781561],[-83.36181,37.781704],[-83.361824,37.781727],[-83.361952,37.78202],[-83.361979,37.782155],[-83.361996,37.78219],[-83.362013,37.782202],[-83.362038,37.782205],[-83.362065,37.782201],[-83.362093,37.782184],[-83.362148,37.782044],[-83.362258,37.78171],[-83.36227,37.781653],[-83.362267,37.781608],[-83.362226,37.781558],[-83.36218,37.781512],[-83.362153,37.781463],[-83.362158,37.781414],[-83.362207,37.781372],[-83.362255,37.78135],[-83.362339,37.781342],[-83.362422,37.781339],[-83.362523,37.781351],[-83.362581,37.781404],[-83.362667,37.781543],[-83.362711,37.781643],[-83.362702,37.781737],[-83.362646,37.781828],[-83.362626,37.781883],[-83.362643,37.782002],[-83.362654,37.782033],[-83.362671,37.782142],[-83.362693,37.782199],[-83.362685,37.782289],[-83.362647,37.782359],[-83.362574,37.782386],[-83.362483,37.782436],[-83.362385,37.782515],[-83.362292,37.782622],[-83.362236,37.782706],[-83.362142,37.782822],[-83.361872,37.783068],[-83.361797,37.783185],[-83.361764,37.783274],[-83.361754,37.783338],[-83.36174,37.783393],[-83.361729,37.783492],[-83.361717,37.783904],[-83.361725,37.784175],[-83.361715,37.784321],[-83.361681,37.784458],[-83.361636,37.784549],[-83.361516,37.784733],[-83.361466,37.784829],[-83.361429,37.784929],[-83.361418,37.784982],[-83.361414,37.785035],[-83.361417,37.785089],[-83.361436,37.785201],[-83.361471,37.785319],[-83.361593,37.785675],[-83.361622,37.785791],[-83.361637,37.785904],[-83.361637,37.786012],[-83.361626,37.786113],[-83.3616,37.786207],[-83.361562,37.786297],[-83.361383,37.786602],[-83.361183,37.786919],[-83.361133,37.787015],[-83.361104,37.787121],[-83.361101,37.787177],[-83.361105,37.787232],[-83.361117,37.787286],[-83.36115,37.787393],[-83.361277,37.787706],[-83.361348,37.787912],[-83.361397,37.788126],[-83.361404,37.788235],[-83.361399,37.78829],[-83.361387,37.788344],[-83.361344,37.788448],[-83.36129,37.788543],[-83.361056,37.78888]]}},{"type":"Feature","properties":{"osm_id":16384828,"highway":"residential","name":"Fallen Road","alt_name":null,"official_name":null,"surface":null,"tracktype":null,"service":null,"access":null,"motor_vehicle":null,"foot":null,"tiger_reviewed":"no","rrgh_part":0,"rrgh_tile_part":0},"geometry":{"type":"LineString","coordinates":[[-83.361383,37.786602],[-83.361436,37.786629],[-83.361492,37.786643],[-83.361563,37.786648],[-83.361602,37.786646],[-83.361639,37.786639],[-83.361703,37.786602],[-83.361732,37.786577],[-83.361951,37.786334],[-83.362095,37.786197],[-83.362976,37.785314]]}},{"type":"Feature","properties":{"osm_id":16384465,"highway":"residential","name":"Academy Road","alt_name":null,"official_name":null,"surface":null,"tracktype":null,"service":null,"access":null,"motor_vehicle":null,"foot":null,"tiger_reviewed":"no","rrgh_part":0,"rrgh_tile_part":0},"geometry":{"type":"LineString","coordinates":[[-83.4111638,37.7959667],[-83.4111737,37.7959217],[-83.4112488,37.7957321],[-83.411425,37.795359],[-83.411433,37.795342],[-83.411478,37.795287],[-83.411531,37.795199],[-83.411674,37.794931],[-83.411762,37.794796],[-83.411783,37.794803],[-83.412018,37.794913],[-83.4121,37.794962],[-83.412166,37.795016],[-83.412215,37.795041],[-83.412257,37.795055],[-83.412319,37.795057],[-83.412382,37.795043],[-83.412519,37.794993],[-83.412669,37.794925],[-83.412738,37.794903],[-83.412771,37.7949],[-83.412815,37.794909],[-83.41294,37.794949],[-83.413046,37.794998],[-83.413244,37.795126],[-83.413298,37.795167],[-83.413359,37.795221],[-83.4134,37.79527],[-83.413422,37.795316],[-83.413428,37.795358],[-83.413417,37.795395],[-83.413365,37.795443],[-83.412743,37.795866],[-83.412616,37.795969],[-83.412502,37.796092]]}},{"type":"Feature","properties":{"osm_id":16384466,"highway":"residential","name":"Academy Road","alt_name":null,"official_name":null,"surface":null,"tracktype":null,"service":null,"access":null,"motor_vehicle":null,"foot":null,"tiger_reviewed":"no","rrgh_part":0,"rrgh_tile_part":0},"geometry":{"type":"LineString","coordinates":[[-83.414199,37.794602],[-83.41417,37.79458],[-83.414138,37.794563],[-83.414112,37.794558],[-83.414083,37.794564],[-83.413962,37.79467],[-83.413707,37.794856],[-83.41336,37.795053],[-83.413244,37.795126]]}},{"type":"Feature","properties":{"osm_id":16384475,"highway":"residential","name":"Lizzard Road","alt_name":null,"official_name":null,"surface":null,"tracktype":null,"service":null,"access":null,"motor_vehicle":null,"foot":null,"tiger_reviewed":"no","rrgh_part":0,"rrgh_tile_part":0},"geometry":{"type":"LineString","coordinates":[[-83.411706,37.796016],[-83.411554,37.796235],[-83.411399,37.79642],[-83.411342,37.796482],[-83.411285,37.796527],[-83.411255,37.796542],[-83.411223,37.796551],[-83.41115,37.796555],[-83.411012,37.796547],[-83.410629,37.79651],[-83.410269,37.796489],[-83.410116,37.79647],[-83.410007,37.796468],[-83.409777,37.79648],[-83.409682,37.796497],[-83.409556,37.796537]]}},{"type":"Feature","properties":{"osm_id":16384476,"highway":"residential","name":"Lizzard Road","alt_name":null,"official_name":null,"surface":null,"tracktype":null,"service":null,"access":null,"motor_vehicle":null,"foot":null,"tiger_reviewed":"no","rrgh_part":0,"rrgh_tile_part":0},"geometry":{"type":"LineString","coordinates":[[-83.410116,37.79647],[-83.410152,37.796374],[-83.41027,37.796163],[-83.410364,37.79598],[-83.410387,37.795896]]}},{"type":"Feature","properties":{"osm_id":16384737,"highway":"residential","name":"Nickle Street","alt_name":null,"official_name":null,"surface":null,"tracktype":null,"service":null,"access":null,"motor_vehicle":null,"foot":null,"tiger_reviewed":"no","rrgh_part":0,"rrgh_tile_part":0},"geometry":{"type":"LineString","coordinates":[[-83.410298,37.795887],[-83.410261,37.795547],[-83.410266,37.795426],[-83.410324,37.794962],[-83.410423,37.794335],[-83.410408,37.794283]]}},{"type":"Feature","properties":{"osm_id":480956760,"highway":"unclassified","name":null,"alt_name":null,"official_name":null,"surface":null,"tracktype":null,"service":null,"access":null,"motor_vehicle":null,"foot":null,"tiger_reviewed":null,"rrgh_part":0,"rrgh_tile_part":0},"geometry":{"type":"LineString","coordinates":[[-83.4141492,37.7965108],[-83.4139968,37.7965515],[-83.4128985,37.7969785],[-83.4127791,37.797022],[-83.4126946,37.7970559],[-83.4124988,37.7971502],[-83.4122199,37.797253],[-83.4121018,37.7973007],[-83.4120388,37.7973484],[-83.412016,37.7973876],[-83.4120147,37.7974649],[-83.4121908,37.7977255],[-83.4122574,37.7977521],[-83.4123202,37.7977632],[-83.4124425,37.797714],[-83.4126369,37.7976091],[-83.4128153,37.7974808],[-83.4128837,37.7974067],[-83.4129199,37.7973378],[-83.4128971,37.79727]]}},{"type":"Feature","properties":{"osm_id":492014491,"highway":"unclassified","name":null,"alt_name":null,"official_name":null,"surface":null,"tracktype":null,"service":null,"access":null,"motor_vehicle":null,"foot":null,"tiger_reviewed":null,"rrgh_part":0,"rrgh_tile_part":0},"geometry":{"type":"LineString","coordinates":[[-83.4126946,37.7970559],[-83.4128488,37.7972403],[-83.4128971,37.79727],[-83.4129856,37.7972615],[-83.4130406,37.7972477],[-83.4130715,37.7972223],[-83.4130648,37.7971778],[-83.4130044,37.7971121],[-83.4128985,37.7969785]]}},{"type":"Feature","properties":{"osm_id":16381557,"highway":"service","name":null,"alt_name":null,"official_name":null,"surface":null,"tracktype":null,"service":null,"access":"private","motor_vehicle":null,"foot":null,"tiger_reviewed":"no","rrgh_part":0,"rrgh_tile_part":0},"geometry":{"type":"LineString","coordinates":[[-83.404574,37.794839],[-83.404594,37.795025],[-83.404599,37.795293],[-83.404593,37.795843],[-83.404572,37.796325],[-83.40456,37.796411],[-83.404541,37.796473],[-83.404491,37.79656],[-83.404481,37.796589],[-83.404481,37.796614]]}},{"type":"Feature","properties":{"osm_id":16381775,"highway":"residential","name":null,"alt_name":null,"official_name":null,"surface":null,"tracktype":null,"service":null,"access":null,"motor_vehicle":null,"foot":null,"tiger_reviewed":"no","rrgh_part":0,"rrgh_tile_part":0},"geometry":{"type":"LineString","coordinates":[[-83.406503,37.7921014],[-83.4062474,37.7921033],[-83.405753,37.792111],[-83.404654,37.792161],[-83.40403,37.792111],[-83.403525,37.792022],[-83.403153,37.791922]]}},{"type":"Feature","properties":{"osm_id":16385300,"highway":"residential","name":"County Road 1058","alt_name":null,"official_name":null,"surface":null,"tracktype":null,"service":null,"access":null,"motor_vehicle":null,"foot":null,"tiger_reviewed":"no","rrgh_part":0,"rrgh_tile_part":0},"geometry":{"type":"LineString","coordinates":[[-83.403772,37.794978],[-83.403775,37.795026],[-83.403765,37.795068],[-83.403711,37.795156],[-83.403602,37.795294],[-83.403413,37.795504]]}},{"type":"Feature","properties":{"osm_id":16385302,"highway":"residential","name":"County Road 1058","alt_name":null,"official_name":null,"surface":null,"tracktype":null,"service":null,"access":null,"motor_vehicle":null,"foot":null,"tiger_reviewed":"no","rrgh_part":0,"rrgh_tile_part":0},"geometry":{"type":"LineString","coordinates":[[-83.403333,37.795656],[-83.403413,37.795504],[-83.403351,37.79555],[-83.403291,37.795566],[-83.403098,37.795585],[-83.403046,37.795605],[-83.403016,37.795636],[-83.403007,37.795682],[-83.40303,37.79587],[-83.403039,37.795901],[-83.403054,37.795925],[-83.403073,37.795942],[-83.403095,37.795952],[-83.403121,37.795956],[-83.403147,37.795953],[-83.40317,37.795943],[-83.40321,37.795908],[-83.403231,37.795884],[-83.403278,37.79579],[-83.403333,37.795656]]}},{"type":"Feature","properties":{"osm_id":1018915547,"highway":"residential","name":"Stovall Road","alt_name":null,"official_name":null,"surface":null,"tracktype":null,"service":null,"access":null,"motor_vehicle":null,"foot":null,"tiger_reviewed":"no","rrgh_part":0,"rrgh_tile_part":0},"geometry":{"type":"LineString","coordinates":[[-83.407075,37.792289],[-83.407128,37.7924571]]}},{"type":"Feature","properties":{"osm_id":1018915548,"highway":"residential","name":"Stovall Road","alt_name":null,"official_name":null,"surface":null,"tracktype":null,"service":null,"access":null,"motor_vehicle":null,"foot":null,"tiger_reviewed":"no","rrgh_part":0,"rrgh_tile_part":0},"geometry":{"type":"LineString","coordinates":[[-83.406562,37.792142],[-83.406601,37.792155],[-83.406692,37.792165],[-83.406845,37.792162],[-83.406935,37.792168],[-83.406976,37.792177],[-83.40701,37.792191],[-83.407037,37.79221],[-83.407055,37.792233],[-83.407075,37.792289]]}},{"type":"Feature","properties":{"osm_id":16384062,"highway":"residential","name":"Stovall Road","alt_name":null,"official_name":null,"surface":null,"tracktype":null,"service":null,"access":null,"motor_vehicle":null,"foot":null,"tiger_reviewed":"no","rrgh_part":0,"rrgh_tile_part":0},"geometry":{"type":"LineString","coordinates":[[-83.407128,37.7924571],[-83.407163,37.792582],[-83.407181,37.792637],[-83.407192,37.79267],[-83.4072,37.792697],[-83.407374,37.793274],[-83.407447,37.793461],[-83.407544,37.79365],[-83.407638,37.793847],[-83.407695,37.794008],[-83.407705,37.794063],[-83.407712,37.794172],[-83.407705,37.794269],[-83.407674,37.794413],[-83.407641,37.794457],[-83.407618,37.794479],[-83.407588,37.794497],[-83.407442,37.794544],[-83.407299,37.79461],[-83.407216,37.794631],[-83.407097,37.794628]]}},{"type":"Feature","properties":{"osm_id":16384064,"highway":"residential","name":"Stovall Road","alt_name":null,"official_name":null,"surface":null,"tracktype":null,"service":null,"access":null,"motor_vehicle":null,"foot":null,"tiger_reviewed":"no","rrgh_part":0,"rrgh_tile_part":0},"geometry":{"type":"LineString","coordinates":[[-83.407809,37.794884],[-83.407743,37.794793],[-83.407706,37.794708],[-83.407674,37.794566],[-83.407667,37.79448],[-83.407674,37.794413]]}},{"type":"Feature","properties":{"osm_id":16384343,"highway":"residential","name":"Blankenship Road","alt_name":null,"official_name":null,"surface":null,"tracktype":null,"service":null,"access":null,"motor_vehicle":null,"foot":null,"tiger_reviewed":"no","rrgh_part":0,"rrgh_tile_part":0},"geometry":{"type":"LineString","coordinates":[[-83.401219,37.795177],[-83.400988,37.795491],[-83.400894,37.795643],[-83.400844,37.795744],[-83.400824,37.795797],[-83.400804,37.795916],[-83.400776,37.796427],[-83.400759,37.796555],[-83.400712,37.796746],[-83.400653,37.796939],[-83.400626,37.797008],[-83.40046,37.797429],[-83.40041,37.797588],[-83.400201,37.79857],[-83.400065,37.799277],[-83.400042,37.799567],[-83.400054,37.799873],[-83.400048,37.799975],[-83.400042,37.800011],[-83.400033,37.800072],[-83.399977,37.800257],[-83.399868,37.800422],[-83.399806,37.8005],[-83.399734,37.800573],[-83.399657,37.800643],[-83.399491,37.800773],[-83.399276,37.800948],[-83.399083,37.801112],[-83.398966,37.801226],[-83.398737,37.801484],[-83.398581,37.801713],[-83.398477,37.801875],[-83.398432,37.801956],[-83.398243,37.802237],[-83.398192,37.80229],[-83.398098,37.80241],[-83.397866,37.802626],[-83.397687,37.802772],[-83.397414,37.802968],[-83.397329,37.803039],[-83.39727,37.803097],[-83.397076,37.803322],[-83.397028,37.803369],[-83.396922,37.803457],[-83.396881,37.803486],[-83.396668,37.803694],[-83.396499,37.803842],[-83.396426,37.803894],[-83.396284,37.804009],[-83.395818,37.804409],[-83.395463,37.804725],[-83.395404,37.80477],[-83.395294,37.804879],[-83.394816,37.805325],[-83.39459,37.80555],[-83.394396,37.805768],[-83.394262,37.805937],[-83.393925,37.806399],[-83.39378,37.806569],[-83.393519,37.8069],[-83.393431,37.806996],[-83.393333,37.807089],[-83.393212,37.807204],[-83.392877,37.80754],[-83.392847,37.807579],[-83.392798,37.807641],[-83.392727,37.807759],[-83.392663,37.807895],[-83.392546,37.808282],[-83.392517,37.808446],[-83.392512,37.808528],[-83.392518,37.808613],[-83.392536,37.808697],[-83.392581,37.808851],[-83.392594,37.808926],[-83.3926,37.809002],[-83.392583,37.809089],[-83.392568,37.809428],[-83.392568,37.809513],[-83.392578,37.809683],[-83.392613,37.809852],[-83.392636,37.809936],[-83.392693,37.810107],[-83.392731,37.810384],[-83.392734,37.81048],[-83.392773,37.810747],[-83.392833,37.810995],[-83.392864,37.811148],[-83.392881,37.811365],[-83.392892,37.811432],[-83.392899,37.811461],[-83.392908,37.811495],[-83.392958,37.811615],[-83.393056,37.811803],[-83.393149,37.812005],[-83.393204,37.812157],[-83.393276,37.812407],[-83.393345,37.812562],[-83.393409,37.81278],[-83.393444,37.812921],[-83.393471,37.812993],[-83.393543,37.813138],[-83.393734,37.813327],[-83.393796,37.813382],[-83.393898,37.8135],[-83.393975,37.813612],[-83.394174,37.813958],[-83.394171,37.814051],[-83.394177,37.814092]]}},{"type":"Feature","properties":{"osm_id":16384682,"highway":"residential","name":"C Jones Road","alt_name":null,"official_name":null,"surface":null,"tracktype":null,"service":null,"access":null,"motor_vehicle":null,"foot":null,"tiger_reviewed":"no","rrgh_part":0,"rrgh_tile_part":0},"geometry":{"type":"LineString","coordinates":[[-83.409698,37.802956],[-83.409619,37.802947],[-83.409582,37.802957],[-83.409546,37.802982],[-83.409469,37.803058],[-83.409427,37.80311],[-83.409377,37.803171],[-83.409316,37.803283],[-83.409301,37.803323]]}},{"type":"Feature","properties":{"osm_id":1018915545,"highway":"residential","name":"Brooks Road","alt_name":null,"official_name":null,"surface":null,"tracktype":null,"service":null,"access":null,"motor_vehicle":null,"foot":null,"tiger_reviewed":"no","rrgh_part":0,"rrgh_tile_part":0},"geometry":{"type":"LineString","coordinates":[[-83.397442,37.793175],[-83.397432,37.793186],[-83.397417,37.79321],[-83.397412,37.793217],[-83.397401,37.793255],[-83.397396,37.793281],[-83.397394,37.793291],[-83.39739,37.793369],[-83.397396,37.793448],[-83.397393,37.7936]]}},{"type":"Feature","properties":{"osm_id":1018915546,"highway":"residential","name":"Brooks Road","alt_name":null,"official_name":null,"surface":null,"tracktype":null,"service":null,"access":null,"motor_vehicle":null,"foot":null,"tiger_reviewed":"no","rrgh_part":0,"rrgh_tile_part":0},"geometry":{"type":"LineString","coordinates":[[-83.397516,37.793091],[-83.397442,37.793175]]}},{"type":"Feature","properties":{"osm_id":16381845,"highway":"residential","name":null,"alt_name":null,"official_name":null,"surface":null,"tracktype":null,"service":null,"access":null,"motor_vehicle":null,"foot":null,"tiger_reviewed":"no","rrgh_part":0,"rrgh_tile_part":0},"geometry":{"type":"LineString","coordinates":[[-83.385305,37.791809],[-83.385366,37.791937],[-83.385489,37.792044],[-83.386411,37.792527],[-83.386999,37.792741],[-83.387118,37.792775],[-83.387358,37.792845],[-83.387537,37.792886],[-83.388004,37.792887],[-83.388937,37.792857]]}},{"type":"Feature","properties":{"osm_id":16383798,"highway":"residential","name":"Al Tutt Road","alt_name":null,"official_name":null,"surface":null,"tracktype":null,"service":null,"access":null,"motor_vehicle":null,"foot":null,"tiger_reviewed":"no","rrgh_part":0,"rrgh_tile_part":0},"geometry":{"type":"LineString","coordinates":[[-83.397329,37.803039],[-83.397394,37.803087],[-83.397456,37.803144],[-83.397603,37.80324],[-83.398252,37.803636],[-83.398504,37.803803],[-83.398678,37.803896],[-83.398819,37.803955],[-83.398995,37.80401],[-83.399104,37.804038]]}},{"type":"Feature","properties":{"osm_id":16381712,"highway":"residential","name":null,"alt_name":null,"official_name":null,"surface":null,"tracktype":null,"service":null,"access":null,"motor_vehicle":null,"foot":null,"tiger_reviewed":"no","rrgh_part":0,"rrgh_tile_part":0},"geometry":{"type":"LineString","coordinates":[[-83.408907,37.806403],[-83.408867,37.806368],[-83.408948,37.806281],[-83.409046,37.80619],[-83.40906,37.806095]]}},{"type":"Feature","properties":{"osm_id":16382950,"highway":"residential","name":"Susan Shockey Road","alt_name":null,"official_name":null,"surface":null,"tracktype":null,"service":null,"access":null,"motor_vehicle":null,"foot":null,"tiger_reviewed":"no","rrgh_part":0,"rrgh_tile_part":0},"geometry":{"type":"LineString","coordinates":[[-83.409392,37.805695],[-83.409232,37.805686],[-83.409104,37.805679],[-83.408953,37.805661],[-83.408835,37.805637],[-83.408811,37.805635]]}},{"type":"Feature","properties":{"osm_id":16382031,"highway":"service","name":null,"alt_name":null,"official_name":null,"surface":null,"tracktype":null,"service":null,"access":"private","motor_vehicle":null,"foot":null,"tiger_reviewed":"no","rrgh_part":0,"rrgh_tile_part":0},"geometry":{"type":"LineString","coordinates":[[-83.406899,37.811],[-83.406853,37.810931],[-83.406833,37.81088],[-83.406832,37.81085],[-83.406877,37.81059],[-83.406908,37.810474],[-83.407014,37.810011],[-83.407057,37.809725],[-83.407083,37.809664],[-83.407103,37.80964],[-83.407167,37.809588],[-83.407218,37.809546],[-83.407251,37.809506]]}},{"type":"Feature","properties":{"osm_id":16384440,"highway":"residential","name":"Proffitt Place","alt_name":null,"official_name":null,"surface":null,"tracktype":null,"service":null,"access":null,"motor_vehicle":null,"foot":null,"tiger_reviewed":"no","rrgh_part":0,"rrgh_tile_part":0},"geometry":{"type":"LineString","coordinates":[[-83.407524,37.80838],[-83.407163,37.808334],[-83.40704,37.808318],[-83.406979,37.808304],[-83.406951,37.808294],[-83.406908,37.808265],[-83.406891,37.808248],[-83.406878,37.808227],[-83.406879,37.808126],[-83.406893,37.808]]}},{"type":"Feature","properties":{"osm_id":16317915,"highway":"service","name":null,"alt_name":null,"official_name":null,"surface":null,"tracktype":null,"service":null,"access":null,"motor_vehicle":null,"foot":null,"tiger_reviewed":"no","rrgh_part":0,"rrgh_tile_part":0},"geometry":{"type":"LineString","coordinates":[[-83.405583,37.815435],[-83.405912,37.815681],[-83.406609,37.816043],[-83.406982,37.81619]]}},{"type":"Feature","properties":{"osm_id":16381902,"highway":"residential","name":null,"alt_name":null,"official_name":null,"surface":null,"tracktype":null,"service":null,"access":null,"motor_vehicle":null,"foot":null,"tiger_reviewed":"no","rrgh_part":0,"rrgh_tile_part":0},"geometry":{"type":"LineString","coordinates":[[-83.393333,37.807089],[-83.39323,37.807035],[-83.39274,37.806978],[-83.392434,37.806913],[-83.39202,37.807028],[-83.391909,37.807031],[-83.39183,37.806983],[-83.391743,37.806917],[-83.391188,37.806452]]}},{"type":"Feature","properties":{"osm_id":16382338,"highway":"service","name":null,"alt_name":null,"official_name":null,"surface":null,"tracktype":null,"service":null,"access":"private","motor_vehicle":null,"foot":null,"tiger_reviewed":"no","rrgh_part":0,"rrgh_tile_part":0},"geometry":{"type":"LineString","coordinates":[[-83.393212,37.807204],[-83.393317,37.807247],[-83.393369,37.807255],[-83.393466,37.807259],[-83.393613,37.807286],[-83.393788,37.807331],[-83.393945,37.80738],[-83.394206,37.80747],[-83.394318,37.807517],[-83.394432,37.807581],[-83.394537,37.807656],[-83.394847,37.807895],[-83.394909,37.807947],[-83.39493,37.807954]]}},{"type":"Feature","properties":{"osm_id":16381152,"highway":"service","name":null,"alt_name":null,"official_name":null,"surface":null,"tracktype":null,"service":null,"access":"private","motor_vehicle":null,"foot":null,"tiger_reviewed":"no","rrgh_part":0,"rrgh_tile_part":0},"geometry":{"type":"LineString","coordinates":[[-83.394174,37.813958],[-83.394236,37.813922],[-83.394265,37.813896],[-83.394275,37.813875],[-83.394278,37.813846],[-83.394264,37.813755],[-83.394265,37.813721],[-83.394273,37.813688],[-83.394289,37.813658],[-83.394309,37.813634],[-83.394364,37.813597],[-83.39443,37.813553]]}},{"type":"Feature","properties":{"osm_id":16382217,"highway":"residential","name":null,"alt_name":null,"official_name":null,"surface":null,"tracktype":null,"service":null,"access":null,"motor_vehicle":null,"foot":null,"tiger_reviewed":"no","rrgh_part":0,"rrgh_tile_part":0},"geometry":{"type":"LineString","coordinates":[[-83.387358,37.792845],[-83.387344,37.79299],[-83.387201,37.793248],[-83.387048,37.793433],[-83.386938,37.793655],[-83.386899,37.793734],[-83.386811,37.794086]]}},{"type":"Feature","properties":{"osm_id":16319878,"highway":"residential","name":"McDonald Road","alt_name":null,"official_name":null,"surface":null,"tracktype":null,"service":null,"access":null,"motor_vehicle":null,"foot":null,"tiger_reviewed":"no","rrgh_part":0,"rrgh_tile_part":0},"geometry":{"type":"LineString","coordinates":[[-83.383017,37.802685],[-83.382076,37.80322],[-83.38064,37.803597],[-83.380585,37.803643],[-83.379766,37.804318],[-83.379088,37.804654],[-83.378837,37.804742],[-83.376682,37.805433],[-83.37526,37.805725],[-83.374708,37.805611],[-83.374357,37.80546]]}},{"type":"Feature","properties":{"osm_id":16383285,"highway":"residential","name":"Dewey Rose Road","alt_name":null,"official_name":null,"surface":null,"tracktype":null,"service":null,"access":null,"motor_vehicle":null,"foot":null,"tiger_reviewed":"no","rrgh_part":0,"rrgh_tile_part":0},"geometry":{"type":"LineString","coordinates":[[-83.380806,37.794777],[-83.380784,37.79483],[-83.380685,37.795164],[-83.380519,37.795894],[-83.38043,37.796161],[-83.380424,37.796263],[-83.380432,37.796322],[-83.380413,37.796372],[-83.380375,37.796421],[-83.380351,37.79647],[-83.380334,37.796495],[-83.380206,37.796854],[-83.380168,37.79695],[-83.380151,37.79698],[-83.380109,37.797125],[-83.380081,37.797323],[-83.380065,37.797605],[-83.380068,37.797706],[-83.380061,37.797789],[-83.380043,37.797863],[-83.379916,37.798185],[-83.379913,37.79824]]}},{"type":"Feature","properties":{"osm_id":16318837,"highway":"service","name":"Farm Road","alt_name":null,"official_name":null,"surface":null,"tracktype":null,"service":null,"access":"private","motor_vehicle":null,"foot":null,"tiger_reviewed":"no","rrgh_part":0,"rrgh_tile_part":0},"geometry":{"type":"LineString","coordinates":[[-83.378684,37.802852],[-83.377142,37.803293],[-83.376177,37.803151],[-83.375701,37.80277],[-83.375293,37.802695]]}},{"type":"Feature","properties":{"osm_id":16382214,"highway":"service","name":null,"alt_name":null,"official_name":null,"surface":null,"tracktype":null,"service":null,"access":"private","motor_vehicle":null,"foot":null,"tiger_reviewed":"no","rrgh_part":0,"rrgh_tile_part":0},"geometry":{"type":"LineString","coordinates":[[-83.3702144,37.793618],[-83.3702919,37.7944332],[-83.3702851,37.7949475]]}},{"type":"Feature","properties":{"osm_id":16382215,"highway":"residential","name":null,"alt_name":null,"official_name":null,"surface":null,"tracktype":null,"service":null,"access":null,"motor_vehicle":null,"foot":null,"tiger_reviewed":"no","rrgh_part":0,"rrgh_tile_part":0},"geometry":{"type":"LineString","coordinates":[[-83.3696625,37.7936025],[-83.3701197,37.7934495],[-83.370289,37.793329],[-83.3701335,37.7920425]]}},{"type":"Feature","properties":{"osm_id":16381290,"highway":"service","name":null,"alt_name":null,"official_name":null,"surface":null,"tracktype":null,"service":null,"access":"private","motor_vehicle":null,"foot":null,"tiger_reviewed":"no","rrgh_part":0,"rrgh_tile_part":0},"geometry":{"type":"LineString","coordinates":[[-83.36316,37.797177],[-83.361983,37.797688]]}},{"type":"Feature","properties":{"osm_id":16385307,"highway":"residential","name":"Fallen Court Road","alt_name":null,"official_name":null,"surface":null,"tracktype":null,"service":null,"access":null,"motor_vehicle":null,"foot":null,"tiger_reviewed":"no","rrgh_part":0,"rrgh_tile_part":0},"geometry":{"type":"LineString","coordinates":[[-83.365802,37.792976],[-83.365772,37.792994],[-83.365728,37.793001],[-83.3657,37.792997],[-83.3656,37.792944],[-83.365538,37.792916],[-83.365328,37.79284],[-83.365129,37.792781],[-83.364965,37.792743],[-83.36476,37.792676],[-83.364636,37.79262],[-83.364606,37.792616],[-83.364579,37.792619],[-83.36456,37.792631]]}},{"type":"Feature","properties":{"osm_id":16382300,"highway":"residential","name":null,"alt_name":null,"official_name":null,"surface":null,"tracktype":null,"service":null,"access":null,"motor_vehicle":null,"foot":null,"tiger_reviewed":"no","rrgh_part":0,"rrgh_tile_part":0},"geometry":{"type":"LineString","coordinates":[[-83.374626,37.797648],[-83.373796,37.79808],[-83.373721,37.798343]]}},{"type":"Feature","properties":{"osm_id":16383135,"highway":"residential","name":"Coffee Road","alt_name":null,"official_name":null,"surface":null,"tracktype":null,"service":null,"access":null,"motor_vehicle":null,"foot":null,"tiger_reviewed":"no","rrgh_part":0,"rrgh_tile_part":0},"geometry":{"type":"LineString","coordinates":[[-83.366508,37.793408],[-83.366377,37.793575],[-83.366331,37.793649],[-83.366289,37.793729],[-83.366021,37.794112],[-83.365871,37.794272],[-83.36561,37.794526],[-83.365417,37.794752],[-83.365256,37.794986],[-83.364847,37.795492],[-83.364727,37.795612],[-83.364261,37.796031],[-83.36405,37.796198],[-83.363841,37.796338],[-83.363658,37.796516],[-83.363284,37.796956],[-83.363182,37.797109],[-83.36316,37.797177],[-83.363119,37.797298],[-83.363056,37.797464],[-83.362965,37.797647],[-83.362856,37.797944],[-83.362804,37.798069],[-83.362621,37.798325]]}},{"type":"Feature","properties":{"osm_id":16321867,"highway":"track","name":"Jackstrong Road","alt_name":null,"official_name":null,"surface":null,"tracktype":null,"service":null,"access":null,"motor_vehicle":null,"foot":null,"tiger_reviewed":"no","rrgh_part":0,"rrgh_tile_part":0},"geometry":{"type":"LineString","coordinates":[[-83.367544,37.808269],[-83.367239,37.808333],[-83.366854,37.808341],[-83.366499,37.808245],[-83.366236,37.8081],[-83.366013,37.807979],[-83.365749,37.80785],[-83.365182,37.807648],[-83.364878,37.807479],[-83.364695,37.807309]]}},{"type":"Feature","properties":{"osm_id":16319242,"highway":"residential","name":"Bill Smith Road","alt_name":null,"official_name":null,"surface":null,"tracktype":null,"service":null,"access":null,"motor_vehicle":null,"foot":null,"tiger_reviewed":"no","rrgh_part":0,"rrgh_tile_part":0},"geometry":{"type":"LineString","coordinates":[[-83.359213,37.815362],[-83.359311,37.815415],[-83.359382,37.815446],[-83.359742,37.815604],[-83.359835,37.815659],[-83.359923,37.815729],[-83.360967,37.816603],[-83.361695,37.817284],[-83.361788,37.817362],[-83.361973,37.817518],[-83.362107,37.817648],[-83.36215,37.81769],[-83.362368,37.817934],[-83.362454,37.818007],[-83.362547,37.818066],[-83.362898,37.818198],[-83.363001,37.818253],[-83.363266,37.818446],[-83.363464,37.818553],[-83.363675,37.818645],[-83.363891,37.818711],[-83.364729,37.818886],[-83.364888,37.818898],[-83.365048,37.818881],[-83.365181,37.818807],[-83.365287,37.818725],[-83.365354,37.818686],[-83.36543,37.818658],[-83.365515,37.818644],[-83.36579,37.818666],[-83.365889,37.818663],[-83.366081,37.818656],[-83.366314,37.818659],[-83.366593,37.818655],[-83.367168,37.818593],[-83.367281,37.818573],[-83.367519,37.81856]]}},{"type":"Feature","properties":{"osm_id":16320676,"highway":"residential","name":"Srong Branch Road","alt_name":null,"official_name":null,"surface":null,"tracktype":null,"service":null,"access":null,"motor_vehicle":null,"foot":null,"tiger_reviewed":"no","rrgh_part":0,"rrgh_tile_part":0},"geometry":{"type":"LineString","coordinates":[[-83.369191,37.810161],[-83.368864,37.809981],[-83.368741,37.809909],[-83.368401,37.809623],[-83.368027,37.809209],[-83.367874,37.808768],[-83.367681,37.808484],[-83.367582,37.808346],[-83.367544,37.808269],[-83.367574,37.807979],[-83.367534,37.807704],[-83.367545,37.807454],[-83.367769,37.806608]]}},{"type":"Feature","properties":{"osm_id":16318137,"highway":"service","name":null,"alt_name":null,"official_name":null,"surface":null,"tracktype":null,"service":null,"access":null,"motor_vehicle":null,"foot":null,"tiger_reviewed":"no","rrgh_part":0,"rrgh_tile_part":0},"geometry":{"type":"LineString","coordinates":[[-83.402319,37.817958],[-83.402448,37.818196],[-83.402573,37.818486],[-83.402914,37.818872],[-83.403558,37.819723]]}},{"type":"Feature","properties":{"osm_id":16322277,"highway":"residential","name":"Oldfield Cemetery Road","alt_name":null,"official_name":null,"surface":null,"tracktype":null,"service":null,"access":null,"motor_vehicle":null,"foot":null,"tiger_reviewed":"no","rrgh_part":0,"rrgh_tile_part":0},"geometry":{"type":"LineString","coordinates":[[-83.397054,37.822905],[-83.397324,37.822929],[-83.397706,37.822946],[-83.397807,37.822987],[-83.397886,37.823063],[-83.397934,37.82308]]}},{"type":"Feature","properties":{"osm_id":16322453,"highway":"residential","name":"Bear Branch Road","alt_name":null,"official_name":null,"surface":null,"tracktype":null,"service":null,"access":null,"motor_vehicle":null,"foot":null,"tiger_reviewed":"no","rrgh_part":0,"rrgh_tile_part":0},"geometry":{"type":"LineString","coordinates":[[-83.383067,37.823115],[-83.383073,37.823279],[-83.383108,37.823438],[-83.383105,37.823585],[-83.38308,37.823716],[-83.383058,37.823868],[-83.383143,37.824558],[-83.38331453197675,37.825]]}},{"type":"Feature","properties":{"osm_id":16384199,"highway":"track","name":null,"alt_name":null,"official_name":null,"surface":null,"tracktype":null,"service":null,"access":null,"motor_vehicle":null,"foot":null,"tiger_reviewed":null,"rrgh_part":0,"rrgh_tile_part":0},"geometry":{"type":"LineString","coordinates":[[-83.3559054,37.7753133],[-83.3556882,37.7752985],[-83.35531,37.7752603],[-83.3547789,37.7753239],[-83.3545831,37.7753769],[-83.3544838,37.7754596],[-83.354449,37.7755677],[-83.3543041,37.7769542],[-83.3542773,37.7770687],[-83.354116,37.777268],[-83.353985,37.777413],[-83.353868,37.777524],[-83.353757,37.777588],[-83.3535942,37.7776479]]}},{"type":"Feature","properties":{"osm_id":16384299,"highway":"service","name":"Verna Kendell Road","alt_name":null,"official_name":null,"surface":null,"tracktype":null,"service":null,"access":null,"motor_vehicle":null,"foot":null,"tiger_reviewed":null,"rrgh_part":0,"rrgh_tile_part":0},"geometry":{"type":"LineString","coordinates":[[-83.352511,37.773877],[-83.3527527,37.773782],[-83.3538803,37.7730406],[-83.3550505,37.7722806],[-83.3552402,37.772148],[-83.35531,37.7720526],[-83.3553663,37.7714674]]}},{"type":"Feature","properties":{"osm_id":16384833,"highway":"residential","name":"County Road 3172","alt_name":null,"official_name":null,"surface":null,"tracktype":null,"service":null,"access":null,"motor_vehicle":null,"foot":null,"tiger_reviewed":"no","rrgh_part":0,"rrgh_tile_part":0},"geometry":{"type":"LineString","coordinates":[[-83.349407,37.769374],[-83.349358,37.769428],[-83.349319,37.769492],[-83.349304,37.76953],[-83.349294,37.769572],[-83.34929,37.769615],[-83.349294,37.769661],[-83.349322,37.769753],[-83.349351,37.769801],[-83.349669,37.770128],[-83.34971,37.77018],[-83.349924,37.770405],[-83.350046,37.770524],[-83.350153,37.770648],[-83.350257,37.770778],[-83.350353,37.770913],[-83.350528,37.771205],[-83.350689,37.771503],[-83.350794,37.771721],[-83.351188,37.772428],[-83.351384,37.77278],[-83.351481,37.772959],[-83.351935,37.773774],[-83.352025,37.773926],[-83.3521551,37.7741605],[-83.352253,37.774337],[-83.352333,37.774503],[-83.352407,37.774672],[-83.352469,37.774849],[-83.352516,37.77504],[-83.352711,37.776156],[-83.35288,37.777192],[-83.3529066,37.7773467],[-83.353352,37.77994],[-83.353413,37.780333],[-83.353435,37.78043],[-83.353483,37.78072],[-83.353485,37.780741],[-83.353493,37.780817],[-83.353543,37.781095],[-83.353586,37.781275],[-83.353654,37.781495],[-83.353688,37.78155],[-83.353721,37.781581],[-83.353735,37.781594],[-83.35379,37.781626],[-83.353844,37.781639],[-83.353893,37.781642],[-83.354029,37.78163],[-83.354142,37.781606]]}},{"type":"Feature","properties":{"osm_id":16321315,"highway":"residential","name":"Sellars Fork-Buskirk Road","alt_name":null,"official_name":null,"surface":null,"tracktype":null,"service":null,"access":null,"motor_vehicle":null,"foot":null,"tiger_reviewed":"no","rrgh_part":0,"rrgh_tile_part":0},"geometry":{"type":"LineString","coordinates":[[-83.338804,37.81353],[-83.338148,37.81485],[-83.337621,37.816169],[-83.337255,37.817484],[-83.336954,37.817807],[-83.336816,37.818114],[-83.336938,37.818504],[-83.336894,37.818766],[-83.336855,37.818946],[-83.336773,37.819321],[-83.33674,37.8195],[-83.336672,37.819875],[-83.336587,37.820205],[-83.336563,37.820277],[-83.336518,37.820413],[-83.336414,37.82061],[-83.336093,37.821073],[-83.33587,37.821329],[-83.335701,37.821497],[-83.335624,37.821589],[-83.33556,37.821688],[-83.335301,37.822682],[-83.335031,37.823456],[-83.335012,37.823735],[-83.33506,37.823922],[-83.335296,37.824483],[-83.335406,37.824818],[-83.335462,37.824936],[-83.33550138461538,37.825]]}},{"type":"Feature","properties":{"osm_id":16383551,"highway":"residential","name":"Wilson Branch Road","alt_name":null,"official_name":null,"surface":null,"tracktype":null,"service":null,"access":null,"motor_vehicle":null,"foot":null,"tiger_reviewed":"no","rrgh_part":0,"rrgh_tile_part":0},"geometry":{"type":"LineString","coordinates":[[-83.351481,37.772959],[-83.351014,37.773251],[-83.350496,37.773527],[-83.35042,37.773573],[-83.35026,37.773648],[-83.350109,37.773707],[-83.349684,37.773842],[-83.349245,37.773993],[-83.349145,37.774021],[-83.349043,37.774043],[-83.348941,37.774057],[-83.348832,37.774062],[-83.348754,37.774077],[-83.348373,37.774128],[-83.348055,37.774193],[-83.347814,37.774247],[-83.347545,37.774297],[-83.347363,37.774339],[-83.347151,37.774381],[-83.346783,37.774439],[-83.346631,37.774468],[-83.346461,37.774482],[-83.345976,37.774511],[-83.34579,37.774518],[-83.345577,37.774508],[-83.344815,37.774533],[-83.344614,37.774551],[-83.343826,37.774654],[-83.343445,37.774729],[-83.343249,37.77475],[-83.343148,37.774756],[-83.342613,37.774812],[-83.342416,37.774848],[-83.342243,37.774888],[-83.342071,37.77494],[-83.341673,37.77505],[-83.341601,37.775081],[-83.341533,37.775123],[-83.341469,37.775173],[-83.341349,37.775287],[-83.341278,37.775341],[-83.341123,37.775426],[-83.340908,37.775553],[-83.340629,37.775692],[-83.340516,37.775753],[-83.340402,37.775838],[-83.34029,37.775932],[-83.340222,37.775974],[-83.340149,37.776006],[-83.34007,37.776027],[-83.339937,37.776045],[-83.339857,37.776048],[-83.339568,37.776042],[-83.339507,37.776041],[-83.339234,37.776052],[-83.339112,37.776079],[-83.338892,37.776138],[-83.338788,37.776157],[-83.338644,37.776165],[-83.338541,37.776163],[-83.338412,37.776146],[-83.338247,37.776132],[-83.33813,37.776137],[-83.338058,37.776155],[-83.337979,37.776174],[-83.337868,37.776224],[-83.337783,37.776257],[-83.337678,37.776276],[-83.337585,37.776285],[-83.337495,37.776309],[-83.337405,37.776346],[-83.337332,37.776389],[-83.337301,37.776427],[-83.337177,37.776516],[-83.33701,37.776632],[-83.336884,37.776709],[-83.336363,37.777054],[-83.336107,37.777214],[-83.335703,37.777389],[-83.335533,37.777448],[-83.335391,37.777514],[-83.335343,37.77753],[-83.335295,37.777539]]}},{"type":"Feature","properties":{"osm_id":655722513,"highway":"service","name":null,"alt_name":null,"official_name":null,"surface":null,"tracktype":null,"service":null,"access":null,"motor_vehicle":null,"foot":null,"tiger_reviewed":null,"rrgh_part":0,"rrgh_tile_part":0},"geometry":{"type":"LineString","coordinates":[[-83.3533754,37.7779765],[-83.3538321,37.7779167],[-83.3537596,37.7777683],[-83.3536658,37.7776729],[-83.3535942,37.7776479]]}},{"type":"Feature","properties":{"osm_id":655722514,"highway":"service","name":null,"alt_name":null,"official_name":null,"surface":null,"tracktype":null,"service":null,"access":null,"motor_vehicle":null,"foot":null,"tiger_reviewed":null,"rrgh_part":0,"rrgh_tile_part":0},"geometry":{"type":"LineString","coordinates":[[-83.3532348,37.7773018],[-83.3529066,37.7773467]]}},{"type":"Feature","properties":{"osm_id":655722515,"highway":"service","name":"Faulkner Lane","alt_name":null,"official_name":null,"surface":null,"tracktype":null,"service":null,"access":null,"motor_vehicle":null,"foot":null,"tiger_reviewed":"no","rrgh_part":0,"rrgh_tile_part":0},"geometry":{"type":"LineString","coordinates":[[-83.3535942,37.7776479],[-83.353313,37.7776756]]}},{"type":"Feature","properties":{"osm_id":655722517,"highway":"unclassified","name":null,"alt_name":null,"official_name":null,"surface":null,"tracktype":null,"service":null,"access":null,"motor_vehicle":null,"foot":null,"tiger_reviewed":null,"rrgh_part":0,"rrgh_tile_part":0},"geometry":{"type":"LineString","coordinates":[[-83.3525399,37.7740055],[-83.3521551,37.7741605]]}},{"type":"Feature","properties":{"osm_id":16381922,"highway":"service","name":null,"alt_name":null,"official_name":null,"surface":null,"tracktype":null,"service":null,"access":null,"motor_vehicle":null,"foot":null,"tiger_reviewed":null,"rrgh_part":0,"rrgh_tile_part":0},"geometry":{"type":"LineString","coordinates":[[-83.3396462,37.7652736],[-83.339625,37.765377],[-83.3397927,37.7656036],[-83.3398162,37.7656843],[-83.3398137,37.7658105],[-83.3398508,37.7658846],[-83.3399379,37.7659701],[-83.3400227,37.7660247],[-83.3400616,37.7660692],[-83.3400723,37.7661159],[-83.3400616,37.7661551],[-83.3400388,37.7661816],[-83.3397964,37.7663631]]}},{"type":"Feature","properties":{"osm_id":655722527,"highway":"service","name":null,"alt_name":null,"official_name":null,"surface":null,"tracktype":null,"service":null,"access":null,"motor_vehicle":null,"foot":null,"tiger_reviewed":null,"rrgh_part":0,"rrgh_tile_part":0},"geometry":{"type":"LineString","coordinates":[[-83.3421203,37.7660634],[-83.3418663,37.7664589]]}},{"type":"Feature","properties":{"osm_id":16381906,"highway":"service","name":null,"alt_name":null,"official_name":null,"surface":null,"tracktype":null,"service":null,"access":"private","motor_vehicle":null,"foot":null,"tiger_reviewed":"no","rrgh_part":0,"rrgh_tile_part":0},"geometry":{"type":"LineString","coordinates":[[-83.338892,37.776138],[-83.33888,37.776205],[-83.338648,37.777522]]}},{"type":"Feature","properties":{"osm_id":1190777090,"highway":"service","name":null,"alt_name":null,"official_name":null,"surface":null,"tracktype":null,"service":null,"access":null,"motor_vehicle":null,"foot":null,"tiger_reviewed":null,"rrgh_part":0,"rrgh_tile_part":0},"geometry":{"type":"LineString","coordinates":[[-83.3539139,37.7805456],[-83.3543567,37.7804782],[-83.35487,37.7804001]]}},{"type":"Feature","properties":{"osm_id":1190777091,"highway":"service","name":null,"alt_name":null,"official_name":null,"surface":null,"tracktype":null,"service":null,"access":null,"motor_vehicle":null,"foot":null,"tiger_reviewed":null,"rrgh_part":0,"rrgh_tile_part":0},"geometry":{"type":"LineString","coordinates":[[-83.3543567,37.7804782],[-83.3543035,37.7802269]]}},{"type":"Feature","properties":{"osm_id":16382276,"highway":"residential","name":null,"alt_name":null,"official_name":null,"surface":null,"tracktype":null,"service":null,"access":null,"motor_vehicle":null,"foot":null,"tiger_reviewed":"no","rrgh_part":0,"rrgh_tile_part":0},"geometry":{"type":"LineString","coordinates":[[-83.353454,37.7856225],[-83.3517363,37.7850132],[-83.3512479,37.7848732],[-83.3510085,37.7848051],[-83.3508888,37.7847786],[-83.3507787,37.7847597],[-83.3506447,37.7847445],[-83.350501,37.7847332],[-83.35041,37.7847332],[-83.3502185,37.7847483]]}},{"type":"Feature","properties":{"osm_id":16384826,"highway":"residential","name":"Fallen Road","alt_name":null,"official_name":null,"surface":null,"tracktype":null,"service":null,"access":null,"motor_vehicle":null,"foot":null,"tiger_reviewed":"no","rrgh_part":0,"rrgh_tile_part":0},"geometry":{"type":"LineString","coordinates":[[-83.361436,37.785201],[-83.360979,37.784866],[-83.360635,37.784573],[-83.360447,37.784367],[-83.360322,37.784275],[-83.360112,37.784277],[-83.360001,37.784293],[-83.35992,37.78435]]}},{"type":"Feature","properties":{"osm_id":1159559471,"highway":"residential","name":"Fallen Road","alt_name":null,"official_name":null,"surface":null,"tracktype":null,"service":null,"access":null,"motor_vehicle":null,"foot":null,"tiger_reviewed":"no","rrgh_part":0,"rrgh_tile_part":0},"geometry":{"type":"LineString","coordinates":[[-83.3609579,37.7890209],[-83.360868,37.78915]]}},{"type":"Feature","properties":{"osm_id":1159559472,"highway":"residential","name":"Fallen Road","alt_name":null,"official_name":null,"surface":null,"tracktype":null,"service":null,"access":null,"motor_vehicle":null,"foot":null,"tiger_reviewed":"no","rrgh_part":0,"rrgh_tile_part":0},"geometry":{"type":"LineString","coordinates":[[-83.361056,37.78888],[-83.361024,37.788926],[-83.3609579,37.7890209]]}},{"type":"Feature","properties":{"osm_id":16382210,"highway":"service","name":null,"alt_name":null,"official_name":null,"surface":null,"tracktype":null,"service":null,"access":"private","motor_vehicle":null,"foot":null,"tiger_reviewed":"no","rrgh_part":0,"rrgh_tile_part":0},"geometry":{"type":"LineString","coordinates":[[-83.353139,37.785956],[-83.353261,37.786117],[-83.35327,37.786144],[-83.353271,37.786182],[-83.353248,37.786248],[-83.353105,37.786517],[-83.352949,37.786859],[-83.352845,37.78706],[-83.35272,37.787342],[-83.352677,37.787456],[-83.352631,37.787535],[-83.352475,37.787704],[-83.352315,37.787919],[-83.352248,37.787985],[-83.352126,37.788068],[-83.352058,37.788107],[-83.352024,37.788137],[-83.351965,37.788239],[-83.351961,37.788257]]}},{"type":"Feature","properties":{"osm_id":16320935,"highway":"residential","name":"Frisby Road","alt_name":null,"official_name":null,"surface":null,"tracktype":null,"service":null,"access":null,"motor_vehicle":null,"foot":null,"tiger_reviewed":"no","rrgh_part":0,"rrgh_tile_part":0},"geometry":{"type":"LineString","coordinates":[[-83.33500000000001,37.78921323206754],[-83.335197,37.789633],[-83.335362,37.789823],[-83.335486,37.789964],[-83.335688,37.790166],[-83.335799,37.79025],[-83.336066,37.790369],[-83.336379,37.790438],[-83.336656,37.790532],[-83.33679,37.790593],[-83.337047,37.790733],[-83.337529,37.791025],[-83.337954,37.791263],[-83.338041,37.791322],[-83.338173,37.791449],[-83.338214,37.791513],[-83.338226,37.791582],[-83.338177,37.791774],[-83.338183,37.791835],[-83.338204,37.79189],[-83.33823,37.791936],[-83.33825,37.791956],[-83.338292,37.791998],[-83.33844,37.792086]]}},{"type":"Feature","properties":{"osm_id":16322883,"highway":"residential","name":"David Nickell Road","alt_name":null,"official_name":null,"surface":null,"tracktype":null,"service":null,"access":null,"motor_vehicle":null,"foot":null,"tiger_reviewed":"no","rrgh_part":0,"rrgh_tile_part":0},"geometry":{"type":"LineString","coordinates":[[-83.355819,37.807879],[-83.353601,37.806259],[-83.354,37.805822],[-83.35599,37.80364],[-83.354406,37.802394],[-83.354535,37.801304]]}},{"type":"Feature","properties":{"osm_id":16317619,"highway":"service","name":null,"alt_name":null,"official_name":null,"surface":null,"tracktype":null,"service":null,"access":"private","motor_vehicle":null,"foot":null,"tiger_reviewed":"no","rrgh_part":0,"rrgh_tile_part":0},"geometry":{"type":"LineString","coordinates":[[-83.345358,37.792738],[-83.345309,37.793315],[-83.3452,37.793692],[-83.344803,37.793999],[-83.344092,37.794255],[-83.343297,37.794734],[-83.341856,37.796322],[-83.341117,37.796712],[-83.34023,37.796939],[-83.339521,37.797149]]}},{"type":"Feature","properties":{"osm_id":16319792,"highway":"residential","name":"Wm Walter Road","alt_name":null,"official_name":null,"surface":null,"tracktype":null,"service":null,"access":null,"motor_vehicle":null,"foot":null,"tiger_reviewed":"no","rrgh_part":0,"rrgh_tile_part":0},"geometry":{"type":"LineString","coordinates":[[-83.336981,37.799415],[-83.336157,37.799045],[-83.33500000000001,37.79907794639866]]}},{"type":"Feature","properties":{"osm_id":16320131,"highway":"residential","name":"Neil Walter Road","alt_name":null,"official_name":null,"surface":null,"tracktype":null,"service":null,"access":null,"motor_vehicle":null,"foot":null,"tiger_reviewed":"no","rrgh_part":0,"rrgh_tile_part":0},"geometry":{"type":"LineString","coordinates":[[-83.337268,37.803558],[-83.336995,37.802306],[-83.335481,37.802485],[-83.33500000000001,37.802710083333324]]}},{"type":"Feature","properties":{"osm_id":16317622,"highway":"service","name":null,"alt_name":null,"official_name":null,"surface":null,"tracktype":null,"service":null,"access":"private","motor_vehicle":null,"foot":null,"tiger_reviewed":"no","rrgh_part":0,"rrgh_tile_part":0},"geometry":{"type":"LineString","coordinates":[[-83.34153,37.800031],[-83.341102,37.800123],[-83.340896,37.800149],[-83.340394,37.800139]]}},{"type":"Feature","properties":{"osm_id":16318567,"highway":"residential","name":"Roger Gevedon Hollow","alt_name":null,"official_name":null,"surface":null,"tracktype":null,"service":null,"access":null,"motor_vehicle":null,"foot":null,"tiger_reviewed":"no","rrgh_part":0,"rrgh_tile_part":0},"geometry":{"type":"LineString","coordinates":[[-83.350197,37.812369],[-83.34842,37.812666],[-83.346365,37.81301],[-83.345598,37.812712],[-83.34236,37.811454],[-83.341588,37.811501]]}},{"type":"Feature","properties":{"osm_id":16318612,"highway":"residential","name":"Salem Church Road","alt_name":null,"official_name":null,"surface":null,"tracktype":null,"service":null,"access":null,"motor_vehicle":null,"foot":null,"tiger_reviewed":"no","rrgh_part":0,"rrgh_tile_part":0},"geometry":{"type":"LineString","coordinates":[[-83.335885,37.812629],[-83.335878,37.812454],[-83.335205,37.811835],[-83.335115,37.81162],[-83.33500000000001,37.811564971346705]]}},{"type":"Feature","properties":{"osm_id":16322355,"highway":"residential","name":"R Chaney Road","alt_name":null,"official_name":null,"surface":null,"tracktype":null,"service":null,"access":null,"motor_vehicle":null,"foot":null,"tiger_reviewed":"no","rrgh_part":0,"rrgh_tile_part":0},"geometry":{"type":"LineString","coordinates":[[-83.344162,37.808677],[-83.343998,37.808697],[-83.343481,37.808744],[-83.343279,37.808755],[-83.342752,37.808742],[-83.342552,37.808774],[-83.342387,37.808858],[-83.342321,37.808908],[-83.342234,37.809022],[-83.342179,37.809131],[-83.342092,37.809227],[-83.341832,37.80938],[-83.34169,37.80942],[-83.341248,37.809401],[-83.341157,37.809408],[-83.340892,37.809462],[-83.340721,37.809475],[-83.340489,37.809469],[-83.340127,37.809446]]}},{"type":"Feature","properties":{"osm_id":16317687,"highway":"residential","name":null,"alt_name":null,"official_name":null,"surface":null,"tracktype":null,"service":null,"access":null,"motor_vehicle":null,"foot":null,"tiger_reviewed":"no","rrgh_part":0,"rrgh_tile_part":0},"geometry":{"type":"LineString","coordinates":[[-83.339858,37.811418],[-83.341588,37.811501]]}},{"type":"Feature","properties":{"osm_id":16318172,"highway":"residential","name":null,"alt_name":null,"official_name":null,"surface":null,"tracktype":null,"service":null,"access":null,"motor_vehicle":null,"foot":null,"tiger_reviewed":"no","rrgh_part":0,"rrgh_tile_part":0},"geometry":{"type":"LineString","coordinates":[[-83.339226,37.81313],[-83.338804,37.81353]]}},{"type":"Feature","properties":{"osm_id":16319816,"highway":"residential","name":"Salem Cemetery Road","alt_name":null,"official_name":null,"surface":null,"tracktype":null,"service":null,"access":null,"motor_vehicle":null,"foot":null,"tiger_reviewed":"no","rrgh_part":0,"rrgh_tile_part":0},"geometry":{"type":"LineString","coordinates":[[-83.338485,37.812851],[-83.338567,37.813006],[-83.338531,37.813291],[-83.338804,37.81353],[-83.338996,37.813588],[-83.339131,37.813639],[-83.339537,37.813867],[-83.339689,37.813968],[-83.339755,37.814034],[-83.339924,37.81426],[-83.340124,37.814486],[-83.340249,37.814615],[-83.340408,37.814741],[-83.340396,37.814778],[-83.34037,37.814792],[-83.340225,37.814797],[-83.340204,37.814805]]}},{"type":"Feature","properties":{"osm_id":16318465,"highway":"residential","name":"Weddington Road","alt_name":null,"official_name":null,"surface":null,"tracktype":null,"service":null,"access":null,"motor_vehicle":null,"foot":null,"tiger_reviewed":"no","rrgh_part":0,"rrgh_tile_part":0},"geometry":{"type":"LineString","coordinates":[[-83.337428,37.817698],[-83.337287,37.817706],[-83.337224,37.817732],[-83.337192,37.817761],[-83.337097,37.817898],[-83.337015,37.818105],[-83.336977,37.818272],[-83.336938,37.818504]]}}],"rrgh_tile":{"id":"r5c7","bounds":[37.75,-83.42,37.825,-83.33500000000001]}}
