{"type":"FeatureCollection","features":[{"type":"Feature","properties":{"osm_id":16319401,"highway":"residential","name":"Whitley Cemetery Road","alt_name":null,"official_name":null,"surface":null,"tracktype":null,"service":null,"access":null,"motor_vehicle":null,"foot":null,"tiger_reviewed":"no","rrgh_part":0,"rrgh_tile_part":0},"geometry":{"type":"LineString","coordinates":[[-83.2855481,37.7505082],[-83.2858483,37.7501222],[-83.2859188,37.7500655],[-83.2861367,37.7500036],[-83.28614050560748,37.75]]}},{"type":"Feature","properties":{"osm_id":16321840,"highway":"residential","name":"Magoffin County Road","alt_name":null,"official_name":null,"surface":null,"tracktype":null,"service":null,"access":null,"motor_vehicle":null,"foot":null,"tiger_reviewed":"no","rrgh_part":0,"rrgh_tile_part":0},"geometry":{"type":"LineString","coordinates":[[-83.25142420689654,37.75],[-83.251586,37.750276],[-83.25181,37.750746],[-83.251896,37.750882],[-83.252041,37.751018],[-83.252068,37.751063],[-83.252108,37.75151],[-83.252139,37.751662],[-83.252161,37.751767]]}},{"type":"Feature","properties":{"osm_id":16319981,"highway":"residential","name":"Lacy Branch Road","alt_name":null,"official_name":null,"surface":null,"tracktype":null,"service":null,"access":null,"motor_vehicle":null,"foot":null,"tiger_reviewed":"no","rrgh_part":0,"rrgh_tile_part":0},"geometry":{"type":"LineString","coordinates":[[-83.328383,37.762667],[-83.328316,37.762789],[-83.328185,37.762987],[-83.328136,37.763111],[-83.328129,37.76318],[-83.32816,37.763386],[-83.328159,37.763455],[-83.328145,37.763517],[-83.328114,37.763572],[-83.3277,37.763952],[-83.327617,37.764058],[-83.327549,37.764201],[-83.32753,37.764292],[-83.327506,37.764403],[-83.327457,37.764568],[-83.327408,37.764677],[-83.327351,37.76476],[-83.327275,37.76483],[-83.327014,37.764968],[-83.326889,37.76507],[-83.326846,37.765132],[-83.32674,37.765283],[-83.326561,37.765581],[-83.326424,37.765774],[-83.326265,37.765975],[-83.326021,37.766222],[-83.325976,37.766294],[-83.325807,37.766687],[-83.325716,37.766974],[-83.325664,37.767077],[-83.32563,37.767116],[-83.325474,37.767216],[-83.324871,37.767473],[-83.324688,37.767568],[-83.324601,37.767623],[-83.324518,37.767687],[-83.324375,37.767821],[-83.324107,37.768108],[-83.323922,37.768328],[-83.323743,37.768509],[-83.323629,37.768608],[-83.323504,37.768663],[-83.323246,37.768689],[-83.323197,37.768704],[-83.323093,37.76876],[-83.322987,37.768838],[-83.322927,37.768892],[-83.3228,37.769006],[-83.322612,37.76911],[-83.322465,37.769222],[-83.322357,37.769333],[-83.322306,37.769426]]}},{"type":"Feature","properties":{"osm_id":16322060,"highway":"residential","name":"Arnett Road","alt_name":null,"official_name":null,"surface":null,"tracktype":null,"service":null,"access":null,"motor_vehicle":null,"foot":null,"tiger_reviewed":"no","rrgh_part":0,"rrgh_tile_part":0},"geometry":{"type":"LineString","coordinates":[[-83.326846,37.765132],[-83.328493,37.765409],[-83.329623,37.766564],[-83.33023,37.768368]]}},{"type":"Feature","properties":{"osm_id":16381945,"highway":"residential","name":null,"alt_name":null,"official_name":null,"surface":null,"tracktype":null,"service":null,"access":null,"motor_vehicle":null,"foot":null,"tiger_reviewed":"no","rrgh_part":0,"rrgh_tile_part":0},"geometry":{"type":"LineString","coordinates":[[-83.333925,37.76443],[-83.333881,37.764572],[-83.333806,37.76479],[-83.33371,37.765007],[-83.333434,37.765405],[-83.333199,37.765697],[-83.332983,37.765906],[-83.332871,37.766062],[-83.332817,37.766132],[-83.332715,37.766315],[-83.332672,37.766588],[-83.332642,37.766781],[-83.332622,37.76691],[-83.332634,37.766983]]}},{"type":"Feature","properties":{"osm_id":16322020,"highway":"residential","name":"Jones Cemetery Road","alt_name":null,"official_name":null,"surface":null,"tracktype":null,"service":null,"access":null,"motor_vehicle":null,"foot":null,"tiger_reviewed":"no","rrgh_part":0,"rrgh_tile_part":0},"geometry":{"type":"LineString","coordinates":[[-83.3147335,37.7544045],[-83.314657,37.753496]]}},{"type":"Feature","properties":{"osm_id":947178859,"highway":"residential","name":null,"alt_name":null,"official_name":null,"surface":null,"tracktype":null,"service":null,"access":null,"motor_vehicle":null,"foot":null,"tiger_reviewed":"no","rrgh_part":0,"rrgh_tile_part":0},"geometry":{"type":"LineString","coordinates":[[-83.307978,37.756202],[-83.3079099,37.7559623],[-83.307963,37.7556741],[-83.3079949,37.7555265],[-83.3080339,37.7554353],[-83.3080813,37.7553502],[-83.3081604,37.7552693],[-83.3083268,37.7551769],[-83.3085482,37.7550834],[-83.3086942,37.7550266],[-83.3091862,37.7548664],[-83.3099752,37.7546476],[-83.3101442,37.7545956],[-83.3106822,37.7544576],[-83.3110652,37.7543756],[-83.3114592,37.7543116],[-83.311786,37.754272],[-83.312145,37.7542409],[-83.3124646,37.7542283],[-83.3128478,37.754238],[-83.3133276,37.7542605],[-83.3137418,37.7542912],[-83.3141774,37.7543303],[-83.3144394,37.7543632],[-83.3147335,37.7544045],[-83.3154887,37.7545718],[-83.3158861,37.7546711],[-83.3162835,37.7547959],[-83.3165893,37.7548977],[-83.3168951,37.7550249],[-83.3176353,37.7553812],[-83.3183113,37.7557375]]}},{"type":"Feature","properties":{"osm_id":16322001,"highway":"service","name":"Stick Branch Road","alt_name":null,"official_name":null,"surface":null,"tracktype":null,"service":null,"access":"private","motor_vehicle":null,"foot":null,"tiger_reviewed":"no","rrgh_part":0,"rrgh_tile_part":0},"geometry":{"type":"LineString","coordinates":[[-83.32127,37.759852],[-83.321007,37.759964],[-83.320788,37.760029],[-83.320258,37.760059],[-83.319907,37.76013],[-83.319719,37.760198],[-83.319473,37.760324],[-83.319329,37.760446],[-83.319218,37.760572],[-83.319142,37.760617],[-83.319066,37.760653],[-83.318788,37.760719],[-83.318699,37.760755],[-83.318616,37.760804],[-83.318543,37.760866],[-83.318414,37.761011],[-83.318325,37.76113],[-83.318267,37.761167],[-83.318199,37.761187],[-83.31805,37.761203],[-83.317972,37.761225],[-83.317897,37.761261],[-83.31775,37.761359],[-83.317676,37.761418],[-83.317422,37.761695],[-83.317207,37.761904],[-83.316709,37.762212],[-83.316573,37.762312],[-83.316483,37.762406],[-83.316408,37.762578],[-83.31638,37.762603],[-83.316324,37.762627]]}},{"type":"Feature","properties":{"osm_id":16318623,"highway":"residential","name":"Wilson Fork Road","alt_name":null,"official_name":null,"surface":null,"tracktype":null,"service":null,"access":null,"motor_vehicle":null,"foot":null,"tiger_reviewed":"no","rrgh_part":0,"rrgh_tile_part":0},"geometry":{"type":"LineString","coordinates":[[-83.3086942,37.7550266],[-83.308656,37.754929],[-83.308644,37.754774],[-83.308588,37.754551],[-83.308519,37.754359],[-83.308484,37.754303],[-83.308293,37.754108],[-83.307991,37.753952],[-83.307949,37.75393],[-83.307899,37.753882],[-83.307864,37.753825],[-83.307842,37.753763],[-83.30781,37.753562],[-83.307747,37.753428],[-83.307536,37.753158],[-83.307391,37.752851],[-83.307279,37.752651],[-83.307179,37.752445],[-83.307094,37.752304],[-83.306962,37.751904],[-83.306834,37.751731],[-83.306766,37.751605],[-83.30674,37.751467],[-83.306751,37.751203],[-83.306744,37.750991],[-83.306728,37.750867],[-83.306703,37.750807],[-83.306626,37.750707],[-83.306573,37.750656]]}},{"type":"Feature","properties":{"osm_id":1029110445,"highway":"track","name":null,"alt_name":null,"official_name":null,"surface":null,"tracktype":null,"service":null,"access":"no","motor_vehicle":null,"foot":null,"tiger_reviewed":null,"rrgh_part":0,"rrgh_tile_part":0},"geometry":{"type":"LineString","coordinates":[[-83.2858715,37.750677],[-83.2851026,37.7514065]]}},{"type":"Feature","properties":{"osm_id":1029110421,"highway":"track","name":null,"alt_name":null,"official_name":null,"surface":null,"tracktype":null,"service":null,"access":"no","motor_vehicle":null,"foot":null,"tiger_reviewed":null,"rrgh_part":0,"rrgh_tile_part":0},"geometry":{"type":"LineString","coordinates":[[-83.2985367,37.754578],[-83.2986576,37.7547703],[-83.2991162,37.7552114],[-83.2992235,37.7553259],[-83.2992825,37.7554107],[-83.2993147,37.7554913],[-83.2993228,37.7555762],[-83.2993067,37.755661],[-83.299191,37.755914]]}},{"type":"Feature","properties":{"osm_id":16318505,"highway":"service","name":"Adele Road","alt_name":null,"official_name":null,"surface":null,"tracktype":null,"service":null,"access":"private","motor_vehicle":null,"foot":null,"tiger_reviewed":"no","rrgh_part":0,"rrgh_tile_part":0},"geometry":{"type":"LineString","coordinates":[[-83.298533,37.760388],[-83.298434,37.760395],[-83.298301,37.760469],[-83.298034,37.76075],[-83.297882,37.760883],[-83.297698,37.760939],[-83.297315,37.761095],[-83.297013,37.761234],[-83.29689,37.761315],[-83.296844,37.761438],[-83.296753,37.761679],[-83.296591,37.761902],[-83.296372,37.762109],[-83.296098,37.762234],[-83.295927,37.762359],[-83.295812,37.7625],[-83.295696,37.762753]]}},{"type":"Feature","properties":{"osm_id":16318667,"highway":"residential","name":"John Nickell Cemetery Road","alt_name":null,"official_name":null,"surface":null,"tracktype":null,"service":null,"access":null,"motor_vehicle":null,"foot":null,"tiger_reviewed":"no","rrgh_part":0,"rrgh_tile_part":0},"geometry":{"type":"LineString","coordinates":[[-83.298533,37.760388],[-83.2984873,37.7605059],[-83.2984926,37.7606158],[-83.2984722,37.7608042],[-83.2984617,37.7611825],[-83.298436,37.7613261],[-83.2984511,37.7613997],[-83.2985043,37.7614474],[-83.2986587,37.7615645],[-83.2988033,37.7616487],[-83.2988982,37.7616852],[-83.2989656,37.7616845],[-83.2990197,37.7616662],[-83.2990362,37.7616549]]}},{"type":"Feature","properties":{"osm_id":16318667,"highway":"residential","name":"John Nickell Cemetery Road","alt_name":null,"official_name":null,"surface":null,"tracktype":null,"service":null,"access":null,"motor_vehicle":null,"foot":null,"tiger_reviewed":"no","rrgh_part":1,"rrgh_tile_part":0},"geometry":{"type":"LineString","coordinates":[[-83.2990362,37.7616549],[-83.2990597,37.7616389],[-83.2989825,37.7609768],[-83.2989621,37.7607328],[-83.2989239,37.7606283],[-83.2989301,37.7605315],[-83.2989567,37.7604824],[-83.2990463,37.760448],[-83.2991164,37.7604494],[-83.2991954,37.7604852],[-83.2992406,37.7606107],[-83.2992637,37.7607236],[-83.2993009,37.7608667],[-83.299324,37.7609663],[-83.2993444,37.761129],[-83.2993559,37.761298],[-83.2993595,37.7614187],[-83.2993568,37.7615161],[-83.2993276,37.7616017],[-83.2992788,37.7616319],[-83.2991688,37.7616522],[-83.2990362,37.7616549]]}},{"type":"Feature","properties":{"osm_id":16322097,"highway":"residential","name":"Jim Prather Road","alt_name":null,"official_name":null,"surface":null,"tracktype":null,"service":null,"access":null,"motor_vehicle":null,"foot":null,"tiger_reviewed":"no","rrgh_part":0,"rrgh_tile_part":0},"geometry":{"type":"LineString","coordinates":[[-83.273405,37.761942],[-83.273602,37.761915],[-83.27392,37.761945],[-83.274342,37.762175],[-83.274568,37.762196],[-83.275448,37.761869],[-83.275757,37.761931],[-83.276129,37.762152],[-83.277288,37.762713],[-83.278387,37.762999],[-83.280153,37.762948],[-83.280614,37.763021],[-83.282553,37.762856],[-83.283044,37.762884],[-83.284491,37.763219],[-83.285476,37.763548],[-83.286026,37.763844],[-83.286605,37.764155],[-83.286702,37.764375],[-83.286794,37.764534],[-83.286889,37.764651],[-83.287109,37.76488],[-83.287255,37.765054],[-83.287285,37.765107],[-83.287344,37.765304],[-83.287378,37.765351],[-83.28747,37.765423],[-83.287669,37.765529],[-83.287854,37.765656],[-83.287989,37.765757],[-83.288011,37.765816],[-83.287981,37.765888],[-83.287943,37.765932],[-83.287917,37.765993],[-83.287939,37.766153],[-83.287944,37.766215],[-83.287959,37.76638],[-83.28795,37.766675],[-83.287925,37.766804],[-83.287856,37.767153],[-83.287827,37.767243],[-83.287696,37.767584],[-83.28755,37.767882],[-83.287545,37.767916],[-83.287593,37.768]]}},{"type":"Feature","properties":{"osm_id":16317850,"highway":"residential","name":null,"alt_name":null,"official_name":null,"surface":null,"tracktype":null,"service":null,"access":null,"motor_vehicle":null,"foot":null,"tiger_reviewed":"no","rrgh_part":0,"rrgh_tile_part":0},"geometry":{"type":"LineString","coordinates":[[-83.286605,37.764155],[-83.28678,37.764091],[-83.286948,37.763993]]}},{"type":"Feature","properties":{"osm_id":16298860,"highway":"residential","name":"Cr-1409","alt_name":null,"official_name":null,"surface":null,"tracktype":null,"service":null,"access":null,"motor_vehicle":null,"foot":null,"tiger_reviewed":"no","rrgh_part":0,"rrgh_tile_part":0},"geometry":{"type":"LineString","coordinates":[[-83.252161,37.751767],[-83.252246,37.752059],[-83.252252,37.752179],[-83.252171,37.752548],[-83.252031,37.753029]]}},{"type":"Feature","properties":{"osm_id":16320935,"highway":"residential","name":"Frisby Road","alt_name":null,"official_name":null,"surface":null,"tracktype":null,"service":null,"access":null,"motor_vehicle":null,"foot":null,"tiger_reviewed":"no","rrgh_part":0,"rrgh_tile_part":0},"geometry":{"type":"LineString","coordinates":[[-83.323481,37.790063],[-83.32359,37.790034],[-83.323684,37.789993],[-83.323778,37.789936],[-83.324028,37.789724],[-83.324273,37.789564],[-83.324352,37.789531],[-83.324438,37.789527],[-83.32452,37.789549],[-83.324591,37.789596],[-83.324645,37.789659],[-83.324739,37.789827],[-83.324799,37.789906],[-83.324874,37.789977],[-83.324962,37.790039],[-83.32506,37.790092],[-83.325169,37.79013],[-83.325288,37.790159],[-83.325409,37.790168],[-83.325529,37.790165],[-83.325644,37.790152],[-83.32575,37.790124],[-83.325845,37.790082],[-83.325928,37.790027],[-83.325996,37.789959],[-83.326045,37.78988],[-83.32611,37.789703],[-83.326193,37.789387],[-83.326248,37.789285],[-83.326327,37.789196],[-83.326513,37.789049],[-83.326765,37.788877],[-83.326847,37.788842],[-83.326937,37.788824],[-83.327036,37.788826],[-83.327248,37.788862],[-83.327441,37.788929],[-83.327717,37.789048],[-83.327819,37.789077],[-83.327927,37.789091],[-83.328038,37.78909],[-83.328149,37.789078],[-83.328365,37.789041],[-83.328673,37.789007],[-83.328849,37.788975],[-83.328995,37.788923],[-83.329251,37.78878],[-83.329474,37.788693],[-83.329708,37.788632],[-83.329927,37.788561],[-83.330114,37.78852],[-83.33049,37.788406],[-83.330674,37.788376],[-83.330852,37.788367],[-83.331034,37.788375],[-83.331435,37.788419],[-83.33165,37.788455],[-83.331755,37.788484],[-83.332032,37.788536],[-83.332351,37.788542],[-83.332937,37.788503],[-83.333569,37.78852],[-83.334023,37.788533],[-83.334206,37.788553],[-83.334366,37.788586],[-83.33444,37.788616],[-83.334554,37.788708],[-83.334836,37.78897],[-83.33496,37.789128],[-83.33500000000001,37.78921323206754]]}},{"type":"Feature","properties":{"osm_id":16317928,"highway":"service","name":null,"alt_name":null,"official_name":null,"surface":null,"tracktype":null,"service":null,"access":"private","motor_vehicle":null,"foot":null,"tiger_reviewed":"no","rrgh_part":0,"rrgh_tile_part":0},"geometry":{"type":"LineString","coordinates":[[-83.315887,37.786757],[-83.315846,37.786649],[-83.315505,37.785788],[-83.315281,37.784967],[-83.315255,37.784871],[-83.315178,37.783842],[-83.315343,37.782841],[-83.315609,37.781561],[-83.315774,37.780755],[-83.316075,37.779504],[-83.31603,37.778196],[-83.316026,37.777696]]}},{"type":"Feature","properties":{"osm_id":16318000,"highway":"residential","name":null,"alt_name":null,"official_name":null,"surface":null,"tracktype":null,"service":null,"access":null,"motor_vehicle":null,"foot":null,"tiger_reviewed":"no","rrgh_part":0,"rrgh_tile_part":0},"geometry":{"type":"LineString","coordinates":[[-83.323481,37.790063],[-83.32343,37.7896],[-83.323307,37.789252],[-83.323063,37.789105],[-83.322829,37.789068],[-83.321924,37.789261],[-83.321441,37.789854],[-83.321166,37.789947],[-83.320899,37.78982],[-83.320479,37.789729],[-83.320155,37.789844],[-83.319848,37.78985],[-83.319516,37.789537],[-83.319056,37.789263],[-83.318697,37.788976],[-83.318457,37.788461],[-83.31823,37.788133],[-83.318011,37.786975],[-83.317802,37.78653],[-83.317795,37.786392],[-83.317819,37.786305],[-83.317969,37.785106],[-83.317959,37.784679]]}},{"type":"Feature","properties":{"osm_id":16320926,"highway":"residential","name":"Frisby Road","alt_name":null,"official_name":null,"surface":null,"tracktype":null,"service":null,"access":null,"motor_vehicle":null,"foot":null,"tiger_reviewed":"no","rrgh_part":0,"rrgh_tile_part":0},"geometry":{"type":"LineString","coordinates":[[-83.328796,37.796149],[-83.328773,37.795974],[-83.328717,37.79577],[-83.328686,37.795658],[-83.328635,37.795267],[-83.328585,37.795088],[-83.328415,37.794596],[-83.328338,37.794199],[-83.328306,37.793807],[-83.328276,37.793698],[-83.328117,37.793371],[-83.327924,37.792862],[-83.327897,37.79277],[-83.327667,37.792345],[-83.32759,37.792222],[-83.32724,37.791756],[-83.327079,37.791397],[-83.327008,37.791282],[-83.326845,37.791148],[-83.326718,37.791075],[-83.326677,37.791037],[-83.326655,37.790998],[-83.326636,37.790891],[-83.326606,37.790818],[-83.32657,37.790772],[-83.326524,37.790734],[-83.326477,37.79071],[-83.326377,37.790683],[-83.32615,37.790681],[-83.325805,37.790709],[-83.325689,37.790707],[-83.325044,37.790645],[-83.324802,37.7906],[-83.324652,37.790552],[-83.324552,37.7905],[-83.324496,37.79046],[-83.324422,37.790387],[-83.324316,37.790194],[-83.324245,37.790145],[-83.324133,37.790133],[-83.323791,37.790133],[-83.323534,37.790117],[-83.323497,37.790098],[-83.323481,37.790063]]}},{"type":"Feature","properties":{"osm_id":16317802,"highway":"service","name":null,"alt_name":null,"official_name":null,"surface":null,"tracktype":null,"service":null,"access":"private","motor_vehicle":null,"foot":null,"tiger_reviewed":"no","rrgh_part":0,"rrgh_tile_part":0},"geometry":{"type":"LineString","coordinates":[[-83.333569,37.78852],[-83.333476,37.788935],[-83.33339,37.789202],[-83.333373,37.789272],[-83.333385,37.789295],[-83.333438,37.789395],[-83.333693,37.789889],[-83.333732,37.790192],[-83.33377,37.790627],[-83.333578,37.791071],[-83.333399,37.791324]]}},{"type":"Feature","properties":{"osm_id":16318231,"highway":"service","name":null,"alt_name":null,"official_name":null,"surface":null,"tracktype":null,"service":null,"access":"private","motor_vehicle":null,"foot":null,"tiger_reviewed":"no","rrgh_part":0,"rrgh_tile_part":0},"geometry":{"type":"LineString","coordinates":[[-83.333373,37.789272],[-83.333246,37.789434],[-83.333079,37.789606]]}},{"type":"Feature","properties":{"osm_id":16322596,"highway":"residential","name":"Sellars Spur Road","alt_name":null,"official_name":null,"surface":null,"tracktype":null,"service":null,"access":null,"motor_vehicle":null,"foot":null,"tiger_reviewed":"no","rrgh_part":0,"rrgh_tile_part":0},"geometry":{"type":"LineString","coordinates":[[-83.323481,37.790063],[-83.323384,37.790069],[-83.323281,37.79006],[-83.323085,37.789996],[-83.323004,37.78995],[-83.322817,37.789765],[-83.322724,37.789637],[-83.322705,37.789574],[-83.32271,37.789463]]}},{"type":"Feature","properties":{"osm_id":16317747,"highway":"residential","name":null,"alt_name":null,"official_name":null,"surface":null,"tracktype":null,"service":null,"access":null,"motor_vehicle":null,"foot":null,"tiger_reviewed":"no","rrgh_part":0,"rrgh_tile_part":0},"geometry":{"type":"LineString","coordinates":[[-83.310828,37.781954],[-83.308847,37.781361]]}},{"type":"Feature","properties":{"osm_id":16318233,"highway":"residential","name":null,"alt_name":null,"official_name":null,"surface":null,"tracktype":null,"service":null,"access":null,"motor_vehicle":null,"foot":null,"tiger_reviewed":"no","rrgh_part":0,"rrgh_tile_part":0},"geometry":{"type":"LineString","coordinates":[[-83.313671,37.786734],[-83.313667,37.786696],[-83.313496,37.786127],[-83.313305,37.785623],[-83.313116,37.785229],[-83.312899,37.784723],[-83.312804,37.784465]]}},{"type":"Feature","properties":{"osm_id":16322261,"highway":"residential","name":"Junior Conley Road","alt_name":null,"official_name":null,"surface":null,"tracktype":null,"service":null,"access":null,"motor_vehicle":null,"foot":null,"tiger_reviewed":"no","rrgh_part":0,"rrgh_tile_part":0},"geometry":{"type":"LineString","coordinates":[[-83.312255,37.7807],[-83.312234,37.780685],[-83.312169,37.780683],[-83.312078,37.780727],[-83.311988,37.780793],[-83.311901,37.780883],[-83.311361,37.781355],[-83.310987,37.781765],[-83.310917,37.781827],[-83.310834,37.78193],[-83.310828,37.781954],[-83.310818,37.781994],[-83.310696,37.78247],[-83.310637,37.782767],[-83.310585,37.783276],[-83.310593,37.783456],[-83.310648,37.783715],[-83.310653,37.78383],[-83.31064,37.784072],[-83.31068,37.784492],[-83.310708,37.784627],[-83.310786,37.784949],[-83.310923,37.78523],[-83.311164,37.785616],[-83.311374,37.78598],[-83.311588,37.786309],[-83.311777,37.786545],[-83.312013,37.786819],[-83.312069,37.786919],[-83.312099,37.787036],[-83.312101,37.787113],[-83.312102,37.787149],[-83.312043,37.787383],[-83.31197,37.787675]]}},{"type":"Feature","properties":{"osm_id":16322511,"highway":"residential","name":"Left Fork-Stacy Fork Road","alt_name":null,"official_name":null,"surface":null,"tracktype":null,"service":null,"access":null,"motor_vehicle":null,"foot":null,"tiger_reviewed":"no","rrgh_part":0,"rrgh_tile_part":0},"geometry":{"type":"LineString","coordinates":[[-83.318753,37.787346],[-83.31873,37.787297],[-83.318612,37.787123],[-83.318455,37.786993],[-83.318385,37.786912],[-83.318333,37.786827],[-83.318228,37.786567],[-83.318085,37.786402],[-83.318038,37.786372],[-83.317977,37.786361],[-83.317844,37.786378],[-83.317795,37.786392],[-83.317702,37.786418],[-83.317496,37.7865],[-83.317198,37.786611],[-83.316911,37.786695],[-83.316858,37.78671],[-83.316753,37.786724],[-83.316395,37.786733],[-83.31633,37.786738],[-83.316123,37.786754],[-83.315887,37.786757],[-83.315596,37.78676],[-83.315249,37.786699],[-83.31514,37.78666],[-83.314867,37.786522],[-83.31476,37.786482],[-83.314707,37.786462],[-83.314552,37.786433],[-83.314476,37.786444],[-83.314398,37.786472],[-83.314098,37.786617],[-83.313979,37.786658],[-83.313671,37.786734],[-83.313627,37.786745],[-83.313407,37.78683],[-83.313177,37.786932],[-83.31296,37.787054],[-83.312775,37.78721],[-83.312406,37.787441],[-83.312259,37.787512],[-83.312146,37.787566],[-83.31197,37.787675],[-83.31168,37.787868],[-83.311655,37.787885],[-83.311425,37.788161],[-83.311235,37.788335],[-83.310946,37.788545],[-83.310636,37.788731],[-83.310338,37.788973],[-83.310244,37.789066],[-83.310184,37.789162],[-83.31017,37.789256],[-83.310261,37.789551],[-83.310265,37.789635],[-83.310234,37.789785],[-83.310142,37.789948],[-83.310083,37.790037],[-83.310052,37.790082],[-83.310034,37.790182],[-83.309993,37.790304],[-83.309948,37.790385],[-83.309877,37.790512],[-83.309625,37.790869],[-83.309572,37.790977],[-83.309534,37.791201],[-83.309546,37.791363],[-83.309538,37.791436],[-83.309524,37.791477],[-83.309465,37.791647],[-83.309421,37.791846]]}},{"type":"Feature","properties":{"osm_id":16318392,"highway":"residential","name":null,"alt_name":null,"official_name":null,"surface":null,"tracktype":null,"service":null,"access":null,"motor_vehicle":null,"foot":null,"tiger_reviewed":"no","rrgh_part":0,"rrgh_tile_part":0},"geometry":{"type":"LineString","coordinates":[[-83.317795,37.786392],[-83.317737,37.786338],[-83.317294,37.785755],[-83.316558,37.784795]]}},{"type":"Feature","properties":{"osm_id":16322276,"highway":"residential","name":"Pack Road","alt_name":null,"official_name":null,"surface":null,"tracktype":null,"service":null,"access":null,"motor_vehicle":null,"foot":null,"tiger_reviewed":"no","rrgh_part":0,"rrgh_tile_part":0},"geometry":{"type":"LineString","coordinates":[[-83.31476,37.786482],[-83.314718,37.786553],[-83.314606,37.786666],[-83.314585,37.786764],[-83.314625,37.78696],[-83.314754,37.787219],[-83.314924,37.78744],[-83.315043,37.787764],[-83.315161,37.788156],[-83.315188,37.788586],[-83.315157,37.788716],[-83.315235,37.788977],[-83.315437,37.789262]]}},{"type":"Feature","properties":{"osm_id":16319792,"highway":"residential","name":"Wm Walter Road","alt_name":null,"official_name":null,"surface":null,"tracktype":null,"service":null,"access":null,"motor_vehicle":null,"foot":null,"tiger_reviewed":"no","rrgh_part":0,"rrgh_tile_part":0},"geometry":{"type":"LineString","coordinates":[[-83.33500000000001,37.79907794639866],[-83.334366,37.799096],[-83.333701,37.799401],[-83.333654,37.799418],[-83.333637,37.799524]]}},{"type":"Feature","properties":{"osm_id":16320131,"highway":"residential","name":"Neil Walter Road","alt_name":null,"official_name":null,"surface":null,"tracktype":null,"service":null,"access":null,"motor_vehicle":null,"foot":null,"tiger_reviewed":"no","rrgh_part":0,"rrgh_tile_part":0},"geometry":{"type":"LineString","coordinates":[[-83.33500000000001,37.802710083333324],[-83.334701,37.80285]]}},{"type":"Feature","properties":{"osm_id":16318612,"highway":"residential","name":"Salem Church Road","alt_name":null,"official_name":null,"surface":null,"tracktype":null,"service":null,"access":null,"motor_vehicle":null,"foot":null,"tiger_reviewed":"no","rrgh_part":0,"rrgh_tile_part":0},"geometry":{"type":"LineString","coordinates":[[-83.33500000000001,37.811564971346705],[-83.334766,37.811453],[-83.334418,37.811443],[-83.333742,37.811653],[-83.333574,37.811707]]}},{"type":"Feature","properties":{"osm_id":16317749,"highway":"residential","name":null,"alt_name":null,"official_name":null,"surface":null,"tracktype":null,"service":null,"access":null,"motor_vehicle":null,"foot":null,"tiger_reviewed":"no","rrgh_part":0,"rrgh_tile_part":0},"geometry":{"type":"LineString","coordinates":[[-83.32449,37.794141],[-83.324847,37.794474],[-83.324588,37.79491],[-83.324036,37.794756],[-83.323839,37.795071]]}},{"type":"Feature","properties":{"osm_id":16320886,"highway":"residential","name":"Wayne Gay Road","alt_name":null,"official_name":null,"surface":null,"tracktype":null,"service":null,"access":null,"motor_vehicle":null,"foot":null,"tiger_reviewed":"no","rrgh_part":0,"rrgh_tile_part":0},"geometry":{"type":"LineString","coordinates":[[-83.324455,37.795972],[-83.324463,37.795851],[-83.324318,37.795617],[-83.323965,37.795145],[-83.323839,37.795071],[-83.323639,37.794967],[-83.32301,37.794797]]}},{"type":"Feature","properties":{"osm_id":16319282,"highway":"residential","name":"Phipps Fork Road","alt_name":null,"official_name":null,"surface":null,"tracktype":null,"service":null,"access":null,"motor_vehicle":null,"foot":null,"tiger_reviewed":"no","rrgh_part":0,"rrgh_tile_part":0},"geometry":{"type":"LineString","coordinates":[[-83.326086,37.796643],[-83.32591,37.796957],[-83.325516,37.797613],[-83.32516,37.79806],[-83.324771,37.798493],[-83.324124,37.79902],[-83.324048,37.799082],[-83.323676,37.799475],[-83.32339,37.799837],[-83.323141,37.800058]]}},{"type":"Feature","properties":{"osm_id":16318480,"highway":"residential","name":"Arthur Perkins Fork","alt_name":null,"official_name":null,"surface":null,"tracktype":null,"service":null,"access":null,"motor_vehicle":null,"foot":null,"tiger_reviewed":"no","rrgh_part":0,"rrgh_tile_part":0},"geometry":{"type":"LineString","coordinates":[[-83.317352,37.806987],[-83.31727,37.806968],[-83.317239,37.806947],[-83.317066,37.806713],[-83.316962,37.806489],[-83.316958,37.80638],[-83.316917,37.806144],[-83.316844,37.805988],[-83.316788,37.805914],[-83.316727,37.805802],[-83.31668,37.805685],[-83.316623,37.805484],[-83.316596,37.805249],[-83.316672,37.805081],[-83.316859,37.804843],[-83.317273,37.804408],[-83.317411,37.804008],[-83.317547,37.803686],[-83.317572,37.803571],[-83.317718,37.803518],[-83.318066,37.803453],[-83.318346,37.803379],[-83.318495,37.80337]]}},{"type":"Feature","properties":{"osm_id":16318653,"highway":"residential","name":"Perkins Cemetery Road","alt_name":null,"official_name":null,"surface":null,"tracktype":null,"service":null,"access":null,"motor_vehicle":null,"foot":null,"tiger_reviewed":"no","rrgh_part":0,"rrgh_tile_part":0},"geometry":{"type":"LineString","coordinates":[[-83.319699,37.796876],[-83.319587,37.797395],[-83.31958,37.797556],[-83.319591,37.797612],[-83.319637,37.797721],[-83.319833,37.798045],[-83.31987,37.798216],[-83.319863,37.798301],[-83.319875,37.798475],[-83.3199,37.798556],[-83.319977,37.798736],[-83.320438,37.799042],[-83.320539,37.799138],[-83.320625,37.799239],[-83.320673,37.799394],[-83.320656,37.799586],[-83.320621,37.799671],[-83.320538,37.799809],[-83.320546,37.799967],[-83.320527,37.800109],[-83.320447,37.800424],[-83.320391,37.800497],[-83.320351,37.800519],[-83.320299,37.800534],[-83.320218,37.800533]]}},{"type":"Feature","properties":{"osm_id":16318658,"highway":"residential","name":"Perkins Cemetery Road","alt_name":null,"official_name":null,"surface":null,"tracktype":null,"service":null,"access":null,"motor_vehicle":null,"foot":null,"tiger_reviewed":"no","rrgh_part":0,"rrgh_tile_part":0},"geometry":{"type":"LineString","coordinates":[[-83.311785,37.811333],[-83.311793,37.811182],[-83.311862,37.810852],[-83.31198,37.810199],[-83.31208,37.80965],[-83.31209,37.809477],[-83.312071,37.809404],[-83.312051,37.809281],[-83.312058,37.809207],[-83.312115,37.809029],[-83.312219,37.808778],[-83.312351,37.808529],[-83.312489,37.808346],[-83.312585,37.808173],[-83.312648,37.807853],[-83.31268,37.807753],[-83.312899,37.807425],[-83.312965,37.807304],[-83.313141,37.806917],[-83.313223,37.806644],[-83.313241,37.806502],[-83.31323,37.806364],[-83.3132,37.806246],[-83.313125,37.806109],[-83.312979,37.805924],[-83.312906,37.805861],[-83.312804,37.805799],[-83.312619,37.805728],[-83.312366,37.805704],[-83.312312,37.805707],[-83.312155,37.80574],[-83.312007,37.805789],[-83.311781,37.805826],[-83.311624,37.80582],[-83.3115,37.805776],[-83.311377,37.805664],[-83.311151,37.805347],[-83.3111,37.805287],[-83.311041,37.80524],[-83.310983,37.805202],[-83.310713,37.805114],[-83.3106,37.805089],[-83.310498,37.805047],[-83.310307,37.8049],[-83.310061,37.804673],[-83.309978,37.804567],[-83.309943,37.804501],[-83.309924,37.804435],[-83.309932,37.804251],[-83.309953,37.804196],[-83.310026,37.804071],[-83.310063,37.80403],[-83.310432,37.803789],[-83.310542,37.803727],[-83.310901,37.803592],[-83.311093,37.80348],[-83.31124,37.803438],[-83.311359,37.803367],[-83.311657,37.803153],[-83.311812,37.803022],[-83.311876,37.802954],[-83.311973,37.802809],[-83.31223,37.802518],[-83.312365,37.802447],[-83.312583,37.802396],[-83.313483,37.802696],[-83.313613,37.802717],[-83.31373,37.802683],[-83.313872,37.802609],[-83.314054,37.802413],[-83.314157,37.80233],[-83.314349,37.802249],[-83.31464,37.802107],[-83.314863,37.802024],[-83.31504,37.801979],[-83.315235,37.801942],[-83.315305,37.801947],[-83.315403,37.801929],[-83.315476,37.801932],[-83.315779,37.801927],[-83.31598,37.801943],[-83.316087,37.801981],[-83.316287,37.802101],[-83.316439,37.802286],[-83.316544,37.802676],[-83.316663,37.803083],[-83.316812,37.803226],[-83.316937,37.80332],[-83.317055,37.803375],[-83.317167,37.803394],[-83.317364,37.803406],[-83.317678,37.803398],[-83.317933,37.803307],[-83.318055,37.803283],[-83.318166,37.803275],[-83.318305,37.803291],[-83.318495,37.80337],[-83.319103,37.803396],[-83.319295,37.803355],[-83.319413,37.803318],[-83.319599,37.80323],[-83.319693,37.803164],[-83.31978,37.803084],[-83.319846,37.80291],[-83.319859,37.80281],[-83.319849,37.802657],[-83.319827,37.802536],[-83.31974,37.802248],[-83.31974,37.802191],[-83.319812,37.801708],[-83.319903,37.801276],[-83.319932,37.801087],[-83.319952,37.80104],[-83.320156,37.800664],[-83.320218,37.800533],[-83.320229,37.800481],[-83.32017,37.800241],[-83.320169,37.800164],[-83.320221,37.800076],[-83.320252,37.800044],[-83.320461,37.799896],[-83.320538,37.799809]]}},{"type":"Feature","properties":{"osm_id":16318407,"highway":"service","name":null,"alt_name":null,"official_name":null,"surface":null,"tracktype":null,"service":null,"access":"private","motor_vehicle":null,"foot":null,"tiger_reviewed":"no","rrgh_part":0,"rrgh_tile_part":0},"geometry":{"type":"LineString","coordinates":[[-83.317572,37.803571],[-83.31737,37.803645]]}},{"type":"Feature","properties":{"osm_id":16318607,"highway":"residential","name":"Salem Church Road","alt_name":null,"official_name":null,"surface":null,"tracktype":null,"service":null,"access":null,"motor_vehicle":null,"foot":null,"tiger_reviewed":"no","rrgh_part":0,"rrgh_tile_part":0},"geometry":{"type":"LineString","coordinates":[[-83.33369,37.811877],[-83.333691,37.811751],[-83.333707,37.811685],[-83.333742,37.811653],[-83.333792,37.811607],[-83.333929,37.81153],[-83.334204,37.811418],[-83.334409,37.811377],[-83.334813,37.81126],[-83.334995,37.811292]]}},{"type":"Feature","properties":{"osm_id":16320449,"highway":"residential","name":"Ray Perry Lane","alt_name":null,"official_name":null,"surface":null,"tracktype":null,"service":null,"access":null,"motor_vehicle":null,"foot":null,"tiger_reviewed":"no","rrgh_part":0,"rrgh_tile_part":0},"geometry":{"type":"LineString","coordinates":[[-83.332935,37.81364],[-83.334365,37.813811],[-83.334739,37.813221],[-83.334913,37.812675],[-83.334988,37.812286]]}},{"type":"Feature","properties":{"osm_id":16319385,"highway":"unclassified","name":"Walters Branch Road","alt_name":null,"official_name":null,"surface":null,"tracktype":null,"service":null,"access":null,"motor_vehicle":null,"foot":null,"tiger_reviewed":"no","rrgh_part":0,"rrgh_tile_part":0},"geometry":{"type":"LineString","coordinates":[[-83.31302,37.816718],[-83.313201,37.81697],[-83.313275,37.81705],[-83.313522,37.81727],[-83.313613,37.817338],[-83.31387,37.817479],[-83.313932,37.817521],[-83.313976,37.817565],[-83.314036,37.817744],[-83.314079,37.817822],[-83.3141,37.817849],[-83.314128,37.817886],[-83.314289,37.818033],[-83.314453,37.818214],[-83.31487,37.818577],[-83.315166,37.818901],[-83.31522,37.818953],[-83.315453,37.819181],[-83.315555,37.819256],[-83.31578,37.819371],[-83.315875,37.819437],[-83.315953,37.819522],[-83.316185,37.81987],[-83.316287,37.819971],[-83.316517,37.820139],[-83.316636,37.820213],[-83.316906,37.820343],[-83.317526,37.820607],[-83.317824,37.820722],[-83.317958,37.820791],[-83.318316,37.821035],[-83.318441,37.821107],[-83.319176,37.821364],[-83.319644,37.821543],[-83.319729,37.821585],[-83.319795,37.821631],[-83.31984,37.821683],[-83.319859,37.821744],[-83.319851,37.821814],[-83.319809,37.821966],[-83.319807,37.822039],[-83.319825,37.822105],[-83.319864,37.822162],[-83.32,37.822291],[-83.320133,37.822478],[-83.320183,37.822581],[-83.32034,37.823133],[-83.320538,37.823641],[-83.320612,37.823743],[-83.320699,37.823792]]}},{"type":"Feature","properties":{"osm_id":16320765,"highway":"residential","name":"Snake Den Road","alt_name":null,"official_name":null,"surface":null,"tracktype":null,"service":null,"access":null,"motor_vehicle":null,"foot":null,"tiger_reviewed":"no","rrgh_part":0,"rrgh_tile_part":0},"geometry":{"type":"LineString","coordinates":[[-83.294731,37.777885],[-83.294961,37.777916],[-83.295032,37.777933],[-83.295092,37.777948],[-83.295384,37.778089],[-83.295732,37.778391],[-83.295821,37.778591],[-83.295842,37.778814],[-83.295809,37.779187],[-83.295834,37.779331],[-83.29589,37.779446],[-83.296014,37.779616],[-83.29629,37.779785],[-83.296727,37.78008],[-83.296972,37.78027],[-83.297091,37.780374]]}},{"type":"Feature","properties":{"osm_id":16298144,"highway":"residential","name":"Lykins Branch Road","alt_name":null,"official_name":null,"surface":null,"tracktype":null,"service":null,"access":null,"motor_vehicle":null,"foot":null,"tiger_reviewed":"no","rrgh_part":0,"rrgh_tile_part":0},"geometry":{"type":"LineString","coordinates":[[-83.258515,37.768502],[-83.258976,37.768091],[-83.259268,37.767845],[-83.259545,37.767567],[-83.259713,37.767423],[-83.259834,37.767272],[-83.259916,37.767151],[-83.25992,37.767034],[-83.25988,37.766921],[-83.259805,37.766865],[-83.259732,37.766845],[-83.259638,37.76682],[-83.25922,37.766835],[-83.25896,37.766888],[-83.258799,37.766936],[-83.258704,37.766941],[-83.258657,37.766961],[-83.258613,37.76698],[-83.258466,37.767107],[-83.258244,37.767327],[-83.258134,37.767397],[-83.257843,37.767582],[-83.257598,37.7677],[-83.25732,37.767857],[-83.257017,37.768065],[-83.256168,37.768797],[-83.255995,37.768908],[-83.255724,37.769046],[-83.255561,37.769143],[-83.254888,37.76965],[-83.254528,37.769901],[-83.25439,37.769997],[-83.254186,37.770164],[-83.254114,37.770212],[-83.253847,37.770358],[-83.253625,37.77048],[-83.253319,37.770694],[-83.252865,37.770912],[-83.252681,37.770976],[-83.252493,37.771029],[-83.252016,37.771126],[-83.251827,37.771145],[-83.251455,37.771166],[-83.251343,37.771182],[-83.25112,37.771235],[-83.250914,37.771303],[-83.250769,37.77133],[-83.250586,37.771346],[-83.250356,37.771335],[-83.250148,37.771301],[-83.25,37.771263737588654]]}},{"type":"Feature","properties":{"osm_id":16318580,"highway":"residential","name":"Brushy Fork Road","alt_name":null,"official_name":null,"surface":null,"tracktype":null,"service":null,"access":null,"motor_vehicle":null,"foot":null,"tiger_reviewed":"no","rrgh_part":0,"rrgh_tile_part":0},"geometry":{"type":"LineString","coordinates":[[-83.26763,37.772691],[-83.26688,37.773377],[-83.266563,37.773903],[-83.266186,37.776512],[-83.265551,37.777839],[-83.265147,37.778822],[-83.264657,37.779349],[-83.263704,37.780767],[-83.262877,37.78125],[-83.261444,37.782045],[-83.261077,37.782341],[-83.260655,37.782547],[-83.2604244,37.7829743],[-83.2600551,37.7830929],[-83.259518,37.783252],[-83.258915,37.78355],[-83.258495,37.783593],[-83.258195,37.783722],[-83.258135,37.783826],[-83.25791,37.784115],[-83.257793,37.784338],[-83.257765,37.784484],[-83.257776,37.784731],[-83.257751,37.784823],[-83.257469,37.785135],[-83.257334,37.785302],[-83.257046,37.785765],[-83.25683,37.786266],[-83.256756,37.786551],[-83.256735,37.786812],[-83.256824,37.78736],[-83.256846,37.787444],[-83.256989,37.7878],[-83.257035,37.787883],[-83.257093,37.787959],[-83.257286,37.788162],[-83.257362,37.788209],[-83.257445,37.78824],[-83.25768,37.788295],[-83.257729,37.788323],[-83.257744,37.788338],[-83.257769,37.788368],[-83.257778,37.788417],[-83.257771,37.788436],[-83.25776,37.788465],[-83.257717,37.788502],[-83.257589,37.78855],[-83.257414,37.788583],[-83.257319,37.788612],[-83.257231,37.788658],[-83.257154,37.788717],[-83.256875,37.789046],[-83.256693,37.789219],[-83.256644,37.789287],[-83.256616,37.789364],[-83.256573,37.789896],[-83.256492,37.790385],[-83.25649,37.790534],[-83.256515,37.790675],[-83.256672,37.791136],[-83.256772,37.791229],[-83.256836,37.791268],[-83.257162,37.791421],[-83.257212,37.791453],[-83.25725,37.791485],[-83.257261,37.791507],[-83.25727,37.791525],[-83.257272,37.791568],[-83.257257,37.791611],[-83.257226,37.791653],[-83.256802,37.792023],[-83.256684,37.79215],[-83.256622,37.792236],[-83.256522,37.792455],[-83.256345,37.792944],[-83.256246,37.793255],[-83.256194,37.793373],[-83.256168,37.793406],[-83.2561,37.793459],[-83.256016,37.793496],[-83.255882,37.793537],[-83.255776,37.793592],[-83.25522,37.794166],[-83.25513,37.794259],[-83.254844,37.794644],[-83.254757,37.794762],[-83.254759,37.795007],[-83.254981,37.795477],[-83.255097,37.796015],[-83.255216,37.79633],[-83.255282,37.796589],[-83.255274,37.796773],[-83.255284,37.797176],[-83.25535,37.797413],[-83.255518,37.797655],[-83.255745,37.797953],[-83.256121,37.798513],[-83.256281,37.798718],[-83.256539,37.79909],[-83.256982,37.799465],[-83.257185,37.799591],[-83.257352,37.799709],[-83.25737,37.799726],[-83.257513,37.799863],[-83.257625,37.800008]]}},{"type":"Feature","properties":{"osm_id":16320793,"highway":"residential","name":"Griffy Branch Road","alt_name":null,"official_name":null,"surface":null,"tracktype":null,"service":null,"access":null,"motor_vehicle":null,"foot":null,"tiger_reviewed":"no","rrgh_part":0,"rrgh_tile_part":0},"geometry":{"type":"LineString","coordinates":[[-83.270683,37.79602],[-83.270776,37.796084],[-83.271083,37.79614],[-83.271147,37.796161],[-83.271275,37.796224],[-83.271493,37.796364],[-83.271642,37.796489],[-83.271945,37.796787],[-83.27223,37.797119],[-83.272493,37.797479],[-83.272741,37.797789],[-83.272991,37.798202],[-83.273059,37.798285],[-83.273226,37.798452],[-83.27383,37.798955],[-83.273922,37.799042],[-83.274152,37.799297],[-83.274245,37.79937],[-83.274351,37.799439],[-83.275103,37.799868],[-83.275232,37.799951],[-83.275584,37.800221],[-83.275831,37.800385],[-83.275947,37.800474],[-83.276154,37.800671],[-83.276446,37.800982],[-83.276702,37.801305],[-83.276828,37.801389],[-83.276934,37.80144],[-83.277523,37.801681],[-83.278196,37.801902],[-83.278466,37.801981],[-83.278622,37.802046],[-83.278925,37.802192],[-83.278996,37.80224],[-83.27909,37.802319],[-83.279221,37.802504],[-83.27925,37.802662],[-83.279215,37.802982],[-83.27922,37.803225],[-83.279291,37.803465],[-83.279336,37.803545],[-83.279437,37.803703],[-83.279539,37.803836],[-83.279605,37.803903],[-83.279879,37.804106],[-83.27994,37.804158],[-83.280104,37.804337],[-83.28037,37.80455],[-83.280508,37.804631],[-83.280579,37.804653],[-83.280653,37.804662],[-83.280726,37.804652],[-83.280869,37.804599],[-83.280939,37.804557],[-83.281436,37.804323],[-83.281507,37.804282],[-83.281564,37.804227],[-83.281652,37.804214],[-83.281795,37.804236],[-83.281867,37.804263],[-83.281924,37.804299],[-83.28195,37.804369],[-83.28196,37.804429],[-83.281944,37.804498],[-83.281898,37.80457],[-83.281804,37.804679],[-83.281704,37.804808],[-83.281508,37.805164],[-83.28148,37.805281],[-83.281481,37.805346],[-83.281528,37.805543],[-83.281667,37.805785],[-83.281776,37.806003],[-83.281789,37.806125],[-83.281776,37.806265],[-83.281864,37.806913],[-83.281856,37.807],[-83.281858,37.807148],[-83.281806,37.807724],[-83.281805,37.807898],[-83.281832,37.808045],[-83.281875,37.808155],[-83.282036,37.808381],[-83.282396,37.808678],[-83.282534,37.808752],[-83.282688,37.80882],[-83.283085,37.808959],[-83.283714,37.809096],[-83.284551,37.809247],[-83.284744,37.809306],[-83.284879,37.80937],[-83.284918,37.809388],[-83.284991,37.809439],[-83.285172,37.809609],[-83.285434,37.809816],[-83.285773,37.81003],[-83.286549,37.810491],[-83.286914,37.810677],[-83.287003,37.810708],[-83.28712,37.810717],[-83.287403,37.81068],[-83.287531,37.810673],[-83.287597,37.810683],[-83.287661,37.810706],[-83.287715,37.810745],[-83.287746,37.810793],[-83.287757,37.810846],[-83.287753,37.810872],[-83.287748,37.810899],[-83.287725,37.810952],[-83.28762,37.811113],[-83.287555,37.811234],[-83.287508,37.811363],[-83.287496,37.811426],[-83.287505,37.811488],[-83.287519,37.811768],[-83.287602,37.812198],[-83.287657,37.812458],[-83.287752,37.812737],[-83.287932,37.813186],[-83.28815,37.813647],[-83.288306,37.813923],[-83.288556,37.81425],[-83.288601,37.814364],[-83.288603,37.814552],[-83.288607,37.814872],[-83.288623,37.815168],[-83.288572,37.815479],[-83.288554,37.815811],[-83.288537,37.816537],[-83.288574,37.817629],[-83.288555,37.817926],[-83.288567,37.818251],[-83.288631,37.8184],[-83.288796,37.818629],[-83.288929,37.818756],[-83.289261,37.819034],[-83.289338,37.819116],[-83.289399,37.819206],[-83.289439,37.819303],[-83.289456,37.819403],[-83.289456,37.819574],[-83.289456,37.819699],[-83.28951,37.819996],[-83.28964,37.820403],[-83.289729,37.820575],[-83.289831,37.820714],[-83.289838,37.820803]]}},{"type":"Feature","properties":{"osm_id":16320817,"highway":"residential","name":"Big Staff Branch Road","alt_name":null,"official_name":null,"surface":null,"tracktype":null,"service":null,"access":null,"motor_vehicle":null,"foot":null,"tiger_reviewed":"no","rrgh_part":0,"rrgh_tile_part":0},"geometry":{"type":"LineString","coordinates":[[-83.277217,37.769693],[-83.277672,37.769974],[-83.277952,37.77013],[-83.278332,37.770363],[-83.278858,37.770732],[-83.278988,37.770818],[-83.279119,37.77089],[-83.279263,37.770954],[-83.279685,37.771098],[-83.279949,37.771155],[-83.280191,37.771184],[-83.280375,37.771243],[-83.280586,37.771381],[-83.280712,37.771494],[-83.280997,37.771711],[-83.281648,37.772163],[-83.281746,37.772213],[-83.282201,37.772314],[-83.282437,37.772387],[-83.282538,37.772442],[-83.282692,37.772574],[-83.283003,37.77284],[-83.283079,37.772881],[-83.283152,37.772921],[-83.283232,37.772948],[-83.283315,37.772958],[-83.283394,37.772946],[-83.283602,37.772851],[-83.283747,37.77281],[-83.283843,37.772772],[-83.284081,37.772614],[-83.284284,37.772516],[-83.284346,37.772514],[-83.284372,37.772522],[-83.284398,37.772538],[-83.284413,37.772567]]}},{"type":"Feature","properties":{"osm_id":16322142,"highway":"residential","name":"Railroad Fork Road","alt_name":null,"official_name":null,"surface":null,"tracktype":null,"service":null,"access":null,"motor_vehicle":null,"foot":null,"tiger_reviewed":"no","rrgh_part":0,"rrgh_tile_part":0},"geometry":{"type":"LineString","coordinates":[[-83.289106,37.765276],[-83.28889,37.765459],[-83.288719,37.765604],[-83.288548,37.765802],[-83.288519,37.765844],[-83.288445,37.765953],[-83.28833,37.766218],[-83.288268,37.766555],[-83.288213,37.766759],[-83.288144,37.767012],[-83.287945,37.767441],[-83.287593,37.768],[-83.287494,37.768156],[-83.287235,37.768561],[-83.286869,37.769094],[-83.2865,37.769783],[-83.286359,37.770217],[-83.286069,37.770949],[-83.285899,37.771264],[-83.285607,37.771659],[-83.285452,37.771803],[-83.285017,37.77216],[-83.284599,37.772421],[-83.284413,37.772567],[-83.284168,37.77273],[-83.283092,37.773495],[-83.283044,37.773548],[-83.282798,37.773944],[-83.282627,37.77441],[-83.282377,37.774943],[-83.282011,37.775499],[-83.281191,37.776474],[-83.281008,37.776681],[-83.280873,37.776833],[-83.280741,37.77697],[-83.280049,37.777536],[-83.27982,37.777682],[-83.279471,37.777866],[-83.279255,37.777994],[-83.27916,37.778066],[-83.279117,37.778105],[-83.278992,37.778219],[-83.27824,37.779024],[-83.277144,37.780104],[-83.276449,37.780859],[-83.276255,37.78107],[-83.276166,37.7813],[-83.27599,37.781648],[-83.275801,37.782123],[-83.275701,37.782407],[-83.275267,37.783798],[-83.275145,37.784199],[-83.274135,37.787117],[-83.274094,37.787327],[-83.273741,37.788385],[-83.2735333,37.7890067],[-83.273476,37.789178],[-83.273455,37.78924],[-83.273412,37.789395],[-83.273398,37.789525],[-83.273407,37.789583],[-83.273431,37.789636],[-83.273468,37.789679],[-83.273523,37.789714],[-83.273587,37.789734],[-83.273942,37.789776],[-83.274056,37.789801],[-83.27414,37.789834],[-83.274227,37.78989]]}},{"type":"Feature","properties":{"osm_id":16319513,"highway":"residential","name":"Lunce Branch Road","alt_name":null,"official_name":null,"surface":null,"tracktype":null,"service":null,"access":null,"motor_vehicle":null,"foot":null,"tiger_reviewed":"no","rrgh_part":0,"rrgh_tile_part":0},"geometry":{"type":"LineString","coordinates":[[-83.302602,37.792917],[-83.302582,37.792605],[-83.302562,37.792283],[-83.302515,37.792082],[-83.302388,37.791804],[-83.302368,37.791718],[-83.302362,37.791636],[-83.302377,37.791375],[-83.302366,37.791231],[-83.302345,37.791134],[-83.302251,37.790868],[-83.302153,37.790513],[-83.302112,37.790165],[-83.302135,37.789801],[-83.302342,37.78903],[-83.302402,37.788668],[-83.302427,37.788422],[-83.302378,37.788176],[-83.302356,37.788096],[-83.302322,37.788022],[-83.302264,37.78796],[-83.302189,37.787915],[-83.30188,37.787779],[-83.301713,37.787698],[-83.301615,37.787638],[-83.301561,37.787592],[-83.301533,37.787537],[-83.301533,37.787432]]}},{"type":"Feature","properties":{"osm_id":16321006,"highway":"residential","name":"Manson Haney Road","alt_name":null,"official_name":null,"surface":null,"tracktype":null,"service":null,"access":null,"motor_vehicle":null,"foot":null,"tiger_reviewed":"no","rrgh_part":0,"rrgh_tile_part":0},"geometry":{"type":"LineString","coordinates":[[-83.283387,37.786297],[-83.283417,37.786323],[-83.28367,37.786544],[-83.284191,37.787116],[-83.284433,37.787351],[-83.284558,37.787455],[-83.284837,37.787629],[-83.285425,37.787939],[-83.285781,37.788147],[-83.28608,37.788328],[-83.286469,37.788534],[-83.286993,37.788831],[-83.287127,37.788898],[-83.287532,37.789057],[-83.287646,37.78911],[-83.287737,37.789174],[-83.287805,37.789252],[-83.287857,37.789347],[-83.287898,37.789452],[-83.287929,37.78956],[-83.287981,37.789893],[-83.288012,37.790015],[-83.28806,37.790137],[-83.288283,37.79059],[-83.288401,37.79078],[-83.288526,37.790935],[-83.288627,37.791084],[-83.288752,37.791349],[-83.288931,37.791556],[-83.289008,37.791701],[-83.289044,37.791768],[-83.289186,37.79199],[-83.289314,37.792232],[-83.289402,37.79235],[-83.289616,37.792561],[-83.28981,37.79278],[-83.290014,37.793137],[-83.290185,37.793373],[-83.290282,37.793496],[-83.290392,37.79361],[-83.290625,37.793823],[-83.290728,37.79393],[-83.290853,37.794135],[-83.290898,37.794243],[-83.290946,37.794526],[-83.290925,37.79461],[-83.29084,37.794792],[-83.290775,37.79499],[-83.290737,37.795188],[-83.29074,37.79526],[-83.290745,37.795371],[-83.290802,37.795435],[-83.290875,37.795497],[-83.290968,37.795541],[-83.29105,37.795565],[-83.291067,37.79557],[-83.291179,37.795583],[-83.291296,37.795573],[-83.29139,37.795535],[-83.29157,37.795412],[-83.291911,37.795248],[-83.292144,37.795209],[-83.292266,37.795219],[-83.292379,37.795261],[-83.292623,37.795378],[-83.292901,37.795478],[-83.293033,37.795508],[-83.293369,37.795554],[-83.293606,37.795618],[-83.293748,37.795676],[-83.29393,37.795803],[-83.294035,37.79589],[-83.294134,37.79595],[-83.294224,37.795992],[-83.294358,37.796006],[-83.29448,37.795963],[-83.294612,37.795867],[-83.294735,37.795745],[-83.294896,37.79564],[-83.295029,37.795615],[-83.295113,37.795626],[-83.295458,37.795748],[-83.295698,37.79578],[-83.296006,37.795782],[-83.296311,37.795761],[-83.296562,37.795716],[-83.296793,37.795638],[-83.296906,37.795604],[-83.297085,37.795502],[-83.2973727,37.7951843],[-83.2974268,37.7951461],[-83.2974876,37.7951212],[-83.2975528,37.7951114],[-83.2976271,37.7951212],[-83.2978005,37.7951986],[-83.2979232,37.7952333],[-83.2980448,37.7952359],[-83.2981551,37.7952359],[-83.2982856,37.7952084],[-83.2983543,37.7951826],[-83.298421,37.795147],[-83.29848,37.795105],[-83.2985749,37.7950136],[-83.2985975,37.7949566],[-83.2986042,37.7948534],[-83.2985862,37.7947725],[-83.2985355,37.7947013],[-83.2984826,37.7946497],[-83.2983307,37.7945741],[-83.2982665,37.7945172],[-83.2982609,37.7944585],[-83.2982721,37.7944203],[-83.298287,37.794396],[-83.298331,37.794361],[-83.298388,37.794345],[-83.298457,37.794343],[-83.298906,37.794467],[-83.299134,37.794549],[-83.2992492,37.7945919],[-83.299361,37.794648],[-83.299664,37.794836],[-83.29975,37.794896],[-83.300013,37.79508],[-83.300163,37.795164],[-83.300308,37.795212],[-83.300422,37.795225],[-83.300633,37.795248]]}},{"type":"Feature","properties":{"osm_id":16318245,"highway":"residential","name":"Wildcat Lane","alt_name":null,"official_name":null,"surface":null,"tracktype":null,"service":null,"access":null,"motor_vehicle":null,"foot":null,"tiger_reviewed":"no","rrgh_part":0,"rrgh_tile_part":0},"geometry":{"type":"LineString","coordinates":[[-83.292281,37.780343],[-83.291541,37.78006],[-83.291403,37.779998],[-83.291166,37.779882],[-83.290928,37.77969],[-83.290744,37.779363],[-83.290579,37.77901]]}},{"type":"Feature","properties":{"osm_id":16317833,"highway":"service","name":null,"alt_name":null,"official_name":null,"surface":null,"tracktype":null,"service":null,"access":null,"motor_vehicle":null,"foot":null,"tiger_reviewed":"no","rrgh_part":0,"rrgh_tile_part":0},"geometry":{"type":"LineString","coordinates":[[-83.287338,37.783628],[-83.287447,37.7833472],[-83.2874552,37.7832609],[-83.2874458,37.7832047],[-83.2874136,37.7831167],[-83.2873761,37.7830531],[-83.2873077,37.7829885],[-83.2872192,37.7829175],[-83.2870783,37.7827934],[-83.2869939,37.7826991],[-83.2869536,37.7826027],[-83.2868809,37.7823114]]}},{"type":"Feature","properties":{"osm_id":16321893,"highway":"residential","name":"Conley Road","alt_name":null,"official_name":null,"surface":null,"tracktype":null,"service":null,"access":null,"motor_vehicle":null,"foot":null,"tiger_reviewed":"no","rrgh_part":0,"rrgh_tile_part":0},"geometry":{"type":"LineString","coordinates":[[-83.285781,37.788147],[-83.285935,37.788187],[-83.286277,37.788345],[-83.286447,37.788396],[-83.286539,37.788399],[-83.286631,37.788382],[-83.286755,37.788338],[-83.286796,37.788323],[-83.286954,37.788293],[-83.287035,37.788293],[-83.287292,37.788349],[-83.287488,37.788444],[-83.287755,37.788621],[-83.287927,37.788672],[-83.288017,37.788692],[-83.288327,37.78872],[-83.288646,37.788679],[-83.289001,37.788589],[-83.289491,37.788393],[-83.289659,37.788373],[-83.289847,37.788384],[-83.290387,37.78847],[-83.291445,37.788616],[-83.291647,37.788711],[-83.291766,37.788859],[-83.291975,37.789121],[-83.292067,37.789354],[-83.292099,37.78941],[-83.292298,37.789536],[-83.292455,37.78962],[-83.292578,37.789746],[-83.292655,37.789876],[-83.292674,37.789937],[-83.292706,37.790165]]}},{"type":"Feature","properties":{"osm_id":16322315,"highway":"residential","name":"Charlie Fallen Road","alt_name":null,"official_name":null,"surface":null,"tracktype":null,"service":null,"access":null,"motor_vehicle":null,"foot":null,"tiger_reviewed":"no","rrgh_part":0,"rrgh_tile_part":0},"geometry":{"type":"LineString","coordinates":[[-83.281348,37.788953],[-83.281399,37.789009],[-83.281482,37.789155],[-83.281505,37.789196],[-83.281554,37.789253],[-83.281622,37.789303],[-83.281781,37.789395],[-83.281927,37.789511],[-83.282115,37.789729],[-83.282255,37.789903],[-83.282372,37.79005],[-83.282503,37.790197],[-83.282648,37.790339],[-83.282887,37.790534],[-83.283162,37.790672],[-83.283247,37.79073],[-83.283507,37.791028],[-83.283783,37.791291],[-83.283837,37.791356],[-83.283923,37.791503],[-83.283984,37.791572],[-83.284047,37.791624],[-83.284225,37.791772],[-83.284374,37.791926],[-83.284432,37.792007],[-83.284456,37.792059],[-83.284512,37.792178],[-83.284625,37.792325],[-83.284706,37.792378],[-83.284791,37.792416],[-83.284992,37.792506],[-83.285064,37.792563],[-83.285231,37.792769],[-83.28545,37.793014],[-83.285474,37.79307]]}},{"type":"Feature","properties":{"osm_id":16317839,"highway":"service","name":null,"alt_name":null,"official_name":null,"surface":null,"tracktype":null,"service":null,"access":"private","motor_vehicle":null,"foot":null,"tiger_reviewed":"no","rrgh_part":0,"rrgh_tile_part":0},"geometry":{"type":"LineString","coordinates":[[-83.279117,37.778105],[-83.278915,37.777988],[-83.278608,37.777767],[-83.278517,37.777736],[-83.278396,37.77769],[-83.278134,37.777641],[-83.277941,37.77761],[-83.277831,37.777545],[-83.277638,37.777392],[-83.277194,37.777207],[-83.27682,37.777053]]}},{"type":"Feature","properties":{"osm_id":16320939,"highway":"residential","name":"Lykins McCarty Cemetery Road","alt_name":null,"official_name":null,"surface":null,"tracktype":null,"service":null,"access":null,"motor_vehicle":null,"foot":null,"tiger_reviewed":"no","rrgh_part":0,"rrgh_tile_part":0},"geometry":{"type":"LineString","coordinates":[[-83.281008,37.776681],[-83.281197,37.776719],[-83.281337,37.776653],[-83.281589,37.776398],[-83.281814,37.776298],[-83.282108,37.776332],[-83.282178,37.776476]]}},{"type":"Feature","properties":{"osm_id":16317836,"highway":"service","name":null,"alt_name":null,"official_name":null,"surface":null,"tracktype":null,"service":null,"access":"private","motor_vehicle":null,"foot":null,"tiger_reviewed":"no","rrgh_part":0,"rrgh_tile_part":0},"geometry":{"type":"LineString","coordinates":[[-83.276449,37.780859],[-83.276357,37.780808],[-83.275987,37.780597],[-83.275747,37.780537],[-83.275426,37.780533],[-83.275235,37.780491],[-83.27446,37.780068]]}},{"type":"Feature","properties":{"osm_id":16318873,"highway":"residential","name":"Bill F Lacy Cemetery Road","alt_name":null,"official_name":null,"surface":null,"tracktype":null,"service":null,"access":null,"motor_vehicle":null,"foot":null,"tiger_reviewed":"no","rrgh_part":0,"rrgh_tile_part":0},"geometry":{"type":"LineString","coordinates":[[-83.275267,37.783798],[-83.275157,37.783777],[-83.275003,37.783748],[-83.274801,37.783691],[-83.27413,37.783421],[-83.274062,37.78341],[-83.273876,37.78341],[-83.273633,37.783366],[-83.273472,37.783346]]}},{"type":"Feature","properties":{"osm_id":16321194,"highway":"residential","name":"Picnic Road","alt_name":null,"official_name":null,"surface":null,"tracktype":null,"service":null,"access":null,"motor_vehicle":null,"foot":null,"tiger_reviewed":"no","rrgh_part":0,"rrgh_tile_part":0},"geometry":{"type":"LineString","coordinates":[[-83.279132,37.790218],[-83.279171,37.79029],[-83.279357,37.79049],[-83.279412,37.790568],[-83.279504,37.790736],[-83.279527,37.79084],[-83.279647,37.791095],[-83.279835,37.791306],[-83.279909,37.791451],[-83.279958,37.791547],[-83.28009,37.791752],[-83.280161,37.791882]]}},{"type":"Feature","properties":{"osm_id":1347671487,"highway":"service","name":null,"alt_name":null,"official_name":null,"surface":null,"tracktype":null,"service":null,"access":null,"motor_vehicle":null,"foot":null,"tiger_reviewed":null,"rrgh_part":0,"rrgh_tile_part":0},"geometry":{"type":"LineString","coordinates":[[-83.276272,37.7920442],[-83.2767398,37.7915134],[-83.2768516,37.791409],[-83.2769735,37.7913463],[-83.2771036,37.7912837],[-83.2771788,37.791221],[-83.2772297,37.7911552],[-83.27725,37.7910813],[-83.2772439,37.7910186],[-83.2771992,37.7908548],[-83.2771585,37.7908162],[-83.2770833,37.7907729],[-83.2769756,37.7907359],[-83.2768048,37.7907118],[-83.2765162,37.7906941],[-83.2760405,37.7905785],[-83.275945,37.7905399],[-83.2758921,37.7904966],[-83.2758718,37.7904419],[-83.2758657,37.7903873],[-83.275918,37.7900384]]}},{"type":"Feature","properties":{"osm_id":16319764,"highway":"residential","name":"Davis Bridge","alt_name":null,"official_name":null,"surface":null,"tracktype":null,"service":null,"access":null,"motor_vehicle":null,"foot":null,"tiger_reviewed":"no","rrgh_part":0,"rrgh_tile_part":0},"geometry":{"type":"LineString","coordinates":[[-83.2802,37.789776],[-83.280295,37.78979],[-83.280392,37.789771],[-83.280469,37.789745],[-83.280641,37.789671],[-83.280878,37.789535],[-83.281094,37.789442],[-83.281152,37.789428],[-83.281215,37.789426],[-83.281277,37.789441],[-83.281332,37.789466],[-83.281422,37.78954],[-83.281514,37.78967],[-83.281589,37.789874],[-83.281664,37.790151],[-83.281676,37.790263],[-83.281662,37.790316],[-83.281624,37.790386],[-83.281581,37.790426]]}},{"type":"Feature","properties":{"osm_id":16321323,"highway":"residential","name":"Bill F Lacurd","alt_name":null,"official_name":null,"surface":null,"tracktype":null,"service":null,"access":null,"motor_vehicle":null,"foot":null,"tiger_reviewed":"no","rrgh_part":0,"rrgh_tile_part":0},"geometry":{"type":"LineString","coordinates":[[-83.273741,37.788385],[-83.273673,37.788369],[-83.273186,37.788259],[-83.272506,37.788119]]}},{"type":"Feature","properties":{"osm_id":16321470,"highway":"residential","name":"Bill F Lacy Road","alt_name":null,"official_name":null,"surface":null,"tracktype":null,"service":null,"access":null,"motor_vehicle":null,"foot":null,"tiger_reviewed":"no","rrgh_part":0,"rrgh_tile_part":0},"geometry":{"type":"LineString","coordinates":[[-83.2735333,37.7890067],[-83.2730019,37.7889271]]}},{"type":"Feature","properties":{"osm_id":16318945,"highway":"residential","name":"West Wagers Cemetery Road","alt_name":null,"official_name":null,"surface":null,"tracktype":null,"service":null,"access":null,"motor_vehicle":null,"foot":null,"tiger_reviewed":"no","rrgh_part":0,"rrgh_tile_part":0},"geometry":{"type":"LineString","coordinates":[[-83.258195,37.783722],[-83.258316,37.783512],[-83.258408,37.783374],[-83.258425,37.783316],[-83.258421,37.783252],[-83.258405,37.783229],[-83.258374,37.783185],[-83.258322,37.783137],[-83.258284,37.783124],[-83.258214,37.783123]]}},{"type":"Feature","properties":{"osm_id":16322577,"highway":"residential","name":"Brushy Fork Cemetery Road","alt_name":null,"official_name":null,"surface":null,"tracktype":null,"service":null,"access":null,"motor_vehicle":null,"foot":null,"tiger_reviewed":"no","rrgh_part":0,"rrgh_tile_part":0},"geometry":{"type":"LineString","coordinates":[[-83.257717,37.788502],[-83.260925,37.788662]]}},{"type":"Feature","properties":{"osm_id":16322579,"highway":"service","name":"Brushy Fork Cemetery Road","alt_name":null,"official_name":null,"surface":null,"tracktype":null,"service":null,"access":"private","motor_vehicle":null,"foot":null,"tiger_reviewed":"no","rrgh_part":0,"rrgh_tile_part":0},"geometry":{"type":"LineString","coordinates":[[-83.258222,37.788343],[-83.258086,37.788322],[-83.257744,37.788338]]}},{"type":"Feature","properties":{"osm_id":16317996,"highway":"service","name":null,"alt_name":null,"official_name":null,"surface":null,"tracktype":null,"service":null,"access":"private","motor_vehicle":null,"foot":null,"tiger_reviewed":"no","rrgh_part":0,"rrgh_tile_part":0},"geometry":{"type":"LineString","coordinates":[[-83.304542,37.79283],[-83.304369,37.79273],[-83.304293,37.792639]]}},{"type":"Feature","properties":{"osm_id":16317997,"highway":"service","name":null,"alt_name":null,"official_name":null,"surface":null,"tracktype":null,"service":null,"access":"private","motor_vehicle":null,"foot":null,"tiger_reviewed":"no","rrgh_part":0,"rrgh_tile_part":0},"geometry":{"type":"LineString","coordinates":[[-83.304369,37.79273],[-83.304237,37.792723],[-83.304185,37.792718]]}},{"type":"Feature","properties":{"osm_id":16321406,"highway":"residential","name":"Nickell Cemetery No 1 Road","alt_name":null,"official_name":null,"surface":null,"tracktype":null,"service":null,"access":null,"motor_vehicle":null,"foot":null,"tiger_reviewed":"no","rrgh_part":0,"rrgh_tile_part":0},"geometry":{"type":"LineString","coordinates":[[-83.306099,37.793033],[-83.306155,37.794063],[-83.306137,37.794638],[-83.306065,37.79503],[-83.306049,37.795117]]}},{"type":"Feature","properties":{"osm_id":16321857,"highway":"residential","name":"Matt Peyton Road","alt_name":null,"official_name":null,"surface":null,"tracktype":null,"service":null,"access":null,"motor_vehicle":null,"foot":null,"tiger_reviewed":"no","rrgh_part":0,"rrgh_tile_part":0},"geometry":{"type":"LineString","coordinates":[[-83.29975,37.794896],[-83.299624,37.795033],[-83.299337,37.795316],[-83.299131,37.795455],[-83.299044,37.795508],[-83.298588,37.795683],[-83.298071,37.795866],[-83.297943,37.795896],[-83.297786,37.79594],[-83.297312,37.796026],[-83.296939,37.796174],[-83.296662,37.79629],[-83.296403,37.796456],[-83.296228,37.796575],[-83.296084,37.796719]]}},{"type":"Feature","properties":{"osm_id":16317673,"highway":"residential","name":null,"alt_name":null,"official_name":null,"surface":null,"tracktype":null,"service":null,"access":null,"motor_vehicle":null,"foot":null,"tiger_reviewed":"no","rrgh_part":0,"rrgh_tile_part":0},"geometry":{"type":"LineString","coordinates":[[-83.304405,37.804965],[-83.305014,37.805115],[-83.30522,37.80566],[-83.305174,37.805881],[-83.305163,37.805937],[-83.305141,37.805944],[-83.304863,37.80601],[-83.304469,37.806067],[-83.304101,37.80601],[-83.303805,37.805922],[-83.30335,37.805971],[-83.303062,37.805987],[-83.302666,37.805971],[-83.30232,37.805858],[-83.301964,37.805826],[-83.301538,37.805811],[-83.301092,37.805868],[-83.300737,37.805869],[-83.30047,37.805748],[-83.300243,37.805659],[-83.300224,37.805651],[-83.299927,37.805595],[-83.299601,37.805563]]}},{"type":"Feature","properties":{"osm_id":16319390,"highway":"residential","name":"Hoskins Lane","alt_name":null,"official_name":null,"surface":null,"tracktype":null,"service":null,"access":null,"motor_vehicle":null,"foot":null,"tiger_reviewed":"no","rrgh_part":0,"rrgh_tile_part":0},"geometry":{"type":"LineString","coordinates":[[-83.298536,37.814959],[-83.297783,37.81474],[-83.297219,37.814589],[-83.297012,37.814672],[-83.296963,37.814808],[-83.296916,37.814935],[-83.296741,37.81552]]}},{"type":"Feature","properties":{"osm_id":16321873,"highway":"residential","name":"Lykins Cemetery Road","alt_name":null,"official_name":null,"surface":null,"tracktype":null,"service":null,"access":null,"motor_vehicle":null,"foot":null,"tiger_reviewed":"no","rrgh_part":0,"rrgh_tile_part":0},"geometry":{"type":"LineString","coordinates":[[-83.298545,37.811979],[-83.29894,37.812061],[-83.299038,37.812116],[-83.299158,37.812243],[-83.299254,37.812376],[-83.299344,37.812443],[-83.299435,37.812456],[-83.299654,37.81253],[-83.299865,37.812622],[-83.299962,37.812719],[-83.299998,37.812809],[-83.299996,37.812983],[-83.299971,37.813187],[-83.2999,37.813355]]}},{"type":"Feature","properties":{"osm_id":16322445,"highway":"residential","name":"Rupe Lane","alt_name":null,"official_name":null,"surface":null,"tracktype":null,"service":null,"access":null,"motor_vehicle":null,"foot":null,"tiger_reviewed":"no","rrgh_part":0,"rrgh_tile_part":0},"geometry":{"type":"LineString","coordinates":[[-83.296156,37.819099],[-83.296066,37.818941],[-83.295361,37.818067],[-83.295135,37.817357],[-83.294792,37.816861]]}},{"type":"Feature","properties":{"osm_id":16320424,"highway":"residential","name":"George Litteral Road","alt_name":null,"official_name":null,"surface":null,"tracktype":null,"service":null,"access":null,"motor_vehicle":null,"foot":null,"tiger_reviewed":"no","rrgh_part":0,"rrgh_tile_part":0},"geometry":{"type":"LineString","coordinates":[[-83.268796,37.79538],[-83.268786,37.795443],[-83.268798,37.79551],[-83.268829,37.795565],[-83.268881,37.795624],[-83.269004,37.795718],[-83.269207,37.795787],[-83.269324,37.795857],[-83.269356,37.795888],[-83.269369,37.795913],[-83.269364,37.795948],[-83.269334,37.795984],[-83.269153,37.796115],[-83.269081,37.796181],[-83.268964,37.796349],[-83.268905,37.796482],[-83.268884,37.796528],[-83.26883,37.796701],[-83.2688,37.796914],[-83.268801,37.79697],[-83.268835,37.797105],[-83.268876,37.797178]]}},{"type":"Feature","properties":{"osm_id":16320483,"highway":"residential","name":"Mary Hatton Road","alt_name":null,"official_name":null,"surface":null,"tracktype":null,"service":null,"access":null,"motor_vehicle":null,"foot":null,"tiger_reviewed":"no","rrgh_part":0,"rrgh_tile_part":0},"geometry":{"type":"LineString","coordinates":[[-83.263668,37.80096],[-83.263581,37.800843],[-83.263315,37.800795],[-83.263246,37.800759],[-83.26321,37.800697],[-83.263125,37.800622],[-83.263044,37.800569],[-83.262927,37.800448],[-83.262867,37.800344],[-83.26275,37.80021],[-83.262673,37.800146],[-83.262633,37.800114],[-83.262471,37.800006],[-83.26239,37.799921],[-83.262391,37.799882]]}},{"type":"Feature","properties":{"osm_id":16320879,"highway":"residential","name":"Chalmer Benton Road","alt_name":null,"official_name":null,"surface":null,"tracktype":null,"service":null,"access":null,"motor_vehicle":null,"foot":null,"tiger_reviewed":"no","rrgh_part":0,"rrgh_tile_part":0},"geometry":{"type":"LineString","coordinates":[[-83.266437,37.7979298],[-83.2659252,37.7974924]]}},{"type":"Feature","properties":{"osm_id":16322375,"highway":"residential","name":"Benton-Cravens Road","alt_name":null,"official_name":null,"surface":null,"tracktype":null,"service":null,"access":null,"motor_vehicle":null,"foot":null,"tiger_reviewed":"no","rrgh_part":0,"rrgh_tile_part":0},"geometry":{"type":"LineString","coordinates":[[-83.264026,37.799643],[-83.264294,37.79948],[-83.264809,37.799098],[-83.265228,37.798786],[-83.265785,37.798401],[-83.265953,37.79828],[-83.266437,37.7979298],[-83.266919,37.797581],[-83.267042,37.797509],[-83.267108,37.797502],[-83.267172,37.797519],[-83.267224,37.797554],[-83.267622,37.797952],[-83.267683,37.798029]]}},{"type":"Feature","properties":{"osm_id":16322729,"highway":"residential","name":"Raleigh-Allen Road","alt_name":null,"official_name":null,"surface":null,"tracktype":null,"service":null,"access":null,"motor_vehicle":null,"foot":null,"tiger_reviewed":"no","rrgh_part":0,"rrgh_tile_part":0},"geometry":{"type":"LineString","coordinates":[[-83.259282,37.801377],[-83.258777,37.801733],[-83.258701,37.801702],[-83.258638,37.801663],[-83.258372,37.801389],[-83.258259,37.801323],[-83.258187,37.801303],[-83.257789,37.801242],[-83.257707,37.801236],[-83.257543,37.801248],[-83.257461,37.801263],[-83.257386,37.801289],[-83.257245,37.801355],[-83.257076,37.801449],[-83.256894,37.801543],[-83.256397,37.801831],[-83.256285,37.801916],[-83.25619,37.802024],[-83.256095,37.802236],[-83.25595,37.802755],[-83.25587,37.80304],[-83.255882,37.803128],[-83.255906,37.803162],[-83.255947,37.803179],[-83.25599,37.803173],[-83.256023,37.803146],[-83.256099,37.803005]]}},{"type":"Feature","properties":{"osm_id":16322122,"highway":"residential","name":"Raleigh-Allen Spur Road","alt_name":null,"official_name":null,"surface":null,"tracktype":null,"service":null,"access":null,"motor_vehicle":null,"foot":null,"tiger_reviewed":"no","rrgh_part":0,"rrgh_tile_part":0},"geometry":{"type":"LineString","coordinates":[[-83.258777,37.801733],[-83.258614,37.801862],[-83.258461,37.802014],[-83.258111,37.802432],[-83.257999,37.802604]]}},{"type":"Feature","properties":{"osm_id":16319564,"highway":"residential","name":"Bob Bolin Ridge","alt_name":null,"official_name":null,"surface":null,"tracktype":null,"service":null,"access":null,"motor_vehicle":null,"foot":null,"tiger_reviewed":"no","rrgh_part":0,"rrgh_tile_part":0},"geometry":{"type":"LineString","coordinates":[[-83.268328,37.815993],[-83.270314,37.81455],[-83.270414,37.813655],[-83.270093,37.813123],[-83.270011,37.812435],[-83.26995,37.811931],[-83.270545,37.81147],[-83.271735,37.810672],[-83.272591,37.809675],[-83.272855,37.808902],[-83.272618,37.808308],[-83.272462,37.807833]]}},{"type":"Feature","properties":{"osm_id":16320543,"highway":"residential","name":"Stamper Branch Road","alt_name":null,"official_name":null,"surface":null,"tracktype":null,"service":null,"access":null,"motor_vehicle":null,"foot":null,"tiger_reviewed":"no","rrgh_part":0,"rrgh_tile_part":0},"geometry":{"type":"LineString","coordinates":[[-83.27356,37.807173],[-83.273525,37.80719],[-83.273102,37.80724],[-83.272829,37.807303],[-83.27187,37.807438],[-83.271731,37.807473],[-83.27132,37.807608],[-83.271194,37.807635],[-83.270985,37.807696],[-83.27071,37.807789],[-83.270616,37.807805],[-83.270156,37.807736],[-83.270026,37.807735],[-83.269894,37.80775],[-83.269617,37.807797],[-83.269333,37.807845],[-83.268949,37.807962],[-83.268671,37.808023],[-83.268346,37.808117],[-83.268203,37.808172],[-83.267712,37.808396],[-83.267598,37.808433],[-83.26749,37.808458],[-83.267266,37.808451],[-83.267157,37.808468],[-83.267061,37.808512],[-83.266891,37.808653],[-83.266757,37.808744],[-83.266629,37.808792],[-83.265819,37.809016],[-83.265511,37.80913],[-83.265355,37.809172],[-83.265037,37.809222],[-83.264537,37.809268],[-83.264056,37.809345],[-83.263905,37.809359],[-83.263756,37.809383],[-83.263268,37.809512],[-83.262928,37.809549],[-83.262453,37.809484],[-83.262313,37.809465],[-83.261981,37.80937],[-83.26153,37.80921],[-83.261098,37.809078]]}},{"type":"Feature","properties":{"osm_id":16319773,"highway":"service","name":"Memory Hill Lane","alt_name":null,"official_name":null,"surface":null,"tracktype":null,"service":null,"access":"private","motor_vehicle":null,"foot":null,"tiger_reviewed":"no","rrgh_part":0,"rrgh_tile_part":0},"geometry":{"type":"LineString","coordinates":[[-83.261102,37.807908],[-83.260998,37.807901],[-83.260617,37.807905],[-83.260397,37.807935],[-83.260153,37.808],[-83.260114,37.808014],[-83.259656,37.808175],[-83.259581,37.808211]]}},{"type":"Feature","properties":{"osm_id":16317818,"highway":"service","name":null,"alt_name":null,"official_name":null,"surface":null,"tracktype":null,"service":null,"access":"private","motor_vehicle":null,"foot":null,"tiger_reviewed":"no","rrgh_part":0,"rrgh_tile_part":0},"geometry":{"type":"LineString","coordinates":[[-83.257179,37.812936],[-83.2569815,37.8130072],[-83.2566779,37.813237],[-83.2562376,37.8136514],[-83.2560554,37.8137395]]}},{"type":"Feature","properties":{"osm_id":16320037,"highway":"residential","name":"Stinson Branch Road","alt_name":null,"official_name":null,"surface":null,"tracktype":null,"service":null,"access":null,"motor_vehicle":null,"foot":null,"tiger_reviewed":"no","rrgh_part":0,"rrgh_tile_part":0},"geometry":{"type":"LineString","coordinates":[[-83.25,37.808747043879904],[-83.250027,37.808766],[-83.250475,37.809078],[-83.251271,37.809511],[-83.251441,37.80964],[-83.25197,37.809956],[-83.252258,37.810097],[-83.252811,37.810311],[-83.253167,37.810514],[-83.253278,37.810577],[-83.253312,37.810589],[-83.253539,37.810671],[-83.253685,37.810723],[-83.25381,37.810788],[-83.253848,37.810813],[-83.254028,37.810935],[-83.254234,37.811054],[-83.254782,37.811568],[-83.255171,37.811985],[-83.255308,37.812114],[-83.255383,37.812171],[-83.255472,37.812212],[-83.25557,37.812231],[-83.25567,37.812231],[-83.255875,37.812207],[-83.255977,37.812213],[-83.256091,37.812237],[-83.256438,37.812399],[-83.256736,37.81263],[-83.25694,37.812825],[-83.257179,37.812936],[-83.257524,37.813004],[-83.257592,37.813017],[-83.257648,37.813028],[-83.257852,37.813068],[-83.257967,37.813102],[-83.258073,37.813147],[-83.258249,37.813271],[-83.258626,37.813614]]}},{"type":"Feature","properties":{"osm_id":16320337,"highway":"residential","name":"Howard Fork","alt_name":null,"official_name":null,"surface":null,"tracktype":null,"service":null,"access":null,"motor_vehicle":null,"foot":null,"tiger_reviewed":"no","rrgh_part":0,"rrgh_tile_part":0},"geometry":{"type":"LineString","coordinates":[[-83.262453,37.809484],[-83.262625,37.809676],[-83.262725,37.809746],[-83.262784,37.809777],[-83.263066,37.809872],[-83.263138,37.809908],[-83.26334,37.810047],[-83.263476,37.810156],[-83.263644,37.81026],[-83.263948,37.810424],[-83.264398,37.810621],[-83.264632,37.810744],[-83.264879,37.81084],[-83.26535,37.811],[-83.265609,37.811101],[-83.265785,37.811146]]}},{"type":"Feature","properties":{"osm_id":16322268,"highway":"residential","name":"Morris Cemetery Road","alt_name":null,"official_name":null,"surface":null,"tracktype":null,"service":null,"access":null,"motor_vehicle":null,"foot":null,"tiger_reviewed":"no","rrgh_part":0,"rrgh_tile_part":0},"geometry":{"type":"LineString","coordinates":[[-83.260899,37.811022],[-83.261362,37.811068],[-83.261445,37.811072],[-83.261525,37.811062],[-83.261657,37.810997],[-83.261908,37.810789],[-83.262052,37.810693],[-83.262282,37.810574],[-83.262475,37.810532],[-83.262576,37.81053],[-83.262673,37.810543],[-83.262755,37.810572],[-83.262806,37.810612],[-83.262827,37.810664],[-83.262789,37.810766],[-83.262632,37.810941],[-83.262572,37.811047],[-83.262559,37.811111],[-83.262564,37.811175],[-83.262586,37.811229],[-83.262629,37.811269],[-83.262758,37.811306],[-83.263147,37.811283],[-83.263249,37.811284],[-83.26335,37.811305],[-83.26343,37.81133],[-83.26351,37.811368],[-83.263576,37.811411],[-83.263629,37.811469],[-83.263655,37.811535],[-83.263661,37.811621],[-83.263653,37.811704],[-83.26361,37.811941],[-83.263522,37.812193],[-83.263526,37.812297],[-83.263566,37.812419],[-83.263608,37.812488],[-83.263677,37.812645],[-83.263813,37.812801],[-83.263927,37.812873],[-83.263952,37.812888],[-83.264033,37.81292],[-83.264211,37.81297],[-83.264385,37.81297],[-83.264572,37.812955],[-83.264676,37.812963],[-83.265199,37.813121],[-83.265559,37.813249],[-83.265824,37.813294],[-83.265943,37.813306],[-83.266192,37.81331],[-83.266295,37.813327],[-83.266381,37.81336],[-83.266451,37.813401],[-83.266507,37.813453],[-83.266648,37.813701],[-83.26696,37.81418],[-83.267255,37.814584],[-83.267415,37.814749],[-83.267779,37.81516],[-83.268216,37.815597],[-83.268265,37.815677],[-83.268318,37.815852],[-83.268328,37.815993],[-83.268336,37.816115],[-83.268278,37.816469],[-83.268261,37.816682],[-83.268306,37.816818],[-83.268399,37.816947],[-83.268568,37.817137],[-83.268695,37.817251],[-83.268768,37.817295],[-83.268861,37.817326],[-83.268951,37.817343],[-83.269145,37.817355],[-83.269389,37.817329],[-83.269569,37.817294],[-83.269773,37.817267],[-83.269899,37.817282]]}},{"type":"Feature","properties":{"osm_id":16317646,"highway":"residential","name":null,"alt_name":null,"official_name":null,"surface":null,"tracktype":null,"service":null,"access":null,"motor_vehicle":null,"foot":null,"tiger_reviewed":"no","rrgh_part":0,"rrgh_tile_part":0},"geometry":{"type":"LineString","coordinates":[[-83.263781,37.813477],[-83.263927,37.812873]]}},{"type":"Feature","properties":{"osm_id":16319849,"highway":"residential","name":"Green Frisby Road","alt_name":null,"official_name":null,"surface":null,"tracktype":null,"service":null,"access":null,"motor_vehicle":null,"foot":null,"tiger_reviewed":"no","rrgh_part":0,"rrgh_tile_part":0},"geometry":{"type":"LineString","coordinates":[[-83.260434,37.81188],[-83.260604,37.811971],[-83.260802,37.81217],[-83.260898,37.812317],[-83.260897,37.812423],[-83.260917,37.812562],[-83.260966,37.812677],[-83.261168,37.812834],[-83.261511,37.813049],[-83.261844,37.813297],[-83.262147,37.813609],[-83.262298,37.81379],[-83.262449,37.81393],[-83.262702,37.814039],[-83.263086,37.814197],[-83.263328,37.814355]]}},{"type":"Feature","properties":{"osm_id":16322322,"highway":"residential","name":"Nickell Branch-Elmer Stacy Road","alt_name":null,"official_name":null,"surface":null,"tracktype":null,"service":null,"access":null,"motor_vehicle":null,"foot":null,"tiger_reviewed":"no","rrgh_part":0,"rrgh_tile_part":0},"geometry":{"type":"LineString","coordinates":[[-83.294227,37.82071],[-83.294307,37.820819],[-83.294352,37.820932],[-83.294376,37.821077],[-83.294465,37.822334],[-83.294579,37.822516],[-83.294592,37.822575],[-83.29459,37.822679],[-83.294449,37.823165],[-83.294256,37.823303],[-83.293904,37.823464],[-83.293733,37.823506],[-83.293679,37.823528],[-83.293596,37.823608],[-83.293542,37.8237],[-83.293484,37.824003],[-83.293522,37.824091],[-83.293643,37.824233],[-83.294096,37.824505],[-83.294465,37.824775],[-83.294612,37.824856],[-83.29487,37.824917],[-83.295059,37.824912],[-83.295298,37.824966],[-83.295393625,37.825]]}},{"type":"Feature","properties":{"osm_id":16322322,"highway":"residential","name":"Nickell Branch-Elmer Stacy Road","alt_name":null,"official_name":null,"surface":null,"tracktype":null,"service":null,"access":null,"motor_vehicle":null,"foot":null,"tiger_reviewed":"no","rrgh_part":0,"rrgh_tile_part":1},"geometry":{"type":"LineString","coordinates":[[-83.29652711874999,37.825],[-83.296756,37.824883],[-83.296972,37.8248],[-83.297104,37.824799],[-83.297172,37.824822],[-83.297236,37.824859],[-83.297287,37.8249],[-83.29738021266968,37.825]]}},{"type":"Feature","properties":{"osm_id":16322322,"highway":"residential","name":"Nickell Branch-Elmer Stacy Road","alt_name":null,"official_name":null,"surface":null,"tracktype":null,"service":null,"access":null,"motor_vehicle":null,"foot":null,"tiger_reviewed":"no","rrgh_part":0,"rrgh_tile_part":2},"geometry":{"type":"LineString","coordinates":[[-83.29978162686565,37.825],[-83.299943,37.824949],[-83.300117,37.824872],[-83.300168,37.824816],[-83.300237,37.824672],[-83.300268,37.82465],[-83.300334,37.824643],[-83.300385,37.824647],[-83.300667,37.824792],[-83.300863,37.82487],[-83.301063,37.824931],[-83.3013575769231,37.825]]}},{"type":"Feature","properties":{"osm_id":16322322,"highway":"residential","name":"Nickell Branch-Elmer Stacy Road","alt_name":null,"official_name":null,"surface":null,"tracktype":null,"service":null,"access":null,"motor_vehicle":null,"foot":null,"tiger_reviewed":"no","rrgh_part":0,"rrgh_tile_part":3},"geometry":{"type":"LineString","coordinates":[[-83.302487,37.825],[-83.303255,37.82492],[-83.303405,37.824924],[-83.303534,37.824946],[-83.30373363636365,37.825]]}},{"type":"Feature","properties":{"osm_id":16320726,"highway":"residential","name":"Walters Cemetery Road","alt_name":null,"official_name":null,"surface":null,"tracktype":null,"service":null,"access":null,"motor_vehicle":null,"foot":null,"tiger_reviewed":"no","rrgh_part":0,"rrgh_tile_part":0},"geometry":{"type":"LineString","coordinates":[[-83.314079,37.817822],[-83.313775,37.817934],[-83.313604,37.817978],[-83.313138,37.818183],[-83.31301,37.818206],[-83.312928,37.818191],[-83.312893,37.818163],[-83.312871,37.818128],[-83.312899,37.818045],[-83.313006,37.817852],[-83.312989,37.817807],[-83.31295,37.817754],[-83.312855,37.817712],[-83.312706,37.817679],[-83.312593,37.817685],[-83.312536,37.817713]]}},{"type":"Feature","properties":{"osm_id":16321996,"highway":"residential","name":"Testerman Cemetery Road","alt_name":null,"official_name":null,"surface":null,"tracktype":null,"service":null,"access":null,"motor_vehicle":null,"foot":null,"tiger_reviewed":"no","rrgh_part":0,"rrgh_tile_part":0},"geometry":{"type":"LineString","coordinates":[[-83.300117,37.824872],[-83.299978,37.824993],[-83.29996729411764,37.825]]}},{"type":"Feature","properties":{"osm_id":16321284,"highway":"residential","name":"Bentley Cemetery Road","alt_name":null,"official_name":null,"surface":null,"tracktype":null,"service":null,"access":null,"motor_vehicle":null,"foot":null,"tiger_reviewed":"no","rrgh_part":0,"rrgh_tile_part":0},"geometry":{"type":"LineString","coordinates":[[-83.291475,37.820874],[-83.291448,37.821006],[-83.29146,37.821208],[-83.291328,37.821191],[-83.291196,37.821196]]}},{"type":"Feature","properties":{"osm_id":16317828,"highway":"service","name":null,"alt_name":null,"official_name":null,"surface":null,"tracktype":null,"service":null,"access":"private","motor_vehicle":null,"foot":null,"tiger_reviewed":"no","rrgh_part":0,"rrgh_tile_part":0},"geometry":{"type":"LineString","coordinates":[[-83.289838,37.820803],[-83.28973,37.820947],[-83.289564,37.821338],[-83.289526,37.821683],[-83.289558,37.821864],[-83.289627,37.822157],[-83.289692,37.822734],[-83.289842,37.822988],[-83.290094,37.823204],[-83.290711,37.823532],[-83.290962,37.823809],[-83.291306,37.823998]]}},{"type":"Feature","properties":{"osm_id":16320712,"highway":"residential","name":"Homer Stacy Road","alt_name":null,"official_name":null,"surface":null,"tracktype":null,"service":null,"access":null,"motor_vehicle":null,"foot":null,"tiger_reviewed":"no","rrgh_part":0,"rrgh_tile_part":0},"geometry":{"type":"LineString","coordinates":[[-83.279875,37.823991],[-83.279748,37.82391],[-83.279707,37.82387],[-83.279667,37.823831],[-83.279542,37.823575],[-83.279311,37.823315],[-83.279228,37.82316],[-83.279148,37.822914],[-83.279096,37.822844],[-83.279023,37.822785],[-83.278935,37.822738],[-83.278583,37.82257],[-83.278478,37.822468],[-83.278407,37.822375],[-83.278404,37.822332],[-83.278427,37.82229],[-83.278502,37.822213],[-83.278643,37.822017],[-83.278681,37.821932],[-83.278757,37.821761],[-83.278774,37.821646],[-83.278758,37.821573],[-83.278733,37.821525],[-83.278672,37.821414],[-83.27867,37.821388],[-83.278781,37.821268],[-83.278798,37.82125]]}},{"type":"Feature","properties":{"osm_id":16320714,"highway":"residential","name":"Homer Stacy Road","alt_name":null,"official_name":null,"surface":null,"tracktype":null,"service":null,"access":null,"motor_vehicle":null,"foot":null,"tiger_reviewed":"no","rrgh_part":0,"rrgh_tile_part":0},"geometry":{"type":"LineString","coordinates":[[-83.278681,37.821932],[-83.279123,37.821678],[-83.27916,37.821657],[-83.279656,37.821006]]}},{"type":"Feature","properties":{"osm_id":16318508,"highway":"residential","name":"Hammond Bridge","alt_name":null,"official_name":null,"surface":null,"tracktype":null,"service":null,"access":null,"motor_vehicle":null,"foot":null,"tiger_reviewed":"no","rrgh_part":0,"rrgh_tile_part":0},"geometry":{"type":"LineString","coordinates":[[-83.255739,37.821334],[-83.256383,37.821653],[-83.257141,37.821766],[-83.2586,37.821854],[-83.260672,37.822627],[-83.263332,37.823877]]}},{"type":"Feature","properties":{"osm_id":16298131,"highway":"residential","name":"Orbin Oney Spur Road","alt_name":null,"official_name":null,"surface":null,"tracktype":null,"service":null,"access":null,"motor_vehicle":null,"foot":null,"tiger_reviewed":"no","rrgh_part":0,"rrgh_tile_part":0},"geometry":{"type":"LineString","coordinates":[[-83.25,37.769067332],[-83.250418,37.768702],[-83.250538,37.768558]]}},{"type":"Feature","properties":{"osm_id":16318974,"highway":"residential","name":"Yearling Branch Road","alt_name":null,"official_name":null,"surface":null,"tracktype":null,"service":null,"access":null,"motor_vehicle":null,"foot":null,"tiger_reviewed":"no","rrgh_part":0,"rrgh_tile_part":0},"geometry":{"type":"LineString","coordinates":[[-83.25,37.79260524774775],[-83.250115,37.79267],[-83.250242,37.792708],[-83.250352,37.7928],[-83.250879,37.793072],[-83.251551,37.793374],[-83.251754,37.793478],[-83.252143,37.793637],[-83.252343,37.793702],[-83.252791,37.793812],[-83.253123,37.793893],[-83.253412,37.79398],[-83.253591,37.794018],[-83.254164,37.794092],[-83.254586,37.794181],[-83.25513,37.794259]]}},{"type":"Feature","properties":{"osm_id":16322016,"highway":"residential","name":"Murray Hatton Road","alt_name":null,"official_name":null,"surface":null,"tracktype":null,"service":null,"access":null,"motor_vehicle":null,"foot":null,"tiger_reviewed":"no","rrgh_part":0,"rrgh_tile_part":0},"geometry":{"type":"LineString","coordinates":[[-83.251419,37.801092],[-83.251397,37.80113],[-83.251346,37.801146],[-83.251298,37.801148],[-83.251109,37.801143],[-83.250941,37.801116],[-83.250526,37.801081],[-83.250277,37.801099],[-83.25,37.801166744565215]]}},{"type":"Feature","properties":{"osm_id":16322731,"highway":"residential","name":"Raleigh-Allen Road","alt_name":null,"official_name":null,"surface":null,"tracktype":null,"service":null,"access":null,"motor_vehicle":null,"foot":null,"tiger_reviewed":"no","rrgh_part":0,"rrgh_tile_part":0},"geometry":{"type":"LineString","coordinates":[[-83.25595,37.802755],[-83.25475,37.803732]]}},{"type":"Feature","properties":{"osm_id":16317811,"highway":"residential","name":null,"alt_name":null,"official_name":null,"surface":null,"tracktype":null,"service":null,"access":null,"motor_vehicle":null,"foot":null,"tiger_reviewed":"no","rrgh_part":0,"rrgh_tile_part":0},"geometry":{"type":"LineString","coordinates":[[-83.253312,37.810589],[-83.25271,37.811266],[-83.252676,37.811421],[-83.252826,37.811675],[-83.25313,37.811898],[-83.253726,37.812508]]}},{"type":"Feature","properties":{"osm_id":16321866,"highway":"residential","name":"Benton Branch Road","alt_name":null,"official_name":null,"surface":null,"tracktype":null,"service":null,"access":null,"motor_vehicle":null,"foot":null,"tiger_reviewed":"no","rrgh_part":0,"rrgh_tile_part":0},"geometry":{"type":"LineString","coordinates":[[-83.250838,37.816485],[-83.250876,37.816576],[-83.250952,37.816658],[-83.25157,37.816937],[-83.251821,37.817023],[-83.252223,37.81711],[-83.252648,37.817231],[-83.253122,37.817408],[-83.253184,37.817431],[-83.253323,37.817461],[-83.253603,37.817494],[-83.253739,37.817499],[-83.253998,37.817487],[-83.254258,37.817488],[-83.254513,37.817466],[-83.25489,37.817468],[-83.254994,37.817468],[-83.255292,37.817498],[-83.255441,37.817513],[-83.256087,37.817609]]}},{"type":"Feature","properties":{"osm_id":16322784,"highway":"residential","name":"Hatton Road","alt_name":null,"official_name":null,"surface":null,"tracktype":null,"service":null,"access":null,"motor_vehicle":null,"foot":null,"tiger_reviewed":"no","rrgh_part":0,"rrgh_tile_part":0},"geometry":{"type":"LineString","coordinates":[[-83.255782,37.820585],[-83.255844,37.82067],[-83.25584,37.820941],[-83.255813,37.82116],[-83.25579,37.821214],[-83.255739,37.821334],[-83.255718,37.821383],[-83.255586,37.821586],[-83.255502,37.821692],[-83.255308,37.821897],[-83.255069,37.82208],[-83.254785,37.822228],[-83.254185,37.822494],[-83.253919,37.822661],[-83.253803,37.822759],[-83.253696,37.822864],[-83.253521,37.823095],[-83.253451,37.823224],[-83.25332,37.823531],[-83.253209,37.824012],[-83.25312,37.824345],[-83.253117,37.82454],[-83.25300985714286,37.825]]}}],"rrgh_tile":{"id":"r5c8","bounds":[37.75,-83.33500000000001,37.825,-83.25]}}
