{"type":"FeatureCollection","features":[{"type":"Feature","properties":{"osm_id":16337565,"highway":"residential","name":"Pecks Creek Road","alt_name":null,"official_name":null,"surface":null,"tracktype":null,"service":null,"access":null,"motor_vehicle":null,"foot":null,"tiger_reviewed":"no","rrgh_part":0,"rrgh_tile_part":0},"geometry":{"type":"LineString","coordinates":[[-83.83027173449132,37.825],[-83.830003,37.825228],[-83.829743,37.825474],[-83.829467,37.825701],[-83.829337,37.825836],[-83.82924,37.826002],[-83.829228,37.82603],[-83.829095,37.826344],[-83.82897,37.826581],[-83.828472,37.827352],[-83.828327,37.827644],[-83.828299,37.827717],[-83.828265,37.82787],[-83.828256,37.82803],[-83.8282593,37.8281564],[-83.828264,37.828337],[-83.828204,37.828554],[-83.828075,37.828689],[-83.828055,37.82871],[-83.827779,37.828869],[-83.827689,37.828948],[-83.82762,37.829028],[-83.827392,37.829686],[-83.827366,37.829988],[-83.827331,37.830146],[-83.827279,37.830295],[-83.827235,37.830367],[-83.827178,37.830433],[-83.8270915,37.8305113],[-83.8270309,37.8305592],[-83.8269197,37.830609],[-83.8267569,37.8306519],[-83.826534,37.830734],[-83.826473,37.830775],[-83.826421,37.830826],[-83.826345,37.830949],[-83.82627,37.831163],[-83.826189,37.831305],[-83.826129,37.831372],[-83.82583,37.831636],[-83.825618,37.831844],[-83.825533,37.831908],[-83.825445,37.831959],[-83.825069,37.832109],[-83.824908,37.832188],[-83.824777,37.832291],[-83.824718,37.832352],[-83.824357,37.832807],[-83.824061,37.83322],[-83.823964,37.833396],[-83.823635,37.834069],[-83.823587,37.834148],[-83.823372,37.834427],[-83.823313,37.83453],[-83.823282,37.834622],[-83.823228,37.834976],[-83.823195,37.83524],[-83.823202,37.835326],[-83.823223,37.83542],[-83.823281,37.835595],[-83.823478,37.836033],[-83.823592,37.836398],[-83.823664,37.836896],[-83.823681,37.837189],[-83.823665,37.837361],[-83.823643,37.83744],[-83.823585,37.837584],[-83.823499,37.837719],[-83.823436,37.837869],[-83.823412,37.838037],[-83.823413,37.838125],[-83.823425,37.838214],[-83.823454,37.838304],[-83.823493,37.838393],[-83.823588,37.838545],[-83.82365,37.838623],[-83.823724,37.83869],[-83.823811,37.83875],[-83.824014,37.83886],[-83.824229,37.838954],[-83.82469,37.839127],[-83.824844,37.839185],[-83.825012,37.839266],[-83.825074,37.839315],[-83.82512,37.839369],[-83.825147,37.839419],[-83.82516,37.839482],[-83.825151,37.839538],[-83.82512,37.839599],[-83.825089,37.83964],[-83.824987,37.839731],[-83.824795,37.83986],[-83.824744,37.839914],[-83.82448,37.840326],[-83.824392,37.840485],[-83.824319,37.84066],[-83.82427,37.84085],[-83.824237,37.841049],[-83.824222,37.841252],[-83.824238,37.841564],[-83.824269,37.841763],[-83.824302,37.841859],[-83.82439,37.842035],[-83.824499,37.842196],[-83.824757,37.842472],[-83.824814,37.842545],[-83.824848,37.842606],[-83.824865,37.84268],[-83.824857,37.842757],[-83.824827,37.842832],[-83.82478,37.842903],[-83.82472,37.842967],[-83.82465,37.843018],[-83.824562,37.843064],[-83.824469,37.843096],[-83.824368,37.843116],[-83.824006,37.843154],[-83.820795,37.843357],[-83.81954,37.843445],[-83.818321,37.843518],[-83.817944,37.843541],[-83.817681,37.843548],[-83.817423,37.843543],[-83.817167,37.843522],[-83.816566,37.843448],[-83.816249,37.843389],[-83.816049,37.843334],[-83.815865,37.843268],[-83.815521,37.843113],[-83.815198,37.842954],[-83.815056,37.8429],[-83.814988,37.842892],[-83.814923,37.842896],[-83.814862,37.842915],[-83.81481,37.842944],[-83.814645,37.843074]]}},{"type":"Feature","properties":{"osm_id":16335982,"highway":"track","name":null,"alt_name":null,"official_name":null,"surface":null,"tracktype":null,"service":null,"access":"private","motor_vehicle":null,"foot":null,"tiger_reviewed":"no","rrgh_part":0,"rrgh_tile_part":0},"geometry":{"type":"LineString","coordinates":[[-83.839018,37.82993],[-83.838897,37.829811],[-83.838745,37.82994],[-83.838673,37.830158],[-83.838622,37.830327],[-83.838541,37.830456],[-83.838175,37.830722],[-83.838063,37.830932],[-83.83785,37.831779],[-83.837646,37.832239],[-83.837382,37.832796],[-83.837219,37.833021],[-83.837107,37.833102],[-83.836863,37.833167],[-83.836447,37.833199],[-83.836,37.83332],[-83.835624,37.833497],[-83.835349,37.833788],[-83.835085,37.834191],[-83.834617,37.834949]]}},{"type":"Feature","properties":{"osm_id":16339347,"highway":"residential","name":"East Pendleton Street","alt_name":null,"official_name":null,"surface":null,"tracktype":null,"service":null,"access":null,"motor_vehicle":null,"foot":null,"tiger_reviewed":"no","rrgh_part":0,"rrgh_tile_part":0},"geometry":{"type":"LineString","coordinates":[[-83.845,37.841580092879255],[-83.844974,37.841578],[-83.844885,37.841565],[-83.844613,37.841507],[-83.844443,37.841458],[-83.843599,37.841182],[-83.843396,37.8411],[-83.843201,37.841009],[-83.842998,37.840922],[-83.842571,37.840761],[-83.842232,37.840652],[-83.841683,37.84049],[-83.841384,37.840393],[-83.841205,37.840328],[-83.840985,37.84024],[-83.840919,37.840219],[-83.840853,37.840208],[-83.840789,37.840212],[-83.840729,37.840226]]}},{"type":"Feature","properties":{"osm_id":16337213,"highway":"residential","name":"Baker Drive","alt_name":null,"official_name":null,"surface":null,"tracktype":null,"service":null,"access":null,"motor_vehicle":null,"foot":null,"tiger_reviewed":"no","rrgh_part":0,"rrgh_tile_part":0},"geometry":{"type":"LineString","coordinates":[[-83.845,37.84502053398058],[-83.844981,37.845015],[-83.844101,37.844715],[-83.844009,37.844669],[-83.843981,37.844635],[-83.843969,37.844597],[-83.843981,37.844518],[-83.844321,37.84346]]}},{"type":"Feature","properties":{"osm_id":1104201800,"highway":"service","name":null,"alt_name":null,"official_name":null,"surface":null,"tracktype":null,"service":null,"access":null,"motor_vehicle":null,"foot":null,"tiger_reviewed":null,"rrgh_part":0,"rrgh_tile_part":0},"geometry":{"type":"LineString","coordinates":[[-83.8387745,37.8439381],[-83.8386869,37.8437556],[-83.8386789,37.843709],[-83.8387325,37.8434951],[-83.8387138,37.8434273],[-83.838526,37.8432282],[-83.8384429,37.8432409],[-83.8382605,37.8433108],[-83.8381398,37.8433934]]}},{"type":"Feature","properties":{"osm_id":1284852163,"highway":"service","name":null,"alt_name":null,"official_name":null,"surface":null,"tracktype":null,"service":null,"access":"no","motor_vehicle":null,"foot":null,"tiger_reviewed":null,"rrgh_part":0,"rrgh_tile_part":0},"geometry":{"type":"LineString","coordinates":[[-83.8404275,37.8423193],[-83.8403784,37.8420845],[-83.8403507,37.8419486],[-83.8401744,37.8412442],[-83.8401164,37.8410127],[-83.8400526,37.8407575],[-83.8400012,37.8405521]]}},{"type":"Feature","properties":{"osm_id":1524804261,"highway":"service","name":null,"alt_name":null,"official_name":null,"surface":null,"tracktype":null,"service":null,"access":"no","motor_vehicle":null,"foot":null,"tiger_reviewed":"no","rrgh_part":0,"rrgh_tile_part":0},"geometry":{"type":"LineString","coordinates":[[-83.840729,37.840226],[-83.8402404,37.840405],[-83.8401492,37.8404431],[-83.8400962,37.8404704],[-83.8400484,37.8405067],[-83.8400012,37.8405521],[-83.8399775,37.8405749],[-83.8399375,37.8406053],[-83.839842,37.8406539],[-83.8395169,37.8408133],[-83.8393939,37.8408626],[-83.8393197,37.8408924],[-83.8391472,37.8409581],[-83.8390486,37.8409836],[-83.838876,37.8410189]]}},{"type":"Feature","properties":{"osm_id":1284852162,"highway":"service","name":null,"alt_name":null,"official_name":null,"surface":null,"tracktype":null,"service":"emergency_access","access":"no","motor_vehicle":null,"foot":null,"tiger_reviewed":null,"rrgh_part":0,"rrgh_tile_part":0},"geometry":{"type":"LineString","coordinates":[[-83.8404275,37.8423193],[-83.8404737,37.842514]]}},{"type":"Feature","properties":{"osm_id":16338152,"highway":"residential","name":"Railroad Street","alt_name":null,"official_name":null,"surface":null,"tracktype":null,"service":null,"access":null,"motor_vehicle":null,"foot":null,"tiger_reviewed":"no","rrgh_part":0,"rrgh_tile_part":0},"geometry":{"type":"LineString","coordinates":[[-83.844095,37.845878],[-83.845,37.845827506437764]]}},{"type":"Feature","properties":{"osm_id":16335857,"highway":"residential","name":null,"alt_name":null,"official_name":null,"surface":null,"tracktype":null,"service":null,"access":null,"motor_vehicle":null,"foot":null,"tiger_reviewed":"no","rrgh_part":0,"rrgh_tile_part":0},"geometry":{"type":"LineString","coordinates":[[-83.845,37.846252286063574],[-83.844937,37.846333]]}},{"type":"Feature","properties":{"osm_id":16336254,"highway":"residential","name":"Plum Street","alt_name":null,"official_name":null,"surface":null,"tracktype":null,"service":null,"access":null,"motor_vehicle":null,"foot":null,"tiger_reviewed":"no","rrgh_part":0,"rrgh_tile_part":0},"geometry":{"type":"LineString","coordinates":[[-83.845,37.84818618965517],[-83.84439,37.848406],[-83.843805,37.848613],[-83.843255,37.84882],[-83.842938,37.848915]]}},{"type":"Feature","properties":{"osm_id":16337455,"highway":"residential","name":"Oak Street","alt_name":null,"official_name":null,"surface":null,"tracktype":null,"service":null,"access":null,"motor_vehicle":null,"foot":null,"tiger_reviewed":"no","rrgh_part":0,"rrgh_tile_part":0},"geometry":{"type":"LineString","coordinates":[[-83.845,37.84709090578999],[-83.844312,37.848051],[-83.844282,37.848131],[-83.844287,37.848175],[-83.844312,37.848256],[-83.84439,37.848406]]}},{"type":"Feature","properties":{"osm_id":16338649,"highway":"residential","name":"Green Way Road","alt_name":null,"official_name":null,"surface":null,"tracktype":null,"service":null,"access":null,"motor_vehicle":null,"foot":null,"tiger_reviewed":"no","rrgh_part":0,"rrgh_tile_part":0},"geometry":{"type":"LineString","coordinates":[[-83.835325,37.844652],[-83.835378,37.844799],[-83.835503,37.845034],[-83.835712,37.845569],[-83.835751,37.845626],[-83.83584,37.845675],[-83.835928,37.845686],[-83.83604,37.84568],[-83.836798,37.845595],[-83.837525,37.845472],[-83.837586,37.845462],[-83.837999,37.845405]]}},{"type":"Feature","properties":{"osm_id":1374139724,"highway":"service","name":null,"alt_name":null,"official_name":null,"surface":"paved","tracktype":null,"service":null,"access":null,"motor_vehicle":null,"foot":null,"tiger_reviewed":null,"rrgh_part":0,"rrgh_tile_part":0},"geometry":{"type":"LineString","coordinates":[[-83.8386339,37.8439555],[-83.838711,37.8443445],[-83.8386872,37.8444072],[-83.8386703,37.8448523],[-83.8386449,37.8448858],[-83.8379133,37.844984]]}},{"type":"Feature","properties":{"osm_id":16336789,"highway":"residential","name":"Landy Drive","alt_name":null,"official_name":null,"surface":null,"tracktype":null,"service":null,"access":null,"motor_vehicle":null,"foot":null,"tiger_reviewed":"no","rrgh_part":0,"rrgh_tile_part":0},"geometry":{"type":"LineString","coordinates":[[-83.840656,37.852118],[-83.839569,37.851817],[-83.838397,37.851474]]}},{"type":"Feature","properties":{"osm_id":16338613,"highway":"residential","name":"Derickson Lane","alt_name":null,"official_name":null,"surface":null,"tracktype":null,"service":null,"access":null,"motor_vehicle":null,"foot":null,"tiger_reviewed":"no","rrgh_part":0,"rrgh_tile_part":0},"geometry":{"type":"LineString","coordinates":[[-83.837728,37.844074],[-83.83776,37.844293],[-83.837859,37.844717],[-83.8379133,37.844984],[-83.837999,37.845405],[-83.838041,37.845666],[-83.838059,37.846048],[-83.838082,37.846194],[-83.838154,37.846334],[-83.838229,37.846438],[-83.838476,37.846778],[-83.838551,37.84694],[-83.838719,37.847651],[-83.838754,37.847856],[-83.8389486,37.8487761],[-83.838998,37.84901],[-83.839046,37.849175],[-83.839086,37.849255],[-83.83914,37.849332],[-83.839277,37.849476],[-83.839347,37.849537],[-83.839515,37.849684],[-83.840173,37.850221],[-83.840321,37.850364],[-83.840433,37.850521],[-83.840501,37.850696],[-83.840528,37.850884],[-83.840492,37.85146],[-83.840484,37.85158],[-83.840478,37.85176],[-83.840486,37.851836],[-83.840536,37.851964],[-83.840656,37.852118],[-83.840736,37.852156],[-83.840819,37.852195],[-83.841471,37.852568],[-83.841594,37.852651],[-83.841636,37.852695],[-83.841656,37.852741],[-83.841661,37.852792],[-83.841644,37.852838],[-83.841609,37.852879],[-83.841561,37.852915],[-83.840648,37.853418],[-83.840355,37.853545],[-83.840202,37.853625],[-83.840166,37.853661],[-83.840145,37.853704],[-83.84014,37.853749],[-83.840166,37.853834],[-83.840281,37.854028]]}},{"type":"Feature","properties":{"osm_id":16335928,"highway":"service","name":null,"alt_name":null,"official_name":null,"surface":null,"tracktype":null,"service":null,"access":"private","motor_vehicle":null,"foot":null,"tiger_reviewed":"no","rrgh_part":0,"rrgh_tile_part":0},"geometry":{"type":"LineString","coordinates":[[-83.841656,37.852741],[-83.841734,37.852727],[-83.841765,37.852701]]}},{"type":"Feature","properties":{"osm_id":16336792,"highway":"residential","name":"Landy Drive","alt_name":null,"official_name":null,"surface":null,"tracktype":null,"service":null,"access":null,"motor_vehicle":null,"foot":null,"tiger_reviewed":"no","rrgh_part":0,"rrgh_tile_part":0},"geometry":{"type":"LineString","coordinates":[[-83.836455,37.853326],[-83.836199,37.853305],[-83.835826,37.853257],[-83.835472,37.85323]]}},{"type":"Feature","properties":{"osm_id":16337797,"highway":"residential","name":"Wilda Lane","alt_name":null,"official_name":null,"surface":null,"tracktype":null,"service":null,"access":null,"motor_vehicle":null,"foot":null,"tiger_reviewed":"no","rrgh_part":0,"rrgh_tile_part":0},"geometry":{"type":"LineString","coordinates":[[-83.838397,37.851474],[-83.838045,37.851371],[-83.837921,37.851366],[-83.837865,37.851379],[-83.837816,37.851404],[-83.837777,37.851443],[-83.837732,37.851547],[-83.837517,37.852487],[-83.837399,37.853079],[-83.83736,37.8532],[-83.83733,37.853244],[-83.837274,37.8533],[-83.837198,37.853339],[-83.83713,37.853359],[-83.837055,37.853369],[-83.836572,37.853319],[-83.836455,37.853326],[-83.83638,37.853366],[-83.836321,37.853425],[-83.835376,37.854692]]}},{"type":"Feature","properties":{"osm_id":16334992,"highway":"residential","name":"Smallwood Road","alt_name":null,"official_name":null,"surface":null,"tracktype":null,"service":null,"access":null,"motor_vehicle":null,"foot":null,"tiger_reviewed":"no","rrgh_part":0,"rrgh_tile_part":0},"geometry":{"type":"LineString","coordinates":[[-83.845,37.866499464788724],[-83.844833,37.866817],[-83.844539,37.867481],[-83.844375,37.867852],[-83.844291,37.868042],[-83.844267,37.868115],[-83.844253,37.868258],[-83.844305,37.868559],[-83.844091,37.869271],[-83.844059,37.869377],[-83.843909,37.869686],[-83.843841,37.869866],[-83.843765,37.870106],[-83.843733,37.870273],[-83.84373,37.870456],[-83.843719,37.871101],[-83.843753,37.871231],[-83.843924,37.871573],[-83.843944,37.871643],[-83.843946,37.871714],[-83.843898,37.871884],[-83.843823,37.872147],[-83.843804,37.872292],[-83.843794,37.872365],[-83.843797,37.872407],[-83.843808,37.872599],[-83.843858,37.872817],[-83.84388,37.872915],[-83.843891,37.873048],[-83.843894,37.873079],[-83.843882,37.873246],[-83.843877,37.873274],[-83.843814,37.873647],[-83.843808,37.873729],[-83.843821,37.873881],[-83.843839,37.873942],[-83.84387,37.873991],[-83.843906,37.874021],[-83.843965,37.874071],[-83.844012,37.874133],[-83.844048,37.874179],[-83.844075,37.874246],[-83.844216,37.874605],[-83.844245,37.874669],[-83.844306,37.874795],[-83.844381,37.874951],[-83.844443,37.87511],[-83.844453,37.875214],[-83.844448,37.875318],[-83.844464,37.875422],[-83.844492,37.875512]]}},{"type":"Feature","properties":{"osm_id":16335972,"highway":"residential","name":null,"alt_name":null,"official_name":null,"surface":null,"tracktype":null,"service":null,"access":null,"motor_vehicle":null,"foot":null,"tiger_reviewed":"no","rrgh_part":0,"rrgh_tile_part":0},"geometry":{"type":"LineString","coordinates":[[-83.840653,37.864953],[-83.840695,37.864614],[-83.841172,37.862206]]}},{"type":"Feature","properties":{"osm_id":16338236,"highway":"service","name":"Cr-1037","alt_name":null,"official_name":null,"surface":null,"tracktype":null,"service":null,"access":"private","motor_vehicle":null,"foot":null,"tiger_reviewed":"no","rrgh_part":0,"rrgh_tile_part":0},"geometry":{"type":"LineString","coordinates":[[-83.821923,37.833827],[-83.821957,37.833639],[-83.821947,37.833338],[-83.821965,37.833147],[-83.822276,37.832571],[-83.822562,37.832186],[-83.822769,37.831847],[-83.82288,37.831724],[-83.822949,37.831671],[-83.823167,37.83154],[-83.823291,37.831443],[-83.823548,37.831173],[-83.823611,37.831121],[-83.823903,37.830928],[-83.824034,37.830818],[-83.824133,37.830703],[-83.824231,37.830451],[-83.824409,37.83019],[-83.824667,37.829896],[-83.824922,37.829652]]}},{"type":"Feature","properties":{"osm_id":16335215,"highway":"service","name":null,"alt_name":null,"official_name":null,"surface":null,"tracktype":null,"service":null,"access":"private","motor_vehicle":null,"foot":null,"tiger_reviewed":"no","rrgh_part":0,"rrgh_tile_part":0},"geometry":{"type":"LineString","coordinates":[[-83.829228,37.82603],[-83.830938,37.826442],[-83.832693,37.827409],[-83.832922,37.828857]]}},{"type":"Feature","properties":{"osm_id":16338894,"highway":"service","name":null,"alt_name":null,"official_name":null,"surface":null,"tracktype":null,"service":null,"access":null,"motor_vehicle":null,"foot":null,"tiger_reviewed":"no","rrgh_part":0,"rrgh_tile_part":0},"geometry":{"type":"LineString","coordinates":[[-83.8079325,37.8428196],[-83.8077974,37.8427532],[-83.8076893,37.8427343],[-83.8075782,37.8427532],[-83.8074701,37.8428054],[-83.807275,37.843009],[-83.8067524,37.8435453],[-83.8065001,37.8437611],[-83.806398,37.8438204],[-83.8062929,37.8438512],[-83.8061788,37.8438559],[-83.8060557,37.8438441],[-83.8050437,37.8436307],[-83.8038606,37.8433105],[-83.8027915,37.8429501],[-83.801191,37.8423857],[-83.7999027,37.841928],[-83.7987075,37.8415059],[-83.7977136,37.8411478],[-83.7969538,37.8408846],[-83.7963082,37.8406901],[-83.7958788,37.8405763],[-83.7953052,37.8404767],[-83.7948278,37.8404174],[-83.7942392,37.8403865],[-83.7937557,37.8403818]]}},{"type":"Feature","properties":{"osm_id":16337252,"highway":"residential","name":"Clover Lane","alt_name":null,"official_name":null,"surface":null,"tracktype":null,"service":null,"access":null,"motor_vehicle":null,"foot":null,"tiger_reviewed":"no","rrgh_part":0,"rrgh_tile_part":0},"geometry":{"type":"LineString","coordinates":[[-83.8267569,37.8306519],[-83.8266692,37.8305582],[-83.826045,37.830108],[-83.8259924,37.8300695],[-83.8259662,37.8300503]]}},{"type":"Feature","properties":{"osm_id":969840632,"highway":"service","name":null,"alt_name":null,"official_name":null,"surface":null,"tracktype":null,"service":null,"access":null,"motor_vehicle":null,"foot":null,"tiger_reviewed":null,"rrgh_part":0,"rrgh_tile_part":0},"geometry":{"type":"LineString","coordinates":[[-83.809181,37.830948],[-83.8090121,37.8306699],[-83.8090253,37.8305616],[-83.8092642,37.8303973],[-83.8097067,37.8300584],[-83.8101314,37.8297718],[-83.8103261,37.829632],[-83.8103172,37.8295132],[-83.8101845,37.8293245],[-83.810127,37.8291254],[-83.8103128,37.8288738],[-83.8104322,37.8286291],[-83.8104676,37.8284509],[-83.8103659,37.828374]]}},{"type":"Feature","properties":{"osm_id":16334998,"highway":"residential","name":"Dogwood","alt_name":null,"official_name":null,"surface":null,"tracktype":null,"service":null,"access":null,"motor_vehicle":null,"foot":null,"tiger_reviewed":"no","rrgh_part":0,"rrgh_tile_part":0},"geometry":{"type":"LineString","coordinates":[[-83.822115,37.833905],[-83.82179,37.834397],[-83.821584,37.834687],[-83.821459,37.834818],[-83.8209,37.835329],[-83.820795,37.835439],[-83.820755,37.835499],[-83.820736,37.835557],[-83.820706,37.836008],[-83.820678,37.836159],[-83.820653,37.836227],[-83.820616,37.836296],[-83.82057,37.836354],[-83.820299,37.836579],[-83.820246,37.836631],[-83.820191,37.836726],[-83.820171,37.836857],[-83.820188,37.837199],[-83.820173,37.837363],[-83.820149,37.837434],[-83.820072,37.837564],[-83.819848,37.837867],[-83.819803,37.838013]]}},{"type":"Feature","properties":{"osm_id":16335216,"highway":"service","name":null,"alt_name":null,"official_name":null,"surface":null,"tracktype":null,"service":null,"access":"private","motor_vehicle":null,"foot":null,"tiger_reviewed":"no","rrgh_part":0,"rrgh_tile_part":0},"geometry":{"type":"LineString","coordinates":[[-83.82469,37.839127],[-83.826208,37.839055],[-83.827887,37.838814],[-83.828726,37.838331]]}},{"type":"Feature","properties":{"osm_id":16337240,"highway":"residential","name":"Mill Knob Road","alt_name":null,"official_name":null,"surface":null,"tracktype":null,"service":null,"access":null,"motor_vehicle":null,"foot":null,"tiger_reviewed":"no","rrgh_part":0,"rrgh_tile_part":0},"geometry":{"type":"LineString","coordinates":[[-83.815047,37.831733],[-83.815325,37.83182],[-83.815601,37.83192],[-83.815804,37.832014],[-83.815897,37.832075],[-83.816058,37.832224],[-83.816433,37.832735],[-83.8165,37.832793],[-83.816573,37.832836],[-83.816824,37.832914],[-83.816908,37.832952],[-83.816982,37.832998],[-83.817044,37.833061],[-83.817287,37.833391],[-83.817437,37.833532],[-83.81761,37.833656],[-83.817803,37.833761],[-83.818026,37.833854],[-83.818746,37.834075],[-83.818859,37.834105],[-83.819085,37.834147],[-83.819245,37.834155],[-83.819417,37.834164],[-83.819522,37.834162],[-83.819726,37.834132],[-83.820006,37.834051],[-83.820156,37.83395],[-83.820424,37.833654],[-83.820529,37.833561],[-83.82059,37.833528],[-83.820656,37.833508],[-83.820728,37.833501],[-83.820805,37.833506],[-83.82089,37.833525],[-83.821179,37.833621],[-83.821603,37.833731],[-83.821923,37.833827],[-83.822115,37.833905],[-83.822325,37.834006],[-83.822535,37.834118],[-83.822804,37.8342711],[-83.823313,37.83453]]}},{"type":"Feature","properties":{"osm_id":16337866,"highway":"residential","name":"Brandy Lane","alt_name":null,"official_name":null,"surface":null,"tracktype":null,"service":null,"access":null,"motor_vehicle":null,"foot":null,"tiger_reviewed":"no","rrgh_part":0,"rrgh_tile_part":0},"geometry":{"type":"LineString","coordinates":[[-83.822804,37.8342711],[-83.8227488,37.8343706],[-83.822661,37.834703],[-83.822147,37.836609],[-83.822042,37.837045],[-83.82199,37.837325],[-83.821976,37.837508],[-83.821989,37.83772]]}},{"type":"Feature","properties":{"osm_id":16335325,"highway":"residential","name":null,"alt_name":null,"official_name":null,"surface":null,"tracktype":null,"service":null,"access":null,"motor_vehicle":null,"foot":null,"tiger_reviewed":"no","rrgh_part":0,"rrgh_tile_part":0},"geometry":{"type":"LineString","coordinates":[[-83.819245,37.834155],[-83.819282,37.834734]]}},{"type":"Feature","properties":{"osm_id":16337452,"highway":"residential","name":"Lane Cemetery Road","alt_name":null,"official_name":null,"surface":null,"tracktype":null,"service":null,"access":null,"motor_vehicle":null,"foot":null,"tiger_reviewed":"no","rrgh_part":0,"rrgh_tile_part":0},"geometry":{"type":"LineString","coordinates":[[-83.813764,37.833775],[-83.813775,37.833906]]}},{"type":"Feature","properties":{"osm_id":16338117,"highway":"service","name":"Deer Trace","alt_name":null,"official_name":null,"surface":null,"tracktype":null,"service":null,"access":"private","motor_vehicle":null,"foot":null,"tiger_reviewed":"no","rrgh_part":0,"rrgh_tile_part":0},"geometry":{"type":"LineString","coordinates":[[-83.809252,37.831143],[-83.809233,37.831062],[-83.809181,37.830948]]}},{"type":"Feature","properties":{"osm_id":16337446,"highway":"residential","name":"Cr-1003","alt_name":null,"official_name":null,"surface":null,"tracktype":null,"service":null,"access":null,"motor_vehicle":null,"foot":null,"tiger_reviewed":"no","rrgh_part":0,"rrgh_tile_part":0},"geometry":{"type":"LineString","coordinates":[[-83.814384,37.841923],[-83.814401,37.841986],[-83.814376,37.84204],[-83.814297,37.842138],[-83.813903,37.84257]]}},{"type":"Feature","properties":{"osm_id":16338222,"highway":"residential","name":"Trent Circle","alt_name":null,"official_name":null,"surface":null,"tracktype":null,"service":null,"access":null,"motor_vehicle":null,"foot":null,"tiger_reviewed":"no","rrgh_part":0,"rrgh_tile_part":0},"geometry":{"type":"LineString","coordinates":[[-83.812252,37.840652],[-83.812413,37.840642],[-83.812517,37.840671],[-83.813557,37.841259],[-83.813763,37.841409],[-83.814284,37.841825],[-83.814384,37.841923]]}},{"type":"Feature","properties":{"osm_id":16338069,"highway":"service","name":"Cr-1030","alt_name":null,"official_name":null,"surface":null,"tracktype":null,"service":null,"access":"private","motor_vehicle":null,"foot":null,"tiger_reviewed":"no","rrgh_part":0,"rrgh_tile_part":0},"geometry":{"type":"LineString","coordinates":[[-83.811939,37.840096],[-83.811828,37.84004],[-83.811741,37.839972],[-83.811713,37.839934],[-83.811679,37.839839],[-83.811646,37.839546],[-83.811631,37.839031]]}},{"type":"Feature","properties":{"osm_id":16338120,"highway":"residential","name":"Kings Hollow Road","alt_name":null,"official_name":null,"surface":null,"tracktype":null,"service":null,"access":null,"motor_vehicle":null,"foot":null,"tiger_reviewed":"no","rrgh_part":0,"rrgh_tile_part":0},"geometry":{"type":"LineString","coordinates":[[-83.794645,37.827128],[-83.79461,37.827012],[-83.794572,37.826946],[-83.794426,37.826797],[-83.793945,37.826137],[-83.793739,37.825666],[-83.793697,37.825538],[-83.793678,37.825422],[-83.79369648969072,37.825]]}},{"type":"Feature","properties":{"osm_id":16338125,"highway":"residential","name":"Hall Branch Road","alt_name":null,"official_name":null,"surface":null,"tracktype":null,"service":null,"access":null,"motor_vehicle":null,"foot":null,"tiger_reviewed":"no","rrgh_part":0,"rrgh_tile_part":0},"geometry":{"type":"LineString","coordinates":[[-83.7853073453909,37.825],[-83.7855041,37.8253802],[-83.785697,37.825753],[-83.78576,37.825906],[-83.785836,37.826135],[-83.785937,37.826357],[-83.7860495,37.8265244],[-83.786103,37.826604],[-83.786162,37.826693],[-83.7862181,37.8267988],[-83.786259,37.826876],[-83.786311,37.827018],[-83.786312,37.827169],[-83.786195,37.827474],[-83.786132,37.827706],[-83.786125,37.82778],[-83.786136,37.827852],[-83.786163,37.827917],[-83.786252,37.828026],[-83.786397,37.828111],[-83.786597,37.828246],[-83.786713,37.828344],[-83.7868899,37.8285989],[-83.78694,37.828671]]}},{"type":"Feature","properties":{"osm_id":969840629,"highway":"service","name":null,"alt_name":null,"official_name":null,"surface":null,"tracktype":null,"service":null,"access":null,"motor_vehicle":null,"foot":null,"tiger_reviewed":null,"rrgh_part":0,"rrgh_tile_part":0},"geometry":{"type":"LineString","coordinates":[[-83.7855041,37.8253802],[-83.7856289,37.8252922],[-83.78599284844098,37.825]]}},{"type":"Feature","properties":{"osm_id":969840629,"highway":"service","name":null,"alt_name":null,"official_name":null,"surface":null,"tracktype":null,"service":null,"access":null,"motor_vehicle":null,"foot":null,"tiger_reviewed":null,"rrgh_part":0,"rrgh_tile_part":1},"geometry":{"type":"LineString","coordinates":[[-83.78750647748404,37.825],[-83.7875584,37.8250515],[-83.787669,37.8251408],[-83.7878091,37.8251738],[-83.7879836,37.8251291]]}},{"type":"Feature","properties":{"osm_id":16335683,"highway":"track","name":null,"alt_name":null,"official_name":null,"surface":null,"tracktype":null,"service":null,"access":"private","motor_vehicle":null,"foot":null,"tiger_reviewed":"no","rrgh_part":0,"rrgh_tile_part":0},"geometry":{"type":"LineString","coordinates":[[-83.7958788,37.8405763],[-83.796318,37.83861]]}},{"type":"Feature","properties":{"osm_id":16336911,"highway":"service","name":"Cr-1028","alt_name":null,"official_name":null,"surface":null,"tracktype":null,"service":null,"access":"private","motor_vehicle":null,"foot":null,"tiger_reviewed":"no","rrgh_part":0,"rrgh_tile_part":0},"geometry":{"type":"LineString","coordinates":[[-83.785246,37.831622],[-83.7851239,37.831587],[-83.7850156,37.831554]]}},{"type":"Feature","properties":{"osm_id":16336913,"highway":"service","name":"Cr-1028","alt_name":null,"official_name":null,"surface":null,"tracktype":null,"service":null,"access":"private","motor_vehicle":null,"foot":null,"tiger_reviewed":"no","rrgh_part":0,"rrgh_tile_part":0},"geometry":{"type":"LineString","coordinates":[[-83.7849736,37.8315994],[-83.7850156,37.831554],[-83.7849633,37.8314953],[-83.784764,37.83138],[-83.784647,37.83133],[-83.784537,37.831303],[-83.784491,37.831303],[-83.784465,37.831307],[-83.784433,37.831332],[-83.784389,37.831402],[-83.7843208,37.8315666],[-83.7843331,37.8316899],[-83.784432,37.83185],[-83.784441,37.831898],[-83.784419,37.831993],[-83.784327,37.832183],[-83.784317,37.832229],[-83.78433,37.832306],[-83.784355,37.832333],[-83.784395,37.832351],[-83.784448,37.832353],[-83.784503,37.832337],[-83.784614,37.832262],[-83.784711,37.83215],[-83.784749,37.832084],[-83.784862,37.831757],[-83.784918,37.831664],[-83.7849736,37.8315994]]}},{"type":"Feature","properties":{"osm_id":969840649,"highway":"service","name":null,"alt_name":null,"official_name":null,"surface":null,"tracktype":null,"service":null,"access":null,"motor_vehicle":null,"foot":null,"tiger_reviewed":null,"rrgh_part":0,"rrgh_tile_part":0},"geometry":{"type":"LineString","coordinates":[[-83.784465,37.831307],[-83.7839854,37.8312416],[-83.7837096,37.8311963],[-83.783457,37.8311678],[-83.7832236,37.8312399],[-83.7831303,37.8313891],[-83.7834337,37.8320025],[-83.7834443,37.8320997],[-83.7834834,37.8321894],[-83.7835101,37.8322505],[-83.7835563,37.8322964],[-83.7836013,37.832341],[-83.7837138,37.8324248],[-83.7838921,37.8324701],[-83.7841488,37.8324717],[-83.7842931,37.8324382],[-83.784395,37.832351]]}},{"type":"Feature","properties":{"osm_id":969840650,"highway":"service","name":null,"alt_name":null,"official_name":null,"surface":null,"tracktype":null,"service":null,"access":null,"motor_vehicle":null,"foot":null,"tiger_reviewed":null,"rrgh_part":0,"rrgh_tile_part":0},"geometry":{"type":"LineString","coordinates":[[-83.7835563,37.8322964],[-83.7838751,37.8321919],[-83.7839706,37.8321298],[-83.7839493,37.8320846],[-83.7838899,37.8320561],[-83.7837435,37.8320896],[-83.7834834,37.8321894]]}},{"type":"Feature","properties":{"osm_id":16338827,"highway":"residential","name":"Bowen Service Road","alt_name":null,"official_name":null,"surface":null,"tracktype":null,"service":null,"access":null,"motor_vehicle":null,"foot":null,"tiger_reviewed":"no","rrgh_part":0,"rrgh_tile_part":0},"geometry":{"type":"LineString","coordinates":[[-83.789231,37.841507],[-83.789022,37.84163],[-83.788847,37.841708],[-83.788152,37.842064],[-83.787581,37.842318],[-83.785851,37.843041],[-83.782262,37.844497],[-83.780209,37.845345],[-83.779464,37.845665],[-83.778984,37.845861],[-83.778053,37.846208],[-83.77754,37.846381],[-83.777056,37.846521],[-83.776722,37.846592],[-83.7756926,37.8467858],[-83.774841,37.846904],[-83.774005,37.846981],[-83.773379,37.84701],[-83.773009,37.847008],[-83.772144,37.846975],[-83.771676,37.846946],[-83.771301,37.846908],[-83.77055,37.846804],[-83.770375,37.846772],[-83.769665,37.846539],[-83.769203,37.846376],[-83.768792,37.846304]]}},{"type":"Feature","properties":{"osm_id":16339479,"highway":"residential","name":"Bowen Road","alt_name":null,"official_name":null,"surface":null,"tracktype":null,"service":null,"access":null,"motor_vehicle":null,"foot":null,"tiger_reviewed":"no","rrgh_part":0,"rrgh_tile_part":0},"geometry":{"type":"LineString","coordinates":[[-83.781254,37.838029],[-83.780872,37.837544],[-83.7807852,37.8374345],[-83.7807015,37.8373079],[-83.7803965,37.8369696],[-83.780255,37.836801],[-83.780075,37.836566],[-83.779964,37.836404],[-83.7798885,37.8363046],[-83.7794574,37.835737],[-83.779421,37.835689],[-83.7793853,37.8356478],[-83.779246,37.835487],[-83.7791999,37.8354207],[-83.778867,37.8349428],[-83.7782072,37.8341288]]}},{"type":"Feature","properties":{"osm_id":969840652,"highway":"service","name":null,"alt_name":null,"official_name":null,"surface":"gravel","tracktype":null,"service":null,"access":null,"motor_vehicle":null,"foot":null,"tiger_reviewed":null,"rrgh_part":0,"rrgh_tile_part":0},"geometry":{"type":"LineString","coordinates":[[-83.7818293,37.8368944],[-83.7817044,37.8368175],[-83.7815537,37.8365036],[-83.7811631,37.8355856],[-83.7811476,37.8354753],[-83.7811426,37.8354395],[-83.7812225,37.835214],[-83.7817158,37.8344312],[-83.7815514,37.8343266]]}},{"type":"Feature","properties":{"osm_id":969840653,"highway":"service","name":null,"alt_name":null,"official_name":null,"surface":"gravel","tracktype":null,"service":null,"access":null,"motor_vehicle":null,"foot":null,"tiger_reviewed":null,"rrgh_part":0,"rrgh_tile_part":0},"geometry":{"type":"LineString","coordinates":[[-83.7815514,37.8343266],[-83.7816662,37.8342499],[-83.7818091,37.8341096],[-83.781919,37.8340025],[-83.7820289,37.8339432],[-83.7822158,37.8338709],[-83.7823239,37.8338072],[-83.7824027,37.8336972],[-83.7824246,37.8335815],[-83.7823898,37.8330273],[-83.7823239,37.8328956],[-83.7820766,37.8326091],[-83.7818842,37.8324037],[-83.7817651,37.8322547],[-83.7816204,37.8320723],[-83.7815031,37.8319378],[-83.781373,37.8318699],[-83.7811441,37.8318249],[-83.7809719,37.8318495],[-83.7807484,37.8319465],[-83.7806842,37.8319826],[-83.7805487,37.8320043],[-83.7803307,37.8319276],[-83.7802488,37.8319073],[-83.780098,37.8318698],[-83.7797389,37.8318032],[-83.779557,37.8317193],[-83.7795319,37.8317077],[-83.7794,37.8315963],[-83.7792406,37.8315022],[-83.7791087,37.831508],[-83.7789438,37.8315529],[-83.7786983,37.8316006],[-83.7785042,37.8316021],[-83.7783594,37.8315485],[-83.7780846,37.8313937]]}},{"type":"Feature","properties":{"osm_id":969840654,"highway":"service","name":null,"alt_name":null,"official_name":null,"surface":"gravel","tracktype":null,"service":null,"access":null,"motor_vehicle":null,"foot":null,"tiger_reviewed":null,"rrgh_part":0,"rrgh_tile_part":0},"geometry":{"type":"LineString","coordinates":[[-83.7815514,37.8343266],[-83.7813614,37.8342988],[-83.781053,37.8341664],[-83.780826,37.8340096],[-83.7807889,37.833984],[-83.7806339,37.8339115],[-83.7804188,37.8338316],[-83.7802938,37.8337342],[-83.7801926,37.8336205],[-83.7800028,37.8335296],[-83.7799981,37.833523],[-83.7798858,37.8333906],[-83.7798526,37.8332632],[-83.779813,37.8330883],[-83.7799174,37.8329034],[-83.7800487,37.8326324],[-83.780142,37.83239],[-83.7802148,37.8321289],[-83.7802488,37.8319073]]}},{"type":"Feature","properties":{"osm_id":969840657,"highway":"service","name":null,"alt_name":null,"official_name":null,"surface":"gravel","tracktype":null,"service":null,"access":null,"motor_vehicle":null,"foot":null,"tiger_reviewed":null,"rrgh_part":0,"rrgh_tile_part":0},"geometry":{"type":"LineString","coordinates":[[-83.7812225,37.835214],[-83.781184,37.835192],[-83.7810828,37.8349534],[-83.7809073,37.8345099],[-83.780806,37.8342376],[-83.7807839,37.8340702],[-83.780826,37.8340096]]}},{"type":"Feature","properties":{"osm_id":969840664,"highway":"service","name":null,"alt_name":null,"official_name":null,"surface":null,"tracktype":null,"service":null,"access":null,"motor_vehicle":null,"foot":null,"tiger_reviewed":null,"rrgh_part":0,"rrgh_tile_part":0},"geometry":{"type":"LineString","coordinates":[[-83.7817277,37.8370806],[-83.7814893,37.8370027],[-83.7813654,37.8369236],[-83.7813573,37.8369195],[-83.7807015,37.8373079]]}},{"type":"Feature","properties":{"osm_id":969840665,"highway":"service","name":null,"alt_name":null,"official_name":null,"surface":null,"tracktype":null,"service":null,"access":null,"motor_vehicle":null,"foot":null,"tiger_reviewed":null,"rrgh_part":0,"rrgh_tile_part":0},"geometry":{"type":"LineString","coordinates":[[-83.7814893,37.8370027],[-83.7807852,37.8374345]]}},{"type":"Feature","properties":{"osm_id":969840666,"highway":"service","name":null,"alt_name":null,"official_name":null,"surface":null,"tracktype":null,"service":null,"access":null,"motor_vehicle":null,"foot":null,"tiger_reviewed":null,"rrgh_part":0,"rrgh_tile_part":0},"geometry":{"type":"LineString","coordinates":[[-83.7803965,37.8369696],[-83.7810344,37.8366412],[-83.7813573,37.8369195]]}},{"type":"Feature","properties":{"osm_id":16337595,"highway":"residential","name":"Brown Street","alt_name":null,"official_name":null,"surface":null,"tracktype":null,"service":null,"access":null,"motor_vehicle":null,"foot":null,"tiger_reviewed":"no","rrgh_part":0,"rrgh_tile_part":0},"geometry":{"type":"LineString","coordinates":[[-83.829353,37.846227],[-83.829341,37.846071],[-83.829358,37.845921],[-83.829394,37.845746],[-83.829473,37.845515],[-83.829547,37.845356],[-83.829818,37.844892],[-83.829955,37.844635],[-83.830147,37.844196],[-83.830157,37.84407]]}},{"type":"Feature","properties":{"osm_id":16337775,"highway":"residential","name":"Hill Crest","alt_name":null,"official_name":null,"surface":null,"tracktype":null,"service":null,"access":null,"motor_vehicle":null,"foot":null,"tiger_reviewed":"no","rrgh_part":0,"rrgh_tile_part":0},"geometry":{"type":"LineString","coordinates":[[-83.830992,37.845861],[-83.831032,37.846019],[-83.831088,37.846417],[-83.831174,37.846853]]}},{"type":"Feature","properties":{"osm_id":16338276,"highway":"residential","name":"Deerview","alt_name":null,"official_name":null,"surface":null,"tracktype":null,"service":null,"access":null,"motor_vehicle":null,"foot":null,"tiger_reviewed":"no","rrgh_part":0,"rrgh_tile_part":0},"geometry":{"type":"LineString","coordinates":[[-83.831781,37.84567],[-83.831983,37.846772]]}},{"type":"Feature","properties":{"osm_id":16338646,"highway":"residential","name":"Buena Vista","alt_name":null,"official_name":null,"surface":null,"tracktype":null,"service":null,"access":null,"motor_vehicle":null,"foot":null,"tiger_reviewed":"no","rrgh_part":0,"rrgh_tile_part":0},"geometry":{"type":"LineString","coordinates":[[-83.830193,37.846051],[-83.830286,37.846615],[-83.830322,37.846773],[-83.830392,37.846988]]}},{"type":"Feature","properties":{"osm_id":16339352,"highway":"residential","name":"Industrial Road","alt_name":null,"official_name":null,"surface":null,"tracktype":null,"service":null,"access":null,"motor_vehicle":null,"foot":null,"tiger_reviewed":"no","rrgh_part":0,"rrgh_tile_part":0},"geometry":{"type":"LineString","coordinates":[[-83.832616,37.845445],[-83.832418,37.844816],[-83.83233,37.844584]]}},{"type":"Feature","properties":{"osm_id":16335044,"highway":"service","name":null,"alt_name":null,"official_name":null,"surface":null,"tracktype":null,"service":null,"access":"private","motor_vehicle":null,"foot":null,"tiger_reviewed":"no","rrgh_part":0,"rrgh_tile_part":0},"geometry":{"type":"LineString","coordinates":[[-83.809263,37.856875],[-83.808453,37.858067],[-83.808414,37.858147]]}},{"type":"Feature","properties":{"osm_id":470455507,"highway":"residential","name":null,"alt_name":null,"official_name":null,"surface":null,"tracktype":null,"service":null,"access":null,"motor_vehicle":null,"foot":null,"tiger_reviewed":null,"rrgh_part":0,"rrgh_tile_part":0},"geometry":{"type":"LineString","coordinates":[[-83.8074701,37.8527266],[-83.8073389,37.852699],[-83.807194,37.8526694],[-83.8070385,37.852699],[-83.8059978,37.8529743],[-83.8055686,37.8530463],[-83.8053218,37.8530463],[-83.8051234,37.8530336],[-83.8049463,37.8529659],[-83.8047532,37.8528388],[-83.8045587,37.8527177],[-83.8044743,37.8526651],[-83.8042168,37.8525592],[-83.8038252,37.8524406],[-83.8036535,37.8523474],[-83.803573,37.8522924],[-83.8032673,37.8525846],[-83.8029669,37.8528388],[-83.8028285,37.8529764],[-83.8026557,37.853148],[-83.8024304,37.853436],[-83.8022373,37.8535419],[-83.8020281,37.8535546],[-83.8017062,37.8536986],[-83.8014863,37.8538215],[-83.801143,37.8540841],[-83.8006012,37.8544229],[-83.8002042,37.8546686],[-83.7998716,37.8550117],[-83.7993673,37.8555623]]}},{"type":"Feature","properties":{"osm_id":16337961,"highway":"service","name":"Hawsley Hollow","alt_name":null,"official_name":null,"surface":null,"tracktype":null,"service":null,"access":"private","motor_vehicle":null,"foot":null,"tiger_reviewed":null,"rrgh_part":0,"rrgh_tile_part":0},"geometry":{"type":"LineString","coordinates":[[-83.82439,37.859901],[-83.824392,37.859943],[-83.824335,37.860017],[-83.8241761,37.86012],[-83.8239546,37.8603371]]}},{"type":"Feature","properties":{"osm_id":16335214,"highway":"service","name":null,"alt_name":null,"official_name":null,"surface":null,"tracktype":null,"service":null,"access":"private","motor_vehicle":null,"foot":null,"tiger_reviewed":"no","rrgh_part":0,"rrgh_tile_part":0},"geometry":{"type":"LineString","coordinates":[[-83.83343,37.863186],[-83.833113,37.863375],[-83.83292,37.86344],[-83.832778,37.863504],[-83.832706,37.863682],[-83.832706,37.863867],[-83.832716,37.86402],[-83.832665,37.864303]]}},{"type":"Feature","properties":{"osm_id":16336550,"highway":"service","name":"Anderson Branch Road","alt_name":null,"official_name":null,"surface":null,"tracktype":null,"service":null,"access":"private","motor_vehicle":null,"foot":null,"tiger_reviewed":"no","rrgh_part":0,"rrgh_tile_part":0},"geometry":{"type":"LineString","coordinates":[[-83.809576,37.857037],[-83.809461,37.857166],[-83.809288,37.857575],[-83.808684,37.858575],[-83.808568,37.858933],[-83.808583,37.859816],[-83.808739,37.860957],[-83.808503,37.862025],[-83.808461,37.863093],[-83.808195,37.863985],[-83.808204,37.864166],[-83.808083,37.865042],[-83.808208,37.865466],[-83.808352,37.865649],[-83.80841,37.866976],[-83.808321,37.867069],[-83.808115,37.867376],[-83.807386,37.868356],[-83.807003,37.868686],[-83.805001,37.870202]]}},{"type":"Feature","properties":{"osm_id":16335989,"highway":"service","name":null,"alt_name":null,"official_name":null,"surface":null,"tracktype":null,"service":null,"access":"private","motor_vehicle":null,"foot":null,"tiger_reviewed":"no","rrgh_part":0,"rrgh_tile_part":0},"geometry":{"type":"LineString","coordinates":[[-83.808321,37.867069],[-83.808477,37.867259],[-83.8087,37.867501],[-83.808893,37.867678]]}},{"type":"Feature","properties":{"osm_id":16335939,"highway":"service","name":null,"alt_name":null,"official_name":null,"surface":null,"tracktype":null,"service":null,"access":"private","motor_vehicle":null,"foot":null,"tiger_reviewed":"no","rrgh_part":0,"rrgh_tile_part":0},"geometry":{"type":"LineString","coordinates":[[-83.807289,37.84949],[-83.807217,37.849494],[-83.807171,37.849563]]}},{"type":"Feature","properties":{"osm_id":964292500,"highway":"service","name":null,"alt_name":null,"official_name":null,"surface":null,"tracktype":null,"service":null,"access":null,"motor_vehicle":null,"foot":null,"tiger_reviewed":null,"rrgh_part":0,"rrgh_tile_part":0},"geometry":{"type":"LineString","coordinates":[[-83.8028285,37.8529764],[-83.802705,37.8528727],[-83.8025171,37.8527207],[-83.8024447,37.8526745],[-83.8023808,37.8526583],[-83.8023375,37.8526655],[-83.8022941,37.8526907]]}},{"type":"Feature","properties":{"osm_id":16335556,"highway":"service","name":null,"alt_name":null,"official_name":null,"surface":null,"tracktype":null,"service":null,"access":"private","motor_vehicle":null,"foot":null,"tiger_reviewed":"no","rrgh_part":0,"rrgh_tile_part":0},"geometry":{"type":"LineString","coordinates":[[-83.782617,37.870151],[-83.784848,37.869112],[-83.784958,37.868979],[-83.784998,37.868879],[-83.784966,37.868708],[-83.784894,37.868591],[-83.784874,37.868474],[-83.785306,37.868009],[-83.785507,37.867789],[-83.786241,37.867331],[-83.787051,37.867026]]}},{"type":"Feature","properties":{"osm_id":16335869,"highway":"service","name":null,"alt_name":null,"official_name":null,"surface":null,"tracktype":null,"service":null,"access":"private","motor_vehicle":null,"foot":null,"tiger_reviewed":"no","rrgh_part":0,"rrgh_tile_part":0},"geometry":{"type":"LineString","coordinates":[[-83.780136,37.866824],[-83.780816,37.866732],[-83.781273,37.866619],[-83.781487,37.86649],[-83.781579,37.866337],[-83.781772,37.866023],[-83.781996,37.865805],[-83.782179,37.865676],[-83.782374,37.86564],[-83.782494,37.86562],[-83.783013,37.865604],[-83.783541,37.865604],[-83.783785,37.865564],[-83.783887,37.865483],[-83.784009,37.865354],[-83.784161,37.865201],[-83.784619,37.865112]]}},{"type":"Feature","properties":{"osm_id":894791993,"highway":"residential","name":"Cow Creek Road","alt_name":null,"official_name":null,"surface":null,"tracktype":null,"service":null,"access":null,"motor_vehicle":null,"foot":null,"tiger_reviewed":"no","rrgh_part":0,"rrgh_tile_part":0},"geometry":{"type":"LineString","coordinates":[[-83.76856151797041,37.825],[-83.76846,37.825453],[-83.768249,37.826265],[-83.768023,37.827292],[-83.768001,37.82747],[-83.767978,37.827891],[-83.76793,37.828223],[-83.767918,37.828651],[-83.767912,37.828693],[-83.767862,37.828815]]}},{"type":"Feature","properties":{"osm_id":969840671,"highway":"service","name":null,"alt_name":null,"official_name":null,"surface":null,"tracktype":null,"service":null,"access":null,"motor_vehicle":null,"foot":null,"tiger_reviewed":null,"rrgh_part":0,"rrgh_tile_part":0},"geometry":{"type":"LineString","coordinates":[[-83.766752,37.827732],[-83.7668557,37.8273897],[-83.767014,37.8270198],[-83.7672251,37.8262071],[-83.7673339,37.8256523],[-83.76770063813935,37.825]]}},{"type":"Feature","properties":{"osm_id":16336166,"highway":"residential","name":null,"alt_name":null,"official_name":null,"surface":null,"tracktype":null,"service":null,"access":null,"motor_vehicle":null,"foot":null,"tiger_reviewed":"no","rrgh_part":0,"rrgh_tile_part":0},"geometry":{"type":"LineString","coordinates":[[-83.768945,37.830051],[-83.769316,37.829916],[-83.769642,37.829786],[-83.769935,37.829685],[-83.770295,37.829521],[-83.770698,37.829383],[-83.771165,37.829247],[-83.771461,37.829187],[-83.771548,37.829153],[-83.77172,37.829062],[-83.771829,37.829029],[-83.77191,37.829011],[-83.772223,37.828967],[-83.772357,37.828925],[-83.772424,37.828893]]}},{"type":"Feature","properties":{"osm_id":16335382,"highway":"service","name":null,"alt_name":null,"official_name":null,"surface":null,"tracktype":null,"service":null,"access":"private","motor_vehicle":null,"foot":null,"tiger_reviewed":"no","rrgh_part":0,"rrgh_tile_part":0},"geometry":{"type":"LineString","coordinates":[[-83.766752,37.827732],[-83.766763,37.827972]]}},{"type":"Feature","properties":{"osm_id":902160531,"highway":"service","name":null,"alt_name":null,"official_name":null,"surface":"gravel","tracktype":null,"service":null,"access":null,"motor_vehicle":null,"foot":null,"tiger_reviewed":null,"rrgh_part":0,"rrgh_tile_part":0},"geometry":{"type":"LineString","coordinates":[[-83.7658535,37.8291062],[-83.7659712,37.8290127],[-83.7660376,37.8289589],[-83.7661821,37.8287666],[-83.7663243,37.8285666],[-83.7665022,37.8283772],[-83.7666615,37.8281914],[-83.7667359,37.8280971],[-83.7667627,37.8280333],[-83.766763,37.827972]]}},{"type":"Feature","properties":{"osm_id":16335918,"highway":"service","name":null,"alt_name":null,"official_name":null,"surface":"gravel","tracktype":null,"service":null,"access":null,"motor_vehicle":null,"foot":null,"tiger_reviewed":"no","rrgh_part":0,"rrgh_tile_part":0},"geometry":{"type":"LineString","coordinates":[[-83.778867,37.8349428],[-83.7792208,37.8347335],[-83.7793969,37.8345766],[-83.7797262,37.8344947],[-83.7798332,37.8345439]]}},{"type":"Feature","properties":{"osm_id":969840656,"highway":"service","name":null,"alt_name":null,"official_name":null,"surface":"gravel","tracktype":null,"service":null,"access":null,"motor_vehicle":null,"foot":null,"tiger_reviewed":null,"rrgh_part":0,"rrgh_tile_part":0},"geometry":{"type":"LineString","coordinates":[[-83.779813,37.8330883],[-83.7796754,37.8330334],[-83.7795489,37.8329784],[-83.7794176,37.8328497],[-83.7793085,37.8327573],[-83.77925,37.8326524],[-83.7791993,37.8325162],[-83.779106,37.8323363],[-83.7789827,37.8321827],[-83.7789526,37.8320827],[-83.778989,37.8320303],[-83.7790617,37.8319953],[-83.7792041,37.8319503],[-83.7793955,37.8318916],[-83.7794919,37.8317679],[-83.779557,37.8317193]]}},{"type":"Feature","properties":{"osm_id":969840660,"highway":"service","name":null,"alt_name":null,"official_name":null,"surface":"gravel","tracktype":null,"service":null,"access":null,"motor_vehicle":null,"foot":null,"tiger_reviewed":null,"rrgh_part":0,"rrgh_tile_part":0},"geometry":{"type":"LineString","coordinates":[[-83.7800028,37.8335296],[-83.779991,37.8335619],[-83.7799791,37.8335942],[-83.7801102,37.8337176],[-83.7801562,37.8338797],[-83.7801133,37.8341023],[-83.7799386,37.8343468],[-83.7798332,37.8345439],[-83.7796077,37.834913],[-83.7793871,37.8352324],[-83.7792768,37.8353752],[-83.7791999,37.8354207]]}},{"type":"Feature","properties":{"osm_id":969840661,"highway":"service","name":null,"alt_name":null,"official_name":null,"surface":"gravel","tracktype":null,"service":null,"access":null,"motor_vehicle":null,"foot":null,"tiger_reviewed":null,"rrgh_part":0,"rrgh_tile_part":0},"geometry":{"type":"LineString","coordinates":[[-83.7799791,37.8335942],[-83.7798527,37.8334954],[-83.7796075,37.8332575],[-83.7793539,37.8330088],[-83.7790935,37.8327883],[-83.7788756,37.8326431],[-83.7786526,37.832588],[-83.7784654,37.8325705],[-83.7782713,37.8326431],[-83.7781675,37.8326955],[-83.7780449,37.8326807],[-83.777936,37.8326364],[-83.7777113,37.8324293],[-83.7776279,37.83235]]}},{"type":"Feature","properties":{"osm_id":969840661,"highway":"service","name":null,"alt_name":null,"official_name":null,"surface":"gravel","tracktype":null,"service":null,"access":null,"motor_vehicle":null,"foot":null,"tiger_reviewed":null,"rrgh_part":1,"rrgh_tile_part":0},"geometry":{"type":"LineString","coordinates":[[-83.7776279,37.83235],[-83.7777708,37.8321376],[-83.7778253,37.8320421],[-83.7778032,37.8319762],[-83.7776772,37.8319211],[-83.7774662,37.8319373],[-83.7774066,37.8319776],[-83.77741,37.8320341],[-83.7774934,37.8321551],[-83.7776279,37.83235]]}},{"type":"Feature","properties":{"osm_id":969840663,"highway":"service","name":null,"alt_name":null,"official_name":null,"surface":"gravel","tracktype":null,"service":null,"access":null,"motor_vehicle":null,"foot":null,"tiger_reviewed":null,"rrgh_part":0,"rrgh_tile_part":0},"geometry":{"type":"LineString","coordinates":[[-83.7798885,37.8363046],[-83.7799512,37.8362628],[-83.7799979,37.8361555],[-83.7800807,37.8360566],[-83.7802335,37.8359494],[-83.7806032,37.8357553],[-83.7810468,37.8355159],[-83.7811476,37.8354753]]}},{"type":"Feature","properties":{"osm_id":969840668,"highway":"service","name":null,"alt_name":null,"official_name":null,"surface":null,"tracktype":null,"service":null,"access":null,"motor_vehicle":null,"foot":null,"tiger_reviewed":null,"rrgh_part":0,"rrgh_tile_part":0},"geometry":{"type":"LineString","coordinates":[[-83.7781616,37.8367326],[-83.7783029,37.836641],[-83.7783278,37.8365177],[-83.7782887,37.8364168],[-83.7781195,37.8363521],[-83.7779445,37.8362934],[-83.7777351,37.8361253],[-83.777618,37.8359403],[-83.7775718,37.8358618],[-83.7774192,37.8357413],[-83.7770856,37.8353657],[-83.7769543,37.8350686]]}},{"type":"Feature","properties":{"osm_id":16335352,"highway":"service","name":null,"alt_name":null,"official_name":null,"surface":null,"tracktype":null,"service":null,"access":"private","motor_vehicle":null,"foot":null,"tiger_reviewed":"no","rrgh_part":0,"rrgh_tile_part":0},"geometry":{"type":"LineString","coordinates":[[-83.769632,37.830816],[-83.769704,37.830751]]}},{"type":"Feature","properties":{"osm_id":16337372,"highway":"residential","name":"Taulbee Road","alt_name":null,"official_name":null,"surface":null,"tracktype":null,"service":null,"access":null,"motor_vehicle":null,"foot":null,"tiger_reviewed":"no","rrgh_part":0,"rrgh_tile_part":0},"geometry":{"type":"LineString","coordinates":[[-83.780341,37.838909],[-83.779741,37.838131],[-83.779545,37.837875],[-83.779439,37.837765],[-83.779321,37.837676],[-83.779024,37.837491],[-83.778437,37.837032],[-83.778245,37.83682],[-83.778178,37.836746],[-83.7781616,37.8367326],[-83.778019,37.836616],[-83.777926,37.836459],[-83.77789,37.83643],[-83.777847,37.83641],[-83.777748,37.836398],[-83.777555,37.836415],[-83.777465,37.836409],[-83.777425,37.836394],[-83.777324,37.83633],[-83.777171,37.836266],[-83.777086,37.836265],[-83.777009,37.83629],[-83.776974,37.836308],[-83.77693,37.836352],[-83.776812,37.836577],[-83.776589,37.836839],[-83.7765034,37.8369086]]}},{"type":"Feature","properties":{"osm_id":16335288,"highway":"service","name":null,"alt_name":null,"official_name":null,"surface":null,"tracktype":null,"service":null,"access":"private","motor_vehicle":null,"foot":null,"tiger_reviewed":"no","rrgh_part":0,"rrgh_tile_part":0},"geometry":{"type":"LineString","coordinates":[[-83.7797473,37.839315],[-83.7790331,37.838629],[-83.7783632,37.8380129],[-83.7783433,37.8379841],[-83.7781521,37.8377073],[-83.7779875,37.8376681],[-83.777119,37.8374607]]}},{"type":"Feature","properties":{"osm_id":16335486,"highway":"service","name":null,"alt_name":null,"official_name":null,"surface":null,"tracktype":null,"service":null,"access":"private","motor_vehicle":null,"foot":null,"tiger_reviewed":"no","rrgh_part":0,"rrgh_tile_part":0},"geometry":{"type":"LineString","coordinates":[[-83.779964,37.837678],[-83.780009,37.837744],[-83.780023,37.837816],[-83.779996,37.837878],[-83.779884,37.837993],[-83.779856,37.838045],[-83.779851,37.838075],[-83.779741,37.838131]]}},{"type":"Feature","properties":{"osm_id":16335539,"highway":"service","name":null,"alt_name":null,"official_name":null,"surface":null,"tracktype":null,"service":null,"access":"private","motor_vehicle":null,"foot":null,"tiger_reviewed":"no","rrgh_part":0,"rrgh_tile_part":0},"geometry":{"type":"LineString","coordinates":[[-83.7779875,37.8376681],[-83.7777478,37.8377476],[-83.777653,37.8378669],[-83.7776425,37.8380294],[-83.777738,37.8381301],[-83.7778595,37.8381475],[-83.7783433,37.8379841]]}},{"type":"Feature","properties":{"osm_id":16335737,"highway":"service","name":null,"alt_name":null,"official_name":null,"surface":null,"tracktype":null,"service":null,"access":"private","motor_vehicle":null,"foot":null,"tiger_reviewed":"no","rrgh_part":0,"rrgh_tile_part":0},"geometry":{"type":"LineString","coordinates":[[-83.77783,37.840622],[-83.777762,37.840535]]}},{"type":"Feature","properties":{"osm_id":16336115,"highway":"service","name":null,"alt_name":null,"official_name":null,"surface":null,"tracktype":null,"service":null,"access":"private","motor_vehicle":null,"foot":null,"tiger_reviewed":"no","rrgh_part":0,"rrgh_tile_part":0},"geometry":{"type":"LineString","coordinates":[[-83.780388,37.838876],[-83.780192,37.838632],[-83.780136,37.838546],[-83.780034,37.838248],[-83.779874,37.83811],[-83.779851,37.838075]]}},{"type":"Feature","properties":{"osm_id":969840670,"highway":"service","name":null,"alt_name":null,"official_name":null,"surface":null,"tracktype":null,"service":null,"access":null,"motor_vehicle":null,"foot":null,"tiger_reviewed":null,"rrgh_part":0,"rrgh_tile_part":0},"geometry":{"type":"LineString","coordinates":[[-83.778101,37.8404353],[-83.7779348,37.8402744],[-83.7776501,37.8400855],[-83.7773114,37.8399012],[-83.7771434,37.8397685],[-83.7771035,37.8396044],[-83.7769953,37.8394852],[-83.7766138,37.8392559]]}},{"type":"Feature","properties":{"osm_id":16336114,"highway":"service","name":null,"alt_name":null,"official_name":null,"surface":null,"tracktype":null,"service":null,"access":"private","motor_vehicle":null,"foot":null,"tiger_reviewed":"no","rrgh_part":0,"rrgh_tile_part":0},"geometry":{"type":"LineString","coordinates":[[-83.770348,37.8405305],[-83.7704214,37.8405776],[-83.7708841,37.840843],[-83.7711261,37.8410039],[-83.7713658,37.8411798],[-83.7715496,37.8413055]]}},{"type":"Feature","properties":{"osm_id":1336681772,"highway":"service","name":null,"alt_name":null,"official_name":null,"surface":null,"tracktype":null,"service":null,"access":null,"motor_vehicle":null,"foot":null,"tiger_reviewed":null,"rrgh_part":0,"rrgh_tile_part":0},"geometry":{"type":"LineString","coordinates":[[-83.7602965,37.8349026],[-83.76,37.83488826869648]]}},{"type":"Feature","properties":{"osm_id":1138386567,"highway":"service","name":null,"alt_name":null,"official_name":null,"surface":null,"tracktype":null,"service":null,"access":"private","motor_vehicle":null,"foot":null,"tiger_reviewed":null,"rrgh_part":0,"rrgh_tile_part":0},"geometry":{"type":"LineString","coordinates":[[-83.775801,37.8470143],[-83.7757844,37.8469519],[-83.7757609,37.8468607],[-83.7756926,37.8467858]]}},{"type":"Feature","properties":{"osm_id":16335833,"highway":"service","name":null,"alt_name":null,"official_name":null,"surface":null,"tracktype":null,"service":null,"access":"private","motor_vehicle":null,"foot":null,"tiger_reviewed":null,"rrgh_part":0,"rrgh_tile_part":0},"geometry":{"type":"LineString","coordinates":[[-83.768534,37.847361],[-83.7681953,37.8473705],[-83.7680916,37.8473655],[-83.7680076,37.8473384],[-83.7679637,37.8472962],[-83.7679465,37.8472147],[-83.7679369,37.8471107],[-83.7679064,37.8470338],[-83.7678338,37.8469719],[-83.7677441,37.8469312],[-83.7672628,37.8467638],[-83.7666612,37.8465301],[-83.7665657,37.8465165],[-83.7664855,37.8465301],[-83.766432,37.8465663],[-83.7663824,37.8466326],[-83.7661799,37.8470896]]}},{"type":"Feature","properties":{"osm_id":902133338,"highway":"service","name":null,"alt_name":null,"official_name":null,"surface":"gravel","tracktype":null,"service":null,"access":null,"motor_vehicle":null,"foot":null,"tiger_reviewed":null,"rrgh_part":0,"rrgh_tile_part":0},"geometry":{"type":"LineString","coordinates":[[-83.768143,37.848813],[-83.7681836,37.848998],[-83.7683774,37.8494401],[-83.7685753,37.8497182],[-83.7688433,37.8499154],[-83.7691409,37.8501238],[-83.7694572,37.8502684],[-83.7697042,37.8504007],[-83.7698717,37.8504976],[-83.7700225,37.8505938],[-83.7700432,37.8506012],[-83.7702155,37.8506626],[-83.7704973,37.8507432],[-83.7708059,37.8508079],[-83.7711579,37.8508584],[-83.7714122,37.850878],[-83.7716299,37.8509019],[-83.7718989,37.8510029],[-83.772161,37.8511041],[-83.7720962,37.8511772],[-83.7719551,37.8513518],[-83.7717982,37.8515272],[-83.7717086,37.8516232],[-83.7715826,37.8517011],[-83.7714949,37.8517547],[-83.7713254,37.8517518],[-83.7711898,37.8517337],[-83.7710831,37.8517543],[-83.7709953,37.8518174],[-83.7708918,37.8518983],[-83.7707049,37.8519807],[-83.7704993,37.8521022],[-83.7703086,37.8522223],[-83.7701016,37.8523524],[-83.7698982,37.8524197],[-83.7696769,37.8525359],[-83.769473,37.8526294],[-83.7692481,37.8527133]]}},{"type":"Feature","properties":{"osm_id":902133339,"highway":"service","name":null,"alt_name":null,"official_name":null,"surface":"gravel","tracktype":null,"service":null,"access":null,"motor_vehicle":null,"foot":null,"tiger_reviewed":null,"rrgh_part":0,"rrgh_tile_part":0},"geometry":{"type":"LineString","coordinates":[[-83.7700432,37.8506012],[-83.769844,37.8506]]}},{"type":"Feature","properties":{"osm_id":16335768,"highway":"service","name":null,"alt_name":null,"official_name":null,"surface":null,"tracktype":null,"service":null,"access":"private","motor_vehicle":null,"foot":null,"tiger_reviewed":"no","rrgh_part":0,"rrgh_tile_part":0},"geometry":{"type":"LineString","coordinates":[[-83.7600488,37.8454143],[-83.76,37.84545446491767]]}},{"type":"Feature","properties":{"osm_id":16337030,"highway":"residential","name":"Upper Cane Creek Road","alt_name":null,"official_name":null,"surface":null,"tracktype":null,"service":null,"access":null,"motor_vehicle":null,"foot":null,"tiger_reviewed":"no","rrgh_part":0,"rrgh_tile_part":0},"geometry":{"type":"LineString","coordinates":[[-83.7752882,37.8643435],[-83.77462,37.864815],[-83.774104,37.865243],[-83.773764,37.865483],[-83.773578,37.865576],[-83.773474,37.865613],[-83.773243,37.865676],[-83.772843,37.865749],[-83.77271,37.865782],[-83.772468,37.86587],[-83.772233,37.865936],[-83.772114,37.865953],[-83.771652,37.865989],[-83.771451,37.866045],[-83.771258,37.86611],[-83.771156,37.866127],[-83.771052,37.866136],[-83.770948,37.866133],[-83.770518,37.86608],[-83.770401,37.866078],[-83.770278,37.866087],[-83.770154,37.866112],[-83.770036,37.866148],[-83.769928,37.866198],[-83.769521,37.866419],[-83.769423,37.866487],[-83.769332,37.866563],[-83.769253,37.866647],[-83.769112,37.866831],[-83.768701,37.867284],[-83.768412,37.867539],[-83.768156,37.867809],[-83.768082,37.867902],[-83.767891,37.868204],[-83.767851,37.868328],[-83.767456,37.869542],[-83.767411,37.869761],[-83.767332,37.870354],[-83.767294,37.870452],[-83.766684,37.871035],[-83.766608,37.871124],[-83.766172,37.871533],[-83.765671,37.87205],[-83.76559,37.872116],[-83.765489,37.872193],[-83.765292,37.872289],[-83.765164,37.872352],[-83.764925,37.872454],[-83.764668,37.872539],[-83.764407,37.872589],[-83.763763,37.872655],[-83.763509,37.872708],[-83.763389,37.87275],[-83.763173,37.872857],[-83.762883,37.873066],[-83.762668,37.873207],[-83.762315,37.873378],[-83.761515,37.873701],[-83.761478,37.873716],[-83.761273,37.873838],[-83.761117,37.873978],[-83.76103,37.874159],[-83.76086,37.874676],[-83.760836,37.874893],[-83.760927,37.875902],[-83.761071,37.876968],[-83.761057,37.877157],[-83.760999,37.877333],[-83.760833,37.877557],[-83.760398,37.877919],[-83.760229,37.878081],[-83.760114,37.878261],[-83.760027,37.878446],[-83.76,37.878518749999984]]}},{"type":"Feature","properties":{"osm_id":16337030,"highway":"residential","name":"Upper Cane Creek Road","alt_name":null,"official_name":null,"surface":null,"tracktype":null,"service":null,"access":null,"motor_vehicle":null,"foot":null,"tiger_reviewed":"no","rrgh_part":0,"rrgh_tile_part":1},"geometry":{"type":"LineString","coordinates":[[-83.76,37.87943793750006],[-83.76003,37.879617],[-83.76016,37.88017],[-83.760174,37.880257],[-83.760167,37.88043],[-83.760008,37.880755],[-83.76,37.880768477832504]]}},{"type":"Feature","properties":{"osm_id":16335819,"highway":"service","name":null,"alt_name":null,"official_name":null,"surface":null,"tracktype":null,"service":null,"access":"private","motor_vehicle":null,"foot":null,"tiger_reviewed":"no","rrgh_part":0,"rrgh_tile_part":0},"geometry":{"type":"LineString","coordinates":[[-83.767851,37.868328],[-83.767492,37.868007],[-83.767055,37.867579],[-83.766761,37.867248],[-83.766599,37.86707],[-83.766294,37.866941],[-83.765815,37.866962],[-83.765766,37.866965],[-83.764963,37.867061],[-83.764414,37.867214],[-83.763905,37.867415]]}},{"type":"Feature","properties":{"osm_id":16337735,"highway":"residential","name":"Lower Hatcher Creek Road","alt_name":null,"official_name":null,"surface":null,"tracktype":null,"service":null,"access":null,"motor_vehicle":null,"foot":null,"tiger_reviewed":"no","rrgh_part":0,"rrgh_tile_part":0},"geometry":{"type":"LineString","coordinates":[[-83.8303,37.873881],[-83.830221,37.874113],[-83.830203,37.874242],[-83.830227,37.874389],[-83.830288,37.874536],[-83.830436,37.874796],[-83.830831,37.875202],[-83.831031,37.875433],[-83.831082,37.875518],[-83.831153,37.875697],[-83.831249,37.876173],[-83.831276,37.876259],[-83.831346,37.87642],[-83.831394,37.876496],[-83.83157,37.876717],[-83.831661,37.876879],[-83.831681,37.876967],[-83.8316902,37.8770571],[-83.831706,37.877213],[-83.831727,37.877286],[-83.8317444,37.8773175],[-83.831764,37.877353],[-83.831875,37.877471],[-83.8320865,37.8776423],[-83.832143,37.877688],[-83.832438,37.877972],[-83.832579,37.878123],[-83.832694,37.878277],[-83.832768,37.878428],[-83.832793,37.878578],[-83.8328,37.878799],[-83.832841,37.878937],[-83.832884,37.879013],[-83.833139,37.879292],[-83.833406,37.879553],[-83.833617,37.879727],[-83.834053,37.880018],[-83.834126,37.880082],[-83.834184,37.880151],[-83.834371,37.880457],[-83.834433,37.880529],[-83.834737,37.88081],[-83.834879,37.880957],[-83.835148,37.881333],[-83.835256,37.881468],[-83.835278,37.881495],[-83.835534,37.881748],[-83.835824,37.882034],[-83.836141,37.882386],[-83.836263,37.882542],[-83.836281,37.882566],[-83.836401,37.882752],[-83.836469,37.882858],[-83.8366,37.883033],[-83.83674,37.88322],[-83.836842,37.883387],[-83.836903,37.883554],[-83.836935,37.883734],[-83.836938,37.883827],[-83.836923,37.883989],[-83.836861,37.884212],[-83.836761,37.884571],[-83.836763,37.884596],[-83.83677,37.884636],[-83.83682,37.884723],[-83.836875,37.884789],[-83.83695,37.884849],[-83.837034,37.884889],[-83.837408,37.885004],[-83.837538,37.885052],[-83.837569,37.885064],[-83.837643,37.8851],[-83.837776,37.885184],[-83.837838,37.885233],[-83.838138,37.885528],[-83.83848,37.885813],[-83.838594,37.88593],[-83.838638,37.885991],[-83.838699,37.886129],[-83.838813,37.886523],[-83.838965,37.886919],[-83.839166,37.88753],[-83.839203,37.887692],[-83.839241,37.888114],[-83.839275,37.888268],[-83.839319,37.888391],[-83.839452,37.888653],[-83.839778,37.889106],[-83.840031,37.889503],[-83.840106,37.889605],[-83.8402033,37.8897306],[-83.8403406,37.8900447],[-83.8403626,37.8902912],[-83.8403209,37.8904941],[-83.8401767,37.8907511],[-83.8399625,37.8913086],[-83.8399537,37.8914476],[-83.8399813,37.8915575],[-83.8400917,37.8917515],[-83.8401214,37.8918792],[-83.8401705,37.8923167],[-83.840128,37.8924272],[-83.8399295,37.892615],[-83.8398876,37.8927115],[-83.8399074,37.8932123],[-83.8399493,37.8934826],[-83.8399203,37.8936324],[-83.8397659,37.8939554],[-83.8396166,37.8942424],[-83.8396122,37.894377],[-83.8396751,37.8946289],[-83.8396762,37.8946332],[-83.8397167,37.8947952],[-83.8397178,37.8949271],[-83.839603,37.8952512],[-83.8394247,37.895517],[-83.8392865,37.8956147],[-83.8392315,37.8957074],[-83.8392258,37.8958122],[-83.8392541,37.8960064],[-83.8395063,37.8967347],[-83.8395149,37.8968406],[-83.8394819,37.8970035],[-83.8393506,37.8974321],[-83.8392207,37.8976628],[-83.8391381,37.8977144],[-83.8390702,37.8977137],[-83.8390128,37.8976948],[-83.8389562,37.8976278],[-83.8389105,37.8975528],[-83.8388766,37.8974319],[-83.8388733,37.8973495],[-83.8388922,37.8972728],[-83.8389154,37.8971795],[-83.8389198,37.8970938],[-83.8388334,37.8968145]]}},{"type":"Feature","properties":{"osm_id":16335131,"highway":"service","name":null,"alt_name":null,"official_name":null,"surface":null,"tracktype":null,"service":null,"access":"private","motor_vehicle":null,"foot":null,"tiger_reviewed":"no","rrgh_part":0,"rrgh_tile_part":0},"geometry":{"type":"LineString","coordinates":[[-83.835534,37.881748],[-83.836814,37.881294],[-83.8374444,37.8811703]]}},{"type":"Feature","properties":{"osm_id":16335388,"highway":"service","name":null,"alt_name":null,"official_name":null,"surface":null,"tracktype":null,"service":null,"access":"private","motor_vehicle":null,"foot":null,"tiger_reviewed":"no","rrgh_part":0,"rrgh_tile_part":0},"geometry":{"type":"LineString","coordinates":[[-83.8366,37.883033],[-83.836685,37.883021],[-83.836756,37.882987]]}},{"type":"Feature","properties":{"osm_id":16336274,"highway":"residential","name":"West Hatchers Creek Road","alt_name":null,"official_name":null,"surface":null,"tracktype":null,"service":null,"access":null,"motor_vehicle":null,"foot":null,"tiger_reviewed":"no","rrgh_part":0,"rrgh_tile_part":0},"geometry":{"type":"LineString","coordinates":[[-83.836763,37.884596],[-83.836681,37.884721],[-83.836448,37.885029],[-83.83638,37.885139],[-83.836244,37.885533],[-83.836142,37.885714],[-83.836106,37.885755],[-83.836036,37.885835],[-83.835637,37.886208],[-83.835398,37.886463],[-83.834653,37.887327]]}},{"type":"Feature","properties":{"osm_id":16335118,"highway":"service","name":null,"alt_name":null,"official_name":null,"surface":null,"tracktype":null,"service":null,"access":"private","motor_vehicle":null,"foot":null,"tiger_reviewed":"no","rrgh_part":0,"rrgh_tile_part":0},"geometry":{"type":"LineString","coordinates":[[-83.8401767,37.8907511],[-83.8403083,37.8907821],[-83.8403772,37.8908023],[-83.8404347,37.8908448],[-83.8404901,37.8910581],[-83.8404631,37.8911393],[-83.840409,37.8912224],[-83.8402928,37.8913422],[-83.8402295,37.8914237],[-83.8402091,37.8914817],[-83.8402588,37.8915809],[-83.8403628,37.891629],[-83.8404329,37.8916229],[-83.8405119,37.8915889],[-83.8405234,37.8915694],[-83.8405346,37.89152],[-83.8405403,37.8914515]]}},{"type":"Feature","properties":{"osm_id":16335175,"highway":"residential","name":null,"alt_name":null,"official_name":null,"surface":null,"tracktype":null,"service":null,"access":null,"motor_vehicle":null,"foot":null,"tiger_reviewed":"no","rrgh_part":0,"rrgh_tile_part":0},"geometry":{"type":"LineString","coordinates":[[-83.839603,37.8952512],[-83.8397223,37.8953405],[-83.8397955,37.8953793],[-83.8398885,37.8953442],[-83.8401095,37.8952574],[-83.8401756,37.8951878],[-83.8402363,37.895104],[-83.8404491,37.8946272],[-83.8405163,37.8945441],[-83.8405857,37.8945066],[-83.8407167,37.8944942],[-83.8408475,37.8944802],[-83.8409007,37.8944561],[-83.8410559,37.8942608],[-83.8411111,37.8941983],[-83.8411129,37.8941584],[-83.840651,37.893825]]}},{"type":"Feature","properties":{"osm_id":16335121,"highway":"service","name":null,"alt_name":null,"official_name":null,"surface":null,"tracktype":null,"service":null,"access":"private","motor_vehicle":null,"foot":null,"tiger_reviewed":"no","rrgh_part":0,"rrgh_tile_part":0},"geometry":{"type":"LineString","coordinates":[[-83.8404491,37.8946272],[-83.8404835,37.8946382],[-83.8405877,37.8946152],[-83.8406503,37.8946414],[-83.8407834,37.8948128],[-83.8408897,37.8949596],[-83.8410659,37.8950991]]}},{"type":"Feature","properties":{"osm_id":16335183,"highway":"service","name":null,"alt_name":null,"official_name":null,"surface":null,"tracktype":null,"service":null,"access":"private","motor_vehicle":null,"foot":null,"tiger_reviewed":"no","rrgh_part":0,"rrgh_tile_part":0},"geometry":{"type":"LineString","coordinates":[[-83.8396751,37.8946289],[-83.839743,37.8946162],[-83.8397563,37.8945944],[-83.8397432,37.8944816],[-83.8397646,37.8944283],[-83.8398099,37.8943855],[-83.8398789,37.8943491]]}},{"type":"Feature","properties":{"osm_id":16336227,"highway":"service","name":"McCall-French Cemetery Road","alt_name":null,"official_name":null,"surface":null,"tracktype":null,"service":null,"access":null,"motor_vehicle":null,"foot":null,"tiger_reviewed":"no","rrgh_part":0,"rrgh_tile_part":0},"geometry":{"type":"LineString","coordinates":[[-83.825005,37.879627],[-83.825101,37.879625],[-83.825168,37.879597],[-83.825267,37.879511],[-83.825344,37.879419]]}},{"type":"Feature","properties":{"osm_id":110351661,"highway":"residential","name":"Hatcher Creek Road","alt_name":null,"official_name":null,"surface":null,"tracktype":null,"service":null,"access":null,"motor_vehicle":null,"foot":null,"tiger_reviewed":"no","rrgh_part":0,"rrgh_tile_part":0},"geometry":{"type":"LineString","coordinates":[[-83.823489,37.88621],[-83.823441,37.88634],[-83.823397,37.886396],[-83.823338,37.886448],[-83.823272,37.886497]]}},{"type":"Feature","properties":{"osm_id":16338854,"highway":"residential","name":"Cr-1018","alt_name":null,"official_name":null,"surface":null,"tracktype":null,"service":null,"access":"private","motor_vehicle":null,"foot":null,"tiger_reviewed":"no","rrgh_part":0,"rrgh_tile_part":0},"geometry":{"type":"LineString","coordinates":[[-83.823272,37.886497],[-83.823117,37.886614],[-83.823007,37.886745],[-83.822935,37.886906],[-83.822865,37.887156],[-83.822834,37.887232],[-83.822785,37.88731],[-83.822282,37.887975],[-83.822224,37.888058],[-83.822142,37.888226],[-83.82206,37.888482],[-83.82192,37.889046],[-83.821872,37.889206],[-83.82179,37.889483],[-83.821722,37.889794],[-83.821689,37.890073],[-83.821738,37.890434],[-83.821733,37.890525],[-83.821688,37.890705],[-83.82139,37.891484],[-83.82121,37.891954],[-83.821121,37.892101],[-83.821036,37.892213],[-83.820983,37.892273],[-83.820823,37.892414],[-83.820779,37.892465],[-83.820761,37.892505],[-83.820774,37.892558],[-83.820838,37.892632],[-83.820882,37.892662],[-83.821105,37.892815],[-83.821218,37.892916],[-83.8212347,37.8929341],[-83.821298,37.893003],[-83.821372,37.893083],[-83.821413,37.893136],[-83.821539,37.893301],[-83.821664,37.893464],[-83.8222454,37.8941046],[-83.8229167,37.8946986],[-83.823562,37.8953184],[-83.8240625,37.8957176],[-83.8244479,37.8959394],[-83.8249061,37.896204],[-83.8252438,37.8965049]]}},{"type":"Feature","properties":{"osm_id":16335633,"highway":"service","name":null,"alt_name":null,"official_name":null,"surface":null,"tracktype":null,"service":null,"access":"private","motor_vehicle":null,"foot":null,"tiger_reviewed":"no","rrgh_part":0,"rrgh_tile_part":0},"geometry":{"type":"LineString","coordinates":[[-83.783481,37.871071],[-83.781953,37.871551],[-83.781253,37.872914]]}},{"type":"Feature","properties":{"osm_id":16336215,"highway":"service","name":null,"alt_name":null,"official_name":null,"surface":null,"tracktype":null,"service":null,"access":"private","motor_vehicle":null,"foot":null,"tiger_reviewed":"no","rrgh_part":0,"rrgh_tile_part":0},"geometry":{"type":"LineString","coordinates":[[-83.7861926,37.8762313],[-83.7864582,37.8762866],[-83.7865023,37.8763233],[-83.7870781,37.8770741],[-83.7889902,37.8770716]]}},{"type":"Feature","properties":{"osm_id":16336839,"highway":"residential","name":"Edward Road","alt_name":null,"official_name":null,"surface":null,"tracktype":null,"service":null,"access":null,"motor_vehicle":null,"foot":null,"tiger_reviewed":"no","rrgh_part":0,"rrgh_tile_part":0},"geometry":{"type":"LineString","coordinates":[[-83.787902,37.880983],[-83.787233,37.881446],[-83.787172,37.881501],[-83.786886,37.881991],[-83.786774,37.882225],[-83.786711,37.882385],[-83.786672,37.882454],[-83.786556,37.88257],[-83.7863,37.882725],[-83.786105,37.882874],[-83.785872,37.883093],[-83.78571,37.883268],[-83.78565,37.883324],[-83.785551,37.883393],[-83.785459,37.883441],[-83.785196,37.883554],[-83.785011,37.883677],[-83.784762,37.883913],[-83.784692,37.884001],[-83.784492,37.884302],[-83.784423,37.884381],[-83.784248,37.884547],[-83.784142,37.884679]]}},{"type":"Feature","properties":{"osm_id":16339005,"highway":"residential","name":"Lower Cane Creek Road","alt_name":null,"official_name":null,"surface":null,"tracktype":null,"service":null,"access":null,"motor_vehicle":null,"foot":null,"tiger_reviewed":"no","rrgh_part":0,"rrgh_tile_part":0},"geometry":{"type":"LineString","coordinates":[[-83.785464,37.874011],[-83.785794,37.873835],[-83.786252,37.873512],[-83.786739,37.873298],[-83.787058,37.87317],[-83.787992,37.872833]]}},{"type":"Feature","properties":{"osm_id":16336159,"highway":"service","name":null,"alt_name":null,"official_name":null,"surface":null,"tracktype":null,"service":null,"access":"private","motor_vehicle":null,"foot":null,"tiger_reviewed":"no","rrgh_part":0,"rrgh_tile_part":0},"geometry":{"type":"LineString","coordinates":[[-83.798371,37.890201],[-83.798689,37.890176],[-83.798852,37.890163],[-83.79935,37.890074],[-83.799492,37.890058]]}},{"type":"Feature","properties":{"osm_id":16335025,"highway":"residential","name":"King and Napier Cemetery","alt_name":null,"official_name":null,"surface":null,"tracktype":null,"service":null,"access":null,"motor_vehicle":null,"foot":null,"tiger_reviewed":"no","rrgh_part":0,"rrgh_tile_part":0},"geometry":{"type":"LineString","coordinates":[[-83.793471,37.885044],[-83.793541,37.885226],[-83.79355,37.885301],[-83.793382,37.885644],[-83.793357,37.885741]]}},{"type":"Feature","properties":{"osm_id":16339017,"highway":"residential","name":"Lower Cane Creek Road","alt_name":null,"official_name":null,"surface":null,"tracktype":null,"service":null,"access":null,"motor_vehicle":null,"foot":null,"tiger_reviewed":"no","rrgh_part":0,"rrgh_tile_part":0},"geometry":{"type":"LineString","coordinates":[[-83.776676,37.889981],[-83.776641,37.890121],[-83.776552,37.890279],[-83.776516,37.890392],[-83.776515,37.890516],[-83.776545,37.890718],[-83.776603,37.890882],[-83.776681,37.891027],[-83.776841,37.891237],[-83.776978,37.891374],[-83.777097,37.891429],[-83.777165,37.891442],[-83.777237,37.891446],[-83.777546,37.891419],[-83.777621,37.891423],[-83.777693,37.891439],[-83.777761,37.891469],[-83.777822,37.891511],[-83.777991,37.891678],[-83.778441,37.891999],[-83.778575,37.892074],[-83.778756,37.892134],[-83.779217,37.892242],[-83.779396,37.892254],[-83.779783,37.892246],[-83.779985,37.892266],[-83.780375,37.892337],[-83.780946,37.892412],[-83.781124,37.892474],[-83.781305,37.892552],[-83.78138,37.892594],[-83.781446,37.892646],[-83.78161,37.892818],[-83.781756,37.892919],[-83.781911,37.892996],[-83.782135,37.893086],[-83.782298,37.893177],[-83.782447,37.893293],[-83.782633,37.893496],[-83.782739,37.893635],[-83.782781,37.893705],[-83.782807,37.893781],[-83.782823,37.893866],[-83.782843,37.894158],[-83.782828,37.894355],[-83.782803,37.89445],[-83.782695,37.894723],[-83.782622,37.894985],[-83.782608,37.895151],[-83.782618,37.895234],[-83.782643,37.895315],[-83.782685,37.895399],[-83.783046,37.896053],[-83.783115,37.896203],[-83.783168,37.896356],[-83.783213,37.89656],[-83.783268,37.896678],[-83.783316,37.896738],[-83.783453,37.896854],[-83.783846,37.897106],[-83.784011,37.897193],[-83.784197,37.897247],[-83.784302,37.897261],[-83.78462,37.897262],[-83.784724,37.897271],[-83.784929,37.897314],[-83.785631,37.897572],[-83.785815,37.897655],[-83.78598,37.897762],[-83.78605,37.89783],[-83.786264,37.898143],[-83.78646,37.89836],[-83.786562,37.898514],[-83.786616,37.898682],[-83.786643,37.89902],[-83.786634,37.899277],[-83.786584,37.899545],[-83.786525,37.899714],[-83.786437,37.899868],[-83.78633048965517,37.9]]}},{"type":"Feature","properties":{"osm_id":16338820,"highway":"residential","name":"Johnny Morton Hollow Road","alt_name":null,"official_name":null,"surface":null,"tracktype":null,"service":null,"access":null,"motor_vehicle":null,"foot":null,"tiger_reviewed":"no","rrgh_part":0,"rrgh_tile_part":0},"geometry":{"type":"LineString","coordinates":[[-83.76559,37.872116],[-83.765737,37.872432],[-83.765875,37.872662],[-83.766008,37.872815],[-83.766406,37.873113],[-83.766539,37.873245],[-83.766708,37.873468],[-83.767603,37.874648],[-83.767874,37.874933],[-83.768124,37.875195],[-83.768203,37.875291],[-83.768285,37.875491],[-83.768349,37.875582],[-83.768493,37.875684],[-83.768756,37.875774],[-83.768859,37.875825],[-83.768948,37.875887],[-83.769088,37.876028],[-83.769176,37.876096],[-83.769312,37.876164],[-83.769385,37.876224],[-83.769398,37.876261],[-83.769396,37.876297],[-83.769371,37.876381]]}},{"type":"Feature","properties":{"osm_id":894791990,"highway":"residential","name":"Upper Cane Creek Road","alt_name":null,"official_name":null,"surface":null,"tracktype":null,"service":null,"access":null,"motor_vehicle":null,"foot":null,"tiger_reviewed":"no","rrgh_part":0,"rrgh_tile_part":0},"geometry":{"type":"LineString","coordinates":[[-83.76,37.88278932967034],[-83.760027,37.88281],[-83.760453,37.883175],[-83.760677,37.883399],[-83.760728,37.883473],[-83.760767,37.883546],[-83.760848,37.883767],[-83.760923,37.883915],[-83.761088,37.884131],[-83.761342,37.884388],[-83.761485,37.884506],[-83.761883,37.884789],[-83.762013,37.884913],[-83.762133,37.885063],[-83.762433,37.885506],[-83.762649,37.885849],[-83.762745,37.886022],[-83.762869,37.886296],[-83.762929,37.886476],[-83.762948,37.886569],[-83.762933,37.886741],[-83.762862,37.887097],[-83.762857,37.887281],[-83.762948,37.887639],[-83.763087,37.888031],[-83.763165,37.888207],[-83.763226,37.888281],[-83.763297,37.888347],[-83.763522,37.888518],[-83.763697,37.888704],[-83.763888,37.889174],[-83.763926,37.889289],[-83.763943,37.889342],[-83.763954,37.889516],[-83.763939,37.889601],[-83.763875,37.88976],[-83.76364,37.890168],[-83.76361,37.890239],[-83.763593,37.89031],[-83.763591,37.89038],[-83.763609,37.890445],[-83.763648,37.890506],[-83.764086,37.890947],[-83.764526,37.891444],[-83.764576,37.891515],[-83.764659,37.891671],[-83.764903,37.892264],[-83.764961,37.892431],[-83.765001,37.892595],[-83.765053,37.892925],[-83.765047,37.893],[-83.764967,37.893293],[-83.764962,37.89335],[-83.7649713,37.8933945],[-83.7650163,37.8934296],[-83.7650747,37.8934527],[-83.7651479,37.8934615],[-83.7652606,37.8934864],[-83.7654421,37.8935298],[-83.7655871,37.8935949],[-83.7659921,37.8938207],[-83.766094,37.893867],[-83.766256,37.893972],[-83.766622,37.894244],[-83.766774,37.894339],[-83.767777,37.894844],[-83.767983,37.894975],[-83.768043,37.895042],[-83.768127,37.895135],[-83.768139,37.895156],[-83.768144,37.895205],[-83.768062,37.895474],[-83.768052,37.895628],[-83.768075,37.895747],[-83.768187,37.896053],[-83.768235,37.896248],[-83.768274,37.89659],[-83.768297,37.896934],[-83.768291,37.897],[-83.768264,37.897076],[-83.768226,37.897181],[-83.768114,37.897407],[-83.767978,37.897743],[-83.767862,37.898126],[-83.767849,37.898169],[-83.767763,37.898566],[-83.767712,37.898738],[-83.767665,37.898849],[-83.767605,37.898936],[-83.767503,37.899044],[-83.76713,37.899368],[-83.766898,37.89954],[-83.766738,37.899682],[-83.766686,37.899754],[-83.766644,37.899865],[-83.76662013953488,37.9]]}},{"type":"Feature","properties":{"osm_id":16335816,"highway":"service","name":null,"alt_name":null,"official_name":null,"surface":null,"tracktype":null,"service":null,"access":"private","motor_vehicle":null,"foot":null,"tiger_reviewed":"no","rrgh_part":0,"rrgh_tile_part":0},"geometry":{"type":"LineString","coordinates":[[-83.761515,37.873701],[-83.761476,37.873698],[-83.761231,37.873593],[-83.760922,37.873538],[-83.760815,37.87352],[-83.760531,37.873302],[-83.760206,37.873003],[-83.76,37.87292498435055]]}},{"type":"Feature","properties":{"osm_id":16335110,"highway":"service","name":null,"alt_name":null,"official_name":null,"surface":null,"tracktype":null,"service":null,"access":"private","motor_vehicle":null,"foot":null,"tiger_reviewed":"no","rrgh_part":0,"rrgh_tile_part":0},"geometry":{"type":"LineString","coordinates":[[-83.763926,37.889289],[-83.76475,37.889084],[-83.765379,37.889013],[-83.765803,37.889084],[-83.766098,37.889134],[-83.766523,37.88911],[-83.766971,37.889004],[-83.76703,37.88899],[-83.767395,37.888998],[-83.767699,37.889071]]}},{"type":"Feature","properties":{"osm_id":16335437,"highway":"service","name":null,"alt_name":null,"official_name":null,"surface":null,"tracktype":null,"service":null,"access":"private","motor_vehicle":null,"foot":null,"tiger_reviewed":"no","rrgh_part":0,"rrgh_tile_part":0},"geometry":{"type":"LineString","coordinates":[[-83.7659921,37.8938207],[-83.7659114,37.8939101]]}},{"type":"Feature","properties":{"osm_id":16335437,"highway":"service","name":null,"alt_name":null,"official_name":null,"surface":null,"tracktype":null,"service":null,"access":"private","motor_vehicle":null,"foot":null,"tiger_reviewed":"no","rrgh_part":1,"rrgh_tile_part":0},"geometry":{"type":"LineString","coordinates":[[-83.7659114,37.8939101],[-83.7657826,37.8939389],[-83.7655304,37.8939409],[-83.7654213,37.8938739],[-83.7653159,37.8937955],[-83.765337,37.8937308],[-83.7654328,37.8937127],[-83.7656127,37.8937853],[-83.7659114,37.8939101]]}}],"rrgh_tile":{"id":"r6c2","bounds":[37.825,-83.845,37.9,-83.76]}}
