{"type":"FeatureCollection","features":[{"type":"Feature","properties":{"osm_id":169094309,"highway":"residential","name":"Manning Road","alt_name":null,"official_name":null,"surface":null,"tracktype":null,"service":null,"access":null,"motor_vehicle":null,"foot":null,"tiger_reviewed":"no","rrgh_part":0,"rrgh_tile_part":0},"geometry":{"type":"LineString","coordinates":[[-83.72626722356496,37.825],[-83.726608,37.825249],[-83.727082,37.825564],[-83.728153,37.826193],[-83.728498,37.826363],[-83.729013,37.826579],[-83.729562,37.826809],[-83.729836,37.826911],[-83.730555,37.827144],[-83.730664,37.827179],[-83.730881,37.827237],[-83.730951,37.827256],[-83.731567,37.8274],[-83.732204,37.827531],[-83.732535,37.827586],[-83.733209,37.827674],[-83.734462,37.827797],[-83.735717,37.82791],[-83.737259,37.828025],[-83.738249,37.828109],[-83.742127,37.828462],[-83.742816,37.82852],[-83.74492,37.828698],[-83.746191,37.828823],[-83.749656,37.829117],[-83.750259,37.829193],[-83.750979,37.829324],[-83.751461,37.829435],[-83.752052,37.829604],[-83.752635,37.829801],[-83.753009,37.829951],[-83.753859,37.830367],[-83.75402,37.8304563],[-83.7540235,37.8304549]]}},{"type":"Feature","properties":{"osm_id":16337533,"highway":"residential","name":"Jones Service Road","alt_name":null,"official_name":null,"surface":"gravel","tracktype":null,"service":null,"access":null,"motor_vehicle":null,"foot":null,"tiger_reviewed":"no","rrgh_part":0,"rrgh_tile_part":0},"geometry":{"type":"LineString","coordinates":[[-83.745724,37.827382],[-83.745777,37.827348],[-83.745821,37.827335],[-83.745924,37.827328],[-83.746028,37.82735],[-83.746178,37.827422],[-83.746271,37.827496],[-83.746386,37.827639],[-83.746581,37.828009],[-83.746649,37.828111],[-83.746679,37.828139],[-83.746742,37.828167],[-83.746878,37.828206],[-83.747333,37.828246],[-83.747763,37.82826],[-83.74793,37.82828],[-83.748538,37.828319],[-83.749311,37.828385],[-83.750335,37.828504],[-83.751242,37.828651],[-83.752092,37.828878],[-83.752427,37.828987],[-83.753599,37.829433],[-83.753851,37.82955],[-83.75445,37.82986],[-83.754964,37.830154],[-83.755488,37.830514],[-83.755656,37.830645],[-83.755872,37.830797],[-83.7560399,37.8309053],[-83.7564996,37.8311929],[-83.7566699,37.8313105],[-83.756769,37.8313844],[-83.7569621,37.8316146],[-83.7572931,37.832012],[-83.7575998,37.8324218],[-83.7576993,37.832613],[-83.7578988,37.832963],[-83.7580933,37.8333193],[-83.758368,37.8338584],[-83.7585355,37.8342543],[-83.7586462,37.8344478],[-83.758763,37.8345812],[-83.7588425,37.8346212]]}},{"type":"Feature","properties":{"osm_id":169094310,"highway":"residential","name":"Manning Road","alt_name":null,"official_name":null,"surface":"gravel","tracktype":null,"service":null,"access":null,"motor_vehicle":null,"foot":null,"tiger_reviewed":"no","rrgh_part":0,"rrgh_tile_part":0},"geometry":{"type":"LineString","coordinates":[[-83.7540235,37.8304549],[-83.7543909,37.8306657],[-83.754973,37.83107],[-83.755317,37.831322],[-83.755501,37.831488],[-83.755569,37.83155],[-83.755696,37.831692],[-83.755845,37.831892],[-83.755928,37.832031],[-83.755957,37.8322354],[-83.7560031,37.8325342],[-83.7560553,37.8327888],[-83.7560814,37.8330811],[-83.756054,37.8334976],[-83.7560191,37.833852],[-83.7559539,37.8340621],[-83.7558105,37.834343],[-83.7556282,37.8346505],[-83.7554607,37.8349719],[-83.7554238,37.8350428],[-83.7552526,37.8353726],[-83.7550912,37.8355541]]}},{"type":"Feature","properties":{"osm_id":1138386570,"highway":"service","name":null,"alt_name":null,"official_name":null,"surface":"gravel","tracktype":null,"service":null,"access":null,"motor_vehicle":null,"foot":null,"tiger_reviewed":null,"rrgh_part":0,"rrgh_tile_part":0},"geometry":{"type":"LineString","coordinates":[[-83.755957,37.8322354],[-83.7558873,37.8323159],[-83.7557639,37.8324133],[-83.7554314,37.8326335],[-83.7553188,37.8327351],[-83.7552705,37.8328537],[-83.7552008,37.8331205],[-83.7551472,37.8334423],[-83.7551579,37.8336541],[-83.7551901,37.8337769],[-83.7552705,37.8339124],[-83.7554958,37.8340902],[-83.755528,37.8341834],[-83.755469,37.8343401],[-83.7552341,37.8347926],[-83.7552289,37.8348429],[-83.75526,37.8348829],[-83.7554607,37.8349719]]}},{"type":"Feature","properties":{"osm_id":1336681771,"highway":"service","name":null,"alt_name":null,"official_name":null,"surface":null,"tracktype":null,"service":null,"access":null,"motor_vehicle":null,"foot":null,"tiger_reviewed":null,"rrgh_part":0,"rrgh_tile_part":0},"geometry":{"type":"LineString","coordinates":[[-83.7588425,37.8346212],[-83.7589176,37.8346774],[-83.7591365,37.8350164],[-83.7591687,37.8351816],[-83.7591419,37.835512],[-83.7593295,37.836016],[-83.7597476,37.8365369]]}},{"type":"Feature","properties":{"osm_id":1336681772,"highway":"service","name":null,"alt_name":null,"official_name":null,"surface":null,"tracktype":null,"service":null,"access":null,"motor_vehicle":null,"foot":null,"tiger_reviewed":null,"rrgh_part":0,"rrgh_tile_part":0},"geometry":{"type":"LineString","coordinates":[[-83.76,37.83488826869648],[-83.759771,37.8348772],[-83.7593377,37.8348074],[-83.7588425,37.8346212]]}},{"type":"Feature","properties":{"osm_id":885730879,"highway":"service","name":null,"alt_name":null,"official_name":null,"surface":null,"tracktype":null,"service":null,"access":null,"motor_vehicle":null,"foot":null,"tiger_reviewed":null,"rrgh_part":0,"rrgh_tile_part":0},"geometry":{"type":"LineString","coordinates":[[-83.7552526,37.8353726],[-83.7553724,37.8355512],[-83.7555676,37.8357214],[-83.7557091,37.8357971],[-83.7558522,37.8359004],[-83.7560379,37.8359405],[-83.7562852,37.8359402],[-83.7564075,37.8360212],[-83.756386,37.8361864],[-83.7562841,37.8363092],[-83.755528,37.8369783],[-83.7553992,37.8371392],[-83.7553403,37.837262],[-83.7553081,37.837389],[-83.7552437,37.8378167],[-83.7552169,37.837876],[-83.7550238,37.8381132],[-83.7548683,37.8384689],[-83.7546645,37.8388712],[-83.7545626,37.8389601],[-83.7544661,37.8389855],[-83.7543534,37.8389686],[-83.7540317,37.8387949]]}},{"type":"Feature","properties":{"osm_id":885730880,"highway":"service","name":null,"alt_name":null,"official_name":null,"surface":null,"tracktype":null,"service":null,"access":null,"motor_vehicle":null,"foot":null,"tiger_reviewed":null,"rrgh_part":0,"rrgh_tile_part":0},"geometry":{"type":"LineString","coordinates":[[-83.7557091,37.8357971],[-83.7560293,37.8358561],[-83.7563716,37.8358395],[-83.7565416,37.8358888],[-83.7566274,37.8360032],[-83.7566435,37.8361218],[-83.7565952,37.8362362],[-83.756504,37.8363845],[-83.7561822,37.8368124],[-83.7560695,37.8369988],[-83.7560212,37.8371428],[-83.7560212,37.8371936],[-83.7560749,37.8373165],[-83.7561714,37.8374351],[-83.7562895,37.8375368],[-83.7563914,37.8376004],[-83.7565201,37.8376554],[-83.7566757,37.8376851],[-83.7568474,37.8376893],[-83.757239,37.8376215],[-83.7574106,37.8376131],[-83.7575608,37.8376597],[-83.7576735,37.8377486],[-83.7577968,37.8379308],[-83.7579095,37.8381469],[-83.7582153,37.8384223],[-83.7583386,37.8386426],[-83.7583762,37.8387908],[-83.7583762,37.8389095],[-83.7583065,37.8392484],[-83.7582206,37.8395365],[-83.7581026,37.8396551],[-83.7577325,37.8399051],[-83.7573838,37.8400957],[-83.7569868,37.8402609],[-83.7561285,37.8405363],[-83.7559193,37.8405829],[-83.7554633,37.8406337],[-83.7553614,37.8406592],[-83.7552488,37.8406507],[-83.7541759,37.8407185],[-83.7537146,37.8407693],[-83.7530279,37.840871],[-83.7520999,37.8411125],[-83.751542,37.8412311],[-83.7509825,37.8414146],[-83.7504476,37.8416039],[-83.7495357,37.8420615],[-83.7493104,37.8421377],[-83.7490744,37.8421843],[-83.7489617,37.8422225],[-83.7489295,37.8422479],[-83.7487257,37.8426758],[-83.7486238,37.8430189],[-83.7485326,37.8432308],[-83.7485111,37.8435231],[-83.7485701,37.8440442]]}},{"type":"Feature","properties":{"osm_id":16339470,"highway":"residential","name":"Manning Spur Cemetery Road","alt_name":null,"official_name":null,"surface":"gravel","tracktype":null,"service":null,"access":null,"motor_vehicle":null,"foot":null,"tiger_reviewed":"no","rrgh_part":0,"rrgh_tile_part":0},"geometry":{"type":"LineString","coordinates":[[-83.752635,37.829801],[-83.752261,37.830243],[-83.751732,37.830721],[-83.751669,37.830805]]}},{"type":"Feature","properties":{"osm_id":16337486,"highway":"residential","name":"Manning Spur","alt_name":null,"official_name":null,"surface":null,"tracktype":null,"service":null,"access":null,"motor_vehicle":null,"foot":null,"tiger_reviewed":"no","rrgh_part":0,"rrgh_tile_part":0},"geometry":{"type":"LineString","coordinates":[[-83.745378,37.8271651],[-83.745724,37.827382],[-83.745911,37.8275],[-83.746086,37.827646],[-83.746171,37.827763],[-83.746238,37.827893],[-83.746275,37.828028],[-83.746286,37.828158],[-83.7462823,37.8282054]]}},{"type":"Feature","properties":{"osm_id":295313330,"highway":"residential","name":"Cr-1007","alt_name":null,"official_name":null,"surface":null,"tracktype":null,"service":null,"access":null,"motor_vehicle":null,"foot":null,"tiger_reviewed":"no","rrgh_part":0,"rrgh_tile_part":0},"geometry":{"type":"LineString","coordinates":[[-83.7462823,37.8282054],[-83.746276,37.828285],[-83.7462032,37.8287456]]}},{"type":"Feature","properties":{"osm_id":295313331,"highway":"residential","name":"Cr-1007","alt_name":null,"official_name":null,"surface":null,"tracktype":null,"service":null,"access":null,"motor_vehicle":null,"foot":null,"tiger_reviewed":"no","rrgh_part":0,"rrgh_tile_part":0},"geometry":{"type":"LineString","coordinates":[[-83.7462032,37.8287456],[-83.746191,37.828823]]}},{"type":"Feature","properties":{"osm_id":1524237449,"highway":"service","name":null,"alt_name":null,"official_name":null,"surface":"gravel","tracktype":null,"service":"emergency_access","access":"no","motor_vehicle":"no","foot":"no","tiger_reviewed":null,"rrgh_part":0,"rrgh_tile_part":0},"geometry":{"type":"LineString","coordinates":[[-83.7432317,37.8281179],[-83.7432534,37.8279628],[-83.7432676,37.827861]]}},{"type":"Feature","properties":{"osm_id":16335690,"highway":"service","name":null,"alt_name":null,"official_name":null,"surface":null,"tracktype":null,"service":null,"access":"private","motor_vehicle":null,"foot":null,"tiger_reviewed":"no","rrgh_part":0,"rrgh_tile_part":0},"geometry":{"type":"LineString","coordinates":[[-83.73068,37.8264641],[-83.730663,37.82629],[-83.73066,37.826232]]}},{"type":"Feature","properties":{"osm_id":16336650,"highway":"residential","name":"Star Gap Road","alt_name":null,"official_name":null,"surface":"gravel","tracktype":null,"service":null,"access":"private","motor_vehicle":null,"foot":null,"tiger_reviewed":"no","rrgh_part":0,"rrgh_tile_part":0},"geometry":{"type":"LineString","coordinates":[[-83.723237,37.841102],[-83.723392,37.841308],[-83.723553,37.841525],[-83.7235866,37.841569],[-83.723697,37.841635],[-83.7239181,37.8417191],[-83.7242138,37.8418059],[-83.724379,37.841834],[-83.7246256,37.841865],[-83.7248252,37.8418288],[-83.7249344,37.8417935],[-83.7250553,37.8417408],[-83.7251298,37.8416725],[-83.7253315,37.8414034],[-83.7254495,37.8413057],[-83.7256553,37.8411702],[-83.7258183,37.8410208],[-83.7261024,37.8406979],[-83.7264859,37.8403646],[-83.7268076,37.8401242],[-83.7269809,37.8400053],[-83.727797,37.839633],[-83.7284225,37.8393508],[-83.7285355,37.8393228],[-83.7287876,37.8392842],[-83.7289795,37.8392355],[-83.7294653,37.8390374],[-83.7295873,37.8390036],[-83.7297442,37.8390099],[-83.7299,37.839057],[-83.730016,37.839125],[-83.7301085,37.8392217],[-83.7301532,37.8393183],[-83.7301557,37.8394086],[-83.7301237,37.839566],[-83.7301193,37.8396883],[-83.730126,37.8398901],[-83.730142,37.8399571]]}},{"type":"Feature","properties":{"osm_id":16337512,"highway":"residential","name":"Sizemore Cemetery Road","alt_name":null,"official_name":null,"surface":"gravel","tracktype":null,"service":null,"access":null,"motor_vehicle":null,"foot":null,"tiger_reviewed":"no","rrgh_part":0,"rrgh_tile_part":0},"geometry":{"type":"LineString","coordinates":[[-83.7264527,37.835002],[-83.7264978,37.8350803],[-83.7264909,37.8351371],[-83.7264704,37.8352016],[-83.7264164,37.8353746],[-83.7264094,37.8354626],[-83.7264234,37.8355556],[-83.7264744,37.8356496],[-83.7265144,37.8356866],[-83.7267904,37.8358636],[-83.7269234,37.8359216],[-83.7271104,37.8359656],[-83.7273384,37.8359826],[-83.7274494,37.8359756],[-83.7275504,37.8359526],[-83.7277144,37.8358746],[-83.7278394,37.8358326],[-83.7281004,37.8357986],[-83.7282684,37.8356596],[-83.7284054,37.8355226],[-83.7284654,37.8354476],[-83.7285134,37.8353676],[-83.7286164,37.8351276],[-83.7289123,37.8345254]]}},{"type":"Feature","properties":{"osm_id":1347573494,"highway":"track","name":null,"alt_name":null,"official_name":null,"surface":null,"tracktype":null,"service":null,"access":null,"motor_vehicle":null,"foot":null,"tiger_reviewed":null,"rrgh_part":0,"rrgh_tile_part":0},"geometry":{"type":"LineString","coordinates":[[-83.7311023,37.8403031],[-83.7313465,37.8403109],[-83.7315244,37.8403205],[-83.7317479,37.8403177],[-83.7319186,37.840329],[-83.7320371,37.8403568],[-83.7321503,37.840406],[-83.7322875,37.840504],[-83.7324096,37.8406564],[-83.7324994,37.8407842],[-83.7325659,37.8408693],[-83.7326361,37.8409357],[-83.732735,37.8409684],[-83.7328598,37.8410277],[-83.73294,37.8410934],[-83.7330051,37.8411707],[-83.7330495,37.841267],[-83.7330786,37.8413945],[-83.7330839,37.8415405],[-83.7330987,37.8417211],[-83.733115,37.8418572],[-83.733174,37.8420867],[-83.7332308,37.8423307],[-83.733299,37.8425437],[-83.7333619,37.8427321],[-83.7333564,37.8429386],[-83.7333356,37.8430483],[-83.7332903,37.8431377],[-83.7332147,37.8432246],[-83.7331484,37.8433312],[-83.7331618,37.8435108],[-83.7331944,37.8436316],[-83.733205,37.8437234],[-83.7331592,37.8438779],[-83.7330966,37.8439795],[-83.7329904,37.8440996],[-83.7328671,37.8442042],[-83.7327389,37.844299]]}},{"type":"Feature","properties":{"osm_id":1347573495,"highway":"residential","name":null,"alt_name":null,"official_name":null,"surface":null,"tracktype":null,"service":"driveway","access":null,"motor_vehicle":null,"foot":null,"tiger_reviewed":null,"rrgh_part":0,"rrgh_tile_part":0},"geometry":{"type":"LineString","coordinates":[[-83.730142,37.8399571],[-83.7301849,37.839998],[-83.7303266,37.8400986],[-83.7305126,37.8401506],[-83.7307576,37.8402244],[-83.7309966,37.8402808],[-83.7311023,37.8403031],[-83.7314481,37.8405588],[-83.731589,37.8406632],[-83.7318071,37.8407599]]}},{"type":"Feature","properties":{"osm_id":1517600118,"highway":"service","name":null,"alt_name":null,"official_name":null,"surface":null,"tracktype":null,"service":null,"access":null,"motor_vehicle":null,"foot":null,"tiger_reviewed":null,"rrgh_part":0,"rrgh_tile_part":0},"geometry":{"type":"LineString","coordinates":[[-83.730142,37.8399571],[-83.7300548,37.839998],[-83.7298939,37.8400869],[-83.7298027,37.8402183],[-83.7296551,37.8404936],[-83.7295988,37.8406398],[-83.7296096,37.8407372],[-83.7296686,37.8408071],[-83.7297866,37.8408156]]}},{"type":"Feature","properties":{"osm_id":16335768,"highway":"service","name":null,"alt_name":null,"official_name":null,"surface":null,"tracktype":null,"service":null,"access":"private","motor_vehicle":null,"foot":null,"tiger_reviewed":"no","rrgh_part":0,"rrgh_tile_part":0},"geometry":{"type":"LineString","coordinates":[[-83.76,37.84545446491767],[-83.7595933,37.8457892]]}},{"type":"Feature","properties":{"osm_id":16337030,"highway":"residential","name":"Upper Cane Creek Road","alt_name":null,"official_name":null,"surface":null,"tracktype":null,"service":null,"access":null,"motor_vehicle":null,"foot":null,"tiger_reviewed":"no","rrgh_part":0,"rrgh_tile_part":0},"geometry":{"type":"LineString","coordinates":[[-83.76,37.878518749999984],[-83.759991,37.878543],[-83.759973,37.878643],[-83.759998,37.879426],[-83.76,37.87943793750006]]}},{"type":"Feature","properties":{"osm_id":16337030,"highway":"residential","name":"Upper Cane Creek Road","alt_name":null,"official_name":null,"surface":null,"tracktype":null,"service":null,"access":null,"motor_vehicle":null,"foot":null,"tiger_reviewed":"no","rrgh_part":0,"rrgh_tile_part":1},"geometry":{"type":"LineString","coordinates":[[-83.76,37.880768477832504],[-83.759805,37.881097],[-83.759735,37.881216],[-83.75958,37.881444],[-83.75935,37.881747],[-83.759284,37.881835],[-83.759227,37.881934]]}},{"type":"Feature","properties":{"osm_id":16335856,"highway":"service","name":null,"alt_name":null,"official_name":null,"surface":null,"tracktype":null,"service":null,"access":"private","motor_vehicle":null,"foot":null,"tiger_reviewed":"no","rrgh_part":0,"rrgh_tile_part":0},"geometry":{"type":"LineString","coordinates":[[-83.752494,37.846772],[-83.752977,37.846869]]}},{"type":"Feature","properties":{"osm_id":16337160,"highway":"service","name":"Lakeview Drive","alt_name":null,"official_name":null,"surface":null,"tracktype":null,"service":null,"access":"private","motor_vehicle":null,"foot":null,"tiger_reviewed":"no","rrgh_part":0,"rrgh_tile_part":0},"geometry":{"type":"LineString","coordinates":[[-83.752287,37.846731],[-83.752494,37.846772]]}},{"type":"Feature","properties":{"osm_id":16335769,"highway":"service","name":null,"alt_name":null,"official_name":null,"surface":null,"tracktype":null,"service":null,"access":null,"motor_vehicle":null,"foot":null,"tiger_reviewed":"no","rrgh_part":0,"rrgh_tile_part":0},"geometry":{"type":"LineString","coordinates":[[-83.7528821,37.8503833],[-83.7530045,37.850612],[-83.7530287,37.8507981],[-83.7530552,37.851024]]}},{"type":"Feature","properties":{"osm_id":16335825,"highway":"service","name":null,"alt_name":null,"official_name":null,"surface":null,"tracktype":null,"service":null,"access":"private","motor_vehicle":null,"foot":null,"tiger_reviewed":"no","rrgh_part":0,"rrgh_tile_part":0},"geometry":{"type":"LineString","coordinates":[[-83.753177,37.852776],[-83.753317,37.852878]]}},{"type":"Feature","properties":{"osm_id":16337799,"highway":"service","name":"Dunwoody Road","alt_name":null,"official_name":null,"surface":null,"tracktype":null,"service":null,"access":"private","motor_vehicle":null,"foot":null,"tiger_reviewed":"no","rrgh_part":0,"rrgh_tile_part":0},"geometry":{"type":"LineString","coordinates":[[-83.7421077,37.8622311],[-83.7420644,37.8623202],[-83.7419774,37.8624992],[-83.7418214,37.8629562],[-83.7417174,37.8632692],[-83.7416304,37.8635522],[-83.7414844,37.8638332],[-83.7413054,37.8639592],[-83.7411164,37.8640542]]}},{"type":"Feature","properties":{"osm_id":16335695,"highway":"service","name":"Short Creek Road","alt_name":null,"official_name":null,"surface":"gravel","tracktype":null,"service":null,"access":"private","motor_vehicle":null,"foot":null,"tiger_reviewed":"no","rrgh_part":0,"rrgh_tile_part":0},"geometry":{"type":"LineString","coordinates":[[-83.737609,37.858689],[-83.737424,37.858666],[-83.737287,37.858619],[-83.7371411,37.8585882],[-83.7369414,37.8585079],[-83.7366174,37.8584142],[-83.7364855,37.8584008],[-83.7360937,37.8584068],[-83.735747,37.8584336],[-83.7355492,37.8584559],[-83.735244,37.8585481],[-83.7350425,37.8586463],[-83.7347655,37.858853],[-83.7344227,37.8590999],[-83.7341495,37.8592635],[-83.7338556,37.8594331],[-83.7335599,37.8596145],[-83.7332339,37.8598451],[-83.7330079,37.8600206],[-83.7327592,37.8602035],[-83.7325934,37.8603032],[-83.7324295,37.860376],[-83.7322204,37.8604385],[-83.7320678,37.8604668]]}},{"type":"Feature","properties":{"osm_id":16338594,"highway":"residential","name":"Napier Cemetery Road","alt_name":null,"official_name":null,"surface":"gravel","tracktype":null,"service":null,"access":null,"motor_vehicle":null,"foot":null,"tiger_reviewed":"no","rrgh_part":0,"rrgh_tile_part":0},"geometry":{"type":"LineString","coordinates":[[-83.717396,37.8283],[-83.717942,37.8284109],[-83.718338,37.82847],[-83.718418,37.828493],[-83.718567,37.828562],[-83.718628,37.828605],[-83.718717,37.828693],[-83.718825,37.82884],[-83.718886,37.828948],[-83.718967,37.829145],[-83.719043,37.829282],[-83.719186,37.829471],[-83.719343,37.829657],[-83.719459,37.829745],[-83.719564,37.829807],[-83.719862,37.829959],[-83.720164,37.830157],[-83.720357,37.830333],[-83.720577,37.830616],[-83.72067,37.830751],[-83.720741,37.830916],[-83.720751,37.830953],[-83.720749,37.83104],[-83.720646,37.831397],[-83.720611,37.831721],[-83.720631,37.831877],[-83.720733,37.832008],[-83.720772,37.832083],[-83.720769,37.832395],[-83.720784,37.832549],[-83.720824,37.832659],[-83.720894,37.832762],[-83.720976,37.832833],[-83.721193,37.832978],[-83.721355,37.833047],[-83.721455,37.833079],[-83.721505,37.833095],[-83.72187,37.833158],[-83.722084,37.833221],[-83.722255,37.833294],[-83.722279,37.833304],[-83.722553,37.833471],[-83.722927,37.833643],[-83.72303,37.833681],[-83.723301,37.833723]]}},{"type":"Feature","properties":{"osm_id":885731241,"highway":"residential","name":null,"alt_name":null,"official_name":null,"surface":null,"tracktype":null,"service":null,"access":null,"motor_vehicle":null,"foot":null,"tiger_reviewed":null,"rrgh_part":0,"rrgh_tile_part":0},"geometry":{"type":"LineString","coordinates":[[-83.71987241080632,37.825],[-83.7197159,37.8251421],[-83.7195835,37.8252833],[-83.7196521,37.8255942],[-83.7196222,37.8256843],[-83.7196857,37.8257669],[-83.7197268,37.8258496],[-83.7197491,37.8259948],[-83.7196961,37.826476],[-83.7196696,37.8266748],[-83.7196895,37.8267428],[-83.719713,37.8267479],[-83.7197623,37.8267585],[-83.7198285,37.826701],[-83.7200338,37.8263871],[-83.7203517,37.8259477],[-83.720418,37.8258117],[-83.7205637,37.8255135],[-83.7207292,37.8253723],[-83.7209809,37.8252467],[-83.7214445,37.8250846],[-83.7217655047191,37.825]]}},{"type":"Feature","properties":{"osm_id":885731241,"highway":"residential","name":null,"alt_name":null,"official_name":null,"surface":null,"tracktype":null,"service":null,"access":null,"motor_vehicle":null,"foot":null,"tiger_reviewed":null,"rrgh_part":0,"rrgh_tile_part":1},"geometry":{"type":"LineString","coordinates":[[-83.7237114698523,37.825],[-83.7237227,37.8250061],[-83.723981,37.8251421],[-83.7241134,37.825252],[-83.7242194,37.8254037],[-83.7241995,37.8256338],[-83.7242018,37.825767],[-83.7241664,37.8260785],[-83.7240604,37.8263296],[-83.7237962,37.8265936]]}},{"type":"Feature","properties":{"osm_id":885731241,"highway":"residential","name":null,"alt_name":null,"official_name":null,"surface":null,"tracktype":null,"service":null,"access":null,"motor_vehicle":null,"foot":null,"tiger_reviewed":null,"rrgh_part":1,"rrgh_tile_part":0},"geometry":{"type":"LineString","coordinates":[[-83.7237962,37.8265936],[-83.7235969,37.8267271],[-83.7234445,37.8269154],[-83.7233187,37.8271404],[-83.723173,37.8272712],[-83.7229942,37.8273758],[-83.7227823,37.8274961],[-83.7225604,37.8276148],[-83.722487,37.8277054],[-83.7224778,37.8278358],[-83.7224503,37.8279662],[-83.7223907,37.8280532],[-83.7222852,37.8281111],[-83.7221109,37.8281437],[-83.7219549,37.8281329],[-83.7217623,37.8280749],[-83.7215467,37.8279952],[-83.7213633,37.827872],[-83.7212348,37.8277344],[-83.7210881,37.8276329],[-83.7210606,37.8275605],[-83.7211018,37.8274047],[-83.7211844,37.8272453],[-83.7212899,37.8271366],[-83.7213633,37.8270098],[-83.7214504,37.8268105],[-83.7214779,37.8266548],[-83.7214642,37.8264628],[-83.7214688,37.8262671],[-83.72151,37.8260824],[-83.7216385,37.8259592],[-83.7218219,37.8258903],[-83.7220421,37.825836],[-83.7222072,37.8257998],[-83.7224641,37.8257273],[-83.7225512,37.8256766],[-83.7226796,37.825586],[-83.7227851,37.8255788],[-83.7229961,37.8255788],[-83.7231199,37.8256476],[-83.7232163,37.8257454],[-83.7232713,37.8258577],[-83.7232659,37.8260352],[-83.7232484,37.8262019],[-83.7232666,37.826274],[-83.7233256,37.8263466],[-83.7234812,37.8264648],[-83.7235985,37.8265355],[-83.7237184,37.8265961],[-83.7237962,37.8265936]]}},{"type":"Feature","properties":{"osm_id":1138386568,"highway":"residential","name":"Star Gap Road","alt_name":null,"official_name":null,"surface":null,"tracktype":null,"service":null,"access":null,"motor_vehicle":null,"foot":null,"tiger_reviewed":"no","rrgh_part":0,"rrgh_tile_part":0},"geometry":{"type":"LineString","coordinates":[[-83.7221761,37.8409556],[-83.722701,37.84116],[-83.722894,37.841237],[-83.72302,37.841257],[-83.72308,37.841246],[-83.723132,37.841224],[-83.723185,37.841187],[-83.72322,37.841144],[-83.723237,37.841102],[-83.723236,37.841039],[-83.723211,37.840999],[-83.7230949,37.8409455],[-83.7229636,37.8409085],[-83.7227111,37.8408376],[-83.722583,37.840737],[-83.722499,37.840678],[-83.722431,37.840615],[-83.722106,37.840183],[-83.721985,37.83999],[-83.721794,37.839642],[-83.721759,37.83956],[-83.721722,37.839391],[-83.721723,37.839312],[-83.721744,37.839238],[-83.721778,37.83917],[-83.721825,37.83911],[-83.721952,37.839],[-83.722208,37.83883],[-83.723013,37.838388],[-83.723447,37.838191],[-83.723671,37.838069],[-83.723889,37.837934],[-83.724246,37.837695],[-83.724554,37.837469],[-83.72464,37.837427],[-83.724735,37.837401],[-83.724832,37.837387],[-83.725269,37.837372],[-83.725571,37.837347],[-83.725743,37.837314],[-83.725895,37.837269],[-83.72601,37.837229],[-83.726159,37.83715],[-83.726215,37.837098],[-83.726293,37.83699],[-83.726315,37.836892],[-83.726304,37.836798],[-83.72627,37.836723],[-83.7261914,37.8365902],[-83.72618,37.836571],[-83.725795,37.836056],[-83.725772,37.835999],[-83.725762,37.835938],[-83.725768,37.835896],[-83.725796,37.835797],[-83.72591,37.835587],[-83.726065,37.835365],[-83.726188,37.835211],[-83.726265,37.835136],[-83.7264527,37.835002],[-83.72676,37.834808],[-83.726832,37.834732],[-83.726862,37.834672],[-83.726883,37.834605],[-83.726886,37.834537],[-83.726853,37.834397],[-83.72677,37.834176],[-83.726607,37.833827],[-83.726433,37.833571],[-83.7263,37.833399],[-83.725918,37.833018],[-83.725862,37.832915],[-83.725845,37.832849],[-83.72587,37.832765],[-83.725936,37.832676],[-83.726082,37.83254],[-83.72623,37.832425],[-83.726341,37.832338],[-83.726471,37.83218],[-83.726667,37.831848],[-83.726742,37.831683],[-83.726778,37.831575],[-83.726785,37.831389],[-83.726741,37.831043],[-83.726657,37.830635],[-83.726635,37.830149],[-83.726632,37.829949],[-83.726655,37.829723],[-83.7267,37.829615],[-83.727071,37.829047],[-83.727246,37.828855],[-83.727341,37.828787],[-83.727691,37.828658],[-83.7278,37.828603],[-83.727913,37.828524],[-83.728095,37.828376],[-83.728266,37.828189],[-83.72847,37.827952],[-83.728547,37.827828],[-83.7286,37.827693],[-83.728631,37.827557],[-83.728645,37.827425],[-83.728623,37.827219],[-83.728576,37.827032],[-83.728465,37.8267],[-83.728443,37.826604],[-83.7284526,37.826463],[-83.728498,37.826363]]}},{"type":"Feature","properties":{"osm_id":16336640,"highway":"residential","name":"Star Gap Road","alt_name":null,"official_name":null,"surface":"gravel","tracktype":null,"service":null,"access":null,"motor_vehicle":null,"foot":null,"tiger_reviewed":"no","rrgh_part":0,"rrgh_tile_part":0},"geometry":{"type":"LineString","coordinates":[[-83.6893673,37.8376009],[-83.6894002,37.8375591],[-83.6894999,37.8374225],[-83.6898595,37.8370635],[-83.6901508,37.836825],[-83.6905483,37.8365323],[-83.6913728,37.8359412],[-83.691597,37.835806],[-83.691725,37.835758],[-83.691826,37.83573],[-83.691987,37.835686],[-83.6920864,37.8356367],[-83.6921995,37.8356351],[-83.6924158,37.8356487],[-83.692707,37.835702],[-83.692844,37.835758],[-83.692962,37.835826],[-83.693262,37.836088],[-83.69332,37.836126],[-83.693736,37.836313],[-83.693797,37.83635],[-83.694047,37.836603],[-83.694283,37.8368],[-83.694439,37.836949],[-83.694561,37.837115],[-83.694692,37.837361],[-83.695043,37.837943],[-83.695199,37.838244],[-83.6953087,37.8384507],[-83.6957211,37.839103],[-83.695931,37.839367],[-83.696042,37.8396],[-83.696289,37.839961],[-83.696579,37.840319],[-83.69697,37.840625],[-83.697133,37.840796],[-83.697379,37.841008],[-83.69767,37.841225],[-83.698491,37.84163],[-83.698678,37.841709],[-83.69877,37.841737],[-83.698924,37.841764],[-83.69899,37.841759],[-83.699064,37.841737],[-83.6992,37.841682],[-83.699338,37.841585],[-83.699515,37.841439],[-83.700089,37.840826],[-83.70043,37.840423],[-83.700689,37.840089],[-83.7019722,37.8387785],[-83.702612,37.838094],[-83.703322,37.837379],[-83.703537,37.837217],[-83.703862,37.836951],[-83.704323,37.836705],[-83.70509,37.836367],[-83.705209,37.836326],[-83.705572,37.836236],[-83.706028,37.836137],[-83.707254,37.835837],[-83.708123,37.835565],[-83.708591,37.835419],[-83.708878,37.835303],[-83.709152,37.835167],[-83.70927,37.835074],[-83.709337,37.834991],[-83.709405,37.834882],[-83.709534,37.834635],[-83.709604,37.834502],[-83.70964,37.834445],[-83.70966,37.834416],[-83.70973,37.834356],[-83.709842,37.834306],[-83.709906,37.834298],[-83.710261,37.834289],[-83.710381,37.834295],[-83.710754,37.834364],[-83.710828,37.834371],[-83.71097,37.834358],[-83.71104,37.834338],[-83.71125,37.834255],[-83.7114684,37.8341597],[-83.7118515,37.8339426],[-83.7120475,37.833807],[-83.71227,37.833669],[-83.712312,37.833654],[-83.712479,37.833592],[-83.712553,37.833583],[-83.712711,37.833586],[-83.712871,37.833623],[-83.713023,37.833696],[-83.713134,37.833774],[-83.71337,37.833979],[-83.713569,37.834122],[-83.714016,37.834388],[-83.714392,37.834582],[-83.715504,37.835088],[-83.71573,37.835179],[-83.715884,37.835209],[-83.716122,37.835215],[-83.716467,37.8352],[-83.716873,37.835146],[-83.717021,37.835136],[-83.717179,37.835142],[-83.717343,37.835197],[-83.717446,37.835243],[-83.71759,37.83537],[-83.717641,37.835399],[-83.717847,37.835492],[-83.718086,37.835615],[-83.718307,37.835763],[-83.7185115,37.8359422],[-83.7186203,37.8360631],[-83.7190388,37.836635],[-83.7191538,37.8368615],[-83.7192613,37.837072],[-83.719962,37.838286],[-83.720054,37.838417],[-83.720121,37.838461],[-83.720195,37.838487],[-83.720285,37.838512],[-83.720391,37.838528],[-83.720526,37.838537],[-83.7207415,37.8385213],[-83.720898,37.838478],[-83.721091,37.838494],[-83.721171,37.838511],[-83.721245,37.838532],[-83.721299,37.838565],[-83.721317,37.838614],[-83.721305,37.838666],[-83.721271,37.838716],[-83.721227,37.838751],[-83.721089,37.83881],[-83.720769,37.838909],[-83.720599,37.838976],[-83.720551,37.839016],[-83.720529,37.839053],[-83.720525,37.839141],[-83.720541,37.839191],[-83.7206837,37.8394637],[-83.7209592,37.8398854],[-83.7211796,37.8402006],[-83.7213848,37.8404891],[-83.7215331,37.8406332],[-83.72179,37.8407915],[-83.7221761,37.8409556]]}},{"type":"Feature","properties":{"osm_id":16338538,"highway":"unclassified","name":"Spaas Creek Road","alt_name":null,"official_name":null,"surface":"gravel","tracktype":null,"service":null,"access":null,"motor_vehicle":null,"foot":null,"tiger_reviewed":"no","rrgh_part":0,"rrgh_tile_part":0},"geometry":{"type":"LineString","coordinates":[[-83.722087,37.847859],[-83.72194,37.847944],[-83.721324,37.848199],[-83.720848,37.848369],[-83.720658,37.848422],[-83.720154,37.848529],[-83.719789,37.848586],[-83.719512,37.848606],[-83.719325,37.848635],[-83.719206,37.848678],[-83.719076,37.848742],[-83.718897,37.848853],[-83.718826,37.848919],[-83.7187522,37.8489861],[-83.7186964,37.8490602],[-83.7186324,37.8491966],[-83.718611,37.84929],[-83.718516,37.849595],[-83.718451,37.849711],[-83.718361,37.849842],[-83.718315,37.849895],[-83.718201,37.84999],[-83.717521,37.850517],[-83.717415,37.850607],[-83.717317,37.85071],[-83.717176,37.850893],[-83.716809,37.85147],[-83.716639,37.851693],[-83.716439,37.851913],[-83.716304,37.852032],[-83.715585,37.852554],[-83.715434,37.852674],[-83.715141,37.852905],[-83.714425,37.853421],[-83.714106,37.853703],[-83.713958,37.853861],[-83.7139154,37.8539207],[-83.713843,37.854022],[-83.713781,37.854155],[-83.713698,37.854447],[-83.713676,37.854601],[-83.713672,37.854731],[-83.713704,37.855116],[-83.713696,37.855382],[-83.713524,37.856662],[-83.712974,37.859798],[-83.7129,37.860079],[-83.712864,37.860167],[-83.712758,37.860347],[-83.712635,37.860491],[-83.712555,37.860556],[-83.712298,37.860699],[-83.712149,37.860769],[-83.7118383,37.8608775],[-83.711565,37.860953],[-83.711514,37.860968],[-83.711301,37.861056],[-83.711124,37.86113],[-83.710902,37.861243],[-83.710328,37.861638],[-83.710142,37.861788],[-83.709681,37.86209],[-83.709415,37.862264],[-83.708962,37.862586],[-83.708811,37.862692],[-83.708301,37.863055],[-83.708134,37.863173],[-83.708005,37.863287],[-83.707914,37.863391],[-83.707803,37.863541],[-83.70763,37.863888],[-83.707516,37.864258],[-83.707069,37.865256],[-83.706935,37.865593],[-83.706887,37.865844],[-83.706861,37.866292],[-83.706847,37.867145],[-83.706865,37.867334],[-83.706916,37.86753],[-83.706999,37.867749],[-83.7071,37.867964],[-83.707261,37.868264],[-83.707466,37.868637],[-83.7078847,37.8692916],[-83.708126,37.869884],[-83.708163,37.869983],[-83.708188,37.870091],[-83.7082491,37.8702665],[-83.7082709,37.8704855],[-83.708238,37.871232],[-83.708203,37.87215],[-83.70809,37.8725142],[-83.7079444,37.8728412],[-83.7078436,37.8730038]]}},{"type":"Feature","properties":{"osm_id":1232556191,"highway":"track","name":"Hatton Ridge Road","alt_name":null,"official_name":null,"surface":null,"tracktype":null,"service":null,"access":null,"motor_vehicle":null,"foot":null,"tiger_reviewed":null,"rrgh_part":0,"rrgh_tile_part":0},"geometry":{"type":"LineString","coordinates":[[-83.6959313,37.8763907],[-83.696101,37.8763004],[-83.6962118,37.8762344],[-83.6962699,37.8761781],[-83.6963083,37.8761089],[-83.6963892,37.8759438],[-83.6964269,37.8758237],[-83.6964675,37.8757316],[-83.6965644,37.8755968],[-83.6965811,37.875461],[-83.6965356,37.8753228],[-83.6964989,37.8752024],[-83.6964096,37.8750638],[-83.6962342,37.8749102],[-83.6960548,37.8748215],[-83.6957621,37.8747487],[-83.6954359,37.8746527],[-83.6953231,37.8745536],[-83.6952794,37.8744362],[-83.6952464,37.8742485],[-83.6953067,37.8741158],[-83.6954176,37.8740093],[-83.6955633,37.8739009],[-83.6956568,37.8737804],[-83.6958624,37.8734522],[-83.6958423,37.8731992],[-83.6955744,37.8729945],[-83.6952543,37.8728432],[-83.6950481,37.8726007],[-83.6950229,37.8723549],[-83.6951592,37.8720702],[-83.6953141,37.871793],[-83.6954512,37.87165],[-83.6955583,37.8715251],[-83.6955501,37.8714701],[-83.6954544,37.8713963],[-83.6952788,37.8713092],[-83.695089,37.8711934],[-83.6950277,37.8710769],[-83.6950417,37.8709384],[-83.6951777,37.8707359],[-83.6955115,37.8702873],[-83.6955862,37.8701448],[-83.6955886,37.8700154],[-83.6954605,37.8698129],[-83.6951931,37.8695915],[-83.6950699,37.8694322],[-83.6950398,37.8693151],[-83.695085,37.8691204],[-83.6952315,37.868883],[-83.6953606,37.8686843],[-83.6954373,37.8683893],[-83.6956042,37.8679125],[-83.6956996,37.8677207],[-83.6959234,37.8676147],[-83.6961231,37.8675489],[-83.6962719,37.8674648],[-83.6963282,37.8673059],[-83.6963604,37.8670665],[-83.6964081,37.8668685],[-83.6965882,37.8666936],[-83.6968218,37.8665572],[-83.6975227,37.8666128],[-83.6979811,37.8665562],[-83.6983121,37.8662346],[-83.698475,37.8659693],[-83.6985501,37.8656641],[-83.6986816,37.8654504],[-83.6988832,37.8650301],[-83.6988851,37.8646659],[-83.6987691,37.864329],[-83.6987213,37.8640518],[-83.6986321,37.8637528],[-83.6984579,37.8635951],[-83.6981764,37.8635523],[-83.6978811,37.8636009],[-83.6975666,37.8636054],[-83.6970718,37.8634679],[-83.6967457,37.8633174],[-83.696534,37.8631685],[-83.6964644,37.8630278],[-83.6964789,37.8628908],[-83.6966216,37.8627579],[-83.6966982,37.8626003],[-83.6967149,37.8624572],[-83.6966121,37.8622916],[-83.6964299,37.8620407],[-83.6964805,37.8617685],[-83.6965903,37.8614256],[-83.6966629,37.8612321],[-83.6968082,37.8610637],[-83.6970763,37.8608957],[-83.69719,37.8607405],[-83.6972174,37.8605218],[-83.6971427,37.8602971],[-83.6967769,37.85976],[-83.6964281,37.8593816],[-83.696294,37.8592207],[-83.696255,37.8590612],[-83.6962991,37.8588855],[-83.6964006,37.8586773],[-83.6965682,37.8585272],[-83.6968573,37.858391],[-83.6970644,37.8582677],[-83.6972591,37.8581387],[-83.6974865,37.8580646],[-83.6978877,37.8581057],[-83.6981588,37.8582146],[-83.6983593,37.858264],[-83.6985759,37.858181],[-83.6986701,37.8580092],[-83.6987603,37.8577855],[-83.6987706,37.8573818],[-83.6987677,37.857058],[-83.6987,37.8565549],[-83.6985411,37.8563189],[-83.6983631,37.8561344],[-83.6980392,37.8558501],[-83.697896,37.8557044],[-83.6978322,37.8555563],[-83.6978216,37.8553685],[-83.6979732,37.8551852],[-83.6983276,37.8550624],[-83.6988999,37.8549628],[-83.6991987,37.8549215],[-83.6995709,37.8547793],[-83.6998315,37.8545023],[-83.6999891,37.8542727],[-83.7000647,37.8540789],[-83.7003395,37.8537085],[-83.7005066,37.8534293],[-83.7005975,37.8531819],[-83.7007031,37.85282],[-83.7007527,37.8526589],[-83.7007573,37.8524372],[-83.7005762,37.8522364],[-83.7003367,37.8520071],[-83.7000993,37.8518323]]}},{"type":"Feature","properties":{"osm_id":885731239,"highway":"residential","name":null,"alt_name":null,"official_name":null,"surface":null,"tracktype":null,"service":null,"access":null,"motor_vehicle":null,"foot":null,"tiger_reviewed":null,"rrgh_part":0,"rrgh_tile_part":0},"geometry":{"type":"LineString","coordinates":[[-83.71931335649279,37.825],[-83.7192256,37.8250806],[-83.7191363,37.8252133],[-83.719131,37.8252937],[-83.7191327,37.8253572],[-83.7191756,37.8254162],[-83.7192572,37.8254681],[-83.7193735,37.8255141],[-83.7194193,37.8255403],[-83.719479,37.8255903],[-83.7196222,37.8256843]]}},{"type":"Feature","properties":{"osm_id":1138386569,"highway":"residential","name":"Napier Cemetery Road","alt_name":null,"official_name":null,"surface":null,"tracktype":null,"service":null,"access":null,"motor_vehicle":null,"foot":null,"tiger_reviewed":"no","rrgh_part":0,"rrgh_tile_part":0},"geometry":{"type":"LineString","coordinates":[[-83.723301,37.833723],[-83.723403,37.83375],[-83.723654,37.833836],[-83.723929,37.833968],[-83.724058,37.834001],[-83.724235,37.834019],[-83.724613,37.834029],[-83.72491,37.834026],[-83.725084,37.834035],[-83.72525,37.834062],[-83.725389,37.834101],[-83.725696,37.83421],[-83.725922,37.834314],[-83.726448,37.834608],[-83.72676,37.834808]]}},{"type":"Feature","properties":{"osm_id":16336107,"highway":"service","name":null,"alt_name":null,"official_name":null,"surface":"gravel","tracktype":null,"service":null,"access":"private","motor_vehicle":null,"foot":null,"tiger_reviewed":"no","rrgh_part":0,"rrgh_tile_part":0},"geometry":{"type":"LineString","coordinates":[[-83.7235866,37.841569],[-83.723595,37.8417324],[-83.7235396,37.8420756],[-83.723428,37.842656],[-83.7233354,37.8429206],[-83.723271,37.843003]]}},{"type":"Feature","properties":{"osm_id":16338880,"highway":"service","name":"Napier Road","alt_name":null,"official_name":null,"surface":"unpaved","tracktype":null,"service":null,"access":"private","motor_vehicle":null,"foot":null,"tiger_reviewed":"no","rrgh_part":0,"rrgh_tile_part":0},"geometry":{"type":"LineString","coordinates":[[-83.7016738,37.8316111],[-83.7020595,37.8317523],[-83.7034125,37.8334556],[-83.7039784,37.8337533],[-83.7045091,37.8332463],[-83.7058814,37.8332263],[-83.7063747,37.8334455],[-83.707931,37.834014],[-83.709066,37.834228],[-83.709534,37.834635]]}},{"type":"Feature","properties":{"osm_id":1089740784,"highway":"service","name":"Double Arch Trail #201","alt_name":null,"official_name":null,"surface":"gravel","tracktype":null,"service":null,"access":null,"motor_vehicle":"no","foot":"yes","tiger_reviewed":null,"rrgh_part":0,"rrgh_tile_part":0},"geometry":{"type":"LineString","coordinates":[[-83.6868541,37.8302316],[-83.6868873,37.8301985],[-83.6868948,37.8301186],[-83.6869097,37.8300591],[-83.6869222,37.8299951],[-83.6869368,37.8299226],[-83.6869398,37.8298497],[-83.6869599,37.8297787],[-83.6869757,37.8297052],[-83.6869687,37.8296482],[-83.6869399,37.8295806],[-83.6869054,37.8295314],[-83.6868468,37.8294827],[-83.6868076,37.8294363],[-83.6867362,37.8293935],[-83.6866822,37.8293578],[-83.6866227,37.8293179],[-83.6865697,37.8292646],[-83.6865129,37.829212],[-83.6864773,37.8291568],[-83.6864549,37.8290935],[-83.6864547,37.8290368],[-83.6864437,37.8289708],[-83.6865436,37.8287329],[-83.6865332,37.8286645],[-83.6865515,37.8285932],[-83.6866086,37.8285256],[-83.6866468,37.8284672],[-83.686695,37.8284044],[-83.6867557,37.8283368],[-83.686779,37.828279],[-83.6867916,37.8282231],[-83.6868358,37.8281723],[-83.6869067,37.8280975],[-83.686966,37.8280353],[-83.6869997,37.8279676],[-83.6870397,37.8278979],[-83.6870804,37.8278352],[-83.6871161,37.8277796],[-83.6871509,37.8277197],[-83.6871775,37.8276614],[-83.6872054,37.8276073],[-83.6872327,37.8275539],[-83.6872607,37.8274967],[-83.6872926,37.8274406],[-83.6873242,37.827373],[-83.687322,37.8273078],[-83.6873364,37.8272311],[-83.687334,37.8271732],[-83.6873347,37.827118],[-83.6873467,37.8270493],[-83.6873493,37.8269807],[-83.6873642,37.8269102],[-83.6873731,37.8268543],[-83.6873734,37.8267927],[-83.6873862,37.8267137],[-83.6874003,37.826646],[-83.6874183,37.8265877],[-83.6874539,37.8265321],[-83.6874926,37.8264739],[-83.6875212,37.8264231],[-83.6876822,37.8260102],[-83.6876687,37.8259464],[-83.6876566,37.8258854],[-83.6876504,37.8258261],[-83.6876585,37.8257624],[-83.6877052,37.8257198],[-83.687729,37.8256539],[-83.6877369,37.8255714],[-83.6877657,37.8254985],[-83.6878388,37.8254111],[-83.6878843,37.825336],[-83.6879383,37.8252784],[-83.6880082,37.8252418],[-83.6880624,37.8251856],[-83.6881284,37.8251444],[-83.6882064,37.8250749],[-83.6882568,37.8250319],[-83.68827732433962,37.825]]}},{"type":"Feature","properties":{"osm_id":328934523,"highway":"service","name":null,"alt_name":null,"official_name":null,"surface":"ground","tracktype":null,"service":null,"access":null,"motor_vehicle":null,"foot":null,"tiger_reviewed":null,"rrgh_part":0,"rrgh_tile_part":0},"geometry":{"type":"LineString","coordinates":[[-83.6868541,37.8302316],[-83.6868978,37.8302762],[-83.6870208,37.8304305],[-83.6873245,37.8307736]]}},{"type":"Feature","properties":{"osm_id":1341144125,"highway":"track","name":null,"alt_name":null,"official_name":null,"surface":null,"tracktype":null,"service":null,"access":null,"motor_vehicle":null,"foot":null,"tiger_reviewed":null,"rrgh_part":0,"rrgh_tile_part":0},"geometry":{"type":"LineString","coordinates":[[-83.6842658,37.8443941],[-83.6847353,37.8443023],[-83.6851068,37.8441893],[-83.6855615,37.8440839],[-83.6858971,37.843856],[-83.6862873,37.8435177],[-83.6866542,37.8430997],[-83.6870608,37.8429909],[-83.6872401,37.842924],[-83.6874077,37.8428574],[-83.6876084,37.842768],[-83.6877723,37.8427112],[-83.6879961,37.8426474],[-83.6881967,37.8425968],[-83.6883678,37.842531],[-83.6885217,37.8424501],[-83.6886155,37.8423732],[-83.6887754,37.8423153],[-83.6888936,37.8422839],[-83.6890115,37.842185],[-83.6890878,37.8421126],[-83.689157,37.8419953],[-83.6891507,37.8418637],[-83.6890859,37.8417399],[-83.6889822,37.8415342],[-83.6889083,37.8413772],[-83.6888093,37.8411227],[-83.6887514,37.8409152],[-83.6886931,37.8407297],[-83.6886905,37.840572],[-83.688722,37.840371],[-83.6887502,37.8401665],[-83.6888182,37.8399929],[-83.6889298,37.8397515],[-83.6890036,37.8396379],[-83.6890038,37.8394738],[-83.6890423,37.8392569],[-83.6890255,37.839137],[-83.6889806,37.8388351],[-83.6889567,37.8386043]]}},{"type":"Feature","properties":{"osm_id":1232557046,"highway":"track","name":null,"alt_name":null,"official_name":null,"surface":null,"tracktype":null,"service":null,"access":null,"motor_vehicle":null,"foot":null,"tiger_reviewed":null,"rrgh_part":0,"rrgh_tile_part":0},"geometry":{"type":"LineString","coordinates":[[-83.7171061,37.848631],[-83.7171626,37.8487901],[-83.7172739,37.8489849],[-83.717493,37.8491407],[-83.7176246,37.8491896],[-83.7178063,37.8492545],[-83.7180362,37.8492446],[-83.7185401,37.8490626],[-83.7186964,37.8490602]]}},{"type":"Feature","properties":{"osm_id":1232557048,"highway":"service","name":null,"alt_name":null,"official_name":null,"surface":null,"tracktype":null,"service":null,"access":null,"motor_vehicle":null,"foot":null,"tiger_reviewed":null,"rrgh_part":0,"rrgh_tile_part":0},"geometry":{"type":"LineString","coordinates":[[-83.7128478,37.8539733],[-83.712946,37.8539949],[-83.7132774,37.8539587],[-83.7135991,37.8539207],[-83.713674,37.8539197],[-83.7139154,37.8539207]]}},{"type":"Feature","properties":{"osm_id":16336154,"highway":"service","name":null,"alt_name":null,"official_name":null,"surface":null,"tracktype":null,"service":null,"access":null,"motor_vehicle":null,"foot":null,"tiger_reviewed":"no","rrgh_part":0,"rrgh_tile_part":0},"geometry":{"type":"LineString","coordinates":[[-83.7118383,37.8608775],[-83.712069,37.861294],[-83.712295,37.861695],[-83.712479,37.862009],[-83.712591,37.862162],[-83.712744,37.862299]]}},{"type":"Feature","properties":{"osm_id":16336646,"highway":"service","name":"Star Gap Road","alt_name":null,"official_name":null,"surface":"unpaved","tracktype":null,"service":null,"access":null,"motor_vehicle":null,"foot":null,"tiger_reviewed":"no","rrgh_part":0,"rrgh_tile_part":0},"geometry":{"type":"LineString","coordinates":[[-83.6799607,37.8474336],[-83.6794227,37.8475886],[-83.6791244,37.8477708]]}},{"type":"Feature","properties":{"osm_id":16338654,"highway":"track","name":"Indian Creek Road","alt_name":"Cr-1203","official_name":null,"surface":"gravel","tracktype":null,"service":null,"access":null,"motor_vehicle":null,"foot":"yes","tiger_reviewed":null,"rrgh_part":0,"rrgh_tile_part":0},"geometry":{"type":"LineString","coordinates":[[-83.685205,37.848968],[-83.685152,37.849385],[-83.685123,37.84951],[-83.6850434,37.8496301],[-83.684878,37.8499],[-83.684773,37.85008],[-83.6845342,37.8504971],[-83.6844312,37.8507639],[-83.68441,37.851023],[-83.6844106,37.8513892],[-83.6844517,37.8517626],[-83.6844549,37.8519546],[-83.6843891,37.8523718],[-83.6843401,37.8525355],[-83.6843054,37.8526422],[-83.6842177,37.852779],[-83.684018,37.852982],[-83.6839337,37.8530328],[-83.683678,37.85313],[-83.681986,37.853665],[-83.681557,37.853843],[-83.681415,37.853931],[-83.68129,37.854044],[-83.68096,37.854471],[-83.680753,37.85471],[-83.68049,37.854936],[-83.680179,37.855154],[-83.680098,37.855196],[-83.679909,37.85527],[-83.679282,37.855472],[-83.67869,37.855746],[-83.678524,37.855804],[-83.67817,37.855892],[-83.678077,37.855928],[-83.677398,37.856219],[-83.677269,37.856286],[-83.677233,37.85631],[-83.67705,37.856419],[-83.676951,37.856461],[-83.676609,37.856472],[-83.676362,37.856518],[-83.675729,37.856703],[-83.675437,37.856799],[-83.67500000000001,37.856903581196576]]}},{"type":"Feature","properties":{"osm_id":16338654,"highway":"track","name":"Indian Creek Road","alt_name":"Cr-1203","official_name":null,"surface":"gravel","tracktype":null,"service":null,"access":null,"motor_vehicle":null,"foot":"yes","tiger_reviewed":null,"rrgh_part":0,"rrgh_tile_part":1},"geometry":{"type":"LineString","coordinates":[[-83.67500000000001,37.85814118518522],[-83.675037,37.858233],[-83.675048,37.858298],[-83.675043,37.858418],[-83.67500000000001,37.85863837499992]]}},{"type":"Feature","properties":{"osm_id":16310508,"highway":"track","name":"Indian Creek Road","alt_name":null,"official_name":null,"surface":"gravel","tracktype":null,"service":null,"access":null,"motor_vehicle":null,"foot":"yes","tiger_reviewed":"no","rrgh_part":0,"rrgh_tile_part":0},"geometry":{"type":"LineString","coordinates":[[-83.67500000000001,37.860754462093865],[-83.6752844,37.8608283],[-83.675771,37.861036],[-83.675831,37.861067],[-83.676267,37.861431],[-83.676667,37.861788],[-83.676858,37.861972],[-83.677039,37.862179],[-83.677211,37.86235],[-83.677375,37.862652],[-83.677509,37.863028],[-83.677514,37.863219],[-83.67733,37.863943],[-83.676672,37.86524],[-83.676222,37.865808],[-83.676138,37.865908],[-83.676106,37.865962],[-83.675987,37.866227],[-83.675851,37.866807],[-83.675726,37.867179],[-83.675676,37.867391],[-83.67565,37.867571],[-83.675664,37.867828],[-83.675644,37.868316],[-83.675643,37.869137],[-83.675617,37.86927],[-83.675509,37.869531],[-83.675302,37.869802],[-83.675157,37.869978],[-83.675101,37.870032],[-83.675032,37.870076],[-83.67500000000001,37.870084954732505]]}},{"type":"Feature","properties":{"osm_id":16309734,"highway":"residential","name":"Punkin Hollow Road","alt_name":null,"official_name":null,"surface":"unpaved","tracktype":null,"service":null,"access":null,"motor_vehicle":null,"foot":null,"tiger_reviewed":"no","rrgh_part":0,"rrgh_tile_part":0},"geometry":{"type":"LineString","coordinates":[[-83.74239348327274,37.9],[-83.7424629,37.8999672],[-83.7430356,37.8997662],[-83.7432893,37.8996893],[-83.7436261,37.8995579],[-83.7437405,37.8995499],[-83.7438697,37.8995944],[-83.744366,37.8998694],[-83.7445905,37.8998908],[-83.7455633,37.8998693],[-83.7457222,37.8998632],[-83.7459351,37.8998185],[-83.7462253,37.8997193],[-83.7464247,37.8996532],[-83.7465235,37.8995967],[-83.746918,37.8991044],[-83.7471941,37.8986297],[-83.7475885,37.8982336],[-83.7476518,37.8981135],[-83.7479093,37.8976214],[-83.7481226,37.897444],[-83.748709,37.8966899],[-83.7490097,37.8963744],[-83.7490162,37.8962415],[-83.748903,37.89592],[-83.7488515,37.8953114],[-83.7488326,37.8950371],[-83.7487479,37.8947592],[-83.748563,37.894391]]}},{"type":"Feature","properties":{"osm_id":894791990,"highway":"residential","name":"Upper Cane Creek Road","alt_name":null,"official_name":null,"surface":null,"tracktype":null,"service":null,"access":null,"motor_vehicle":null,"foot":null,"tiger_reviewed":"no","rrgh_part":0,"rrgh_tile_part":0},"geometry":{"type":"LineString","coordinates":[[-83.759227,37.881934],[-83.759203,37.882004],[-83.759227,37.882117],[-83.759271,37.882193],[-83.759334,37.882265],[-83.759481,37.882392],[-83.76,37.88278932967034]]}},{"type":"Feature","properties":{"osm_id":1238190197,"highway":"track","name":"FR 167","alt_name":null,"official_name":null,"surface":"gravel","tracktype":null,"service":null,"access":null,"motor_vehicle":null,"foot":null,"tiger_reviewed":"no","rrgh_part":0,"rrgh_tile_part":0},"geometry":{"type":"LineString","coordinates":[[-83.7505033,37.8774751],[-83.7502966,37.8776472],[-83.7500304,37.8777038],[-83.7497096,37.8779419],[-83.7494216,37.8780578],[-83.7491605,37.8780495],[-83.7489283,37.8778825],[-83.7488374,37.8777703],[-83.7489133,37.8776131],[-83.7490043,37.8774704],[-83.7489681,37.8773751],[-83.7488177,37.8773239],[-83.7484743,37.8774269],[-83.7481945,37.8775084],[-83.7480177,37.8775918],[-83.7478651,37.8777051],[-83.7478336,37.8778496],[-83.7480154,37.8781144],[-83.7481446,37.8783743],[-83.7483958,37.878626],[-83.748665,37.8787744],[-83.7487662,37.8789129],[-83.7486787,37.8790781],[-83.7485419,37.8791926],[-83.7483288,37.8792237],[-83.7479891,37.8792709],[-83.7478991,37.8792558],[-83.7473386,37.8791618],[-83.7470755,37.8790553],[-83.7468688,37.8790197],[-83.746678,37.8791003],[-83.7462978,37.8792697],[-83.7460092,37.879525],[-83.7454983,37.8800154],[-83.7452271,37.8802988],[-83.7449785,37.8803568],[-83.7446027,37.8802754],[-83.7441613,37.880152],[-83.7440134,37.8800949],[-83.743973,37.8800163],[-83.7440092,37.879888],[-83.7441833,37.8795974],[-83.7443513,37.8793111],[-83.7443863,37.8790315],[-83.7443002,37.8788732],[-83.7441059,37.8787586],[-83.7438527,37.8786901],[-83.7435937,37.8785849],[-83.7434213,37.878446],[-83.7432467,37.8781499],[-83.7430279,37.878013],[-83.7426936,37.8779336],[-83.7424392,37.8779517],[-83.7421868,37.8781321],[-83.742076,37.8783491],[-83.7418373,37.8786972],[-83.7416375,37.8789279],[-83.7415059,37.8790431],[-83.7413983,37.8790453],[-83.7412665,37.8789836],[-83.741,37.8787226],[-83.7407117,37.8785041],[-83.7405594,37.8784803],[-83.7403542,37.8785628],[-83.7401803,37.8785638],[-83.739921,37.87851],[-83.7396347,37.8784025],[-83.7393301,37.8783328],[-83.739141,37.8783762],[-83.7390949,37.8785337],[-83.7391292,37.8787097],[-83.7391199,37.8789669],[-83.7389942,37.8791527],[-83.7388502,37.8792768],[-83.7387645,37.8794076],[-83.7387985,37.8795516],[-83.7389265,37.8797272],[-83.7391777,37.8799748],[-83.7393635,37.8801979],[-83.7394369,37.8804456],[-83.7392747,37.880645],[-83.7386072,37.8808925],[-83.7384263,37.8809791],[-83.7383205,37.8811262],[-83.7383184,37.8812702],[-83.7384827,37.8813561],[-83.7388754,37.8814153],[-83.7396932,37.8815855],[-83.7402782,37.8817401],[-83.7404175,37.8818381],[-83.7405664,37.8819349],[-83.7405796,37.8820652],[-83.7405018,37.8821832],[-83.7402868,37.8823087],[-83.7394889,37.8825808],[-83.7391432,37.8827104],[-83.7386621,37.8827924],[-83.7383871,37.8828994],[-83.7380838,37.8831936],[-83.737975,37.8834553],[-83.7379207,37.8835292],[-83.7375699,37.8838303],[-83.7373889,37.8839432],[-83.73727,37.8839636],[-83.7370258,37.883911],[-83.7367378,37.8838475],[-83.7364762,37.8838616],[-83.7363818,37.8839394],[-83.7362961,37.8840913],[-83.7361929,37.884461],[-83.7361472,37.8846344],[-83.7359951,37.8846958],[-83.7357676,37.8847169],[-83.7350764,37.8847403],[-83.7348948,37.8847658],[-83.7347832,37.8848206],[-83.7347928,37.8849584],[-83.7349244,37.8852791],[-83.7348566,37.8856507],[-83.7349199,37.8858676],[-83.735195,37.8860321],[-83.7355218,37.8861106],[-83.7357735,37.8862257],[-83.7358795,37.8863268],[-83.7359808,37.8864869],[-83.7361042,37.8865626],[-83.736376,37.8865912],[-83.7366693,37.8866526],[-83.73678,37.8867767],[-83.7367559,37.8870127],[-83.7368144,37.8872151],[-83.7368012,37.8874062],[-83.7368094,37.8875611],[-83.7366284,37.8877126],[-83.7361254,37.8881341],[-83.7360034,37.8883315],[-83.7360137,37.8884623],[-83.7361043,37.8885355],[-83.7363247,37.8886978],[-83.7364754,37.8888685],[-83.7368779,37.8890919],[-83.737138,37.8891618],[-83.7373492,37.8893024],[-83.7375384,37.8895596],[-83.7376891,37.8898148],[-83.7378108,37.8900133],[-83.7377648,37.8901661],[-83.737503,37.8904319],[-83.7373922,37.8905496],[-83.7374299,37.8908219],[-83.7374852,37.891036],[-83.7374135,37.8911862],[-83.7372539,37.8913977],[-83.737114,37.8916082],[-83.7371127,37.8917248],[-83.7372198,37.8918105],[-83.7374431,37.8919173],[-83.7377039,37.8920299],[-83.737977,37.8920733],[-83.7381597,37.8920348],[-83.7382797,37.8919832],[-83.7384045,37.8919639],[-83.7385851,37.8920449],[-83.7388916,37.8921118],[-83.7392828,37.8922808],[-83.7395348,37.892609],[-83.7395798,37.8927741],[-83.7394388,37.8930227],[-83.7393904,37.8933047],[-83.7393662,37.8936407],[-83.7393143,37.8937804],[-83.7392063,37.8939178],[-83.7390177,37.8940037],[-83.7388857,37.8940287],[-83.7387643,37.894158],[-83.7385422,37.8944911],[-83.7384399,37.8947599],[-83.7382658,37.8951329],[-83.7382677,37.8951764],[-83.7382723,37.8952824],[-83.7384354,37.8954012],[-83.7386436,37.8954141],[-83.7390316,37.8952817],[-83.7393677,37.8951283],[-83.7396763,37.8951041],[-83.7399864,37.8952334],[-83.7402518,37.8953736],[-83.7404173,37.8954939],[-83.7404947,37.8956736],[-83.7405936,37.8958924],[-83.7406236,37.8959832],[-83.7406062,37.8960667],[-83.7405467,37.8961349],[-83.7402158,37.8962431],[-83.7397651,37.8963635],[-83.7395106,37.8965361],[-83.7391343,37.8968339],[-83.7388631,37.8971172],[-83.7386537,37.8974469],[-83.738521,37.8977066],[-83.7385429,37.8980106],[-83.7385347,37.8983755],[-83.7384846,37.8985381],[-83.7382537,37.8987722],[-83.7380525,37.898948],[-83.7379898,37.8991569],[-83.7379373,37.8994347],[-83.7378328,37.8995616],[-83.7376589,37.8996642],[-83.7373651,37.8997374],[-83.737084,37.8997936],[-83.7369254,37.8998684],[-83.7368223,37.8999899],[-83.73681160156512,37.9]]}},{"type":"Feature","properties":{"osm_id":1238190197,"highway":"track","name":"FR 167","alt_name":null,"official_name":null,"surface":"gravel","tracktype":null,"service":null,"access":null,"motor_vehicle":null,"foot":null,"tiger_reviewed":"no","rrgh_part":0,"rrgh_tile_part":1},"geometry":{"type":"LineString","coordinates":[[-83.73548878384146,37.9],[-83.7354177,37.8998453],[-83.7351771,37.8996321],[-83.7348598,37.8994831],[-83.7345887,37.899447],[-83.7342038,37.8995797],[-83.733986,37.8997687],[-83.73384727650652,37.9]]}},{"type":"Feature","properties":{"osm_id":16335816,"highway":"service","name":null,"alt_name":null,"official_name":null,"surface":null,"tracktype":null,"service":null,"access":"private","motor_vehicle":null,"foot":null,"tiger_reviewed":"no","rrgh_part":0,"rrgh_tile_part":0},"geometry":{"type":"LineString","coordinates":[[-83.76,37.87292498435055],[-83.759567,37.872761],[-83.75912,37.872664],[-83.758672,37.872486]]}},{"type":"Feature","properties":{"osm_id":814586196,"highway":"service","name":null,"alt_name":null,"official_name":null,"surface":null,"tracktype":null,"service":null,"access":null,"motor_vehicle":null,"foot":null,"tiger_reviewed":null,"rrgh_part":0,"rrgh_tile_part":0},"geometry":{"type":"LineString","coordinates":[[-83.7563493,37.8826255],[-83.7563199,37.8825712],[-83.756287,37.8825126],[-83.7562307,37.8824935],[-83.7561797,37.8824851],[-83.756126,37.8824935],[-83.7560483,37.8825126],[-83.7558203,37.8826036],[-83.7557023,37.8826375],[-83.7556399,37.8826482],[-83.7555656,37.882651],[-83.7554965,37.8826454],[-83.7553921,37.8826231],[-83.7553444,37.8826147],[-83.7553072,37.8826147],[-83.7552523,37.8826258],[-83.7551992,37.882644],[-83.755109,37.8826915],[-83.7548347,37.8829038],[-83.7547161,37.8829876],[-83.754594,37.883063],[-83.754456,37.8831245],[-83.7543728,37.8831524],[-83.7542667,37.8831831],[-83.7541906,37.8832152],[-83.7541074,37.8832641],[-83.7540136,37.8833368],[-83.7539127,37.883408],[-83.7537906,37.883482]]}},{"type":"Feature","properties":{"osm_id":1138411154,"highway":"residential","name":"Punkin Hollow Road","alt_name":null,"official_name":null,"surface":null,"tracktype":null,"service":null,"access":null,"motor_vehicle":null,"foot":null,"tiger_reviewed":"no","rrgh_part":0,"rrgh_tile_part":0},"geometry":{"type":"LineString","coordinates":[[-83.748563,37.894391],[-83.748491,37.894272],[-83.748471,37.894221],[-83.748451,37.894086],[-83.748485,37.893933],[-83.748553,37.893775],[-83.748604,37.893701],[-83.748795,37.893495],[-83.749168,37.892937],[-83.749271,37.892755],[-83.749393,37.892594],[-83.749529,37.892436],[-83.749812,37.89216],[-83.749933,37.892018],[-83.750482,37.89111],[-83.7508,37.890793],[-83.751023,37.890518],[-83.751082,37.890424],[-83.751092,37.890401],[-83.751174,37.890204],[-83.751212,37.890154],[-83.751265,37.890085],[-83.751439,37.889906],[-83.751518,37.88976],[-83.751552,37.889587],[-83.7515438,37.8890673],[-83.751515,37.888545],[-83.751495,37.888334],[-83.751493,37.887871],[-83.751506,37.887783],[-83.751557,37.887611],[-83.751684,37.8873],[-83.751758,37.887166],[-83.751811,37.887105],[-83.751952,37.886995],[-83.7522091,37.8868209],[-83.752361,37.886718],[-83.752736,37.886464],[-83.753103,37.886193],[-83.753812,37.885718],[-83.753972,37.88557],[-83.754032,37.885489],[-83.7542969,37.8849355],[-83.7544881,37.8843969],[-83.754646,37.884121],[-83.7549,37.8838],[-83.755269,37.883158],[-83.755407,37.883018],[-83.755486,37.88296],[-83.75558,37.88292],[-83.755684,37.882894],[-83.7564311,37.8827642],[-83.756604,37.882719],[-83.757086,37.882612],[-83.757279,37.882518],[-83.757317,37.882497],[-83.757712,37.882279],[-83.757889,37.882196],[-83.7580585,37.8820533],[-83.758117,37.882004],[-83.758278,37.881783],[-83.758337,37.881726],[-83.758397,37.881682],[-83.758465,37.881655],[-83.758537,37.881639],[-83.758608,37.881637],[-83.758759,37.881668],[-83.759227,37.881934]]}},{"type":"Feature","properties":{"osm_id":1238190199,"highway":"track","name":null,"alt_name":null,"official_name":null,"surface":null,"tracktype":null,"service":null,"access":null,"motor_vehicle":null,"foot":null,"tiger_reviewed":null,"rrgh_part":0,"rrgh_tile_part":0},"geometry":{"type":"LineString","coordinates":[[-83.7580585,37.8820533],[-83.7578243,37.881985],[-83.7576246,37.8820162],[-83.7574367,37.8820643],[-83.7571492,37.8820384],[-83.7569104,37.8819866]]}},{"type":"Feature","properties":{"osm_id":1238190200,"highway":"track","name":null,"alt_name":null,"official_name":null,"surface":null,"tracktype":null,"service":null,"access":null,"motor_vehicle":null,"foot":null,"tiger_reviewed":null,"rrgh_part":0,"rrgh_tile_part":0},"geometry":{"type":"LineString","coordinates":[[-83.7572884,37.8815985],[-83.757446,37.8816037],[-83.7575913,37.8815038],[-83.7576472,37.8813066],[-83.7577074,37.8810316],[-83.7577333,37.8808737],[-83.7577873,37.8808109],[-83.7579364,37.880765],[-83.7580744,37.8807061],[-83.7582791,37.880526],[-83.758331,37.8804508],[-83.7582872,37.8803156],[-83.7581538,37.8801559],[-83.758149,37.8801502],[-83.7581569,37.8800784],[-83.7582621,37.8799382],[-83.7583797,37.8798708]]}},{"type":"Feature","properties":{"osm_id":1238190205,"highway":"service","name":null,"alt_name":null,"official_name":null,"surface":null,"tracktype":null,"service":null,"access":null,"motor_vehicle":null,"foot":null,"tiger_reviewed":null,"rrgh_part":0,"rrgh_tile_part":0},"geometry":{"type":"LineString","coordinates":[[-83.7568399,37.8820429],[-83.7565571,37.8819442],[-83.756414,37.881878],[-83.7562824,37.8818744],[-83.7561033,37.8819795],[-83.7557225,37.8822842],[-83.7555292,37.8824374],[-83.7554265,37.8825247],[-83.7553921,37.8826231]]}},{"type":"Feature","properties":{"osm_id":1238190206,"highway":"service","name":null,"alt_name":null,"official_name":null,"surface":null,"tracktype":null,"service":null,"access":null,"motor_vehicle":null,"foot":null,"tiger_reviewed":null,"rrgh_part":0,"rrgh_tile_part":0},"geometry":{"type":"LineString","coordinates":[[-83.7564311,37.8827642],[-83.7564007,37.882716]]}},{"type":"Feature","properties":{"osm_id":1238190207,"highway":"service","name":null,"alt_name":null,"official_name":null,"surface":null,"tracktype":null,"service":null,"access":null,"motor_vehicle":null,"foot":null,"tiger_reviewed":null,"rrgh_part":0,"rrgh_tile_part":0},"geometry":{"type":"LineString","coordinates":[[-83.7564007,37.882716],[-83.7563493,37.8826255]]}},{"type":"Feature","properties":{"osm_id":1428528962,"highway":"track","name":null,"alt_name":null,"official_name":null,"surface":null,"tracktype":null,"service":null,"access":null,"motor_vehicle":null,"foot":null,"tiger_reviewed":null,"rrgh_part":0,"rrgh_tile_part":0},"geometry":{"type":"LineString","coordinates":[[-83.7499469,37.8783397],[-83.7501137,37.8785089],[-83.75013,37.8786583],[-83.7501996,37.8788926],[-83.7501975,37.8791882],[-83.7501695,37.8794709],[-83.7500995,37.8796617],[-83.7499003,37.879764],[-83.7497159,37.8798086],[-83.7494928,37.8798682],[-83.7492362,37.8798462],[-83.7490779,37.8798121],[-83.7490022,37.8797958],[-83.7488187,37.8798111],[-83.7485444,37.8797707],[-83.7482032,37.8796249],[-83.7480468,37.8794697],[-83.7478991,37.8792558]]}},{"type":"Feature","properties":{"osm_id":1428528965,"highway":"track","name":null,"alt_name":null,"official_name":null,"surface":null,"tracktype":null,"service":null,"access":null,"motor_vehicle":null,"foot":null,"tiger_reviewed":null,"rrgh_part":0,"rrgh_tile_part":0},"geometry":{"type":"LineString","coordinates":[[-83.7490779,37.8798121],[-83.7491919,37.8797734],[-83.7492921,37.8796987],[-83.7492995,37.8796473],[-83.7493634,37.8795294]]}},{"type":"Feature","properties":{"osm_id":1428528969,"highway":"track","name":null,"alt_name":null,"official_name":null,"surface":null,"tracktype":null,"service":null,"access":null,"motor_vehicle":null,"foot":null,"tiger_reviewed":null,"rrgh_part":0,"rrgh_tile_part":0},"geometry":{"type":"LineString","coordinates":[[-83.7464916,37.8801594],[-83.7466161,37.8799917],[-83.7466763,37.8798795],[-83.7467907,37.8798079],[-83.7470401,37.8797059],[-83.747368,37.8796918],[-83.7476735,37.8798053],[-83.7478046,37.8798677],[-83.7481974,37.8798891],[-83.748291,37.8798875]]}},{"type":"Feature","properties":{"osm_id":1238190216,"highway":"track","name":null,"alt_name":null,"official_name":null,"surface":null,"tracktype":null,"service":null,"access":null,"motor_vehicle":null,"foot":null,"tiger_reviewed":null,"rrgh_part":0,"rrgh_tile_part":0},"geometry":{"type":"LineString","coordinates":[[-83.7347832,37.8848206],[-83.7347589,37.8846546],[-83.7347738,37.8842838],[-83.7347686,37.8840599],[-83.734743,37.883791],[-83.73466,37.8836292],[-83.7345176,37.8834403],[-83.7344183,37.8832959],[-83.734232,37.8831041],[-83.7340826,37.882979],[-83.7341027,37.8827525],[-83.7342085,37.88247],[-83.7341451,37.8822494],[-83.7340568,37.8821197],[-83.7337761,37.8819861],[-83.7334385,37.881962],[-83.7334543,37.8821179],[-83.7335261,37.8825162],[-83.7336147,37.8827832],[-83.7335755,37.8829757],[-83.7334347,37.8831651],[-83.7332484,37.8833389],[-83.7331236,37.883412],[-83.7328777,37.8833405],[-83.7325363,37.8833111],[-83.7322141,37.8833069]]}},{"type":"Feature","properties":{"osm_id":16335405,"highway":"service","name":null,"alt_name":null,"official_name":null,"surface":null,"tracktype":null,"service":null,"access":"private","motor_vehicle":null,"foot":null,"tiger_reviewed":"no","rrgh_part":0,"rrgh_tile_part":0},"geometry":{"type":"LineString","coordinates":[[-83.7544881,37.8843969],[-83.753641,37.88404],[-83.752749,37.883665],[-83.752168,37.88342],[-83.75203,37.883556],[-83.751025,37.884548],[-83.749883,37.884398]]}},{"type":"Feature","properties":{"osm_id":1238190210,"highway":"track","name":null,"alt_name":null,"official_name":null,"surface":null,"tracktype":null,"service":null,"access":null,"motor_vehicle":null,"foot":null,"tiger_reviewed":null,"rrgh_part":0,"rrgh_tile_part":0},"geometry":{"type":"LineString","coordinates":[[-83.751174,37.890204],[-83.7510084,37.8903269],[-83.7508411,37.890461],[-83.7506086,37.8906106],[-83.7505331,37.8906279],[-83.7504857,37.8905969],[-83.750517,37.89048],[-83.7505638,37.8902274],[-83.7505092,37.8901044],[-83.7506458,37.8899541],[-83.7507325,37.8898563],[-83.7507084,37.8897492],[-83.7506944,37.8895152],[-83.7504166,37.8889318],[-83.7503351,37.888673],[-83.7503136,37.8882836],[-83.7502922,37.888182],[-83.7501688,37.88789],[-83.7500401,37.8876699],[-83.7496754,37.8874329],[-83.7493858,37.8872975],[-83.7489085,37.8871832],[-83.7486725,37.8871578],[-83.7476643,37.8872806],[-83.7475302,37.8873271],[-83.7474176,37.8874245],[-83.747423,37.8875176],[-83.7476375,37.8878508],[-83.7479047,37.8882639],[-83.7479672,37.8884517],[-83.7478734,37.8885716],[-83.7476099,37.8885003],[-83.7474162,37.8882591],[-83.7473698,37.8881197],[-83.7472574,37.888012],[-83.7471014,37.8879407],[-83.7467681,37.8878253],[-83.7466702,37.8877157],[-83.7465982,37.8875558],[-83.746605,37.8873809],[-83.7466932,37.8872715],[-83.7467396,37.8871633],[-83.7467399,37.887073],[-83.746758,37.8869064],[-83.7468609,37.8867375],[-83.7468936,37.8866114],[-83.7470451,37.8865301],[-83.7472314,37.8863946],[-83.747221,37.8862461],[-83.7471048,37.8861652],[-83.746951,37.8861553],[-83.7468156,37.8860815],[-83.7466916,37.8859744],[-83.7464685,37.8859163],[-83.7460673,37.8860078],[-83.7456801,37.8861526],[-83.7456015,37.8862851],[-83.7456345,37.8865594],[-83.7456585,37.8868779],[-83.7455517,37.887038],[-83.7451525,37.8873229],[-83.7447823,37.8876917],[-83.7444955,37.8880677],[-83.7443349,37.8882046],[-83.7440812,37.888252],[-83.7436842,37.888268],[-83.7432957,37.8881777]]}},{"type":"Feature","properties":{"osm_id":1238190195,"highway":"track","name":"FR 168 (closed)","alt_name":null,"official_name":null,"surface":null,"tracktype":null,"service":null,"access":null,"motor_vehicle":null,"foot":null,"tiger_reviewed":"no","rrgh_part":0,"rrgh_tile_part":0},"geometry":{"type":"LineString","coordinates":[[-83.7213669,37.8864657],[-83.7212478,37.8865511],[-83.7211064,37.8866028],[-83.7208741,37.8865811],[-83.7205444,37.8864943],[-83.7201559,37.886575],[-83.7198515,37.8866065],[-83.7195273,37.8866851],[-83.7193349,37.8867778],[-83.7192838,37.8869075],[-83.719253,37.8872136],[-83.719306,37.887611],[-83.7193379,37.8878972],[-83.7193199,37.8881938],[-83.7194603,37.8884114],[-83.7195752,37.8885794],[-83.7195799,37.8887353],[-83.719487,37.8888847],[-83.7193435,37.8890994],[-83.7191939,37.8892688],[-83.7191328,37.8897213],[-83.7191678,37.8899165],[-83.719389,37.8902125],[-83.71967,37.8905329],[-83.7199273,37.8906413],[-83.7202397,37.8906577],[-83.7204127,37.8906446],[-83.7205301,37.8907261],[-83.7206422,37.8908717],[-83.720864,37.8910609],[-83.7212575,37.8912327],[-83.7217451,37.8913738],[-83.7221936,37.8914795],[-83.7224409,37.8914873],[-83.7227661,37.8912795],[-83.7232682,37.8908826],[-83.7234166,37.890849],[-83.7235717,37.8908491],[-83.7236809,37.8908851],[-83.7237317,37.8910743],[-83.7237372,37.8915874],[-83.7237264,37.8917269],[-83.7236846,37.8917874],[-83.7236077,37.8918309],[-83.7234026,37.8918693],[-83.7230955,37.8918533],[-83.7229229,37.8919169],[-83.722808,37.8920504],[-83.7226855,37.8922429],[-83.7225485,37.8923853],[-83.7224321,37.8924748],[-83.7222516,37.8924742],[-83.7221288,37.8924152],[-83.7219278,37.8923301],[-83.7215909,37.8922624],[-83.7213543,37.8922555],[-83.7212256,37.8923697],[-83.7209826,37.8926695],[-83.7208202,37.8928305],[-83.7206001,37.892969],[-83.7203742,37.8931394],[-83.7202599,37.8934038],[-83.7201723,37.8936515],[-83.7201933,37.8938989],[-83.7202413,37.8942018],[-83.72046,37.8943555],[-83.720614,37.8945009],[-83.7206326,37.8946113],[-83.7205968,37.8946947],[-83.7204352,37.8947691],[-83.7202198,37.8948315],[-83.7201067,37.8949206],[-83.7200135,37.8950812],[-83.7199149,37.8952501],[-83.7198972,37.8954086],[-83.7200245,37.895603],[-83.7203998,37.8961322],[-83.7206397,37.8965569],[-83.7207622,37.8966377],[-83.7210731,37.896699],[-83.7214441,37.8967273],[-83.7217902,37.8967763],[-83.7221568,37.8966864],[-83.7225965,37.8964129],[-83.7231235,37.8961059],[-83.7234459,37.896024],[-83.7237467,37.8960333],[-83.7239064,37.8960861],[-83.7240294,37.8962173],[-83.7240868,37.8964358],[-83.7240339,37.8967165],[-83.7240094,37.8969857],[-83.7241256,37.8971918],[-83.724387,37.8973874],[-83.7248101,37.8976243],[-83.7253306,37.8977344],[-83.7257547,37.8978931],[-83.7258983,37.8980802],[-83.7261269,37.8986473],[-83.7262869,37.8988215],[-83.7264202,37.8989322],[-83.7267248,37.8989471],[-83.7270526,37.8989038],[-83.7272636,37.8989245],[-83.7273798,37.8990576],[-83.7274867,37.8992038],[-83.727522,37.8994768],[-83.7275893,37.8999275],[-83.72761833287983,37.9]]}},{"type":"Feature","properties":{"osm_id":1238190195,"highway":"track","name":"FR 168 (closed)","alt_name":null,"official_name":null,"surface":null,"tracktype":null,"service":null,"access":null,"motor_vehicle":null,"foot":null,"tiger_reviewed":"no","rrgh_part":0,"rrgh_tile_part":1},"geometry":{"type":"LineString","coordinates":[[-83.73128124209939,37.9],[-83.731287,37.8999594],[-83.731416,37.8997543],[-83.7316212,37.8996607],[-83.7318294,37.8996524],[-83.73207,37.8996965],[-83.7326956,37.8998854],[-83.7328255,37.8999562],[-83.7329059707203,37.9]]}},{"type":"Feature","properties":{"osm_id":16308855,"highway":"track","name":null,"alt_name":null,"official_name":null,"surface":null,"tracktype":null,"service":null,"access":null,"motor_vehicle":null,"foot":null,"tiger_reviewed":"no","rrgh_part":0,"rrgh_tile_part":0},"geometry":{"type":"LineString","coordinates":[[-83.7490097,37.8963744],[-83.7493572,37.8964896],[-83.7498733,37.8965034],[-83.751119,37.896918],[-83.751499,37.897096],[-83.751907,37.897569],[-83.751955,37.897793],[-83.752138,37.899528],[-83.75227099447514,37.9]]}},{"type":"Feature","properties":{"osm_id":1238192305,"highway":"track","name":null,"alt_name":null,"official_name":null,"surface":null,"tracktype":null,"service":null,"access":null,"motor_vehicle":null,"foot":null,"tiger_reviewed":null,"rrgh_part":0,"rrgh_tile_part":0},"geometry":{"type":"LineString","coordinates":[[-83.7272636,37.8989245],[-83.7277049,37.8986905],[-83.7282355,37.8984099],[-83.7285229,37.8981526],[-83.7286004,37.8978293],[-83.728535,37.8974179],[-83.7286052,37.8970289],[-83.7288339,37.8968138],[-83.7291415,37.8966309],[-83.7293335,37.8964885],[-83.7294317,37.896228]]}},{"type":"Feature","properties":{"osm_id":1238190196,"highway":"track","name":null,"alt_name":null,"official_name":null,"surface":null,"tracktype":null,"service":null,"access":null,"motor_vehicle":null,"foot":null,"tiger_reviewed":"no","rrgh_part":0,"rrgh_tile_part":0},"geometry":{"type":"LineString","coordinates":[[-83.722218,37.8821087],[-83.7218778,37.8822205],[-83.7216972,37.8822427],[-83.721544,37.8823185],[-83.7215302,37.8825185],[-83.7215164,37.8828465],[-83.7213369,37.8829831],[-83.7210958,37.883055],[-83.7207454,37.8829816],[-83.7202461,37.8828794],[-83.7200694,37.8828804],[-83.7200048,37.8829935],[-83.7199256,37.8831927],[-83.7198051,37.883404],[-83.7194729,37.8837016],[-83.7193653,37.8839412],[-83.7193729,37.8843916],[-83.7194257,37.884601],[-83.7195151,37.8846205],[-83.7196212,37.884648],[-83.7197958,37.8848038],[-83.7198766,37.88509],[-83.7197902,37.8855086],[-83.7197967,37.8856818],[-83.7199564,37.885804],[-83.7203114,37.885918],[-83.7204455,37.8859374],[-83.7207606,37.8859867],[-83.7209596,37.8860123],[-83.7211703,37.8861455],[-83.721292,37.8862817],[-83.7213669,37.8864657]]}},{"type":"Feature","properties":{"osm_id":16310467,"highway":"track","name":"Spaas Creek Road","alt_name":null,"official_name":null,"surface":"unpaved","tracktype":null,"service":null,"access":null,"motor_vehicle":null,"foot":null,"tiger_reviewed":"no","rrgh_part":0,"rrgh_tile_part":0},"geometry":{"type":"LineString","coordinates":[[-83.7078436,37.8730038],[-83.7076864,37.8731964],[-83.707596,37.8733291],[-83.707431,37.8735267],[-83.707025,37.873879],[-83.7068409,37.87411],[-83.706419,37.8747568],[-83.7062745,37.8748469],[-83.7060635,37.8749168],[-83.7057971,37.875012],[-83.7056267,37.8751616],[-83.7052511,37.8757371],[-83.7051823,37.8758674],[-83.7048703,37.8760248],[-83.7046844,37.8760573],[-83.7043314,37.8761732],[-83.7042382,37.8763104],[-83.704227,37.8764508],[-83.7047604,37.8777211],[-83.7049179,37.8778609],[-83.7051076,37.8781059],[-83.7051252,37.8785094],[-83.7049749,37.8788332],[-83.7049746,37.8789457],[-83.7050425,37.8793999],[-83.7047179,37.880652],[-83.7047411,37.8807982],[-83.704921,37.8809214],[-83.7050676,37.8810016],[-83.7050648,37.8811256],[-83.7053643,37.881374],[-83.7056537,37.8818876],[-83.7062203,37.8821398],[-83.7066131,37.8824675],[-83.7069289,37.8829232],[-83.7069014,37.8831289],[-83.7066673,37.884014],[-83.7070548,37.8851267],[-83.7071344,37.8852964],[-83.7071183,37.8855107],[-83.7070574,37.8862891],[-83.707103,37.8869099],[-83.7070979,37.887127],[-83.7070911,37.8874189],[-83.7071179,37.8876281],[-83.7069612,37.8878424],[-83.706782,37.888007],[-83.7068813,37.8881407],[-83.7069057,37.8883871],[-83.706748,37.8884789],[-83.7067775,37.888583],[-83.7071464,37.8890427],[-83.707427,37.8895749],[-83.7072781,37.8900707],[-83.707251,37.8902752],[-83.7073383,37.89049],[-83.7074865,37.8905465],[-83.708013,37.8909148],[-83.7082144,37.891396],[-83.7083283,37.8922367],[-83.7085349,37.8925117],[-83.7086116,37.8926548],[-83.7086629,37.8927506],[-83.7087767,37.8929103],[-83.7088361,37.8931137],[-83.7088507,37.8931636],[-83.7090514,37.8934301],[-83.7093683,37.8937536],[-83.7095329,37.8939591],[-83.709816,37.8941724],[-83.7099103,37.8942657],[-83.7104079,37.8947397],[-83.7110616,37.8951856],[-83.7111376,37.8953744],[-83.7114346,37.8954371],[-83.7116136,37.895711],[-83.7118877,37.8960134],[-83.7119354,37.8961269],[-83.7120361,37.8961877],[-83.7122605,37.8962261],[-83.7123239,37.8962587],[-83.7123431,37.8962696],[-83.7125282,37.8963739],[-83.7126306,37.8964431],[-83.71264,37.8965098],[-83.7125544,37.8965861],[-83.712447,37.8966206],[-83.7124116,37.8968209],[-83.7126418,37.8970985],[-83.7129874,37.8975524],[-83.7131835,37.8976825],[-83.7138364,37.8980285],[-83.7142166,37.8982459],[-83.7145699,37.8984854],[-83.7147367,37.8986919],[-83.7149153,37.8988723],[-83.715153,37.8991714],[-83.7153585,37.899429],[-83.7154145,37.8996422],[-83.7156597,37.8999948],[-83.71567130243407,37.9]]}},{"type":"Feature","properties":{"osm_id":1264964250,"highway":"track","name":null,"alt_name":null,"official_name":null,"surface":null,"tracktype":null,"service":null,"access":null,"motor_vehicle":null,"foot":null,"tiger_reviewed":null,"rrgh_part":0,"rrgh_tile_part":0},"geometry":{"type":"LineString","coordinates":[[-83.7071344,37.8852964],[-83.7072418,37.8852428],[-83.7073707,37.8851897],[-83.707525,37.8851829],[-83.7076532,37.8853081],[-83.7080573,37.8853201],[-83.708281,37.8852412],[-83.7085222,37.8851692]]}},{"type":"Feature","properties":{"osm_id":1264964251,"highway":"track","name":null,"alt_name":null,"official_name":null,"surface":null,"tracktype":null,"service":null,"access":null,"motor_vehicle":null,"foot":null,"tiger_reviewed":null,"rrgh_part":0,"rrgh_tile_part":0},"geometry":{"type":"LineString","coordinates":[[-83.707525,37.8851829],[-83.7076127,37.8851118],[-83.7077601,37.8849671]]}},{"type":"Feature","properties":{"osm_id":16308737,"highway":"track","name":null,"alt_name":null,"official_name":null,"surface":null,"tracktype":null,"service":null,"access":null,"motor_vehicle":null,"foot":null,"tiger_reviewed":"no","rrgh_part":0,"rrgh_tile_part":0},"geometry":{"type":"LineString","coordinates":[[-83.7086629,37.8927506],[-83.7085032,37.892815],[-83.7083453,37.8928487],[-83.7082611,37.8928837],[-83.70821,37.8929642],[-83.7081768,37.8930572],[-83.708037,37.8932543],[-83.7079553,37.8934053],[-83.707893,37.8935177],[-83.707845,37.8935907]]}},{"type":"Feature","properties":{"osm_id":1264966368,"highway":"track","name":null,"alt_name":null,"official_name":null,"surface":null,"tracktype":null,"service":null,"access":null,"motor_vehicle":null,"foot":null,"tiger_reviewed":null,"rrgh_part":0,"rrgh_tile_part":0},"geometry":{"type":"LineString","coordinates":[[-83.7088361,37.8931137],[-83.7085934,37.8930947],[-83.7084044,37.8929661],[-83.7083453,37.8928487],[-83.7083371,37.8927569],[-83.7086116,37.8926548]]}},{"type":"Feature","properties":{"osm_id":16309617,"highway":"unclassified","name":"Hatton Ridge Road","alt_name":null,"official_name":null,"surface":"gravel","tracktype":null,"service":null,"access":null,"motor_vehicle":null,"foot":null,"tiger_reviewed":"no","rrgh_part":0,"rrgh_tile_part":0},"geometry":{"type":"LineString","coordinates":[[-83.6959313,37.8763907],[-83.6958918,37.8764129],[-83.6949534,37.8769186],[-83.6948661,37.8770037],[-83.6948183,37.8771068],[-83.6947816,37.8772565],[-83.6947929,37.8774137],[-83.6949016,37.877874],[-83.6949281,37.8779666],[-83.6948482,37.8781849],[-83.6946692,37.8783553],[-83.6945544,37.8784117],[-83.6944498,37.8784334],[-83.694194,37.878481],[-83.6938581,37.8785698],[-83.6936633,37.8786636],[-83.693569,37.8787147],[-83.6934018,37.8787578],[-83.6932363,37.8787577],[-83.6928479,37.8787118],[-83.6926059,37.8787266],[-83.6922528,37.87878],[-83.6920224,37.878768],[-83.6915671,37.8787732],[-83.6913111,37.8788443],[-83.6910486,37.8789987],[-83.6905896,37.8792502],[-83.6904594,37.879371],[-83.6901519,37.8797653],[-83.6896139,37.8804246],[-83.6895232,37.8805897],[-83.6894699,37.8809524],[-83.6894551,37.8811426],[-83.6894914,37.8814164],[-83.6896077,37.8816858],[-83.6897197,37.8817835],[-83.6899657,37.8819062],[-83.6903676,37.8820951],[-83.6905723,37.8821267],[-83.6912082,37.8821288],[-83.6916306,37.8820792],[-83.692141,37.8820534],[-83.6924967,37.8820772],[-83.6926897,37.8821393],[-83.6928766,37.8822755],[-83.6929552,37.8824549],[-83.692982,37.882783],[-83.6930145,37.8830011],[-83.6930199,37.883225],[-83.6929427,37.8836534],[-83.6929405,37.8838958],[-83.6929131,37.8839922],[-83.692858,37.8840501],[-83.6924634,37.8844308],[-83.6923975,37.8845247],[-83.6923367,37.8846407],[-83.6923158,37.8848082],[-83.692337,37.8850269],[-83.6924804,37.8853795],[-83.6926166,37.8856681],[-83.6929013,37.8862519],[-83.6931011,37.8864989],[-83.6934906,37.8868609],[-83.693673,37.886978],[-83.6938448,37.8871558],[-83.6939667,37.8874244],[-83.6939717,37.8876702],[-83.6938109,37.8882865],[-83.6938213,37.8884729],[-83.6939461,37.8889381],[-83.6939924,37.8892815],[-83.6939755,37.8895584],[-83.6939209,37.8900072],[-83.6938789,37.8902176],[-83.6939206,37.890438],[-83.694035,37.8905659],[-83.6942008,37.8906851],[-83.6943908,37.8907898],[-83.694604,37.8908512],[-83.6949392,37.8909146],[-83.6951435,37.8909757],[-83.6953541,37.8911158],[-83.6954664,37.8912156],[-83.6955549,37.8913224],[-83.6956167,37.8914413]]}},{"type":"Feature","properties":{"osm_id":1138414443,"highway":"residential","name":null,"alt_name":null,"official_name":null,"surface":"gravel","tracktype":null,"service":null,"access":null,"motor_vehicle":null,"foot":null,"tiger_reviewed":null,"rrgh_part":0,"rrgh_tile_part":0},"geometry":{"type":"LineString","coordinates":[[-83.6956517,37.8921566],[-83.695743,37.8921508],[-83.6959003,37.8920576],[-83.6960314,37.89187],[-83.696061,37.8917101],[-83.6960516,37.8914629],[-83.6960145,37.8914281],[-83.6958362,37.8914447],[-83.6956267,37.8914767]]}},{"type":"Feature","properties":{"osm_id":1434456584,"highway":"residential","name":"Hatton Ridge Road","alt_name":null,"official_name":null,"surface":"gravel","tracktype":null,"service":null,"access":null,"motor_vehicle":null,"foot":null,"tiger_reviewed":"no","rrgh_part":0,"rrgh_tile_part":0},"geometry":{"type":"LineString","coordinates":[[-83.6956167,37.8914413],[-83.6956267,37.8914767],[-83.695685,37.8916833],[-83.6957172,37.8919045],[-83.6957118,37.8920082],[-83.695697,37.892117],[-83.6956517,37.8921566],[-83.6954476,37.8923354],[-83.6949745,37.8925699],[-83.6947833,37.8927685],[-83.6944504,37.8932045],[-83.6941846,37.8934873],[-83.6940108,37.8937366],[-83.6938388,37.8942893],[-83.6938556,37.894566],[-83.6939932,37.8946981],[-83.6941714,37.8947705],[-83.6946639,37.8948154],[-83.6949554,37.8949151],[-83.6951313,37.8950552],[-83.695264,37.895274],[-83.6954011,37.8954176],[-83.6969659,37.8961197],[-83.6976279,37.8965296]]}},{"type":"Feature","properties":{"osm_id":1264966369,"highway":"track","name":null,"alt_name":null,"official_name":null,"surface":null,"tracktype":null,"service":null,"access":null,"motor_vehicle":null,"foot":null,"tiger_reviewed":null,"rrgh_part":0,"rrgh_tile_part":0},"geometry":{"type":"LineString","coordinates":[[-83.712447,37.8966206],[-83.7123417,37.8965133],[-83.7123101,37.8964017],[-83.7123431,37.8962696]]}},{"type":"Feature","properties":{"osm_id":1444557052,"highway":"residential","name":"Hatton Ridge Road","alt_name":null,"official_name":null,"surface":"gravel","tracktype":null,"service":null,"access":null,"motor_vehicle":null,"foot":null,"tiger_reviewed":"no","rrgh_part":0,"rrgh_tile_part":0},"geometry":{"type":"LineString","coordinates":[[-83.6976279,37.8965296],[-83.6980462,37.8968377],[-83.6982589,37.8969997],[-83.698324,37.897163],[-83.6983542,37.8978782],[-83.6985147,37.8985617],[-83.6986,37.8988744],[-83.6985922,37.8991671],[-83.6984944,37.8994985],[-83.6986406,37.8999709],[-83.69865214597147,37.9]]}},{"type":"Feature","properties":{"osm_id":16310646,"highway":"track","name":"Leatherwood Fork - Indian Creek Road","alt_name":null,"official_name":null,"surface":null,"tracktype":null,"service":null,"access":null,"motor_vehicle":null,"foot":"yes","tiger_reviewed":"no","rrgh_part":0,"rrgh_tile_part":0},"geometry":{"type":"LineString","coordinates":[[-83.67500000000001,37.881838031809146],[-83.675055,37.88184],[-83.675199,37.881879],[-83.675413,37.881965],[-83.675583,37.882062],[-83.675719,37.882163],[-83.675734,37.882177],[-83.675806,37.882258],[-83.6758817,37.882449],[-83.6758877,37.8827082],[-83.675841,37.8829139],[-83.6758683,37.8833052]]}}],"rrgh_tile":{"id":"r6c3","bounds":[37.825,-83.76,37.9,-83.67500000000001]}}
