{"type":"FeatureCollection","features":[{"type":"Feature","properties":{"osm_id":16338654,"highway":"track","name":"Indian Creek Road","alt_name":"Cr-1203","official_name":null,"surface":"gravel","tracktype":null,"service":null,"access":null,"motor_vehicle":null,"foot":"yes","tiger_reviewed":null,"rrgh_part":0,"rrgh_tile_part":0},"geometry":{"type":"LineString","coordinates":[[-83.67500000000001,37.856903581196576],[-83.674969,37.856911],[-83.674737,37.856984],[-83.674647,37.857031],[-83.674572,37.857085],[-83.674513,37.857168],[-83.674489,37.857232],[-83.67448,37.857291],[-83.674501,37.857358],[-83.674622,37.857563],[-83.67492,37.857986],[-83.674983,37.858099],[-83.67500000000001,37.85814118518522]]}},{"type":"Feature","properties":{"osm_id":16338654,"highway":"track","name":"Indian Creek Road","alt_name":"Cr-1203","official_name":null,"surface":"gravel","tracktype":null,"service":null,"access":null,"motor_vehicle":null,"foot":"yes","tiger_reviewed":null,"rrgh_part":0,"rrgh_tile_part":1},"geometry":{"type":"LineString","coordinates":[[-83.67500000000001,37.85863837499992],[-83.674979,37.858746],[-83.674937,37.85915],[-83.674892,37.859355],[-83.674819,37.859572],[-83.67474,37.859709],[-83.674438,37.859966],[-83.674359,37.860026],[-83.6742766,37.860099],[-83.6741824,37.8601676],[-83.6740729,37.8602432],[-83.6740607,37.860258],[-83.6740358,37.8603161]]}},{"type":"Feature","properties":{"osm_id":16310508,"highway":"track","name":"Indian Creek Road","alt_name":null,"official_name":null,"surface":"gravel","tracktype":null,"service":null,"access":null,"motor_vehicle":null,"foot":"yes","tiger_reviewed":"no","rrgh_part":0,"rrgh_tile_part":0},"geometry":{"type":"LineString","coordinates":[[-83.6740465,37.8607799],[-83.674647,37.860722],[-83.674784,37.860718],[-83.674952,37.860742],[-83.67500000000001,37.860754462093865]]}},{"type":"Feature","properties":{"osm_id":16310508,"highway":"track","name":"Indian Creek Road","alt_name":null,"official_name":null,"surface":"gravel","tracktype":null,"service":null,"access":null,"motor_vehicle":null,"foot":"yes","tiger_reviewed":"no","rrgh_part":0,"rrgh_tile_part":1},"geometry":{"type":"LineString","coordinates":[[-83.67500000000001,37.870084954732505],[-83.674789,37.870144],[-83.674675,37.870196],[-83.674582,37.870276],[-83.674425,37.870522],[-83.674235,37.870896],[-83.67416,37.871009],[-83.674053,37.871142],[-83.67389,37.871304],[-83.673783,37.871377],[-83.673387,37.871572],[-83.673303,37.871628],[-83.673218,37.871706],[-83.673128,37.87181],[-83.672724,37.872311],[-83.672633,37.872389],[-83.672388,37.872545],[-83.672029,37.872714],[-83.671873,37.872803],[-83.671783,37.872866],[-83.671693,37.872951],[-83.671602,37.873064],[-83.671385,37.873271],[-83.671258,37.873346],[-83.671168,37.873405],[-83.671006,37.873525],[-83.670832,37.873702],[-83.67075,37.873807],[-83.670679,37.87394],[-83.6706369,37.8740394],[-83.6706156,37.8741453],[-83.6706353,37.8742818],[-83.6706872,37.8744169]]}},{"type":"Feature","properties":{"osm_id":16380676,"highway":"unclassified","name":"Chimney Top Ridge Road","alt_name":null,"official_name":null,"surface":"gravel","tracktype":null,"service":null,"access":null,"motor_vehicle":null,"foot":"yes","tiger_reviewed":"no","rrgh_part":0,"rrgh_tile_part":0},"geometry":{"type":"LineString","coordinates":[[-83.61736930612246,37.825],[-83.617384,37.825016],[-83.617439,37.825058],[-83.617498,37.825088],[-83.6175714,37.8251229],[-83.6176035,37.8251345],[-83.61769,37.825144]]}},{"type":"Feature","properties":{"osm_id":16338917,"highway":"residential","name":"Fishtrap Road","alt_name":null,"official_name":null,"surface":null,"tracktype":null,"service":null,"access":null,"motor_vehicle":null,"foot":null,"tiger_reviewed":"no","rrgh_part":0,"rrgh_tile_part":0},"geometry":{"type":"LineString","coordinates":[[-83.663872,37.830896],[-83.663847,37.830823],[-83.663849,37.830712],[-83.663752,37.830455],[-83.663691,37.830114],[-83.663674,37.829805],[-83.663665,37.829751],[-83.663605,37.829396],[-83.66361,37.829113],[-83.663589,37.828814],[-83.663551,37.82864],[-83.66351,37.828521],[-83.66349,37.828489],[-83.663449,37.828459],[-83.663339,37.828428],[-83.663173,37.828405],[-83.662885,37.828406],[-83.6625668,37.8284424],[-83.6624577,37.82845],[-83.6624373,37.8284526]]}},{"type":"Feature","properties":{"osm_id":1349135799,"highway":"track","name":null,"alt_name":null,"official_name":null,"surface":null,"tracktype":null,"service":null,"access":null,"motor_vehicle":null,"foot":null,"tiger_reviewed":null,"rrgh_part":0,"rrgh_tile_part":0},"geometry":{"type":"LineString","coordinates":[[-83.66651646688103,37.825],[-83.6665577,37.8250166],[-83.6666469,37.8250902],[-83.6668682,37.825178],[-83.6669978,37.825252],[-83.6671927,37.8252786]]}},{"type":"Feature","properties":{"osm_id":16310666,"highway":"track","name":"East Fork Indian Creek Road","alt_name":null,"official_name":null,"surface":"gravel","tracktype":null,"service":null,"access":null,"motor_vehicle":null,"foot":"yes","tiger_reviewed":"no","rrgh_part":0,"rrgh_tile_part":0},"geometry":{"type":"LineString","coordinates":[[-83.6740465,37.8607799],[-83.6739552,37.860814],[-83.6738886,37.8608533],[-83.6738145,37.8608936],[-83.6737311,37.8609346],[-83.6736347,37.8609727],[-83.6732919,37.8610489],[-83.673015,37.8611],[-83.672803,37.86116],[-83.672634,37.861237],[-83.672376,37.861388],[-83.672288,37.861461],[-83.672183,37.861585],[-83.672009,37.861838],[-83.671955,37.861895],[-83.671876,37.861947],[-83.671782,37.861976],[-83.67165,37.861995],[-83.671148,37.862021],[-83.671077,37.862038],[-83.670598,37.862194],[-83.669976,37.862412],[-83.669897,37.862459],[-83.669811,37.862523],[-83.669739,37.862595],[-83.669679,37.862679],[-83.669551,37.862935],[-83.669509,37.863071],[-83.669448,37.863213],[-83.669125,37.863653],[-83.6689,37.863928],[-83.668852,37.864092],[-83.668835,37.864264],[-83.668848,37.864552],[-83.6689,37.864744],[-83.669042,37.864981],[-83.669417,37.865512],[-83.66952,37.86561],[-83.669645,37.8657],[-83.669688,37.865752],[-83.669723,37.86581],[-83.669741,37.865877],[-83.669746,37.865959],[-83.66971,37.866155],[-83.669678,37.866232],[-83.669578,37.866419],[-83.669348,37.866738],[-83.66924,37.866918],[-83.669192,37.867017],[-83.669107,37.867296],[-83.669072,37.867605],[-83.669065,37.867885],[-83.6690519,37.8680589],[-83.669044,37.868164],[-83.669047,37.868407],[-83.669123,37.868823],[-83.66913,37.869014],[-83.669069,37.869143],[-83.668957,37.86926],[-83.668882,37.869314],[-83.668798,37.869358],[-83.668575,37.869456],[-83.668165,37.869598],[-83.667751,37.869699],[-83.667565,37.869757],[-83.667291,37.869873],[-83.667165,37.869946],[-83.666819,37.870202],[-83.666557,37.870469],[-83.666496,37.870549],[-83.666338,37.870714],[-83.666137,37.870835],[-83.666044,37.870867],[-83.665937,37.870896],[-83.665802,37.870906],[-83.665166,37.870907],[-83.66461,37.870893],[-83.664238,37.870906],[-83.664104,37.870927],[-83.663927,37.870974],[-83.663759,37.871036],[-83.663596,37.871112],[-83.66313,37.871397],[-83.662864,37.871576],[-83.662439,37.871927],[-83.662122,37.872161],[-83.66181,37.872269],[-83.661461,37.872359],[-83.660992,37.87246],[-83.66082,37.872478],[-83.660699,37.872477],[-83.660574,37.872462],[-83.660139,37.872375],[-83.659963,37.872359],[-83.659805,37.872358],[-83.658421,37.872487],[-83.658137,37.87253],[-83.657988,37.872581],[-83.6579361,37.87261],[-83.657877,37.87265],[-83.657797,37.872716],[-83.657718,37.872808],[-83.657671,37.87291],[-83.657637,37.873024],[-83.6576326,37.8743657],[-83.657632,37.874545],[-83.657642,37.874672],[-83.657697,37.8749],[-83.657815,37.875107],[-83.658191,37.875642],[-83.658232,37.875716],[-83.658273,37.875805],[-83.65829,37.875974],[-83.658267,37.876058],[-83.658224,37.876143],[-83.658107,37.876297],[-83.657757,37.87656],[-83.657579,37.876724],[-83.657518,37.876798],[-83.657457,37.876904],[-83.657278,37.877274],[-83.657221,37.877377],[-83.657141,37.877487],[-83.657066,37.877575],[-83.656949,37.877681],[-83.656847,37.877773],[-83.656739,37.877838],[-83.656721,37.877844],[-83.656432,37.87794],[-83.656265,37.877964],[-83.656075,37.877967],[-83.655917,37.877959],[-83.65575,37.877966],[-83.655545,37.877987],[-83.655336,37.87803],[-83.65516,37.878084],[-83.654899,37.878219],[-83.654787,37.878314],[-83.654576,37.878541],[-83.654412,37.878768],[-83.654131,37.879108],[-83.653878,37.879332],[-83.65372,37.879419],[-83.65351,37.879503],[-83.653259,37.879553],[-83.652196,37.879615],[-83.651941,37.879627],[-83.651445,37.87967],[-83.651136,37.879676],[-83.650988,37.87967],[-83.650905,37.879677],[-83.650757,37.879707],[-83.65057,37.879791],[-83.650434,37.87991],[-83.650324,37.880042],[-83.650229,37.880207],[-83.650194,37.880297],[-83.650107,37.880675],[-83.650067,37.881185],[-83.649967,37.881673],[-83.649888,37.881914],[-83.649802,37.882091],[-83.649769,37.88222],[-83.649713,37.882341],[-83.649424,37.882874],[-83.649194,37.883238],[-83.649053,37.883501],[-83.648823,37.883873],[-83.648574,37.884211],[-83.648441,37.884513],[-83.648365,37.884732],[-83.648347,37.884982],[-83.648348,37.885425],[-83.648356,37.885507],[-83.648404,37.885753],[-83.648563,37.886433],[-83.648576,37.886532],[-83.648571,37.886641],[-83.648532,37.88676],[-83.648464,37.886862],[-83.6484311,37.8870183],[-83.6483936,37.8871788],[-83.6483384,37.8872442],[-83.6482617,37.8872829]]}},{"type":"Feature","properties":{"osm_id":16337870,"highway":"residential","name":"Raven Rock Road","alt_name":null,"official_name":null,"surface":null,"tracktype":null,"service":null,"access":null,"motor_vehicle":null,"foot":null,"tiger_reviewed":"no","rrgh_part":0,"rrgh_tile_part":0},"geometry":{"type":"LineString","coordinates":[[-83.6625668,37.8284424],[-83.6626364,37.828446],[-83.662669,37.828456],[-83.662703,37.828489],[-83.662745,37.828573],[-83.663024,37.829597]]}},{"type":"Feature","properties":{"osm_id":890896096,"highway":"residential","name":"Fishtrap Road","alt_name":null,"official_name":null,"surface":null,"tracktype":null,"service":null,"access":null,"motor_vehicle":null,"foot":null,"tiger_reviewed":"no","rrgh_part":0,"rrgh_tile_part":0},"geometry":{"type":"LineString","coordinates":[[-83.6623411,37.8284648],[-83.6620699,37.828499]]}},{"type":"Feature","properties":{"osm_id":890896097,"highway":"residential","name":"Fishtrap Road","alt_name":null,"official_name":null,"surface":null,"tracktype":null,"service":null,"access":null,"motor_vehicle":null,"foot":null,"tiger_reviewed":"no","rrgh_part":0,"rrgh_tile_part":0},"geometry":{"type":"LineString","coordinates":[[-83.6624373,37.8284526],[-83.6623411,37.8284648]]}},{"type":"Feature","properties":{"osm_id":342751720,"highway":"service","name":null,"alt_name":null,"official_name":null,"surface":"gravel","tracktype":null,"service":null,"access":null,"motor_vehicle":null,"foot":null,"tiger_reviewed":null,"rrgh_part":0,"rrgh_tile_part":0},"geometry":{"type":"LineString","coordinates":[[-83.6469683,37.8338038],[-83.6471245,37.8336267],[-83.6472204,37.833518],[-83.6472847,37.8333866],[-83.6472719,37.8333032],[-83.647215,37.8332087],[-83.6470594,37.8329248],[-83.646759,37.8323105],[-83.6463937,37.8315895],[-83.6457773,37.8305818],[-83.6457344,37.8304674]]}},{"type":"Feature","properties":{"osm_id":16308866,"highway":"residential","name":null,"alt_name":null,"official_name":null,"surface":"gravel","tracktype":null,"service":null,"access":null,"motor_vehicle":null,"foot":null,"tiger_reviewed":"no","rrgh_part":0,"rrgh_tile_part":0},"geometry":{"type":"LineString","coordinates":[[-83.6287538,37.8250274],[-83.62877572000001,37.825]]}},{"type":"Feature","properties":{"osm_id":16309001,"highway":"track","name":null,"alt_name":null,"official_name":null,"surface":null,"tracktype":null,"service":null,"access":null,"motor_vehicle":null,"foot":null,"tiger_reviewed":"no","rrgh_part":0,"rrgh_tile_part":0},"geometry":{"type":"LineString","coordinates":[[-83.656251,37.861031],[-83.656802,37.861178],[-83.659082,37.860258],[-83.6598184,37.8599433],[-83.6604917,37.8591868],[-83.660956,37.858778],[-83.661158,37.857818],[-83.661716,37.856819],[-83.661817,37.855699],[-83.662121,37.854739],[-83.662526,37.854539],[-83.66364,37.854419],[-83.664704,37.853619],[-83.6654972,37.8534037],[-83.6657993,37.853552],[-83.6662459,37.8536467],[-83.6665498,37.8537074],[-83.6668191,37.8536374],[-83.6670508,37.8535756],[-83.6672476,37.8535363],[-83.6674653,37.8535506],[-83.6678435,37.8534622],[-83.667961,37.8533896],[-83.6680238,37.8532543],[-83.6679831,37.8530883],[-83.6678632,37.8528581],[-83.6677793,37.8527562]]}},{"type":"Feature","properties":{"osm_id":1137676215,"highway":"track","name":"Indian Creek Road","alt_name":null,"official_name":null,"surface":null,"tracktype":null,"service":null,"access":null,"motor_vehicle":null,"foot":"yes","tiger_reviewed":"no","rrgh_part":0,"rrgh_tile_part":0},"geometry":{"type":"LineString","coordinates":[[-83.6740358,37.8603161],[-83.6740561,37.8605465]]}},{"type":"Feature","properties":{"osm_id":1138183201,"highway":"track","name":"Indian Creek Road","alt_name":null,"official_name":null,"surface":"gravel","tracktype":null,"service":null,"access":null,"motor_vehicle":null,"foot":"yes","tiger_reviewed":"no","rrgh_part":0,"rrgh_tile_part":0},"geometry":{"type":"LineString","coordinates":[[-83.6740561,37.8605465],[-83.674053,37.8606619],[-83.6740465,37.8607799]]}},{"type":"Feature","properties":{"osm_id":16309185,"highway":"track","name":null,"alt_name":null,"official_name":null,"surface":null,"tracktype":null,"service":null,"access":null,"motor_vehicle":null,"foot":null,"tiger_reviewed":"no","rrgh_part":0,"rrgh_tile_part":0},"geometry":{"type":"LineString","coordinates":[[-83.654835,37.865217],[-83.6547181,37.8640753],[-83.654807,37.863789],[-83.6548985,37.8634816],[-83.655125,37.863318],[-83.656048,37.862975],[-83.656279,37.862792],[-83.65625,37.862586]]}},{"type":"Feature","properties":{"osm_id":566473126,"highway":"track","name":null,"alt_name":null,"official_name":null,"surface":null,"tracktype":null,"service":null,"access":null,"motor_vehicle":null,"foot":null,"tiger_reviewed":"no","rrgh_part":0,"rrgh_tile_part":0},"geometry":{"type":"LineString","coordinates":[[-83.65625,37.862586],[-83.656337,37.862518],[-83.656424,37.86222],[-83.656366,37.861168],[-83.656251,37.861031],[-83.655692,37.861045],[-83.6552038,37.8609639],[-83.6548441,37.8608117],[-83.654433,37.860687],[-83.653164,37.859909],[-83.652731,37.859749],[-83.652652,37.859751],[-83.652052,37.8598],[-83.6515728,37.859912],[-83.6511567,37.8600016],[-83.6508742,37.8601897],[-83.6507324,37.8603357],[-83.6503631,37.860873],[-83.6501341,37.8611985],[-83.6498821,37.8617199],[-83.6495958,37.8620453],[-83.6491543,37.8621661],[-83.6486025,37.8623605],[-83.6484237,37.8624129],[-83.6481375,37.8624896],[-83.6478565,37.8626227],[-83.6475652,37.8629455],[-83.6475958,37.8632521],[-83.6475498,37.8634901],[-83.6474834,37.8637685],[-83.6473454,37.8639541],[-83.6474221,37.8640912],[-83.647698,37.8643898],[-83.6478054,37.8648537],[-83.6477491,37.8650675]]}},{"type":"Feature","properties":{"osm_id":929901188,"highway":"track","name":null,"alt_name":null,"official_name":null,"surface":"unpaved","tracktype":null,"service":null,"access":null,"motor_vehicle":null,"foot":null,"tiger_reviewed":null,"rrgh_part":0,"rrgh_tile_part":0},"geometry":{"type":"LineString","coordinates":[[-83.6475832,37.8660638],[-83.6469494,37.8663061],[-83.6469351,37.8663864],[-83.6470061,37.866642],[-83.6474631,37.8676683],[-83.6478724,37.8687091],[-83.6480962,37.8690893],[-83.6486702,37.8693667],[-83.6497584,37.8696932],[-83.6506556,37.8697865],[-83.6517187,37.8697735],[-83.6524027,37.8695556]]}},{"type":"Feature","properties":{"osm_id":377736647,"highway":"track","name":"Tarr Ridge West","alt_name":null,"official_name":null,"surface":"dirt","tracktype":null,"service":null,"access":null,"motor_vehicle":null,"foot":null,"tiger_reviewed":null,"rrgh_part":0,"rrgh_tile_part":0},"geometry":{"type":"LineString","coordinates":[[-83.6417736,37.8541912],[-83.6419407,37.8541741],[-83.6421532,37.8539029],[-83.6424195,37.8532552],[-83.6424665,37.8530699],[-83.6425654,37.8529545],[-83.6426307,37.8528784],[-83.6428263,37.8528043],[-83.642967,37.8526376],[-83.6432173,37.8525141],[-83.6434676,37.8523103],[-83.6437335,37.8520756],[-83.6442576,37.8519336],[-83.6445782,37.8517853],[-83.6448285,37.8515754],[-83.6452274,37.851316],[-83.6453213,37.8511986],[-83.6454386,37.8509701],[-83.6455794,37.8507725],[-83.6457123,37.8506243],[-83.6457671,37.850334],[-83.6457045,37.8498338],[-83.6456732,37.8496423],[-83.6455637,37.8495003],[-83.6454386,37.8492841],[-83.6454308,37.8491668],[-83.6456419,37.8488703],[-83.6456576,37.8485986],[-83.6455637,37.8483268],[-83.645376,37.8481045],[-83.6451883,37.847981],[-83.6451257,37.8477339],[-83.6451492,37.8475116],[-83.6452822,37.8473263],[-83.6453213,37.8471595],[-83.6451805,37.8466593],[-83.6449736,37.846471],[-83.6448363,37.8461775],[-83.6446721,37.8458131],[-83.6447503,37.8455414],[-83.6451257,37.8452696],[-83.6455641,37.8451652]]}},{"type":"Feature","properties":{"osm_id":377739509,"highway":"service","name":null,"alt_name":null,"official_name":null,"surface":null,"tracktype":null,"service":null,"access":null,"motor_vehicle":null,"foot":null,"tiger_reviewed":null,"rrgh_part":0,"rrgh_tile_part":0},"geometry":{"type":"LineString","coordinates":[[-83.641835,37.8574294],[-83.6417299,37.8574345],[-83.6414119,37.8573886],[-83.64108,37.8572273],[-83.6409024,37.8571454],[-83.6407763,37.8570865],[-83.640614,37.8570452],[-83.6404879,37.8570166],[-83.6403715,37.8569774],[-83.6403123,37.8569307],[-83.6403167,37.8568926],[-83.6404351,37.8568562],[-83.6405163,37.8568648]]}},{"type":"Feature","properties":{"osm_id":377739513,"highway":"service","name":null,"alt_name":null,"official_name":null,"surface":null,"tracktype":null,"service":null,"access":null,"motor_vehicle":null,"foot":null,"tiger_reviewed":null,"rrgh_part":0,"rrgh_tile_part":0},"geometry":{"type":"LineString","coordinates":[[-83.6415466,37.8552218],[-83.6414293,37.8551994],[-83.6413382,37.8551691],[-83.641254,37.8550931],[-83.6410282,37.8546319],[-83.640929,37.854455],[-83.640876,37.8543606],[-83.6407287,37.8542559],[-83.6405414,37.8540264],[-83.6401932,37.8537303],[-83.63997,37.8535334],[-83.6397279,37.8532858]]}},{"type":"Feature","properties":{"osm_id":1319913750,"highway":"track","name":null,"alt_name":null,"official_name":null,"surface":null,"tracktype":null,"service":null,"access":null,"motor_vehicle":null,"foot":null,"tiger_reviewed":null,"rrgh_part":0,"rrgh_tile_part":0},"geometry":{"type":"LineString","coordinates":[[-83.6416777,37.8544041],[-83.6414856,37.8544767],[-83.6413864,37.854513],[-83.6412813,37.8545357],[-83.6411825,37.8545354],[-83.6410861,37.8545311],[-83.6409682,37.8544825],[-83.640929,37.854455]]}},{"type":"Feature","properties":{"osm_id":1441914077,"highway":"track","name":null,"alt_name":null,"official_name":null,"surface":null,"tracktype":null,"service":null,"access":null,"motor_vehicle":null,"foot":null,"tiger_reviewed":null,"rrgh_part":0,"rrgh_tile_part":0},"geometry":{"type":"LineString","coordinates":[[-83.6263237,37.8646699],[-83.6265081,37.8646363],[-83.6267285,37.8645892],[-83.626881,37.8645475],[-83.6270697,37.8644666],[-83.627229,37.8643931],[-83.6273878,37.8643015],[-83.6275047,37.8642283],[-83.627618,37.864092],[-83.6276621,37.8639722],[-83.6277505,37.863833],[-83.6279267,37.8637001],[-83.6281433,37.8635676],[-83.6283038,37.8634111],[-83.628401,37.8632762],[-83.6284948,37.8631471],[-83.6286358,37.8629004],[-83.6287809,37.8626571],[-83.6289798,37.8623509],[-83.6291859,37.8620427],[-83.6292657,37.8617876],[-83.629275,37.8615835],[-83.6292842,37.8614383],[-83.629305,37.8613327],[-83.629366,37.8612393],[-83.6294745,37.8611164],[-83.6295018,37.8609774],[-83.6294233,37.8608383],[-83.6293253,37.8607028],[-83.6291602,37.8603868],[-83.6290781,37.8602489],[-83.6289754,37.8601292],[-83.6289044,37.8599926],[-83.6288967,37.8598525],[-83.6288807,37.859741],[-83.6288347,37.8596354],[-83.628795,37.8594976],[-83.6288297,37.8593866],[-83.6289052,37.8592552],[-83.6289353,37.8591102],[-83.6290163,37.8590028],[-83.6291371,37.8589114],[-83.6293278,37.858826],[-83.6294444,37.8587758],[-83.6295094,37.8587213],[-83.6296743,37.8585713],[-83.6297138,37.8584541],[-83.6296706,37.8583669],[-83.6295599,37.8583239],[-83.6294657,37.8582674],[-83.6293319,37.8580364],[-83.6292563,37.8579761],[-83.629109,37.8577721],[-83.6290355,37.857668],[-83.6289328,37.857588],[-83.6287861,37.8575081],[-83.628683,37.8574242],[-83.6286036,37.8572915],[-83.6284983,37.8570652],[-83.6284836,37.8569107],[-83.6285718,37.8567545],[-83.6287521,37.856602],[-83.6288457,37.8565245],[-83.6289714,37.8564397],[-83.6290754,37.8564339],[-83.6292086,37.8563375],[-83.629169,37.856185],[-83.6290644,37.8560937]]}},{"type":"Feature","properties":{"osm_id":16309193,"highway":"residential","name":null,"alt_name":null,"official_name":null,"surface":null,"tracktype":null,"service":null,"access":null,"motor_vehicle":null,"foot":null,"tiger_reviewed":"no","rrgh_part":0,"rrgh_tile_part":0},"geometry":{"type":"LineString","coordinates":[[-83.6461028,37.8610705],[-83.6460229,37.8609013],[-83.645901,37.8608979],[-83.6457581,37.8609975],[-83.6455984,37.86118],[-83.6454723,37.8612696],[-83.6453084,37.8613094],[-83.6447662,37.8613459],[-83.6444048,37.8613724],[-83.6441568,37.8614388],[-83.644125,37.861572]]}},{"type":"Feature","properties":{"osm_id":1444557024,"highway":"service","name":null,"alt_name":null,"official_name":null,"surface":null,"tracktype":null,"service":null,"access":null,"motor_vehicle":null,"foot":null,"tiger_reviewed":null,"rrgh_part":0,"rrgh_tile_part":0},"geometry":{"type":"LineString","coordinates":[[-83.6464395,37.8630173],[-83.6464557,37.8630545],[-83.6463092,37.8631737],[-83.6461796,37.8633444],[-83.646126,37.863415]]}},{"type":"Feature","properties":{"osm_id":1444557038,"highway":"service","name":null,"alt_name":null,"official_name":null,"surface":null,"tracktype":null,"service":null,"access":null,"motor_vehicle":null,"foot":null,"tiger_reviewed":null,"rrgh_part":0,"rrgh_tile_part":0},"geometry":{"type":"LineString","coordinates":[[-83.6481072,37.8601172],[-83.6476053,37.8606355],[-83.6474707,37.860733],[-83.6473365,37.86083],[-83.6471554,37.8609269],[-83.6469771,37.8609757],[-83.6468154,37.8610378],[-83.6466983,37.8610589],[-83.6465063,37.8609903],[-83.6463672,37.8609434],[-83.6462836,37.860924],[-83.6461789,37.8609077],[-83.6460229,37.8609013]]}},{"type":"Feature","properties":{"osm_id":1444557049,"highway":"service","name":null,"alt_name":null,"official_name":null,"surface":null,"tracktype":null,"service":null,"access":null,"motor_vehicle":null,"foot":null,"tiger_reviewed":null,"rrgh_part":0,"rrgh_tile_part":0},"geometry":{"type":"LineString","coordinates":[[-83.6465704,37.8631547],[-83.6463724,37.8632502],[-83.6462944,37.8632926],[-83.6461796,37.8633444]]}},{"type":"Feature","properties":{"osm_id":377739511,"highway":"service","name":null,"alt_name":null,"official_name":null,"surface":null,"tracktype":null,"service":null,"access":null,"motor_vehicle":null,"foot":null,"tiger_reviewed":null,"rrgh_part":0,"rrgh_tile_part":0},"geometry":{"type":"LineString","coordinates":[[-83.6434199,37.8600691],[-83.6432576,37.8600853],[-83.6429797,37.8601344],[-83.6428465,37.8601584],[-83.6427061,37.8601687]]}},{"type":"Feature","properties":{"osm_id":16309507,"highway":"residential","name":"Lucky Lane","alt_name":null,"official_name":null,"surface":null,"tracktype":null,"service":null,"access":null,"motor_vehicle":null,"foot":null,"tiger_reviewed":"no","rrgh_part":0,"rrgh_tile_part":0},"geometry":{"type":"LineString","coordinates":[[-83.63915,37.864133],[-83.639231,37.864191],[-83.639303,37.864227],[-83.63937,37.864238],[-83.639459,37.864232],[-83.63955,37.864214],[-83.63993,37.864078],[-83.640041,37.864053],[-83.640154,37.864049],[-83.640376,37.864082],[-83.640798,37.864199],[-83.641097,37.864313],[-83.641295,37.864356],[-83.6414,37.864361],[-83.641509,37.864353],[-83.641621,37.864337],[-83.641945,37.86425],[-83.642052,37.86423],[-83.642159,37.864228],[-83.642364,37.864291],[-83.642621,37.864438],[-83.642807,37.864525],[-83.642975,37.864562],[-83.643137,37.864566],[-83.643223,37.864556],[-83.64348,37.864495],[-83.643557,37.864462],[-83.643617,37.864422],[-83.643642,37.864369],[-83.6436141,37.8642818],[-83.64361,37.864269],[-83.643482,37.864129],[-83.643454,37.864086],[-83.643415,37.86398],[-83.643418,37.863851],[-83.643438,37.863779],[-83.6435253,37.8636547],[-83.643654,37.86336],[-83.643878,37.863075],[-83.644088,37.862775],[-83.644118,37.862698],[-83.644158,37.862472],[-83.644186,37.862402],[-83.644227,37.862345],[-83.644355,37.86221]]}},{"type":"Feature","properties":{"osm_id":16310200,"highway":"residential","name":"Corp Drive","alt_name":null,"official_name":null,"surface":null,"tracktype":null,"service":null,"access":null,"motor_vehicle":null,"foot":null,"tiger_reviewed":"no","rrgh_part":0,"rrgh_tile_part":0},"geometry":{"type":"LineString","coordinates":[[-83.643919,37.861493],[-83.644053,37.861538],[-83.644125,37.861572],[-83.644162,37.861602],[-83.644192,37.861644],[-83.644303,37.861965],[-83.644355,37.86221],[-83.644363,37.86225],[-83.644423,37.862381],[-83.644435,37.862444],[-83.64443,37.862581],[-83.644411,37.862658],[-83.644375,37.86275],[-83.644229,37.862921],[-83.644002,37.863158],[-83.643939,37.863241],[-83.643901,37.863331],[-83.643884,37.863412],[-83.643882,37.863495],[-83.643918,37.86361],[-83.643992,37.863751],[-83.644074,37.863838],[-83.644169,37.863889],[-83.644302,37.863912],[-83.644462,37.863904],[-83.6445155,37.863888],[-83.644572,37.863871],[-83.644835,37.863738],[-83.645037,37.863663],[-83.645563,37.8635396],[-83.6456931,37.8635088],[-83.6457687,37.8634917],[-83.6459481,37.8634504],[-83.6459928,37.8634401],[-83.6460651,37.8634299],[-83.646126,37.863415],[-83.646192,37.863433],[-83.64625,37.863464],[-83.646435,37.863582],[-83.646753,37.863825],[-83.6469181,37.8639392],[-83.6472306,37.8642078],[-83.6475591,37.864701]]}},{"type":"Feature","properties":{"osm_id":566473124,"highway":"service","name":null,"alt_name":null,"official_name":null,"surface":null,"tracktype":null,"service":null,"access":null,"motor_vehicle":null,"foot":null,"tiger_reviewed":null,"rrgh_part":0,"rrgh_tile_part":0},"geometry":{"type":"LineString","coordinates":[[-83.6475591,37.864701],[-83.6476762,37.8649198],[-83.6477491,37.8650675],[-83.6478158,37.8653029],[-83.6477959,37.86556],[-83.6475832,37.8660638],[-83.6475898,37.8661792]]}},{"type":"Feature","properties":{"osm_id":566473133,"highway":"service","name":null,"alt_name":null,"official_name":null,"surface":null,"tracktype":null,"service":null,"access":null,"motor_vehicle":null,"foot":null,"tiger_reviewed":null,"rrgh_part":0,"rrgh_tile_part":0},"geometry":{"type":"LineString","coordinates":[[-83.645563,37.8635396],[-83.6455968,37.8636207],[-83.6456372,37.8636973],[-83.6456577,37.8637513],[-83.6456991,37.8638304],[-83.6457174,37.8639057],[-83.6457306,37.8639624],[-83.6456982,37.8640172],[-83.6456543,37.8640694],[-83.6455832,37.8641976],[-83.645534,37.864249],[-83.6454443,37.8643106],[-83.6453092,37.8644047],[-83.6451881,37.8644961],[-83.6451037,37.8645244],[-83.6450173,37.8645328],[-83.6449356,37.8645218],[-83.6448763,37.8644971],[-83.6448096,37.8644661],[-83.6447619,37.8644307],[-83.6447125,37.8643789],[-83.6446865,37.8643016],[-83.6445155,37.863888]]}},{"type":"Feature","properties":{"osm_id":1444557045,"highway":"service","name":null,"alt_name":null,"official_name":null,"surface":null,"tracktype":null,"service":null,"access":null,"motor_vehicle":null,"foot":null,"tiger_reviewed":null,"rrgh_part":0,"rrgh_tile_part":0},"geometry":{"type":"LineString","coordinates":[[-83.6457174,37.8639057],[-83.6460266,37.8639552],[-83.6462783,37.8639927],[-83.6464921,37.8640227],[-83.6465058,37.8640228],[-83.6465909,37.8640233],[-83.6467465,37.8640169],[-83.6468903,37.8640226],[-83.6469181,37.8639392]]}},{"type":"Feature","properties":{"osm_id":970041795,"highway":"track","name":null,"alt_name":null,"official_name":null,"surface":null,"tracktype":null,"service":null,"access":null,"motor_vehicle":null,"foot":null,"tiger_reviewed":null,"rrgh_part":0,"rrgh_tile_part":0},"geometry":{"type":"LineString","coordinates":[[-83.6371832,37.8692612],[-83.6373999,37.8693466],[-83.6378274,37.8695667],[-83.6383424,37.8697788],[-83.638491,37.8698785]]}},{"type":"Feature","properties":{"osm_id":1106020314,"highway":"service","name":null,"alt_name":null,"official_name":null,"surface":null,"tracktype":null,"service":null,"access":null,"motor_vehicle":null,"foot":null,"tiger_reviewed":null,"rrgh_part":0,"rrgh_tile_part":0},"geometry":{"type":"LineString","coordinates":[[-83.6374013,37.8676129],[-83.6375315,37.8675997],[-83.6377564,37.8675876],[-83.6379561,37.8675964],[-83.6382131,37.8676086]]}},{"type":"Feature","properties":{"osm_id":16310487,"highway":"residential","name":"Klaber Ridge Road","alt_name":null,"official_name":null,"surface":null,"tracktype":null,"service":null,"access":null,"motor_vehicle":null,"foot":null,"tiger_reviewed":"no","rrgh_part":0,"rrgh_tile_part":0},"geometry":{"type":"LineString","coordinates":[[-83.6215613,37.8657117],[-83.6216433,37.8657519],[-83.6217067,37.8657771],[-83.6218273,37.8657921],[-83.6219363,37.8657862],[-83.6224981,37.8657295],[-83.6231428,37.8660415],[-83.6234067,37.8661054],[-83.6238235,37.8665727],[-83.6240144,37.866694],[-83.6245384,37.866843],[-83.6247497,37.866992],[-83.6250703,37.8672182],[-83.6253203,37.8673933],[-83.6258806,37.867779],[-83.6261293,37.8678301],[-83.6262875,37.8679599],[-83.6264373,37.8681245],[-83.6268267,37.8686644],[-83.6268626,37.8687713],[-83.6268666,37.868883],[-83.626766,37.8690933],[-83.6267039,37.8691919],[-83.6266173,37.869293],[-83.6265606,37.8693812],[-83.6265541,37.8694478],[-83.6265751,37.869592],[-83.6266913,37.8699302],[-83.6267653,37.8703076],[-83.626808,37.870903],[-83.626816,37.871063],[-83.626836,37.871162],[-83.626883,37.871325],[-83.627029,37.871672],[-83.627071,37.871822],[-83.62707,37.872134],[-83.627042,37.872365],[-83.627032,37.872615],[-83.627032,37.872731],[-83.627058,37.87293],[-83.627061,37.873074],[-83.627048,37.873146],[-83.627001,37.873277],[-83.626965,37.87334],[-83.626917,37.873399],[-83.626743,37.873557],[-83.626461,37.873758],[-83.626417,37.873811],[-83.626368,37.87391]]}},{"type":"Feature","properties":{"osm_id":16310488,"highway":"residential","name":"Nickell Lane","alt_name":null,"official_name":null,"surface":null,"tracktype":null,"service":null,"access":null,"motor_vehicle":null,"foot":null,"tiger_reviewed":"no","rrgh_part":0,"rrgh_tile_part":0},"geometry":{"type":"LineString","coordinates":[[-83.632959,37.87261],[-83.632841,37.872505],[-83.632807,37.872459],[-83.632783,37.872404],[-83.632725,37.872145],[-83.632685,37.871907],[-83.632658,37.871506],[-83.632633,37.871421],[-83.6326,37.871358],[-83.632501,37.871247],[-83.632457,37.871171],[-83.632434,37.871035],[-83.632453,37.870896],[-83.632527,37.870619],[-83.632594,37.870287],[-83.63264,37.870197],[-83.632866,37.869929],[-83.632953,37.86984],[-83.633004,37.869738],[-83.633028,37.869647],[-83.633021,37.869601],[-83.633009,37.869585]]}},{"type":"Feature","properties":{"osm_id":1441914076,"highway":"track","name":null,"alt_name":null,"official_name":null,"surface":null,"tracktype":null,"service":null,"access":null,"motor_vehicle":null,"foot":null,"tiger_reviewed":null,"rrgh_part":0,"rrgh_tile_part":0},"geometry":{"type":"LineString","coordinates":[[-83.6247497,37.866992],[-83.6247635,37.8668576],[-83.624844,37.8668126],[-83.6249736,37.8668064],[-83.6251406,37.8667861],[-83.6254129,37.8667602],[-83.6256122,37.8667166],[-83.6257877,37.8666698],[-83.6259127,37.8666122],[-83.6260471,37.8664932],[-83.6260711,37.8664202],[-83.6260524,37.8663227],[-83.6259563,37.8661906],[-83.6257233,37.8660263],[-83.6254697,37.8658288],[-83.6254128,37.8656511],[-83.6254457,37.8654583],[-83.6256624,37.8653019],[-83.6257707,37.8651331],[-83.6259528,37.8649903],[-83.6261693,37.864778],[-83.6263237,37.8646699],[-83.626362,37.864546],[-83.6263383,37.864416],[-83.6262018,37.8642284],[-83.6261306,37.8640068],[-83.6261567,37.8637582],[-83.6260107,37.863485],[-83.6258857,37.8631454],[-83.6257282,37.8628801],[-83.6258128,37.8626083],[-83.6260344,37.862521],[-83.6262351,37.8624226],[-83.6265089,37.8623679],[-83.626729,37.8621378],[-83.6267632,37.8619648],[-83.6267025,37.8617046],[-83.6267922,37.8614249],[-83.6267543,37.8611042],[-83.6267821,37.8607464]]}},{"type":"Feature","properties":{"osm_id":16380614,"highway":"service","name":"Chimney Top Rock Road","alt_name":"Forest Road 10","official_name":null,"surface":"gravel","tracktype":null,"service":null,"access":null,"motor_vehicle":null,"foot":"yes","tiger_reviewed":"no","rrgh_part":0,"rrgh_tile_part":0},"geometry":{"type":"LineString","coordinates":[[-83.61799261538461,37.825],[-83.61792,37.825059],[-83.617881,37.825084],[-83.617797,37.825123],[-83.617748,37.825139],[-83.61769,37.825144],[-83.6177624,37.8251599],[-83.6178206,37.82517],[-83.617897,37.825183],[-83.618104,37.825173],[-83.618176,37.825166],[-83.618242,37.825154],[-83.618304,37.825135],[-83.618357,37.825108],[-83.618398,37.825076],[-83.6184364935065,37.825]]}},{"type":"Feature","properties":{"osm_id":16308843,"highway":"residential","name":null,"alt_name":null,"official_name":null,"surface":"gravel","tracktype":null,"service":null,"access":null,"motor_vehicle":null,"foot":null,"tiger_reviewed":"no","rrgh_part":0,"rrgh_tile_part":0},"geometry":{"type":"LineString","coordinates":[[-83.605699,37.829833],[-83.6058756,37.829745],[-83.6059761,37.8296948],[-83.6062595,37.8295559],[-83.6066187,37.8294363],[-83.6068406,37.8294124],[-83.6071068,37.8293837],[-83.6076856,37.8293623],[-83.608013,37.829284],[-83.6081793,37.829159],[-83.6083408,37.8290327],[-83.6084032,37.8289544],[-83.6084621,37.8288804],[-83.6084239,37.8287932],[-83.6083538,37.8287539],[-83.6082873,37.8287468],[-83.608201,37.8287605],[-83.6080364,37.8287715],[-83.607902,37.8288076],[-83.6077179,37.8288538],[-83.607606,37.8288848],[-83.6075243,37.828927],[-83.607429,37.8289801],[-83.6072971,37.8289883],[-83.6071654,37.8289925]]}},{"type":"Feature","properties":{"osm_id":1349219352,"highway":"residential","name":null,"alt_name":null,"official_name":null,"surface":null,"tracktype":null,"service":null,"access":null,"motor_vehicle":null,"foot":null,"tiger_reviewed":null,"rrgh_part":0,"rrgh_tile_part":0},"geometry":{"type":"LineString","coordinates":[[-83.6060959,37.8298688],[-83.6062426,37.829807],[-83.6062771,37.8297843],[-83.6063681,37.8296999],[-83.6064338,37.829638],[-83.6065305,37.8295907],[-83.6066177,37.8295293],[-83.606675,37.8294921],[-83.6068406,37.8294124]]}},{"type":"Feature","properties":{"osm_id":776130367,"highway":"service","name":null,"alt_name":null,"official_name":null,"surface":null,"tracktype":null,"service":null,"access":null,"motor_vehicle":null,"foot":null,"tiger_reviewed":null,"rrgh_part":0,"rrgh_tile_part":0},"geometry":{"type":"LineString","coordinates":[[-83.6098177,37.8366028],[-83.6098308,37.8366405],[-83.6097792,37.83672],[-83.609686,37.8367756],[-83.6095968,37.8368216],[-83.6095183,37.8368296],[-83.6094928,37.8368273],[-83.6094593,37.8368142],[-83.6093755,37.8367639]]}},{"type":"Feature","properties":{"osm_id":943423421,"highway":"service","name":null,"alt_name":null,"official_name":null,"surface":"gravel","tracktype":null,"service":null,"access":null,"motor_vehicle":null,"foot":null,"tiger_reviewed":"no","rrgh_part":0,"rrgh_tile_part":0},"geometry":{"type":"LineString","coordinates":[[-83.6082822,37.8348352],[-83.6084122,37.8349364],[-83.6086917,37.8351319],[-83.6087912,37.835182]]}},{"type":"Feature","properties":{"osm_id":16310215,"highway":"residential","name":"Silvermine Branch","alt_name":null,"official_name":null,"surface":null,"tracktype":null,"service":null,"access":null,"motor_vehicle":null,"foot":null,"tiger_reviewed":"no","rrgh_part":0,"rrgh_tile_part":0},"geometry":{"type":"LineString","coordinates":[[-83.61827,37.874722],[-83.61825,37.874634],[-83.618176,37.874443],[-83.618099,37.87408],[-83.617963,37.873242],[-83.617966,37.87317],[-83.617996,37.873018],[-83.618022,37.872942],[-83.618151,37.872738],[-83.618153,37.872681],[-83.618085,37.872573],[-83.617937,37.872406],[-83.61788,37.872304],[-83.617828,37.872156],[-83.617751,37.87208],[-83.6177168,37.8720686],[-83.617549,37.872013],[-83.617223,37.871948],[-83.616998,37.871876],[-83.616892,37.871853],[-83.616579,37.871825],[-83.616218,37.871824],[-83.616023,37.871811],[-83.615645,37.871692],[-83.61538,37.871584],[-83.6147,37.871385],[-83.61446,37.871306],[-83.614312,37.871241],[-83.614165,37.871137],[-83.614086,37.871051],[-83.614052,37.870999],[-83.613983,37.870844],[-83.613955,37.870706],[-83.613953,37.870636],[-83.613982,37.870377],[-83.614029,37.870261],[-83.614062,37.870209],[-83.614104,37.870167],[-83.614415,37.869959],[-83.614493,37.869894],[-83.614512,37.869854],[-83.614514,37.869819],[-83.614455,37.869516],[-83.614456,37.869439]]}},{"type":"Feature","properties":{"osm_id":1138183207,"highway":"track","name":"Indian Creek Road","alt_name":null,"official_name":null,"surface":null,"tracktype":null,"service":null,"access":null,"motor_vehicle":null,"foot":"yes","tiger_reviewed":"no","rrgh_part":0,"rrgh_tile_part":0},"geometry":{"type":"LineString","coordinates":[[-83.6706872,37.8744169],[-83.6708291,37.8746037]]}},{"type":"Feature","properties":{"osm_id":16310646,"highway":"track","name":"Leatherwood Fork - Indian Creek Road","alt_name":null,"official_name":null,"surface":null,"tracktype":null,"service":null,"access":null,"motor_vehicle":null,"foot":"yes","tiger_reviewed":"no","rrgh_part":0,"rrgh_tile_part":0},"geometry":{"type":"LineString","coordinates":[[-83.6708291,37.8746037],[-83.6708534,37.8746456],[-83.671055,37.875024],[-83.6711881,37.8753455],[-83.67133,37.875727],[-83.671441,37.875925],[-83.671579,37.876146],[-83.671652,37.876224],[-83.671768,37.876313],[-83.671879,37.876378],[-83.67199,37.876431],[-83.672256,37.876581],[-83.672373,37.876665],[-83.672502,37.876759],[-83.67277,37.876996],[-83.673263,37.877491],[-83.673538,37.877778],[-83.673585,37.877852],[-83.673602,37.877941],[-83.673611,37.878122],[-83.673521,37.878444],[-83.673464,37.878549],[-83.673371,37.878805],[-83.673348,37.879019],[-83.673343,37.879285],[-83.673373,37.879589],[-83.673355,37.879907],[-83.67337,37.880192],[-83.67336,37.880517],[-83.673367,37.880599],[-83.673419,37.880757],[-83.67351,37.880921],[-83.673645,37.88113],[-83.67391,37.881457],[-83.674035,37.881568],[-83.674258,37.881708],[-83.674472,37.881805],[-83.674552,37.881822],[-83.67500000000001,37.881838031809146]]}},{"type":"Feature","properties":{"osm_id":970143730,"highway":"service","name":null,"alt_name":null,"official_name":null,"surface":null,"tracktype":null,"service":null,"access":null,"motor_vehicle":null,"foot":null,"tiger_reviewed":null,"rrgh_part":0,"rrgh_tile_part":0},"geometry":{"type":"LineString","coordinates":[[-83.6534145,37.892104],[-83.6534407,37.8924642],[-83.6534448,37.8926435],[-83.6533925,37.8928999],[-83.6533096,37.8932124],[-83.6532681,37.8934301],[-83.653256,37.893517],[-83.6532724,37.8936335],[-83.6533067,37.8937368],[-83.6533302,37.8938152],[-83.6533888,37.8941128],[-83.6534457,37.8943298],[-83.6534614,37.8944014],[-83.6534877,37.89451],[-83.6535159,37.8945797],[-83.6535889,37.8946797],[-83.653774,37.8949183],[-83.6538848,37.8950516],[-83.6540441,37.8952078],[-83.6542065,37.8953829],[-83.6542785,37.8954601],[-83.6543909,37.8955378],[-83.6545507,37.8956086],[-83.6546465,37.8956801],[-83.6547824,37.8958186],[-83.6548866,37.8959301],[-83.6549444,37.8960063],[-83.655029,37.89614],[-83.6551115,37.8962953],[-83.6552022,37.8964642],[-83.6552563,37.8965403],[-83.6553053,37.8966018],[-83.6553967,37.8967013],[-83.6555732,37.8968616],[-83.6556938,37.8969881],[-83.6557628,37.897078],[-83.655823,37.8971908],[-83.6559341,37.8973099],[-83.6560589,37.8973922],[-83.6562273,37.8974801],[-83.6564229,37.897527],[-83.6567093,37.8975808],[-83.6569249,37.8976691],[-83.6570876,37.8977623],[-83.6573574,37.8979777],[-83.6576264,37.8982174],[-83.6578595,37.8984825],[-83.6580733,37.8988629]]}},{"type":"Feature","properties":{"osm_id":1301987026,"highway":"service","name":null,"alt_name":null,"official_name":null,"surface":null,"tracktype":null,"service":null,"access":null,"motor_vehicle":null,"foot":null,"tiger_reviewed":null,"rrgh_part":0,"rrgh_tile_part":0},"geometry":{"type":"LineString","coordinates":[[-83.6580733,37.8988629],[-83.6581822,37.8985041],[-83.6583316,37.8981554],[-83.6584911,37.8979199],[-83.6585501,37.8976043],[-83.6586078,37.8974463],[-83.6586677,37.8973757],[-83.6587749,37.8973102],[-83.6589616,37.8972418],[-83.6592351,37.8971525],[-83.6595932,37.8971139],[-83.6599338,37.8971458],[-83.66018,37.8971501],[-83.6604199,37.8971386],[-83.6606742,37.8969926],[-83.6609787,37.896798],[-83.6613693,37.8966904],[-83.6615127,37.896632],[-83.6615742,37.8965956],[-83.6615773,37.8965166],[-83.6614971,37.8962944],[-83.6614549,37.8961429],[-83.6614411,37.8959573],[-83.6614384,37.8959205],[-83.6614052,37.8957128],[-83.6613982,37.8955571],[-83.6614283,37.8953269],[-83.6614778,37.8951178],[-83.6614451,37.8948654],[-83.6613583,37.8945886],[-83.66142,37.8942975],[-83.6614334,37.8941186],[-83.6614013,37.8937838],[-83.6612803,37.8934677],[-83.6611682,37.8932566]]}},{"type":"Feature","properties":{"osm_id":16308863,"highway":"residential","name":"Smith Lane","alt_name":null,"official_name":null,"surface":null,"tracktype":null,"service":null,"access":null,"motor_vehicle":null,"foot":null,"tiger_reviewed":"no","rrgh_part":0,"rrgh_tile_part":0},"geometry":{"type":"LineString","coordinates":[[-83.6355667,37.8714231],[-83.6356283,37.8714836],[-83.6354609,37.8716725],[-83.6353367,37.8718349],[-83.6353285,37.8722094],[-83.6352645,37.8724882],[-83.6351651,37.8726721],[-83.6350523,37.8728318],[-83.6349405,37.8730056],[-83.6349077,37.8730709],[-83.6348855,37.8731775],[-83.6348631,37.873347],[-83.6348131,37.8734927],[-83.6347313,37.8736501],[-83.6348205,37.8737285],[-83.6350254,37.8737754],[-83.6353597,37.8737865],[-83.635708,37.87389],[-83.636063,37.8740858],[-83.6365872,37.8744274],[-83.6368899,37.874619],[-83.6371308,37.8747241],[-83.6373466,37.8748278],[-83.6376335,37.8749657],[-83.6378945,37.8750894],[-83.638533,37.8756335],[-83.6387984,37.8759167],[-83.6389597,37.8761459],[-83.6389736,37.8764182],[-83.6388004,37.8766195],[-83.6384221,37.8769496],[-83.6381716,37.8773246],[-83.6379585,37.877643],[-83.638227,37.8779319],[-83.6383019,37.8784313],[-83.6381803,37.8787728],[-83.6379846,37.8791026],[-83.6378033,37.8794678],[-83.6376763,37.8799158],[-83.6374949,37.8803667],[-83.6372143,37.8807907]]}},{"type":"Feature","properties":{"osm_id":1436990963,"highway":"track","name":null,"alt_name":null,"official_name":null,"surface":null,"tracktype":null,"service":null,"access":null,"motor_vehicle":null,"foot":null,"tiger_reviewed":null,"rrgh_part":0,"rrgh_tile_part":0},"geometry":{"type":"LineString","coordinates":[[-83.644341,37.8760878],[-83.6441507,37.8761089],[-83.6439873,37.8761453],[-83.6437886,37.8761819],[-83.6436078,37.8762466],[-83.6434313,37.8762806],[-83.6432384,37.8763159],[-83.6429841,37.8763991],[-83.6427885,37.8764889],[-83.6422811,37.8767079],[-83.6420407,37.8767991],[-83.6416678,37.8768723],[-83.6415,37.8769362],[-83.6411963,37.8771414],[-83.6409646,37.8772786],[-83.6406856,37.8773442],[-83.6404422,37.877384],[-83.6401526,37.8774765],[-83.6399634,37.8775578],[-83.6396414,37.8777681],[-83.6392659,37.8778192],[-83.6390387,37.8778402],[-83.6388572,37.8778921],[-83.6386667,37.8779436],[-83.6384824,37.8779473],[-83.638227,37.8779319]]}},{"type":"Feature","properties":{"osm_id":16308459,"highway":"service","name":null,"alt_name":null,"official_name":null,"surface":null,"tracktype":null,"service":null,"access":null,"motor_vehicle":null,"foot":null,"tiger_reviewed":"no","rrgh_part":0,"rrgh_tile_part":0},"geometry":{"type":"LineString","coordinates":[[-83.6356893,37.8713291],[-83.6355211,37.871254],[-83.6351483,37.871428],[-83.635026,37.8715634],[-83.6346399,37.8717352]]}},{"type":"Feature","properties":{"osm_id":1360114260,"highway":"residential","name":"Smith Circle","alt_name":null,"official_name":null,"surface":null,"tracktype":null,"service":null,"access":null,"motor_vehicle":null,"foot":null,"tiger_reviewed":null,"rrgh_part":0,"rrgh_tile_part":0},"geometry":{"type":"LineString","coordinates":[[-83.6356283,37.8714836],[-83.6357624,37.8714766],[-83.6359359,37.8714671],[-83.6360974,37.8713947],[-83.6362136,37.8713446],[-83.636326,37.8712828],[-83.6364498,37.8712264],[-83.6365495,37.8711973],[-83.6366086,37.8711523],[-83.6366034,37.8710814],[-83.6366315,37.870966],[-83.6366325,37.8708875],[-83.6366689,37.8707431],[-83.6367015,37.870649],[-83.6367109,37.8706125],[-83.6366679,37.8705837]]}},{"type":"Feature","properties":{"osm_id":1360114261,"highway":"service","name":null,"alt_name":null,"official_name":null,"surface":null,"tracktype":null,"service":null,"access":null,"motor_vehicle":null,"foot":null,"tiger_reviewed":null,"rrgh_part":0,"rrgh_tile_part":0},"geometry":{"type":"LineString","coordinates":[[-83.6313754,37.8722165],[-83.6313502,37.8723665],[-83.6313627,37.8724802],[-83.63139,37.8725776],[-83.6314653,37.8727053],[-83.6315684,37.8728508],[-83.6316578,37.8729629],[-83.6317543,37.8730913],[-83.631859,37.8731986],[-83.632009,37.8733222],[-83.6321156,37.8733977],[-83.6322929,37.8734736],[-83.632441,37.873544],[-83.6325483,37.8735955],[-83.632616,37.8736665],[-83.6326233,37.8737571],[-83.6325678,37.8738665],[-83.632504,37.874025],[-83.6324507,37.8741936],[-83.6324332,37.8743184],[-83.632384,37.8745398],[-83.632343,37.8747218],[-83.6323218,37.8748178],[-83.6322461,37.8749094],[-83.6321454,37.8750002],[-83.6320276,37.8751137],[-83.6319337,37.8752583],[-83.6318339,37.8754815],[-83.6317669,37.8757075],[-83.6317247,37.8758518],[-83.6316999,37.8759692],[-83.6317242,37.8760793],[-83.6317527,37.8761851],[-83.6318271,37.876314],[-83.6318577,37.8763914],[-83.6318701,37.8765053],[-83.6318589,37.876599],[-83.6318655,37.8767138],[-83.6318997,37.8767995],[-83.6319606,37.8769234],[-83.632021,37.8770623],[-83.632081,37.8771355],[-83.6321102,37.8772179],[-83.6321281,37.8772724]]}},{"type":"Feature","properties":{"osm_id":270521855,"highway":"track","name":"East Fork Indian Creek Road","alt_name":null,"official_name":null,"surface":"gravel","tracktype":"grade2","service":null,"access":null,"motor_vehicle":null,"foot":"yes","tiger_reviewed":"no","rrgh_part":0,"rrgh_tile_part":0},"geometry":{"type":"LineString","coordinates":[[-83.6482617,37.8872829],[-83.6481498,37.8873101],[-83.6480366,37.8873407],[-83.6479304,37.8873859],[-83.647887,37.8874103],[-83.6478346,37.8874619],[-83.6477918,37.8875739],[-83.6478159,37.8877983],[-83.647881,37.888049],[-83.647962,37.888345],[-83.647966,37.888409],[-83.647912,37.888664],[-83.647839,37.888852],[-83.64754,37.889344],[-83.647199,37.889976],[-83.646744,37.890688],[-83.646668,37.890793],[-83.646462,37.891169],[-83.646247,37.891493],[-83.646071,37.891671],[-83.646038,37.891697],[-83.645981,37.891772],[-83.645909,37.891919],[-83.645902,37.892071],[-83.645934,37.892304],[-83.645942,37.892453],[-83.645909,37.892928],[-83.645917,37.893008],[-83.645833,37.893616],[-83.645784,37.893843],[-83.645726,37.89404],[-83.645667,37.894176],[-83.645585,37.894296],[-83.645418,37.894464],[-83.645227,37.89462],[-83.645092,37.894715],[-83.644897,37.894827],[-83.644441,37.895198],[-83.644297,37.895286],[-83.643857,37.895499],[-83.643752,37.895583],[-83.64372,37.89563],[-83.643674,37.895831],[-83.643676,37.895933],[-83.643657,37.896125],[-83.643663,37.896457],[-83.643693,37.896681],[-83.643687,37.896891],[-83.643655,37.897083],[-83.643571,37.897175],[-83.643325,37.897332],[-83.642398,37.89782],[-83.64207,37.898031],[-83.6418,37.898179],[-83.641588,37.898279],[-83.641167,37.898443],[-83.6408529,37.8985472],[-83.640748,37.898582],[-83.640695,37.898594],[-83.64059,37.898617],[-83.640418,37.898673],[-83.640364,37.8987],[-83.640181,37.898833],[-83.640045,37.898953],[-83.639951,37.899078],[-83.639926,37.899122],[-83.639901,37.899209],[-83.63989,37.899395],[-83.639934,37.899519],[-83.639946,37.89954],[-83.639973,37.899591],[-83.640049,37.899671]]}},{"type":"Feature","properties":{"osm_id":970041798,"highway":"track","name":null,"alt_name":null,"official_name":null,"surface":null,"tracktype":null,"service":null,"access":null,"motor_vehicle":null,"foot":null,"tiger_reviewed":null,"rrgh_part":0,"rrgh_tile_part":0},"geometry":{"type":"LineString","coordinates":[[-83.6182301,37.8892728],[-83.6183317,37.8892784],[-83.6184793,37.889162],[-83.6186741,37.8889455],[-83.6188765,37.8887052],[-83.6190315,37.8884903],[-83.6191526,37.8883141],[-83.6192377,37.8882171],[-83.6193871,37.888141],[-83.6195914,37.888035],[-83.6196633,37.887932],[-83.6196746,37.8878648],[-83.6197049,37.8874752],[-83.6197219,37.887105],[-83.6198032,37.8867319],[-83.6199715,37.886599],[-83.620208,37.8864751],[-83.6205238,37.8864005],[-83.6211366,37.8863244],[-83.6215244,37.8863438],[-83.6220123,37.8864617],[-83.6227178,37.8867871],[-83.6230734,37.8870215],[-83.6231377,37.8871483],[-83.6231528,37.8874006],[-83.6231207,37.8875334],[-83.6231036,37.8876991],[-83.6232171,37.8879171],[-83.6234081,37.888129],[-83.6236975,37.8886022],[-83.6238942,37.88885],[-83.6240342,37.8890634],[-83.6241136,37.8893321],[-83.6241647,37.890071],[-83.6242422,37.8904874],[-83.6243368,37.8907949],[-83.624543,37.8909039],[-83.6247737,37.8908815],[-83.6250877,37.8908307],[-83.6252806,37.8907815],[-83.6254546,37.8908143],[-83.625865,37.8909203],[-83.6261676,37.890977],[-83.6266745,37.8912039]]}},{"type":"Feature","properties":{"osm_id":1534750303,"highway":"service","name":"Amos Ridge Road","alt_name":null,"official_name":null,"surface":null,"tracktype":null,"service":null,"access":null,"motor_vehicle":null,"foot":null,"tiger_reviewed":null,"rrgh_part":0,"rrgh_tile_part":0},"geometry":{"type":"LineString","coordinates":[[-83.6580733,37.8988629],[-83.6580756,37.8989862],[-83.658067,37.8990583],[-83.6580245,37.8991609],[-83.6579829,37.8992192],[-83.6579005,37.8992905],[-83.6577975,37.8993458],[-83.6576663,37.8993911],[-83.657477,37.8994489],[-83.6573662,37.8995011],[-83.6572879,37.8995744],[-83.6572713,37.8996566],[-83.657288,37.8997451],[-83.6573938,37.8999267],[-83.65744941191657,37.9]]}},{"type":"Feature","properties":{"osm_id":16310214,"highway":"residential","name":"Jewell Road","alt_name":null,"official_name":null,"surface":null,"tracktype":null,"service":null,"access":null,"motor_vehicle":null,"foot":null,"tiger_reviewed":"no","rrgh_part":0,"rrgh_tile_part":0},"geometry":{"type":"LineString","coordinates":[[-83.621014,37.875168],[-83.620772,37.875072],[-83.620394,37.874867],[-83.620314,37.874846],[-83.620088,37.874821],[-83.619863,37.874822],[-83.619491,37.874801],[-83.618463,37.874717],[-83.618322,37.874713],[-83.61827,37.874722],[-83.618003,37.874819],[-83.617904,37.874836],[-83.617815,37.874841],[-83.61728,37.874824],[-83.61714,37.874836],[-83.616979,37.87487],[-83.616864,37.87492],[-83.616394,37.875155],[-83.61593,37.875352],[-83.615846,37.875413],[-83.615827,37.875453],[-83.615827,37.8755]]}},{"type":"Feature","properties":{"osm_id":970041797,"highway":"track","name":null,"alt_name":null,"official_name":null,"surface":null,"tracktype":null,"service":null,"access":null,"motor_vehicle":null,"foot":null,"tiger_reviewed":null,"rrgh_part":0,"rrgh_tile_part":0},"geometry":{"type":"LineString","coordinates":[[-83.6170781,37.8810332],[-83.6170234,37.8810486],[-83.6169516,37.8811665],[-83.6169402,37.8813904],[-83.6170291,37.8816756],[-83.617014,37.8817696],[-83.6169099,37.8818726],[-83.6163614,37.8822652],[-83.6161912,37.882322],[-83.616021,37.8822906],[-83.6156711,37.8820682],[-83.6154555,37.8819323],[-83.6151812,37.8817681],[-83.6149959,37.8816786],[-83.6144474,37.8816009],[-83.6137911,37.8816517],[-83.6133939,37.8817069],[-83.6130951,37.8816875],[-83.6128965,37.8816009],[-83.612713,37.881386]]}},{"type":"Feature","properties":{"osm_id":16309410,"highway":"residential","name":"Doc Mullins Road","alt_name":null,"official_name":null,"surface":null,"tracktype":null,"service":null,"access":null,"motor_vehicle":null,"foot":null,"tiger_reviewed":"no","rrgh_part":0,"rrgh_tile_part":0},"geometry":{"type":"LineString","coordinates":[[-83.602145,37.882607],[-83.602407,37.882962],[-83.603014,37.88367],[-83.603098,37.883794],[-83.603166,37.88392],[-83.6032,37.884046],[-83.603208,37.884119],[-83.603185,37.884228],[-83.603144,37.884348],[-83.603107,37.884428],[-83.603051,37.884513],[-83.602906,37.884674],[-83.602821,37.884753],[-83.60246,37.885207],[-83.602287,37.885512],[-83.602197,37.885719],[-83.602162,37.885826],[-83.602137,37.885923],[-83.60214,37.886028],[-83.602201,37.886218],[-83.602222,37.886332],[-83.602232,37.886576],[-83.602216,37.886691],[-83.602186,37.886797],[-83.602103,37.886989],[-83.602034,37.887197],[-83.602033,37.887263],[-83.602087,37.887475],[-83.602084,37.887534],[-83.60201,37.887709],[-83.60199,37.887799],[-83.60199,37.887893],[-83.602044,37.888099],[-83.602089,37.888206],[-83.602393,37.888731],[-83.602773,37.889191],[-83.602935,37.889405],[-83.603128,37.8896],[-83.603299,37.889793],[-83.603357,37.88989],[-83.603407,37.889991],[-83.60351,37.890283],[-83.603596,37.890477],[-83.603623,37.890592],[-83.603691,37.890792],[-83.603815,37.891114],[-83.604013,37.891524],[-83.604164,37.891811],[-83.604344,37.892108],[-83.604721,37.892663],[-83.604858,37.892891],[-83.604874,37.892963],[-83.604867,37.893035],[-83.60484,37.893101],[-83.604796,37.893156],[-83.604528,37.89335],[-83.604478,37.893411],[-83.604402,37.893533]]}},{"type":"Feature","properties":{"osm_id":16310148,"highway":"residential","name":"Egelston Lane","alt_name":null,"official_name":null,"surface":null,"tracktype":null,"service":null,"access":null,"motor_vehicle":null,"foot":null,"tiger_reviewed":"no","rrgh_part":0,"rrgh_tile_part":0},"geometry":{"type":"LineString","coordinates":[[-83.615434,37.888058],[-83.615395,37.887973],[-83.615376,37.887877],[-83.615309,37.887686],[-83.615227,37.887501],[-83.615089,37.887316],[-83.615031,37.88726],[-83.614833,37.887103],[-83.614728,37.886992],[-83.614685,37.886929],[-83.614639,37.8868],[-83.614617,37.886674],[-83.614534,37.886409],[-83.614456,37.886317],[-83.614415,37.886207],[-83.614415,37.886149],[-83.61443,37.886092],[-83.614502,37.885909],[-83.614547,37.885735]]}},{"type":"Feature","properties":{"osm_id":16309841,"highway":"residential","name":"Egleston Lane","alt_name":null,"official_name":null,"surface":null,"tracktype":null,"service":null,"access":null,"motor_vehicle":null,"foot":null,"tiger_reviewed":"no","rrgh_part":0,"rrgh_tile_part":0},"geometry":{"type":"LineString","coordinates":[[-83.616287,37.891321],[-83.616268,37.891247],[-83.616069,37.890857],[-83.615888,37.890451],[-83.615823,37.890228],[-83.61575,37.889897],[-83.615741,37.88968],[-83.615774,37.889352],[-83.615819,37.88911],[-83.615834,37.888948],[-83.615826,37.88886],[-83.615783,37.888686],[-83.615714,37.888506],[-83.615694,37.888411],[-83.615642,37.888322],[-83.615556,37.888237],[-83.615491,37.888154],[-83.615434,37.888058]]}},{"type":"Feature","properties":{"osm_id":970041799,"highway":"track","name":null,"alt_name":null,"official_name":null,"surface":null,"tracktype":null,"service":null,"access":null,"motor_vehicle":null,"foot":null,"tiger_reviewed":null,"rrgh_part":0,"rrgh_tile_part":0},"geometry":{"type":"LineString","coordinates":[[-83.6181575,37.888124],[-83.6182274,37.888078],[-83.6181792,37.8878837],[-83.6181842,37.8878236],[-83.6182528,37.8877055],[-83.618504,37.8876955],[-83.6187247,37.8877015],[-83.6189455,37.8876474],[-83.6191485,37.8875292],[-83.6194555,37.8870486],[-83.6196433,37.886626],[-83.6198641,37.8863236],[-83.6200975,37.8860613],[-83.620298,37.8860172],[-83.6206761,37.8860292],[-83.6211531,37.885839],[-83.621516,37.8855846],[-83.6218332,37.885158],[-83.6218357,37.8849778],[-83.6217842,37.8849154],[-83.6213413,37.8847584],[-83.6212442,37.8847144],[-83.6209246,37.8843345],[-83.6207239,37.8840943],[-83.6200735,37.8842221],[-83.6197292,37.884382],[-83.6194587,37.8844392],[-83.618961,37.8844828],[-83.6184017,37.884681],[-83.6179991,37.8847146],[-83.6175937,37.8848448],[-83.6166871,37.8849498]]}},{"type":"Feature","properties":{"osm_id":970041800,"highway":"service","name":null,"alt_name":null,"official_name":null,"surface":null,"tracktype":null,"service":null,"access":null,"motor_vehicle":null,"foot":null,"tiger_reviewed":null,"rrgh_part":0,"rrgh_tile_part":0},"geometry":{"type":"LineString","coordinates":[[-83.6154481,37.8915162],[-83.6153873,37.8915772],[-83.61569,37.8920527],[-83.6158517,37.8923241],[-83.615837,37.8925746],[-83.6157488,37.893115],[-83.6158164,37.8934049],[-83.6158869,37.8937853]]}},{"type":"Feature","properties":{"osm_id":16309653,"highway":"residential","name":"Corner Ridge Road","alt_name":null,"official_name":null,"surface":null,"tracktype":null,"service":null,"access":null,"motor_vehicle":null,"foot":null,"tiger_reviewed":"no","rrgh_part":0,"rrgh_tile_part":0},"geometry":{"type":"LineString","coordinates":[[-83.593262,37.88653],[-83.59341,37.886736],[-83.593535,37.886887],[-83.593736,37.887207],[-83.593796,37.887325],[-83.593833,37.887448],[-83.593863,37.887688],[-83.593829,37.887784],[-83.593809,37.887894],[-83.593754,37.887981],[-83.593614,37.888161],[-83.593444,37.888432],[-83.593463,37.888546],[-83.593559,37.888704],[-83.593637,37.888749],[-83.593739,37.888783],[-83.594105,37.888808],[-83.5943944,37.8888692],[-83.594653,37.889062],[-83.594821,37.889253],[-83.594866,37.889304],[-83.595383,37.889979],[-83.595515,37.890113],[-83.595775,37.890474],[-83.596534,37.891222],[-83.596638,37.891285],[-83.596759,37.891324],[-83.596883,37.891345],[-83.597004,37.891342],[-83.597125,37.891327],[-83.597242,37.891293],[-83.597818,37.89116],[-83.598059,37.891223],[-83.598184,37.891264],[-83.598317,37.891325],[-83.598438,37.891406],[-83.598554,37.891445],[-83.598671,37.89152],[-83.599046,37.891792],[-83.599198,37.891976],[-83.599299,37.892066],[-83.600164,37.892602],[-83.600382,37.892782],[-83.600561,37.892966],[-83.600812,37.893285],[-83.60096,37.893511],[-83.601131,37.893844],[-83.60135,37.894382],[-83.601447,37.894709],[-83.601486,37.894905],[-83.601522,37.894996],[-83.601579,37.895076],[-83.601689,37.89516],[-83.601757,37.895188],[-83.601826,37.895204],[-83.601915,37.895215],[-83.602025,37.895214],[-83.602284,37.895182],[-83.603309,37.894978],[-83.603494,37.894965],[-83.603654,37.89498]]}},{"type":"Feature","properties":{"osm_id":1138411152,"highway":"residential","name":null,"alt_name":null,"official_name":null,"surface":null,"tracktype":null,"service":null,"access":null,"motor_vehicle":null,"foot":null,"tiger_reviewed":"no","rrgh_part":0,"rrgh_tile_part":0},"geometry":{"type":"LineString","coordinates":[[-83.605083,37.893129],[-83.6054721,37.8933864],[-83.6060453,37.8935295],[-83.6064927,37.8935652],[-83.606747,37.8935182],[-83.606986,37.89344],[-83.6074023,37.8932941],[-83.6078638,37.8931955],[-83.607969,37.893152],[-83.6080582,37.8930507],[-83.6083409,37.8926197]]}},{"type":"Feature","properties":{"osm_id":886598086,"highway":"residential","name":"Corner Ridge Road","alt_name":null,"official_name":null,"surface":null,"tracktype":null,"service":null,"access":null,"motor_vehicle":null,"foot":null,"tiger_reviewed":"no","rrgh_part":0,"rrgh_tile_part":0},"geometry":{"type":"LineString","coordinates":[[-83.591751,37.885518],[-83.591929,37.885606],[-83.5919809,37.8856412],[-83.592025,37.885671],[-83.592142,37.885792],[-83.592213,37.885883],[-83.592272,37.885982],[-83.592389,37.886251],[-83.59245,37.886344],[-83.592556,37.886463],[-83.592641,37.88652],[-83.592739,37.886549],[-83.592829,37.886541],[-83.593031,37.886497],[-83.593147,37.886487],[-83.593188,37.886491],[-83.593229,37.886506],[-83.593262,37.88653]]}},{"type":"Feature","properties":{"osm_id":566474125,"highway":"track","name":null,"alt_name":null,"official_name":null,"surface":null,"tracktype":null,"service":null,"access":null,"motor_vehicle":null,"foot":null,"tiger_reviewed":null,"rrgh_part":0,"rrgh_tile_part":0},"geometry":{"type":"LineString","coordinates":[[-83.5919809,37.8856412],[-83.5919748,37.8855094],[-83.5919704,37.8852858],[-83.5919084,37.8851355],[-83.5918154,37.8849993],[-83.5915675,37.8847582],[-83.591262,37.8845136],[-83.5907529,37.8841956]]}},{"type":"Feature","properties":{"osm_id":16309395,"highway":"residential","name":"R Smallwood Road","alt_name":null,"official_name":null,"surface":null,"tracktype":null,"service":null,"access":null,"motor_vehicle":null,"foot":null,"tiger_reviewed":"no","rrgh_part":0,"rrgh_tile_part":0},"geometry":{"type":"LineString","coordinates":[[-83.604615,37.89676],[-83.604575,37.89705],[-83.604586,37.897168],[-83.60462,37.897246],[-83.60463,37.897343],[-83.604651,37.897416],[-83.604731,37.897605],[-83.604808,37.89772],[-83.605222,37.898252],[-83.605408,37.898512],[-83.60551,37.898638],[-83.605615,37.898739],[-83.605774,37.89884],[-83.60592,37.898908]]}},{"type":"Feature","properties":{"osm_id":16308828,"highway":"service","name":null,"alt_name":null,"official_name":null,"surface":null,"tracktype":null,"service":null,"access":null,"motor_vehicle":null,"foot":null,"tiger_reviewed":"no","rrgh_part":0,"rrgh_tile_part":0},"geometry":{"type":"LineString","coordinates":[[-83.60099604327485,37.9],[-83.6008744,37.8999085],[-83.6007036,37.8998804],[-83.600435,37.8999791],[-83.60040012052981,37.9]]}},{"type":"Feature","properties":{"osm_id":16308828,"highway":"service","name":null,"alt_name":null,"official_name":null,"surface":null,"tracktype":null,"service":null,"access":null,"motor_vehicle":null,"foot":null,"tiger_reviewed":"no","rrgh_part":0,"rrgh_tile_part":1},"geometry":{"type":"LineString","coordinates":[[-83.59941694636328,37.9],[-83.5993211,37.899893],[-83.599124,37.8996856],[-83.5989151,37.8996002],[-83.598655,37.899561],[-83.5983304,37.8995827],[-83.5981132,37.8995183]]}},{"type":"Feature","properties":{"osm_id":16310758,"highway":"residential","name":"Smallwood Cemetery Road","alt_name":null,"official_name":null,"surface":null,"tracktype":null,"service":null,"access":null,"motor_vehicle":null,"foot":null,"tiger_reviewed":"no","rrgh_part":0,"rrgh_tile_part":0},"geometry":{"type":"LineString","coordinates":[[-83.603755,37.897496],[-83.603889,37.897461],[-83.60404,37.897383],[-83.604222,37.897242],[-83.604334,37.897141],[-83.604426,37.897082],[-83.604487,37.89708],[-83.604533,37.897095],[-83.604554,37.897109],[-83.604586,37.897168]]}},{"type":"Feature","properties":{"osm_id":970041801,"highway":"service","name":null,"alt_name":null,"official_name":null,"surface":null,"tracktype":null,"service":null,"access":null,"motor_vehicle":null,"foot":null,"tiger_reviewed":null,"rrgh_part":0,"rrgh_tile_part":0},"geometry":{"type":"LineString","coordinates":[[-83.5981132,37.8995183],[-83.5979876,37.8993551],[-83.5978813,37.8992221],[-83.5976945,37.8991614],[-83.5972145,37.8991151],[-83.5969397,37.8990226],[-83.5967931,37.8988954],[-83.5965696,37.8986236],[-83.5963424,37.8984761],[-83.5960567,37.8984703],[-83.5955217,37.8985744],[-83.5951956,37.8986062],[-83.5949684,37.8985687],[-83.5945141,37.8983836],[-83.5941257,37.8981957],[-83.5938509,37.8979384],[-83.5935102,37.897736],[-83.5931071,37.8975827],[-83.5926345,37.8975076]]}}],"rrgh_tile":{"id":"r6c4","bounds":[37.825,-83.67500000000001,37.9,-83.59]}}
