{"type":"FeatureCollection","features":[{"type":"Feature","properties":{"osm_id":16384770,"highway":"residential","name":"Clifty School Road","alt_name":null,"official_name":null,"surface":null,"tracktype":null,"service":null,"access":null,"motor_vehicle":null,"foot":null,"tiger_reviewed":"no","rrgh_part":0,"rrgh_tile_part":0},"geometry":{"type":"LineString","coordinates":[[-83.514902,37.825043],[-83.5149960406504,37.825]]}},{"type":"Feature","properties":{"osm_id":16384770,"highway":"residential","name":"Clifty School Road","alt_name":null,"official_name":null,"surface":null,"tracktype":null,"service":null,"access":null,"motor_vehicle":null,"foot":null,"tiger_reviewed":"no","rrgh_part":0,"rrgh_tile_part":1},"geometry":{"type":"LineString","coordinates":[[-83.51602213513515,37.825],[-83.516075,37.825018],[-83.516617,37.825215],[-83.516832,37.825279],[-83.517077,37.825324],[-83.517165,37.825332],[-83.517337,37.825337],[-83.517488,37.825331],[-83.51755,37.825336],[-83.517651,37.825354],[-83.517672,37.825361],[-83.517712,37.825381],[-83.517758,37.825416],[-83.518113,37.82572],[-83.518198,37.825757],[-83.518291,37.82578],[-83.518389,37.82579],[-83.518488,37.825787],[-83.518589,37.82577],[-83.518773,37.825711],[-83.519036,37.825559],[-83.519198,37.825458],[-83.519276,37.825405],[-83.519424,37.825289],[-83.519441,37.825273],[-83.519617,37.825105],[-83.519678,37.825061],[-83.519732,37.82503],[-83.519766,37.825028],[-83.519843,37.825031],[-83.5199,37.82505],[-83.520093,37.825152],[-83.520297,37.825288],[-83.520367,37.825349],[-83.520404,37.825409],[-83.520428,37.825474],[-83.520481,37.825547],[-83.520536,37.825601],[-83.520598,37.825639],[-83.520672,37.825676],[-83.52075,37.825692],[-83.520914,37.825697],[-83.521245,37.82572],[-83.521358,37.825731],[-83.521698,37.825786],[-83.521807,37.825793],[-83.521913,37.825787],[-83.522195,37.825737],[-83.522272,37.825716],[-83.522496,37.825643],[-83.522809,37.825524],[-83.522965,37.825457],[-83.52325,37.825301],[-83.523536,37.825133],[-83.523622,37.82507],[-83.5236983063063,37.825]]}},{"type":"Feature","properties":{"osm_id":16385059,"highway":"residential","name":"Twin Branch Road","alt_name":null,"official_name":null,"surface":null,"tracktype":null,"service":null,"access":null,"motor_vehicle":null,"foot":null,"tiger_reviewed":"no","rrgh_part":0,"rrgh_tile_part":0},"geometry":{"type":"LineString","coordinates":[[-83.517854171875,37.825],[-83.517847,37.825102],[-83.517788,37.825227],[-83.517672,37.825361]]}},{"type":"Feature","properties":{"osm_id":16309837,"highway":"residential","name":"Jump Off Road","alt_name":null,"official_name":null,"surface":null,"tracktype":null,"service":null,"access":null,"motor_vehicle":null,"foot":null,"tiger_reviewed":"no","rrgh_part":0,"rrgh_tile_part":0},"geometry":{"type":"LineString","coordinates":[[-83.54872,37.866656],[-83.548758,37.86661],[-83.548842,37.866572],[-83.549004,37.866565],[-83.549253,37.866574],[-83.54931,37.866583],[-83.549365,37.866601],[-83.549431,37.866668],[-83.549453,37.866729],[-83.549456,37.866805],[-83.549434,37.866881],[-83.549367,37.86703],[-83.549309,37.867121],[-83.549013,37.86751],[-83.548863,37.867685],[-83.548688,37.867926],[-83.548393,37.868368],[-83.548306,37.86852],[-83.548284,37.868578],[-83.54829,37.868727],[-83.548274,37.868788],[-83.548211,37.868867],[-83.548155,37.868974],[-83.548113,37.869093],[-83.548112,37.869228],[-83.548167,37.869363],[-83.548308,37.8696],[-83.548359,37.86978],[-83.54838,37.869918],[-83.54846,37.87018],[-83.548544,37.87037],[-83.54877,37.870795],[-83.548784,37.870875],[-83.548825,37.871524],[-83.548828,37.871533],[-83.548881,37.871735],[-83.54898,37.872218],[-83.549094,37.872856],[-83.549102,37.872953],[-83.549081,37.873128],[-83.548934,37.87377],[-83.548672,37.874734],[-83.548621,37.87497],[-83.548613,37.875098],[-83.54862,37.875194],[-83.54866,37.875408],[-83.548855,37.876325],[-83.548912,37.876634],[-83.548941,37.876866],[-83.549189,37.878022],[-83.549228,37.878125],[-83.549253,37.878341],[-83.549227,37.878738],[-83.549049,37.879619],[-83.548988,37.879869],[-83.548954,37.880085],[-83.548821,37.8804],[-83.548702,37.88083],[-83.548702,37.88093],[-83.548724,37.881026],[-83.548828,37.881217],[-83.548895,37.881313],[-83.549072,37.881494],[-83.549342,37.881748],[-83.549409,37.881832],[-83.549462,37.881924],[-83.54949,37.882011],[-83.549502,37.882093],[-83.549482,37.88218],[-83.549446,37.882262],[-83.549397,37.882342],[-83.549326,37.882429],[-83.54924,37.882515],[-83.549142,37.882588],[-83.549033,37.882647],[-83.54892,37.882695],[-83.54868,37.882762],[-83.548016,37.88287],[-83.547747,37.882921],[-83.547628,37.882957],[-83.547514,37.88301],[-83.547409,37.883072],[-83.547215,37.883216],[-83.546939,37.883438],[-83.546688,37.883688],[-83.546575,37.883892],[-83.546533,37.883984],[-83.546441,37.88429],[-83.546246,37.884815],[-83.546184,37.884966],[-83.546032,37.885271]]}},{"type":"Feature","properties":{"osm_id":16310031,"highway":"residential","name":"Harvey Ratliff Road","alt_name":null,"official_name":null,"surface":null,"tracktype":null,"service":null,"access":null,"motor_vehicle":null,"foot":null,"tiger_reviewed":"no","rrgh_part":0,"rrgh_tile_part":0},"geometry":{"type":"LineString","coordinates":[[-83.524122,37.854868],[-83.524151,37.855116],[-83.524134,37.855898],[-83.524143,37.856128],[-83.52416,37.8563],[-83.524203,37.856492],[-83.524207,37.85657],[-83.524192,37.85663],[-83.524235,37.856842],[-83.52427,37.856934],[-83.524312,37.857023],[-83.524388,37.857135],[-83.524449,37.857264],[-83.524598,37.857925],[-83.524681,37.858035],[-83.524734,37.858084],[-83.52494,37.858363],[-83.525048,37.858554],[-83.52511,37.858692],[-83.525252,37.85909],[-83.525279,37.859237],[-83.525297,37.85947],[-83.525374,37.860071],[-83.525425,37.860304],[-83.525483,37.860475],[-83.52548,37.860511],[-83.525436,37.8606],[-83.525402,37.860623],[-83.525284,37.860657],[-83.525063,37.860694],[-83.524982,37.860734],[-83.52488,37.860803],[-83.524762,37.860914],[-83.524648,37.861064],[-83.524576,37.86119],[-83.524523,37.861322],[-83.524491,37.86143],[-83.524469,37.861727],[-83.524444,37.861792],[-83.524347,37.861903],[-83.5242,37.862026],[-83.523893,37.862321],[-83.523591,37.86256],[-83.523379,37.862781],[-83.523288,37.862898],[-83.523138,37.863182],[-83.52309,37.863236],[-83.522768,37.863686],[-83.52261,37.863863],[-83.522596,37.863892],[-83.522608,37.864011],[-83.522666,37.864132],[-83.52274,37.8642],[-83.522834,37.864285],[-83.522874,37.864348],[-83.522898,37.864419],[-83.52288,37.864476],[-83.522786,37.864556],[-83.52257,37.864664],[-83.522442,37.864771],[-83.522382,37.864854],[-83.52236,37.864903],[-83.522346,37.864957],[-83.522351,37.864988],[-83.522407,37.865074],[-83.522594,37.865237],[-83.522684,37.86529],[-83.522959,37.865417],[-83.52304,37.865464],[-83.523099,37.86552],[-83.523207,37.865719],[-83.52323,37.865796],[-83.523216,37.866091],[-83.52317,37.866247],[-83.523106,37.866391],[-83.522896,37.866733],[-83.522798,37.866942],[-83.522623,37.867557],[-83.522588,37.867914],[-83.522567,37.868322],[-83.522445,37.869093],[-83.522444,37.869167],[-83.522472,37.869243],[-83.522602,37.869386],[-83.522693,37.869504],[-83.522779,37.869673],[-83.522811,37.869758],[-83.522928,37.869959],[-83.522974,37.870105],[-83.522929,37.870222],[-83.522905,37.870263],[-83.522874,37.870316],[-83.522727,37.870505],[-83.522446,37.8708],[-83.522387,37.870845],[-83.522302,37.870909],[-83.522184,37.871034],[-83.522098,37.871172],[-83.522039,37.871342]]}},{"type":"Feature","properties":{"osm_id":16309227,"highway":"residential","name":null,"alt_name":null,"official_name":null,"surface":null,"tracktype":null,"service":null,"access":null,"motor_vehicle":null,"foot":null,"tiger_reviewed":"no","rrgh_part":0,"rrgh_tile_part":0},"geometry":{"type":"LineString","coordinates":[[-83.553005,37.84541],[-83.552932,37.845306],[-83.552881,37.845153],[-83.553083,37.844734],[-83.553234,37.844315],[-83.553253,37.84392],[-83.553069,37.84342],[-83.552833,37.8428],[-83.55272,37.842398],[-83.552689,37.842148]]}},{"type":"Feature","properties":{"osm_id":16382425,"highway":"track","name":null,"alt_name":null,"official_name":null,"surface":null,"tracktype":null,"service":null,"access":null,"motor_vehicle":null,"foot":null,"tiger_reviewed":"no","rrgh_part":0,"rrgh_tile_part":0},"geometry":{"type":"LineString","coordinates":[[-83.519441,37.825273],[-83.519161,37.825223],[-83.5188,37.825147],[-83.5185956792453,37.825]]}},{"type":"Feature","properties":{"osm_id":16385249,"highway":"residential","name":"Culbertson Road","alt_name":null,"official_name":null,"surface":"gravel","tracktype":null,"service":null,"access":null,"motor_vehicle":null,"foot":null,"tiger_reviewed":"no","rrgh_part":0,"rrgh_tile_part":0},"geometry":{"type":"LineString","coordinates":[[-83.5197685,37.825],[-83.519766,37.825028]]}},{"type":"Feature","properties":{"osm_id":16382556,"highway":"residential","name":null,"alt_name":null,"official_name":null,"surface":null,"tracktype":null,"service":null,"access":null,"motor_vehicle":null,"foot":null,"tiger_reviewed":"no","rrgh_part":0,"rrgh_tile_part":0},"geometry":{"type":"LineString","coordinates":[[-83.519586,37.830169],[-83.519753,37.829981],[-83.519904,37.829854],[-83.520043,37.829852],[-83.520307,37.829895],[-83.5208,37.830112],[-83.521043,37.830179],[-83.521327,37.830158],[-83.521557,37.830115]]}},{"type":"Feature","properties":{"osm_id":16308603,"highway":"track","name":null,"alt_name":null,"official_name":null,"surface":null,"tracktype":null,"service":null,"access":null,"motor_vehicle":null,"foot":null,"tiger_reviewed":"no","rrgh_part":0,"rrgh_tile_part":0},"geometry":{"type":"LineString","coordinates":[[-83.5373921,37.8326067],[-83.5374451,37.8324359],[-83.5373879,37.8322491],[-83.5372676,37.8320164],[-83.5370891,37.8318265],[-83.5367847,37.8316081],[-83.5365489,37.8314669],[-83.5362774,37.8313476],[-83.5359762,37.8312199],[-83.5356606,37.8311639],[-83.5355365,37.8312183],[-83.5353636,37.8312191],[-83.5349717,37.8310837],[-83.5346709,37.8310225],[-83.53447,37.8310486],[-83.5343576,37.831156],[-83.5342756,37.8314033],[-83.5341752,37.8317271],[-83.5340578,37.8318093],[-83.5338927,37.8318879],[-83.5338737,37.8320372],[-83.5338409,37.8321874],[-83.5336586,37.8322885],[-83.5334158,37.8323189],[-83.5331691,37.8323254],[-83.5326104,37.8323972]]}},{"type":"Feature","properties":{"osm_id":1337990288,"highway":"track","name":null,"alt_name":null,"official_name":null,"surface":null,"tracktype":null,"service":null,"access":null,"motor_vehicle":null,"foot":null,"tiger_reviewed":null,"rrgh_part":0,"rrgh_tile_part":0},"geometry":{"type":"LineString","coordinates":[[-83.5356606,37.8311639],[-83.5359341,37.8309725],[-83.5361221,37.8308949],[-83.5362747,37.8308034],[-83.5367287,37.8307814],[-83.5369867,37.8307671],[-83.5373655,37.8307281],[-83.5376044,37.8307336],[-83.5378515,37.8307152]]}},{"type":"Feature","properties":{"osm_id":16308578,"highway":"service","name":null,"alt_name":null,"official_name":null,"surface":null,"tracktype":null,"service":null,"access":"private","motor_vehicle":null,"foot":null,"tiger_reviewed":"no","rrgh_part":0,"rrgh_tile_part":0},"geometry":{"type":"LineString","coordinates":[[-83.53139,37.839958],[-83.531214,37.840099],[-83.531078,37.840243],[-83.531061,37.840387],[-83.531158,37.84057],[-83.531719,37.841309],[-83.531952,37.841619],[-83.532091,37.841851],[-83.532085,37.84201],[-83.531947,37.842066],[-83.531649,37.84191],[-83.531517,37.841932],[-83.531459,37.841941],[-83.531391,37.842004],[-83.531195,37.842196],[-83.531097,37.842323],[-83.531079,37.842411],[-83.531103,37.842563],[-83.531208,37.84261],[-83.531415,37.842656],[-83.531706,37.84271],[-83.531883,37.842804],[-83.532521,37.843296]]}},{"type":"Feature","properties":{"osm_id":16310525,"highway":"residential","name":"Marion Brown Road","alt_name":null,"official_name":null,"surface":null,"tracktype":null,"service":null,"access":null,"motor_vehicle":null,"foot":null,"tiger_reviewed":"no","rrgh_part":0,"rrgh_tile_part":0},"geometry":{"type":"LineString","coordinates":[[-83.538013,37.844355],[-83.538089,37.844279],[-83.538414,37.84405],[-83.53854,37.843947],[-83.538703,37.843869],[-83.539754,37.842729],[-83.539857,37.84261],[-83.539888,37.842426],[-83.539898,37.841947],[-83.539884,37.841577],[-83.539893,37.84147],[-83.540003,37.840977],[-83.540063,37.840614],[-83.540066,37.840507],[-83.540033,37.840466],[-83.539951,37.840443],[-83.539906,37.840458],[-83.53976,37.840555],[-83.539628,37.840585],[-83.539498,37.840596],[-83.539368,37.840647],[-83.539317,37.840681],[-83.539232,37.840772],[-83.539117,37.840953],[-83.53903,37.841062],[-83.538138,37.841494],[-83.537862,37.841561],[-83.53778,37.841591],[-83.537598,37.841604],[-83.5374401,37.841658]]}},{"type":"Feature","properties":{"osm_id":1337990290,"highway":"track","name":null,"alt_name":null,"official_name":null,"surface":null,"tracktype":null,"service":null,"access":null,"motor_vehicle":null,"foot":null,"tiger_reviewed":null,"rrgh_part":0,"rrgh_tile_part":0},"geometry":{"type":"LineString","coordinates":[[-83.5370004,37.8367107],[-83.5371559,37.8380424],[-83.537161,37.8381719],[-83.5371289,37.8382773],[-83.5370732,37.8383918],[-83.537051,37.8386155],[-83.5370251,37.8389049],[-83.5370028,37.8390293],[-83.5369229,37.8392651],[-83.5368236,37.8394685],[-83.5367787,37.8396098],[-83.5367839,37.839704],[-83.5368807,37.8398973],[-83.537001,37.8401479],[-83.5370855,37.8404601],[-83.5371384,37.8407492],[-83.5371419,37.8410243],[-83.5371797,37.8411617],[-83.537205,37.8413437],[-83.5372983,37.8415039],[-83.5373716,37.8416224],[-83.5374401,37.841658]]}},{"type":"Feature","properties":{"osm_id":1337990292,"highway":"service","name":null,"alt_name":null,"official_name":null,"surface":null,"tracktype":null,"service":null,"access":null,"motor_vehicle":null,"foot":null,"tiger_reviewed":"no","rrgh_part":0,"rrgh_tile_part":0},"geometry":{"type":"LineString","coordinates":[[-83.5326104,37.8323972],[-83.5322149,37.8324118],[-83.5320432,37.832449],[-83.5319377,37.8324964],[-83.5318593,37.8325521],[-83.5317946,37.8326228],[-83.5317452,37.8327085],[-83.531721,37.8328582],[-83.5316603,37.8333663],[-83.5316258,37.8333987],[-83.5315658,37.8334288],[-83.5314681,37.8334152],[-83.5313535,37.8332791],[-83.5311507,37.8330768],[-83.5310577,37.8330516],[-83.5308781,37.8330914],[-83.5303845,37.8331992],[-83.5302533,37.833214],[-83.5301345,37.8331965],[-83.5300155,37.8332013],[-83.5294815,37.8333415],[-83.5288233,37.8334964],[-83.5283168,37.8336159],[-83.5281429,37.8336646],[-83.527951,37.8337619],[-83.5277463,37.8338936],[-83.5275548,37.8340611],[-83.5273917,37.8342135],[-83.5270772,37.834442],[-83.5268989,37.8344618],[-83.526733,37.8345246],[-83.5266646,37.8345798],[-83.5265582,37.8347186],[-83.5264,37.8351856],[-83.5263454,37.8353041],[-83.526202,37.8355226],[-83.5262273,37.8358924],[-83.5261507,37.836137],[-83.5260219,37.8365654],[-83.5258956,37.8367836],[-83.5258087,37.8370422]]}},{"type":"Feature","properties":{"osm_id":16308596,"highway":"service","name":null,"alt_name":null,"official_name":null,"surface":null,"tracktype":null,"service":null,"access":"private","motor_vehicle":null,"foot":null,"tiger_reviewed":"no","rrgh_part":0,"rrgh_tile_part":0},"geometry":{"type":"LineString","coordinates":[[-83.54031,37.842618],[-83.540344,37.842792],[-83.540329,37.842958],[-83.540326,37.842989],[-83.540352,37.843143],[-83.540479,37.843233],[-83.540685,37.843342],[-83.541002,37.843394]]}},{"type":"Feature","properties":{"osm_id":16310490,"highway":"service","name":"Brown West Road","alt_name":null,"official_name":null,"surface":null,"tracktype":null,"service":null,"access":"private","motor_vehicle":null,"foot":null,"tiger_reviewed":"no","rrgh_part":0,"rrgh_tile_part":0},"geometry":{"type":"LineString","coordinates":[[-83.539754,37.842729],[-83.540094,37.842689],[-83.540131,37.842683],[-83.540271,37.842659],[-83.54031,37.842618],[-83.540862,37.842554],[-83.54116,37.842471],[-83.541543,37.842364],[-83.541786,37.842205],[-83.542103,37.84203]]}},{"type":"Feature","properties":{"osm_id":16381226,"highway":"service","name":null,"alt_name":null,"official_name":null,"surface":null,"tracktype":null,"service":null,"access":"private","motor_vehicle":null,"foot":null,"tiger_reviewed":"no","rrgh_part":0,"rrgh_tile_part":0},"geometry":{"type":"LineString","coordinates":[[-83.522472,37.832283],[-83.522402,37.832345],[-83.522382,37.832398],[-83.522382,37.832468],[-83.522422,37.83261],[-83.522441,37.832748],[-83.522446,37.832855],[-83.522437,37.833003],[-83.522417,37.833077],[-83.522385,37.83315],[-83.522293,37.833271],[-83.522261,37.833331],[-83.522215,37.833433],[-83.522193,37.833465],[-83.522166,37.833494],[-83.522098,37.833543],[-83.521322,37.834],[-83.521287,37.834038],[-83.521277,37.834055]]}},{"type":"Feature","properties":{"osm_id":16308492,"highway":"service","name":null,"alt_name":null,"official_name":null,"surface":null,"tracktype":null,"service":null,"access":"private","motor_vehicle":null,"foot":null,"tiger_reviewed":"no","rrgh_part":0,"rrgh_tile_part":0},"geometry":{"type":"LineString","coordinates":[[-83.528443,37.843609],[-83.52821,37.843589],[-83.527786,37.843558],[-83.527504,37.843642],[-83.52724,37.843769],[-83.52717,37.843854]]}},{"type":"Feature","properties":{"osm_id":16309720,"highway":"residential","name":"Sorrell Road","alt_name":null,"official_name":null,"surface":null,"tracktype":null,"service":null,"access":null,"motor_vehicle":null,"foot":null,"tiger_reviewed":"no","rrgh_part":0,"rrgh_tile_part":0},"geometry":{"type":"LineString","coordinates":[[-83.526489,37.837811],[-83.526687,37.838149],[-83.526766,37.838352],[-83.526794,37.838496],[-83.526784,37.838693],[-83.526811,37.838922],[-83.526825,37.838992],[-83.526889,37.839162],[-83.526938,37.839236],[-83.52708,37.839376],[-83.527157,37.839442],[-83.527655,37.839793],[-83.527745,37.839868],[-83.527894,37.840036],[-83.528014,37.840232],[-83.528113,37.840443],[-83.528244,37.840762],[-83.528292,37.840911],[-83.52842,37.841261],[-83.528482,37.841492],[-83.528498,37.841612],[-83.528497,37.841753],[-83.528424,37.842004],[-83.528242,37.842812],[-83.528221,37.843013],[-83.52823,37.843111],[-83.52825,37.843208],[-83.528443,37.843609],[-83.528732,37.844211],[-83.528897,37.844599],[-83.529175,37.845528],[-83.52918,37.845646],[-83.529162,37.846241],[-83.52917,37.846398],[-83.529276,37.846803],[-83.529333,37.847087],[-83.529409,37.847877],[-83.529528,37.848622],[-83.529537,37.848755],[-83.529529,37.848891],[-83.529496,37.849141],[-83.529391,37.849718],[-83.529364,37.850036],[-83.529296,37.85032],[-83.529121,37.850899],[-83.529086,37.851046],[-83.529029,37.851203],[-83.528899,37.851876],[-83.528808,37.852158],[-83.528584,37.852709],[-83.528539,37.852852],[-83.528447,37.853293],[-83.528364,37.853874],[-83.528335,37.854752],[-83.52826,37.855107],[-83.528215,37.855249],[-83.528081,37.855484],[-83.527885,37.855634],[-83.527777,37.855704],[-83.527584,37.85581],[-83.527438,37.855891],[-83.527387,37.855933],[-83.527277,37.856049]]}},{"type":"Feature","properties":{"osm_id":16308939,"highway":"service","name":null,"alt_name":null,"official_name":null,"surface":null,"tracktype":null,"service":null,"access":"private","motor_vehicle":null,"foot":null,"tiger_reviewed":"no","rrgh_part":0,"rrgh_tile_part":0},"geometry":{"type":"LineString","coordinates":[[-83.530209,37.838567],[-83.530345,37.838496],[-83.530659,37.83849],[-83.53086,37.838553],[-83.531032,37.838662],[-83.531146,37.838793],[-83.531218,37.838891]]}},{"type":"Feature","properties":{"osm_id":16308878,"highway":"residential","name":null,"alt_name":null,"official_name":null,"surface":null,"tracktype":null,"service":null,"access":null,"motor_vehicle":null,"foot":null,"tiger_reviewed":"no","rrgh_part":0,"rrgh_tile_part":0},"geometry":{"type":"LineString","coordinates":[[-83.551756,37.846351],[-83.55195,37.846059],[-83.553005,37.84541],[-83.554188,37.845708],[-83.554505,37.845891],[-83.554765,37.846234],[-83.554851,37.846829],[-83.5554,37.847126],[-83.556092,37.847241],[-83.556554,37.847538],[-83.5566841,37.8477699],[-83.557001,37.8478704],[-83.5573239,37.8479623],[-83.5574459,37.8481412],[-83.558085,37.8482925],[-83.558544,37.848796],[-83.5588089,37.8492688],[-83.5594929,37.8501311],[-83.559727,37.850192]]}},{"type":"Feature","properties":{"osm_id":16309681,"highway":"residential","name":"Osbourne Bend Ridge Road","alt_name":null,"official_name":null,"surface":null,"tracktype":null,"service":null,"access":null,"motor_vehicle":null,"foot":null,"tiger_reviewed":"no","rrgh_part":0,"rrgh_tile_part":0},"geometry":{"type":"LineString","coordinates":[[-83.5524747,37.8554047],[-83.5529263,37.8553028],[-83.553408,37.855043],[-83.554101,37.854951],[-83.5552637,37.8554295],[-83.5558115,37.8556228],[-83.556698,37.855752],[-83.5570383,37.8557114],[-83.5573381,37.8555698],[-83.5577256,37.8553229],[-83.5578438,37.855038],[-83.5578527,37.8547571],[-83.5577681,37.8545195],[-83.5575866,37.8538895],[-83.5578489,37.8533296],[-83.5580549,37.8531206],[-83.5582553,37.8529945],[-83.5585074,37.8529232],[-83.559439,37.852869],[-83.5599919,37.8526409],[-83.5602961,37.8527706],[-83.560779,37.8530117],[-83.5610125,37.8529695],[-83.561315,37.852709],[-83.5625632,37.8523225],[-83.563248,37.852228],[-83.563954,37.8517483],[-83.564438,37.8513556],[-83.5645458,37.850997],[-83.5646788,37.8508831],[-83.5648979,37.8508217],[-83.5651336,37.850789],[-83.5655284,37.8508571],[-83.5657958,37.8508949],[-83.567403,37.851725],[-83.5675597,37.8521721],[-83.5680206,37.8523758],[-83.56868,37.8524843],[-83.5690358,37.8526348]]}},{"type":"Feature","properties":{"osm_id":16309686,"highway":"residential","name":"Osbourne Bend Ridge Road","alt_name":null,"official_name":null,"surface":null,"tracktype":null,"service":null,"access":null,"motor_vehicle":null,"foot":null,"tiger_reviewed":"no","rrgh_part":0,"rrgh_tile_part":0},"geometry":{"type":"LineString","coordinates":[[-83.5641966,37.8626732],[-83.5644253,37.8623644],[-83.564699,37.8618723],[-83.5646967,37.8616076],[-83.5647081,37.8612864],[-83.5648912,37.8608074],[-83.5649715,37.860635],[-83.5650781,37.8603442],[-83.5650012,37.8600427],[-83.5648727,37.8598999],[-83.5649111,37.8595137],[-83.5650127,37.859022],[-83.5651539,37.8588102],[-83.565384,37.858566],[-83.565557,37.858085],[-83.5659042,37.8576782],[-83.5659605,37.8573542],[-83.5663071,37.855972],[-83.5665785,37.8554484],[-83.5669286,37.8552418],[-83.5671129,37.8552529],[-83.5673733,37.8553899],[-83.5676563,37.855506],[-83.5678158,37.8554871],[-83.567935,37.8554258],[-83.5681372,37.855204],[-83.5683205,37.8549435],[-83.5684735,37.8546803],[-83.5689611,37.854172],[-83.5690384,37.853994],[-83.5691912,37.8535668],[-83.569394,37.852937],[-83.5690358,37.8526348]]}},{"type":"Feature","properties":{"osm_id":16310173,"highway":"residential","name":"Old Copperas Ridge Road","alt_name":null,"official_name":null,"surface":null,"tracktype":null,"service":null,"access":null,"motor_vehicle":null,"foot":null,"tiger_reviewed":"no","rrgh_part":0,"rrgh_tile_part":0},"geometry":{"type":"LineString","coordinates":[[-83.559727,37.850192],[-83.559958,37.850924],[-83.560507,37.851794],[-83.561315,37.852709]]}},{"type":"Feature","properties":{"osm_id":16310180,"highway":"residential","name":"Elmer Collins Road","alt_name":null,"official_name":null,"surface":null,"tracktype":null,"service":null,"access":null,"motor_vehicle":null,"foot":null,"tiger_reviewed":"no","rrgh_part":0,"rrgh_tile_part":0},"geometry":{"type":"LineString","coordinates":[[-83.54542,37.848541],[-83.545432,37.848516],[-83.54546,37.848358]]}},{"type":"Feature","properties":{"osm_id":16309187,"highway":"residential","name":null,"alt_name":null,"official_name":null,"surface":null,"tracktype":null,"service":null,"access":null,"motor_vehicle":null,"foot":null,"tiger_reviewed":"no","rrgh_part":0,"rrgh_tile_part":0},"geometry":{"type":"LineString","coordinates":[[-83.5552637,37.8554295],[-83.5556148,37.8558093],[-83.5559071,37.8561086],[-83.556187,37.85638],[-83.556259,37.856606],[-83.55622,37.857081],[-83.556119,37.857468],[-83.556039,37.857742],[-83.55601,37.858306],[-83.556001,37.858717],[-83.555962,37.859016],[-83.556013,37.859233],[-83.556116,37.859467],[-83.556167,37.859741],[-83.556229,37.860031],[-83.556189,37.860313],[-83.556149,37.860522]]}},{"type":"Feature","properties":{"osm_id":16309675,"highway":"residential","name":"Osbourne Bend Ridge Road","alt_name":null,"official_name":null,"surface":null,"tracktype":null,"service":null,"access":null,"motor_vehicle":null,"foot":null,"tiger_reviewed":"no","rrgh_part":0,"rrgh_tile_part":0},"geometry":{"type":"LineString","coordinates":[[-83.5408383,37.8572975],[-83.54122,37.856746],[-83.5413102,37.8565633],[-83.541384,37.856365],[-83.5414303,37.8562154],[-83.5414796,37.8559234],[-83.5415714,37.8557173],[-83.541749,37.855657],[-83.5418772,37.8556389],[-83.5420157,37.8556606],[-83.5421674,37.8556862],[-83.5425478,37.8557689],[-83.5426813,37.8557845],[-83.542884,37.8557528],[-83.5441062,37.8549204],[-83.5442119,37.8548506],[-83.5442944,37.854822],[-83.5444162,37.8548138],[-83.5444753,37.8548514],[-83.544526,37.8549172],[-83.5445444,37.8550355],[-83.5444916,37.8552146],[-83.5444861,37.8553504],[-83.5445305,37.8555412],[-83.5446247,37.855804],[-83.544747,37.856113],[-83.5448345,37.8562064],[-83.5449872,37.8562695],[-83.545271,37.856255],[-83.5456258,37.8561796],[-83.5459791,37.8559042],[-83.546279,37.8556179],[-83.5463364,37.8554609],[-83.546858,37.854974],[-83.54732,37.854951],[-83.5476802,37.8549993],[-83.5481162,37.8551443],[-83.5485416,37.8553531],[-83.5486723,37.8553809],[-83.5489499,37.8553817],[-83.5491942,37.8553051],[-83.5494784,37.8552193],[-83.5497211,37.855184],[-83.5504619,37.8554034],[-83.551331,37.85534],[-83.551677,37.855546],[-83.5518564,37.8557612],[-83.5519229,37.8558096],[-83.5520342,37.8558434],[-83.5521254,37.8558266],[-83.5522503,37.8556351],[-83.5523245,37.8555111],[-83.5524747,37.8554047]]}},{"type":"Feature","properties":{"osm_id":16310606,"highway":"residential","name":"Sulphur School Road","alt_name":null,"official_name":null,"surface":null,"tracktype":null,"service":null,"access":null,"motor_vehicle":null,"foot":null,"tiger_reviewed":"no","rrgh_part":0,"rrgh_tile_part":0},"geometry":{"type":"LineString","coordinates":[[-83.54542,37.848541],[-83.545375,37.848633],[-83.545329,37.84868],[-83.545301,37.848709],[-83.545206,37.848773],[-83.544608,37.849047],[-83.543536,37.849433],[-83.54332,37.849533],[-83.543178,37.849622],[-83.542878,37.849854],[-83.542741,37.850048],[-83.542593,37.850217],[-83.542455,37.850397],[-83.542412,37.850511],[-83.542321,37.850695],[-83.542217,37.850853],[-83.542132,37.850952],[-83.542035,37.851037],[-83.541961,37.851076],[-83.541536,37.851207],[-83.541381,37.851296],[-83.54125,37.851409],[-83.541108,37.85163]]}},{"type":"Feature","properties":{"osm_id":1348085964,"highway":"residential","name":null,"alt_name":null,"official_name":null,"surface":null,"tracktype":null,"service":null,"access":null,"motor_vehicle":null,"foot":null,"tiger_reviewed":"no","rrgh_part":0,"rrgh_tile_part":0},"geometry":{"type":"LineString","coordinates":[[-83.5491428,37.8475983],[-83.5494992,37.8477243],[-83.5496071,37.8478804],[-83.5496315,37.8481323],[-83.5499094,37.8482319],[-83.5502411,37.8483845],[-83.550357,37.8484703],[-83.5505179,37.8488165],[-83.5504913,37.8490276],[-83.5504283,37.8493328],[-83.5502619,37.8496199],[-83.5502809,37.84989],[-83.5504895,37.8498555],[-83.5508527,37.8497479],[-83.5510199,37.8497287],[-83.551243,37.8498258],[-83.5514071,37.8499825],[-83.5515242,37.8501349],[-83.5515748,37.8501849],[-83.5514961,37.8504338],[-83.5513672,37.8505636],[-83.5511627,37.8507068],[-83.5510799,37.8508347],[-83.5509137,37.8510808],[-83.5506561,37.8513652],[-83.5505065,37.8515264],[-83.550298,37.8516586],[-83.5501384,37.8517169],[-83.5499721,37.8518024],[-83.5497867,37.851938],[-83.5497099,37.8520963],[-83.5496617,37.8522247],[-83.5497143,37.8525343],[-83.549949,37.8527109],[-83.5509433,37.8532128],[-83.5509505,37.8540454],[-83.5517242,37.8544148],[-83.5519008,37.8551457],[-83.5524747,37.8554047]]}},{"type":"Feature","properties":{"osm_id":1348092212,"highway":"track","name":null,"alt_name":null,"official_name":null,"surface":null,"tracktype":null,"service":null,"access":null,"motor_vehicle":null,"foot":null,"tiger_reviewed":null,"rrgh_part":0,"rrgh_tile_part":0},"geometry":{"type":"LineString","coordinates":[[-83.5640127,37.8671527],[-83.5644651,37.8675416],[-83.5646234,37.8677112],[-83.5648156,37.8678221],[-83.5650311,37.8679177],[-83.5651451,37.8679999],[-83.5652174,37.8681584],[-83.5652386,37.8682878],[-83.565305,37.8685728],[-83.5654403,37.868804],[-83.5655246,37.8689873],[-83.5655417,37.8691623],[-83.5654902,37.8693071],[-83.5655967,37.8695129],[-83.5656127,37.8696282],[-83.5656318,37.8697879],[-83.5657415,37.8700127],[-83.5658767,37.8702471],[-83.5658223,37.870397],[-83.5658943,37.8705314],[-83.5659877,37.8707113],[-83.5660235,37.8708788],[-83.5660019,37.8709922],[-83.5660022,37.8712993],[-83.5660158,37.8715289],[-83.5660215,37.8717011],[-83.5659426,37.8718646],[-83.5657345,37.8722085],[-83.5655417,37.8724954],[-83.5653802,37.8727565],[-83.5652255,37.8729332],[-83.5650672,37.8729985],[-83.5647826,37.8730467],[-83.5645038,37.8730139],[-83.5641033,37.8730277],[-83.5638563,37.873068],[-83.5634285,37.8731498],[-83.5631521,37.8732728],[-83.5627681,37.8733842],[-83.5625846,37.8734491],[-83.5624699,37.8735249],[-83.5623619,37.8736486],[-83.562209,37.8737069],[-83.5617323,37.8746817],[-83.5616131,37.8749394],[-83.5615556,37.8751836],[-83.5615421,37.8754758],[-83.5614508,37.8757695],[-83.5612354,37.8761192],[-83.5609731,37.8764864],[-83.5606793,37.8768004],[-83.5604037,37.8770478],[-83.5602108,37.8771118],[-83.5600512,37.8772313],[-83.5598391,37.8774012],[-83.5595896,37.8775473],[-83.5593361,37.8777012]]}},{"type":"Feature","properties":{"osm_id":16308876,"highway":"service","name":null,"alt_name":null,"official_name":null,"surface":null,"tracktype":null,"service":null,"access":"private","motor_vehicle":null,"foot":null,"tiger_reviewed":"no","rrgh_part":0,"rrgh_tile_part":0},"geometry":{"type":"LineString","coordinates":[[-83.53975,37.847277],[-83.540203,37.847214],[-83.541109,37.847092],[-83.541279,37.847106],[-83.541484,37.847201],[-83.541959,37.847446]]}},{"type":"Feature","properties":{"osm_id":16309204,"highway":"residential","name":null,"alt_name":null,"official_name":null,"surface":null,"tracktype":null,"service":null,"access":null,"motor_vehicle":null,"foot":null,"tiger_reviewed":"no","rrgh_part":0,"rrgh_tile_part":0},"geometry":{"type":"LineString","coordinates":[[-83.541429,37.8540248],[-83.5415568,37.8541482],[-83.5417495,37.8545075],[-83.5418476,37.8546672],[-83.5419459,37.8549193],[-83.5419672,37.8551104],[-83.542017,37.85529],[-83.5421674,37.8556862]]}},{"type":"Feature","properties":{"osm_id":16308490,"highway":"service","name":null,"alt_name":null,"official_name":null,"surface":null,"tracktype":null,"service":null,"access":"private","motor_vehicle":null,"foot":null,"tiger_reviewed":"no","rrgh_part":0,"rrgh_tile_part":0},"geometry":{"type":"LineString","coordinates":[[-83.520956,37.845753],[-83.521252,37.84576],[-83.521639,37.845762],[-83.522025,37.845749],[-83.523321,37.845755],[-83.523726,37.84577],[-83.524059,37.845944],[-83.524224,37.846161],[-83.524482,37.846348]]}},{"type":"Feature","properties":{"osm_id":16309183,"highway":"residential","name":null,"alt_name":null,"official_name":null,"surface":null,"tracktype":null,"service":null,"access":null,"motor_vehicle":null,"foot":null,"tiger_reviewed":"no","rrgh_part":0,"rrgh_tile_part":0},"geometry":{"type":"LineString","coordinates":[[-83.520939,37.846005],[-83.520405,37.845889],[-83.520196,37.845918]]}},{"type":"Feature","properties":{"osm_id":16381708,"highway":"residential","name":null,"alt_name":null,"official_name":null,"surface":null,"tracktype":null,"service":null,"access":null,"motor_vehicle":null,"foot":null,"tiger_reviewed":"no","rrgh_part":0,"rrgh_tile_part":0},"geometry":{"type":"LineString","coordinates":[[-83.520196,37.845918],[-83.519544,37.846331],[-83.519031,37.846404],[-83.518291,37.846264],[-83.51792,37.846296]]}},{"type":"Feature","properties":{"osm_id":16308495,"highway":"service","name":null,"alt_name":null,"official_name":null,"surface":null,"tracktype":null,"service":null,"access":"private","motor_vehicle":null,"foot":null,"tiger_reviewed":"no","rrgh_part":0,"rrgh_tile_part":0},"geometry":{"type":"LineString","coordinates":[[-83.527584,37.85581],[-83.528129,37.85637]]}},{"type":"Feature","properties":{"osm_id":16309229,"highway":"service","name":null,"alt_name":null,"official_name":null,"surface":null,"tracktype":null,"service":null,"access":null,"motor_vehicle":null,"foot":null,"tiger_reviewed":"no","rrgh_part":0,"rrgh_tile_part":0},"geometry":{"type":"LineString","coordinates":[[-83.541567,37.858637],[-83.542212,37.8588],[-83.54233,37.858948],[-83.542466,37.85921],[-83.542452,37.859421],[-83.542306,37.8596],[-83.542294,37.859754]]}},{"type":"Feature","properties":{"osm_id":16308875,"highway":"service","name":null,"alt_name":null,"official_name":null,"surface":null,"tracktype":null,"service":null,"access":"private","motor_vehicle":null,"foot":null,"tiger_reviewed":"no","rrgh_part":0,"rrgh_tile_part":0},"geometry":{"type":"LineString","coordinates":[[-83.535249,37.86155],[-83.535395,37.861457],[-83.535213,37.861231],[-83.534965,37.86103]]}},{"type":"Feature","properties":{"osm_id":16308480,"highway":"service","name":null,"alt_name":null,"official_name":null,"surface":null,"tracktype":null,"service":null,"access":"private","motor_vehicle":null,"foot":null,"tiger_reviewed":"no","rrgh_part":0,"rrgh_tile_part":0},"geometry":{"type":"LineString","coordinates":[[-83.534376,37.860992],[-83.534324,37.861086],[-83.534114,37.861187],[-83.533917,37.861204],[-83.533556,37.86113],[-83.533277,37.861092],[-83.533009,37.86099],[-83.532869,37.860962],[-83.532497,37.86097],[-83.532275,37.860997],[-83.532147,37.861089]]}},{"type":"Feature","properties":{"osm_id":16308877,"highway":"service","name":null,"alt_name":null,"official_name":null,"surface":null,"tracktype":null,"service":null,"access":"private","motor_vehicle":null,"foot":null,"tiger_reviewed":"no","rrgh_part":0,"rrgh_tile_part":0},"geometry":{"type":"LineString","coordinates":[[-83.537754,37.861994],[-83.537817,37.861697],[-83.538065,37.861518],[-83.538314,37.861461],[-83.538562,37.861384],[-83.538836,37.861204],[-83.538837,37.860906]]}},{"type":"Feature","properties":{"osm_id":16310572,"highway":"residential","name":"Courtney Peck Road","alt_name":null,"official_name":null,"surface":null,"tracktype":null,"service":null,"access":null,"motor_vehicle":null,"foot":null,"tiger_reviewed":"no","rrgh_part":0,"rrgh_tile_part":0},"geometry":{"type":"LineString","coordinates":[[-83.53814,37.869341],[-83.539078,37.869777],[-83.539726,37.870282],[-83.539795,37.870878],[-83.539628,37.871244],[-83.539787,37.872024],[-83.540523,37.872643],[-83.540531,37.873125],[-83.539965,37.873514],[-83.539887,37.873996],[-83.540183,37.874386],[-83.54028,37.875096],[-83.540667,37.875906],[-83.540797,37.876663],[-83.541161,37.877671],[-83.541171,37.878221],[-83.54106,37.878497],[-83.540779,37.878817],[-83.540181,37.879069],[-83.540099,37.879253],[-83.540134,37.879688],[-83.540429,37.879895],[-83.541074,37.879988],[-83.541515,37.880241],[-83.541929,37.880745],[-83.543188,37.880609],[-83.543745,37.880679]]}},{"type":"Feature","properties":{"osm_id":16308835,"highway":"service","name":null,"alt_name":null,"official_name":null,"surface":null,"tracktype":null,"service":null,"access":"private","motor_vehicle":null,"foot":null,"tiger_reviewed":"no","rrgh_part":0,"rrgh_tile_part":0},"geometry":{"type":"LineString","coordinates":[[-83.532777,37.865904],[-83.532988,37.8657505],[-83.5333378,37.8656896],[-83.5335155,37.8657379],[-83.5338214,37.8657632],[-83.5341896,37.8657619],[-83.5344489,37.8657396],[-83.5347066,37.8656408],[-83.535015,37.8654035],[-83.5353732,37.8650804],[-83.5356086,37.8648725],[-83.5357667,37.8646383]]}},{"type":"Feature","properties":{"osm_id":16308532,"highway":"residential","name":null,"alt_name":null,"official_name":null,"surface":null,"tracktype":null,"service":null,"access":null,"motor_vehicle":null,"foot":null,"tiger_reviewed":"no","rrgh_part":0,"rrgh_tile_part":0},"geometry":{"type":"LineString","coordinates":[[-83.524648,37.861064],[-83.523293,37.861076]]}},{"type":"Feature","properties":{"osm_id":16308884,"highway":"residential","name":null,"alt_name":null,"official_name":null,"surface":null,"tracktype":null,"service":null,"access":null,"motor_vehicle":null,"foot":null,"tiger_reviewed":"no","rrgh_part":0,"rrgh_tile_part":0},"geometry":{"type":"LineString","coordinates":[[-83.523293,37.861649],[-83.523293,37.861076],[-83.52339,37.860389]]}},{"type":"Feature","properties":{"osm_id":16308893,"highway":"service","name":null,"alt_name":null,"official_name":null,"surface":null,"tracktype":null,"service":null,"access":"private","motor_vehicle":null,"foot":null,"tiger_reviewed":"no","rrgh_part":0,"rrgh_tile_part":0},"geometry":{"type":"LineString","coordinates":[[-83.522905,37.870263],[-83.522527,37.87034],[-83.522134,37.8703],[-83.521735,37.869799],[-83.521725,37.869338],[-83.521521,37.868799],[-83.521609,37.868337],[-83.521649,37.867952]]}},{"type":"Feature","properties":{"osm_id":16308892,"highway":"service","name":null,"alt_name":null,"official_name":null,"surface":null,"tracktype":null,"service":null,"access":"private","motor_vehicle":null,"foot":null,"tiger_reviewed":"no","rrgh_part":0,"rrgh_tile_part":0},"geometry":{"type":"LineString","coordinates":[[-83.52274,37.8642],[-83.522253,37.864897]]}},{"type":"Feature","properties":{"osm_id":16381686,"highway":"service","name":null,"alt_name":null,"official_name":null,"surface":null,"tracktype":null,"service":null,"access":"private","motor_vehicle":null,"foot":null,"tiger_reviewed":"no","rrgh_part":0,"rrgh_tile_part":0},"geometry":{"type":"LineString","coordinates":[[-83.50671037662337,37.825],[-83.506681,37.825039],[-83.506661,37.825059]]}},{"type":"Feature","properties":{"osm_id":16381578,"highway":"residential","name":null,"alt_name":null,"official_name":null,"surface":null,"tracktype":null,"service":null,"access":null,"motor_vehicle":null,"foot":null,"tiger_reviewed":"no","rrgh_part":0,"rrgh_tile_part":0},"geometry":{"type":"LineString","coordinates":[[-83.509412,37.840071],[-83.509441,37.839613],[-83.509874,37.839316],[-83.510221,37.838721],[-83.510221,37.838263],[-83.510308,37.837966],[-83.510221,37.83721],[-83.509499,37.834621],[-83.509211,37.834277]]}},{"type":"Feature","properties":{"osm_id":16382731,"highway":"residential","name":"Pine Branch Road","alt_name":null,"official_name":null,"surface":null,"tracktype":null,"service":null,"access":null,"motor_vehicle":null,"foot":null,"tiger_reviewed":"no","rrgh_part":0,"rrgh_tile_part":0},"geometry":{"type":"LineString","coordinates":[[-83.5157,37.831167],[-83.5157,37.831224],[-83.515715,37.831366],[-83.515711,37.831764],[-83.515766,37.832339],[-83.515816,37.832715],[-83.515818,37.832878],[-83.515832,37.832984],[-83.516571,37.837092],[-83.51636,37.838462],[-83.516301,37.840024],[-83.515871,37.841321],[-83.515849,37.841995],[-83.515158,37.843221],[-83.515005,37.844014],[-83.51514,37.844254],[-83.515155,37.844372],[-83.515277,37.84536],[-83.515848,37.845864],[-83.516632,37.845768],[-83.517084,37.845648],[-83.517446,37.845888],[-83.517656,37.846129],[-83.51792,37.846296],[-83.518064,37.846617],[-83.518151,37.846662],[-83.518208,37.847303],[-83.518044,37.847737],[-83.517862,37.848218],[-83.517832,37.849385],[-83.51802,37.849534]]}},{"type":"Feature","properties":{"osm_id":16381575,"highway":"residential","name":null,"alt_name":null,"official_name":null,"surface":null,"tracktype":null,"service":null,"access":null,"motor_vehicle":null,"foot":null,"tiger_reviewed":"no","rrgh_part":0,"rrgh_tile_part":0},"geometry":{"type":"LineString","coordinates":[[-83.510308,37.837966],[-83.511258,37.838194],[-83.511302,37.838255],[-83.511347,37.83831]]}},{"type":"Feature","properties":{"osm_id":16309355,"highway":"residential","name":"Pine Branch Road","alt_name":null,"official_name":null,"surface":null,"tracktype":null,"service":null,"access":null,"motor_vehicle":null,"foot":null,"tiger_reviewed":"no","rrgh_part":0,"rrgh_tile_part":0},"geometry":{"type":"LineString","coordinates":[[-83.51802,37.849534],[-83.518398,37.849836]]}},{"type":"Feature","properties":{"osm_id":16308497,"highway":"service","name":null,"alt_name":null,"official_name":null,"surface":null,"tracktype":null,"service":null,"access":"private","motor_vehicle":null,"foot":null,"tiger_reviewed":"no","rrgh_part":0,"rrgh_tile_part":0},"geometry":{"type":"LineString","coordinates":[[-83.515826,37.852433],[-83.515943,37.852595],[-83.516172,37.852735],[-83.516547,37.852934],[-83.516976,37.853273],[-83.517196,37.853551],[-83.517336,37.853782],[-83.517497,37.854006]]}},{"type":"Feature","properties":{"osm_id":16308501,"highway":"residential","name":null,"alt_name":null,"official_name":null,"surface":null,"tracktype":null,"service":null,"access":null,"motor_vehicle":null,"foot":null,"tiger_reviewed":"no","rrgh_part":0,"rrgh_tile_part":0},"geometry":{"type":"LineString","coordinates":[[-83.508865,37.854594],[-83.508813,37.854461],[-83.508768,37.854343]]}},{"type":"Feature","properties":{"osm_id":16381069,"highway":"service","name":null,"alt_name":null,"official_name":null,"surface":null,"tracktype":null,"service":null,"access":"private","motor_vehicle":null,"foot":null,"tiger_reviewed":"no","rrgh_part":0,"rrgh_tile_part":0},"geometry":{"type":"LineString","coordinates":[[-83.508768,37.854343],[-83.508661,37.854049],[-83.508345,37.853449],[-83.508081,37.852918],[-83.507762,37.852336],[-83.507584,37.85199],[-83.50718,37.851673],[-83.506868,37.8514],[-83.506599,37.851211]]}},{"type":"Feature","properties":{"osm_id":16309496,"highway":"residential","name":"Fletcher Ridge Road","alt_name":null,"official_name":null,"surface":null,"tracktype":null,"service":null,"access":null,"motor_vehicle":null,"foot":null,"tiger_reviewed":"no","rrgh_part":0,"rrgh_tile_part":0},"geometry":{"type":"LineString","coordinates":[[-83.576843,37.887077],[-83.576795,37.887176],[-83.576783,37.887268],[-83.576812,37.887351],[-83.576873,37.887449],[-83.57709,37.887743],[-83.577572,37.888339],[-83.578155,37.889118],[-83.578232,37.889272],[-83.578283,37.889435],[-83.5783393,37.8897239],[-83.578384,37.889953],[-83.578397,37.890125],[-83.578375,37.890296],[-83.57832,37.89046],[-83.577857,37.891532],[-83.577682,37.891828],[-83.5773,37.892397],[-83.577224,37.892534],[-83.5771734,37.8926563],[-83.577148,37.892782],[-83.577152,37.892897],[-83.577177,37.893012],[-83.577248,37.893252],[-83.5775,37.893923],[-83.577533,37.894058],[-83.577538,37.894193],[-83.577508,37.894325],[-83.577455,37.894453],[-83.577386,37.894579],[-83.577217,37.89483],[-83.577115,37.894948],[-83.5770315,37.8950308],[-83.577003,37.895059],[-83.576879,37.895161],[-83.576746,37.895252],[-83.576334,37.895495],[-83.5762709,37.8955467],[-83.576223,37.895586],[-83.576079,37.895822],[-83.576029,37.895936],[-83.576013,37.896052],[-83.576039,37.896155],[-83.576106,37.896249],[-83.576204,37.896331],[-83.576783,37.896693],[-83.577995,37.897484],[-83.578165,37.897582],[-83.578345,37.897674],[-83.578538,37.897745],[-83.579108,37.897912],[-83.579278,37.897986],[-83.579429,37.898084],[-83.579566,37.898199],[-83.580081,37.898696],[-83.580187,37.898828],[-83.58026,37.898963],[-83.580288,37.899107],[-83.580252,37.899396],[-83.5802,37.899529],[-83.580126,37.89965],[-83.580031,37.899756],[-83.579899,37.899844],[-83.579774,37.899909],[-83.5795352654321,37.9]]}},{"type":"Feature","properties":{"osm_id":970041816,"highway":"service","name":null,"alt_name":null,"official_name":null,"surface":null,"tracktype":null,"service":null,"access":null,"motor_vehicle":null,"foot":null,"tiger_reviewed":null,"rrgh_part":0,"rrgh_tile_part":0},"geometry":{"type":"LineString","coordinates":[[-83.576843,37.887077],[-83.5770128,37.886872],[-83.5773947,37.8865203],[-83.5778097,37.886256],[-83.5781916,37.8860811],[-83.5784463,37.885936],[-83.5785618,37.8857294],[-83.5785807,37.8854596],[-83.5785359,37.8852549],[-83.5784156,37.8850614],[-83.5781633,37.8847394],[-83.5779983,37.8844436],[-83.5779299,37.8841849],[-83.5779346,37.8840379],[-83.5780337,37.8838741],[-83.5782624,37.8836732],[-83.5784251,37.8833773],[-83.5784062,37.8831614],[-83.5783048,37.8830367],[-83.5780572,37.8829009],[-83.5777602,37.8825994],[-83.5775244,37.8822886],[-83.5774489,37.8821007],[-83.5774772,37.8819072],[-83.5775111,37.8818375],[-83.5775315,37.8817955],[-83.5777201,37.881561],[-83.5778828,37.8814028],[-83.5780596,37.8813135],[-83.5784062,37.881187],[-83.5787386,37.8810437],[-83.5789485,37.8808464],[-83.5790617,37.8806343],[-83.5790899,37.8804109],[-83.5790428,37.8802974],[-83.5788919,37.8801318],[-83.5786726,37.8798824],[-83.5785595,37.8796777],[-83.5784392,37.8795679],[-83.5782223,37.8794488],[-83.5777767,37.8790301],[-83.5772297,37.8784215],[-83.5770647,37.8783048],[-83.5769757,37.8782034],[-83.5768828,37.8780393]]}},{"type":"Feature","properties":{"osm_id":970041817,"highway":"service","name":null,"alt_name":null,"official_name":null,"surface":null,"tracktype":null,"service":null,"access":null,"motor_vehicle":null,"foot":null,"tiger_reviewed":null,"rrgh_part":0,"rrgh_tile_part":0},"geometry":{"type":"LineString","coordinates":[[-83.5775111,37.8818375],[-83.5771595,37.8816345],[-83.5768436,37.8814671],[-83.5766833,37.8813033],[-83.5765112,37.8811786],[-83.5763084,37.8809516],[-83.5762353,37.8806873],[-83.5761433,37.8805031],[-83.5758887,37.8803002],[-83.5756624,37.8800937],[-83.5755445,37.8798852]]}},{"type":"Feature","properties":{"osm_id":16308746,"highway":"service","name":null,"alt_name":null,"official_name":null,"surface":null,"tracktype":null,"service":null,"access":null,"motor_vehicle":null,"foot":null,"tiger_reviewed":"no","rrgh_part":0,"rrgh_tile_part":0},"geometry":{"type":"LineString","coordinates":[[-83.577148,37.892782],[-83.5766084,37.8923322],[-83.576162,37.892001],[-83.575662,37.8917135],[-83.5755288,37.8914483],[-83.5755836,37.8911379],[-83.575753,37.890894],[-83.575898,37.890296],[-83.575711,37.889864],[-83.575474,37.889651],[-83.575216,37.889461],[-83.57467,37.889194]]}},{"type":"Feature","properties":{"osm_id":970041814,"highway":"service","name":null,"alt_name":null,"official_name":null,"surface":null,"tracktype":null,"service":null,"access":null,"motor_vehicle":null,"foot":null,"tiger_reviewed":null,"rrgh_part":0,"rrgh_tile_part":0},"geometry":{"type":"LineString","coordinates":[[-83.5770315,37.8950308],[-83.5771809,37.8950637],[-83.5776902,37.8951549],[-83.5781429,37.8952144],[-83.5785885,37.8952144],[-83.5791944,37.8951326],[-83.5795764,37.8950432],[-83.5800314,37.8948609],[-83.5806114,37.8946562],[-83.5811938,37.8943976]]}},{"type":"Feature","properties":{"osm_id":970041815,"highway":"service","name":null,"alt_name":null,"official_name":null,"surface":null,"tracktype":null,"service":null,"access":null,"motor_vehicle":null,"foot":null,"tiger_reviewed":null,"rrgh_part":0,"rrgh_tile_part":0},"geometry":{"type":"LineString","coordinates":[[-83.5762709,37.8955467],[-83.5762271,37.8955053],[-83.5762359,37.8954009],[-83.57618,37.8952734],[-83.5760243,37.8951528],[-83.5758244,37.8950553],[-83.5756128,37.8949208],[-83.5754423,37.8946796],[-83.5751778,37.8943688],[-83.5748133,37.893993],[-83.5745165,37.8937912],[-83.5739521,37.8934943]]}},{"type":"Feature","properties":{"osm_id":16310351,"highway":"residential","name":"Hizer Hill Road","alt_name":null,"official_name":null,"surface":null,"tracktype":null,"service":null,"access":null,"motor_vehicle":null,"foot":null,"tiger_reviewed":"no","rrgh_part":0,"rrgh_tile_part":0},"geometry":{"type":"LineString","coordinates":[[-83.5581107,37.8732043],[-83.558194,37.873392],[-83.558244,37.873537],[-83.558282,37.873689],[-83.558293,37.873906],[-83.558253,37.874593],[-83.55827,37.874829],[-83.558293,37.874938],[-83.558328,37.875055],[-83.558389,37.875167],[-83.558459,37.875282],[-83.55862,37.875499],[-83.55868,37.875611],[-83.558775,37.875956],[-83.558777,37.875974],[-83.558797,37.876201],[-83.558797,37.876328],[-83.558785,37.876453],[-83.55873,37.876703],[-83.558772,37.876963],[-83.558803,37.877068],[-83.55886,37.877172],[-83.558931,37.877269],[-83.559194,37.877533],[-83.5593361,37.8777012],[-83.559418,37.877798],[-83.559469,37.877896],[-83.559515,37.878004],[-83.5596721,37.8785099],[-83.559738,37.878805],[-83.55974,37.878896],[-83.55974,37.878906],[-83.559717,37.879111],[-83.559649,37.879331],[-83.559613,37.879571],[-83.559683,37.880183],[-83.559689,37.8803],[-83.559674,37.880414],[-83.559595,37.880625],[-83.559522,37.880745],[-83.559436,37.880842],[-83.558828,37.881437],[-83.558747,37.881536],[-83.558722,37.881631],[-83.558739,37.881719],[-83.55878,37.881796],[-83.558863,37.881857],[-83.558959,37.88191],[-83.55918,37.88201],[-83.559397,37.882122],[-83.559472,37.882193],[-83.559518,37.88228],[-83.559532,37.882366],[-83.559464,37.883073],[-83.559437,37.883199],[-83.55939,37.883318],[-83.559315,37.883425],[-83.559214,37.883519],[-83.559099,37.883605],[-83.558316,37.884117],[-83.558196,37.884204],[-83.558095,37.884296],[-83.558011,37.884391],[-83.557597,37.884939],[-83.557532,37.885009],[-83.557484,37.885061],[-83.556978,37.885841],[-83.556852,37.886101],[-83.556806,37.886232],[-83.556779,37.886363],[-83.556772,37.88649],[-83.55679,37.886612],[-83.556823,37.886729],[-83.556995,37.887155],[-83.557019,37.887268],[-83.557027,37.887388],[-83.557019,37.887508],[-83.556956,37.887746],[-83.556816,37.888082],[-83.556749,37.888168],[-83.556654,37.888232],[-83.556536,37.888268],[-83.556407,37.888278],[-83.556277,37.888272],[-83.556014,37.888234],[-83.555069,37.888026],[-83.554756,37.88794],[-83.554296,37.887784],[-83.554134,37.887759],[-83.553963,37.887756],[-83.552819,37.887865],[-83.552434,37.88789],[-83.552253,37.887896],[-83.551925,37.887872],[-83.551782,37.887842],[-83.551657,37.887796],[-83.551379,37.887606],[-83.551282,37.887558],[-83.551185,37.887547],[-83.550917,37.887557],[-83.550607,37.887544],[-83.5504989,37.8875143],[-83.5504225,37.8874729],[-83.550352,37.887433],[-83.5500199,37.8869979],[-83.549936,37.886879],[-83.549747,37.886753],[-83.549463,37.886662],[-83.549003,37.886556],[-83.5486703,37.8864651],[-83.548283,37.886352],[-83.548047,37.886255],[-83.547967,37.886179],[-83.547912,37.886097],[-83.547786,37.885847],[-83.547672,37.885696],[-83.547567,37.885592],[-83.547368,37.885448],[-83.547295,37.885409],[-83.54722,37.885384],[-83.547101,37.885367],[-83.546948,37.885366],[-83.546515,37.885387],[-83.546381,37.885372],[-83.546247,37.885341],[-83.546032,37.885271],[-83.545723,37.885165],[-83.545609,37.885116],[-83.545507,37.885058],[-83.54542,37.88499],[-83.54535,37.884913],[-83.545298,37.884826],[-83.545262,37.884736],[-83.545104,37.883996],[-83.545048,37.883906],[-83.544996,37.883887],[-83.544912,37.883888],[-83.544812,37.883946],[-83.543717,37.884784],[-83.543637,37.884855],[-83.543566,37.884928],[-83.543453,37.88508],[-83.543315,37.88534],[-83.543208,37.885542]]}},{"type":"Feature","properties":{"osm_id":16310388,"highway":"residential","name":"Pomeroyton-Wellington Road","alt_name":null,"official_name":null,"surface":null,"tracktype":null,"service":null,"access":null,"motor_vehicle":null,"foot":null,"tiger_reviewed":"no","rrgh_part":0,"rrgh_tile_part":0},"geometry":{"type":"LineString","coordinates":[[-83.51786,37.878659],[-83.517828,37.879159],[-83.517832,37.879924],[-83.517826,37.880039],[-83.517798,37.88015],[-83.517703,37.880372],[-83.517584,37.880588],[-83.51744,37.880788],[-83.517354,37.880883],[-83.516976,37.881271],[-83.516554,37.881536],[-83.516387,37.881658],[-83.516275,37.881827],[-83.51625,37.881893],[-83.516247,37.881961],[-83.516361,37.88231],[-83.516383,37.882417],[-83.516384,37.882513],[-83.516325,37.882664],[-83.516247,37.882796],[-83.515817,37.883273],[-83.515574,37.883612],[-83.515464,37.883748],[-83.515359,37.883908],[-83.515289,37.884041],[-83.515279,37.884191],[-83.515316,37.884704],[-83.515305,37.884855],[-83.515251,37.884955],[-83.515137,37.885088],[-83.514921,37.885275],[-83.514748,37.88551],[-83.514716,37.885585],[-83.514663,37.885807],[-83.514652,37.885926],[-83.514659,37.88604],[-83.514677,37.886153],[-83.514739,37.886351],[-83.514802,37.886705],[-83.514813,37.886768],[-83.514866,37.886873],[-83.514932,37.886933],[-83.515024,37.88696],[-83.515245,37.886968],[-83.515363,37.886958],[-83.515696,37.886909],[-83.516146,37.886813],[-83.516308,37.886825],[-83.516385,37.886845],[-83.516464,37.886883],[-83.516541,37.886929],[-83.516613,37.88699],[-83.516831,37.88732],[-83.51688,37.88747],[-83.51689,37.887546],[-83.516883,37.887619],[-83.516844,37.88776],[-83.516814,37.887828],[-83.516654,37.888104],[-83.516583,37.888256],[-83.516568,37.888332],[-83.516568,37.888402],[-83.516573,37.888458],[-83.516585,37.888574],[-83.516761,37.888927],[-83.517052,37.88941],[-83.517119,37.889538],[-83.51719,37.889729],[-83.517272,37.89011],[-83.517356,37.890347],[-83.517431,37.890519],[-83.517602,37.890828],[-83.517826,37.891167],[-83.5179,37.891302],[-83.517936,37.891397],[-83.517957,37.891499],[-83.517968,37.891725],[-83.517938,37.892178],[-83.517948,37.892279],[-83.517977,37.892371],[-83.518055,37.892525],[-83.518072,37.892612],[-83.518078,37.892803],[-83.518102,37.892901],[-83.518147,37.892993],[-83.518208,37.893079],[-83.518288,37.893164],[-83.518654,37.893485],[-83.518755,37.893561],[-83.519335,37.893956],[-83.519957,37.894273],[-83.520046,37.89435],[-83.520101,37.894448],[-83.520122,37.894557],[-83.520116,37.894666],[-83.520086,37.894768],[-83.520039,37.894861],[-83.519931,37.895028],[-83.519771,37.895209],[-83.519678,37.895288],[-83.519591,37.895341],[-83.519384,37.895437],[-83.519054,37.895564],[-83.518924,37.895603],[-83.518799,37.895621],[-83.51855,37.895609],[-83.518305,37.895558],[-83.518032,37.895514],[-83.517639,37.895416],[-83.51714,37.895261],[-83.517053,37.895245],[-83.516966,37.89525],[-83.51688,37.895273],[-83.516802,37.895318],[-83.516733,37.89538],[-83.516504,37.895726],[-83.516425,37.895825],[-83.516153,37.896102],[-83.516079,37.896197],[-83.516022,37.896296],[-83.515947,37.896507],[-83.515923,37.896611],[-83.515868,37.89722],[-83.515779,37.897576],[-83.515688,37.897812],[-83.515483,37.898094],[-83.515451,37.898139],[-83.515401,37.898229],[-83.515328,37.898415],[-83.515321,37.89844],[-83.515242,37.898727],[-83.5152,37.898981],[-83.515192,37.899257],[-83.515208,37.899869],[-83.51521977997449,37.9]]}},{"type":"Feature","properties":{"osm_id":16310632,"highway":"residential","name":"Pomeroyton-Denniston Road","alt_name":null,"official_name":null,"surface":null,"tracktype":null,"service":null,"access":null,"motor_vehicle":null,"foot":null,"tiger_reviewed":"no","rrgh_part":0,"rrgh_tile_part":0},"geometry":{"type":"LineString","coordinates":[[-83.521764,37.876404],[-83.521936,37.876507],[-83.522291,37.876836],[-83.522489,37.877047],[-83.522672,37.877281],[-83.523,37.87776],[-83.523129,37.878008],[-83.523168,37.87813],[-83.523202,37.878526],[-83.523224,37.878663],[-83.523323,37.879028],[-83.523339,37.87929],[-83.52333,37.879426],[-83.523361,37.879682],[-83.523386,37.879798],[-83.523488,37.880009],[-83.523556,37.8801],[-83.52383,37.880284],[-83.524046,37.880396],[-83.524319,37.880595],[-83.5244,37.880676],[-83.524439,37.880792],[-83.524491,37.880902],[-83.524575,37.881141],[-83.524598,37.881264],[-83.524626,37.881782],[-83.524647,37.881913],[-83.524756,37.882297],[-83.52477,37.882424],[-83.524762,37.882551],[-83.524708,37.882795],[-83.524559,37.883186],[-83.524552,37.883204],[-83.524513,37.883355],[-83.524491,37.883542],[-83.524492,37.883961],[-83.524481,37.884109],[-83.524421,37.884411],[-83.524273,37.885018],[-83.524226,37.885162],[-83.524105,37.885415],[-83.523831,37.885926],[-83.523762,37.886133],[-83.523757,37.886232],[-83.523821,37.886426],[-83.524083,37.886681],[-83.524169,37.886777],[-83.524463,37.887182],[-83.524705,37.887672],[-83.524865,37.887915],[-83.524955,37.888032],[-83.525201,37.888557],[-83.525226,37.888692],[-83.525268,37.888821],[-83.525339,37.888954],[-83.525427,37.889079],[-83.525646,37.889316],[-83.526017,37.889658],[-83.5263,37.889869],[-83.526533,37.889998],[-83.527059,37.890289],[-83.527718,37.890623],[-83.528058,37.890784],[-83.528593,37.891023],[-83.529297,37.891314],[-83.529637,37.89148],[-83.529802,37.891571],[-83.530939,37.892256],[-83.531564,37.892645],[-83.532125,37.89305],[-83.532376,37.89328],[-83.532727,37.893645],[-83.533111,37.893989],[-83.533841,37.894502],[-83.534541,37.895012],[-83.535492,37.895935],[-83.535922,37.896199],[-83.536226,37.896399],[-83.53652,37.896602],[-83.536798,37.896811],[-83.537062,37.897045],[-83.537421,37.897417],[-83.537532,37.897548],[-83.53765,37.897667],[-83.537773,37.897774],[-83.538042,37.89797],[-83.538449,37.898221],[-83.53887,37.898439],[-83.540273,37.898949],[-83.540382,37.899046],[-83.540477,37.899154],[-83.540651,37.899386],[-83.541161,37.899926],[-83.54124489304813,37.9]]}},{"type":"Feature","properties":{"osm_id":16309109,"highway":"service","name":null,"alt_name":null,"official_name":null,"surface":null,"tracktype":null,"service":null,"access":"private","motor_vehicle":null,"foot":null,"tiger_reviewed":"no","rrgh_part":0,"rrgh_tile_part":0},"geometry":{"type":"LineString","coordinates":[[-83.548828,37.871533],[-83.548762,37.871598],[-83.548613,37.871681],[-83.548328,37.871772],[-83.548204,37.87178],[-83.548089,37.871783],[-83.547939,37.871709],[-83.54778,37.871599],[-83.547664,37.871463],[-83.547573,37.871311]]}},{"type":"Feature","properties":{"osm_id":16310113,"highway":"residential","name":"Tom Cambell Road","alt_name":null,"official_name":null,"surface":null,"tracktype":null,"service":null,"access":null,"motor_vehicle":null,"foot":null,"tiger_reviewed":"no","rrgh_part":0,"rrgh_tile_part":0},"geometry":{"type":"LineString","coordinates":[[-83.548934,37.87377],[-83.549046,37.873691],[-83.549318,37.873535],[-83.550143,37.873026],[-83.550867,37.872595],[-83.551174,37.872428],[-83.551338,37.872357],[-83.551517,37.872302]]}},{"type":"Feature","properties":{"osm_id":16310506,"highway":"residential","name":"Earl Little Road","alt_name":null,"official_name":null,"surface":null,"tracktype":null,"service":null,"access":null,"motor_vehicle":null,"foot":null,"tiger_reviewed":"no","rrgh_part":0,"rrgh_tile_part":0},"geometry":{"type":"LineString","coordinates":[[-83.543278,37.876055],[-83.543994,37.875558],[-83.544125,37.875473],[-83.544634,37.87526],[-83.545105,37.875043],[-83.54539,37.874823],[-83.545684,37.874591],[-83.545863,37.874396],[-83.5461,37.873999],[-83.54634,37.873638],[-83.546474,37.873365],[-83.546578,37.873119],[-83.546768,37.872808],[-83.546847,37.872677],[-83.546948,37.872428],[-83.546996,37.872349],[-83.547026,37.872329],[-83.547055,37.872323],[-83.547085,37.872328],[-83.547158,37.87237],[-83.547187,37.872394],[-83.547246,37.872444],[-83.547293,37.87255],[-83.547448,37.87327],[-83.547537,37.873576],[-83.547621,37.873811],[-83.547884,37.874297],[-83.547964,37.874416],[-83.548064,37.874533],[-83.548316,37.874786],[-83.548496,37.875013],[-83.548613,37.875098]]}},{"type":"Feature","properties":{"osm_id":16308274,"highway":"residential","name":"Simon Road","alt_name":null,"official_name":null,"surface":null,"tracktype":null,"service":null,"access":null,"motor_vehicle":null,"foot":null,"tiger_reviewed":"no","rrgh_part":0,"rrgh_tile_part":0},"geometry":{"type":"LineString","coordinates":[[-83.549502,37.882093],[-83.549623,37.882057],[-83.549673,37.882032],[-83.55022,37.881682],[-83.550527,37.88147],[-83.550621,37.881447],[-83.550838,37.881439],[-83.550954,37.881423],[-83.551057,37.881385],[-83.551106,37.881339],[-83.551132,37.881289]]}},{"type":"Feature","properties":{"osm_id":16310330,"highway":"residential","name":"Phillips Cemetery Road","alt_name":null,"official_name":null,"surface":null,"tracktype":null,"service":null,"access":null,"motor_vehicle":null,"foot":null,"tiger_reviewed":"no","rrgh_part":0,"rrgh_tile_part":0},"geometry":{"type":"LineString","coordinates":[[-83.550607,37.887544],[-83.551045,37.887816],[-83.551092,37.887832]]}},{"type":"Feature","properties":{"osm_id":16308702,"highway":"residential","name":null,"alt_name":null,"official_name":null,"surface":null,"tracktype":null,"service":null,"access":null,"motor_vehicle":null,"foot":null,"tiger_reviewed":"no","rrgh_part":0,"rrgh_tile_part":0},"geometry":{"type":"LineString","coordinates":[[-83.550352,37.887433],[-83.549743,37.887983],[-83.549656,37.888212],[-83.549712,37.888647],[-83.550112,37.889541],[-83.550226,37.890159],[-83.5512012,37.8903883],[-83.5517258,37.8906226],[-83.5519586,37.8908837],[-83.5524312,37.8912285],[-83.552843,37.891422],[-83.5531321,37.891476],[-83.553312,37.8914771],[-83.5535002,37.8913865],[-83.553783,37.8911772],[-83.5543445,37.8912455],[-83.5545914,37.8914267],[-83.5548948,37.8916336],[-83.5554749,37.8920793],[-83.5556993,37.8923064],[-83.556237,37.892045],[-83.557243,37.891222],[-83.558048,37.890332]]}},{"type":"Feature","properties":{"osm_id":16310432,"highway":"residential","name":"Dove Hill Road","alt_name":null,"official_name":null,"surface":null,"tracktype":null,"service":null,"access":null,"motor_vehicle":null,"foot":null,"tiger_reviewed":"no","rrgh_part":0,"rrgh_tile_part":0},"geometry":{"type":"LineString","coordinates":[[-83.5507659,37.8972457],[-83.5508942,37.8971506],[-83.5510739,37.8971028],[-83.5514394,37.8970262],[-83.5516609,37.8969639],[-83.5518592,37.896926],[-83.552242,37.8969398],[-83.552569,37.8969709],[-83.5526187,37.8969514],[-83.5527936,37.8969537],[-83.5529128,37.8969116],[-83.5529896,37.8968373],[-83.5530338,37.896759],[-83.5530418,37.8967065],[-83.55303,37.896661],[-83.553027,37.896623],[-83.552977,37.896547],[-83.5528766,37.8964687],[-83.5527794,37.8964155],[-83.5525822,37.8963748],[-83.5523534,37.8962881],[-83.5518527,37.8960617]]}},{"type":"Feature","properties":{"osm_id":1348092211,"highway":"residential","name":"Dove Hill Road","alt_name":null,"official_name":null,"surface":null,"tracktype":null,"service":null,"access":null,"motor_vehicle":null,"foot":null,"tiger_reviewed":"no","rrgh_part":0,"rrgh_tile_part":0},"geometry":{"type":"LineString","coordinates":[[-83.5518527,37.8960617],[-83.5517342,37.8960467],[-83.5514935,37.8960742],[-83.5513236,37.8960895],[-83.5511427,37.896046],[-83.5510211,37.8959833],[-83.5509733,37.8959318],[-83.5509134,37.8958497],[-83.5507227,37.8955479],[-83.5505923,37.8953168],[-83.550561,37.8952351],[-83.550542,37.895098],[-83.550548,37.895011],[-83.550628,37.894774]]}},{"type":"Feature","properties":{"osm_id":16310571,"highway":"residential","name":"Courtney Peck Road","alt_name":null,"official_name":null,"surface":null,"tracktype":null,"service":null,"access":null,"motor_vehicle":null,"foot":null,"tiger_reviewed":"no","rrgh_part":0,"rrgh_tile_part":0},"geometry":{"type":"LineString","coordinates":[[-83.542874,37.870714],[-83.542765,37.871535],[-83.542823,37.872199],[-83.543187,37.873253],[-83.543569,37.874001],[-83.543597,37.874667],[-83.543335,37.875617],[-83.543278,37.876055],[-83.54331,37.876116],[-83.543441,37.876282],[-83.543535,37.876564],[-83.54361,37.877388],[-83.543626,37.877517],[-83.543672,37.877669],[-83.543687,37.877772],[-83.543662,37.87794],[-83.543503,37.878417],[-83.5435,37.878509],[-83.543518,37.878594],[-83.543593,37.878771],[-83.543615,37.878954],[-83.543606,37.879032],[-83.543563,37.879135],[-83.543507,37.879227],[-83.54346,37.879284],[-83.54343,37.879382],[-83.543429,37.879467],[-83.54348,37.879648],[-83.543648,37.879937],[-83.543699,37.880201],[-83.543688,37.880493],[-83.543704,37.88061],[-83.543745,37.880679],[-83.543796,37.880764],[-83.543978,37.880945],[-83.544057,37.8811],[-83.544075,37.881177],[-83.544098,37.881203],[-83.544143,37.881239],[-83.544441,37.881389],[-83.544491,37.88144],[-83.544588,37.881507],[-83.544627,37.881553],[-83.544733,37.881751],[-83.544811,37.88204],[-83.54488,37.882361],[-83.544966,37.882545],[-83.545004,37.882733],[-83.545025,37.883044],[-83.545079,37.883389],[-83.545075,37.883583],[-83.545063,37.883709],[-83.544996,37.883887]]}},{"type":"Feature","properties":{"osm_id":16308742,"highway":"service","name":null,"alt_name":null,"official_name":null,"surface":null,"tracktype":null,"service":null,"access":"private","motor_vehicle":null,"foot":null,"tiger_reviewed":"no","rrgh_part":0,"rrgh_tile_part":0},"geometry":{"type":"LineString","coordinates":[[-83.531157,37.873977],[-83.531138,37.874002],[-83.531104,37.874001],[-83.53107,37.873991],[-83.53102,37.873975],[-83.530982,37.873973],[-83.53097,37.873987]]}},{"type":"Feature","properties":{"osm_id":16308918,"highway":"service","name":null,"alt_name":null,"official_name":null,"surface":null,"tracktype":null,"service":null,"access":"private","motor_vehicle":null,"foot":null,"tiger_reviewed":"no","rrgh_part":0,"rrgh_tile_part":0},"geometry":{"type":"LineString","coordinates":[[-83.5309,37.872919],[-83.531085,37.872915],[-83.531315,37.872832],[-83.531452,37.8727],[-83.531532,37.872643]]}},{"type":"Feature","properties":{"osm_id":16309172,"highway":"service","name":null,"alt_name":null,"official_name":null,"surface":null,"tracktype":null,"service":null,"access":"private","motor_vehicle":null,"foot":null,"tiger_reviewed":"no","rrgh_part":0,"rrgh_tile_part":0},"geometry":{"type":"LineString","coordinates":[[-83.530923,37.871701],[-83.531039,37.871643],[-83.531066,37.871402],[-83.531057,37.871144],[-83.530967,37.870973],[-83.530865,37.870887],[-83.53068,37.870935],[-83.530497,37.871012],[-83.530214,37.871193]]}},{"type":"Feature","properties":{"osm_id":16310238,"highway":"residential","name":"Sumac Hill Road","alt_name":null,"official_name":null,"surface":null,"tracktype":null,"service":null,"access":null,"motor_vehicle":null,"foot":null,"tiger_reviewed":"no","rrgh_part":0,"rrgh_tile_part":0},"geometry":{"type":"LineString","coordinates":[[-83.530898,37.872886],[-83.530784,37.873033],[-83.530745,37.873154],[-83.530645,37.873329],[-83.530457,37.873464],[-83.530239,37.873545],[-83.530028,37.873635],[-83.530015,37.873641],[-83.529743,37.873729],[-83.529599,37.873734],[-83.529563,37.873727],[-83.529529,37.873714],[-83.529492,37.873666]]}},{"type":"Feature","properties":{"osm_id":16310707,"highway":"residential","name":"Hooster Run Road","alt_name":null,"official_name":null,"surface":null,"tracktype":null,"service":null,"access":null,"motor_vehicle":null,"foot":null,"tiger_reviewed":"no","rrgh_part":0,"rrgh_tile_part":0},"geometry":{"type":"LineString","coordinates":[[-83.53095,37.872092],[-83.530842,37.872087],[-83.530746,37.872066],[-83.530641,37.872026],[-83.530593,37.871997],[-83.530502,37.871921],[-83.530413,37.871791],[-83.530375,37.871746],[-83.530308,37.871702],[-83.530222,37.871663],[-83.530173,37.871652],[-83.530108,37.871676],[-83.530088,37.871697],[-83.529984,37.871852],[-83.529798,37.872089],[-83.529565,37.872357],[-83.529364,37.872565],[-83.529096,37.872873],[-83.528987,37.872954],[-83.52881,37.87304],[-83.528681,37.873132],[-83.528546,37.873267],[-83.528465,37.87338],[-83.528242,37.87374],[-83.528187,37.873901],[-83.528168,37.874023],[-83.528141,37.874462],[-83.528135,37.874827]]}},{"type":"Feature","properties":{"osm_id":16310727,"highway":"residential","name":"Roe Hill Road","alt_name":null,"official_name":null,"surface":null,"tracktype":null,"service":null,"access":null,"motor_vehicle":null,"foot":null,"tiger_reviewed":"no","rrgh_part":0,"rrgh_tile_part":0},"geometry":{"type":"LineString","coordinates":[[-83.530842,37.872087],[-83.530796,37.872226],[-83.530757,37.872271],[-83.530709,37.872355],[-83.530685,37.872464],[-83.530605,37.872573],[-83.530525,37.872624],[-83.530481,37.87263],[-83.530416,37.872617]]}},{"type":"Feature","properties":{"osm_id":16308593,"highway":"residential","name":null,"alt_name":null,"official_name":null,"surface":null,"tracktype":null,"service":null,"access":null,"motor_vehicle":null,"foot":null,"tiger_reviewed":"no","rrgh_part":0,"rrgh_tile_part":0},"geometry":{"type":"LineString","coordinates":[[-83.524559,37.883186],[-83.524866,37.883108],[-83.525238,37.882674],[-83.525902,37.882185],[-83.526336,37.88163],[-83.527012,37.881035],[-83.52739,37.880803],[-83.527725,37.880732],[-83.52783,37.880745],[-83.528012,37.880772],[-83.528343,37.880862],[-83.528636,37.880823],[-83.528822,37.880877],[-83.529064,37.880899],[-83.52913,37.880885],[-83.529563,37.880795],[-83.52983,37.880606],[-83.530033,37.880433],[-83.530172,37.880339]]}},{"type":"Feature","properties":{"osm_id":16309098,"highway":"residential","name":null,"alt_name":null,"official_name":null,"surface":null,"tracktype":null,"service":null,"access":null,"motor_vehicle":null,"foot":null,"tiger_reviewed":"no","rrgh_part":0,"rrgh_tile_part":0},"geometry":{"type":"LineString","coordinates":[[-83.537931,37.887669],[-83.53786,37.88785],[-83.537742,37.888067],[-83.537585,37.888088],[-83.537376,37.888108],[-83.537244,37.888217],[-83.537154,37.888371]]}},{"type":"Feature","properties":{"osm_id":16308783,"highway":"residential","name":null,"alt_name":null,"official_name":null,"surface":null,"tracktype":null,"service":null,"access":null,"motor_vehicle":null,"foot":null,"tiger_reviewed":"no","rrgh_part":0,"rrgh_tile_part":0},"geometry":{"type":"LineString","coordinates":[[-83.544147,37.886254],[-83.538483,37.887835],[-83.538265,37.887839],[-83.538063,37.887754],[-83.537931,37.887669],[-83.537792,37.887493],[-83.537507,37.887294],[-83.537181,37.887095]]}},{"type":"Feature","properties":{"osm_id":16308809,"highway":"residential","name":null,"alt_name":null,"official_name":null,"surface":null,"tracktype":null,"service":null,"access":null,"motor_vehicle":null,"foot":null,"tiger_reviewed":"no","rrgh_part":0,"rrgh_tile_part":0},"geometry":{"type":"LineString","coordinates":[[-83.542117,37.884952],[-83.540422,37.884926],[-83.539057,37.884816],[-83.538842,37.884838],[-83.538658,37.884753],[-83.538526,37.884741],[-83.538421,37.884796],[-83.538379,37.885043],[-83.538413,37.885175],[-83.538426,37.88532],[-83.538373,37.885491]]}},{"type":"Feature","properties":{"osm_id":16309361,"highway":"residential","name":"Fugate East Road","alt_name":null,"official_name":null,"surface":null,"tracktype":null,"service":null,"access":null,"motor_vehicle":null,"foot":null,"tiger_reviewed":"no","rrgh_part":0,"rrgh_tile_part":0},"geometry":{"type":"LineString","coordinates":[[-83.524105,37.885415],[-83.522619,37.885828],[-83.522208,37.88605],[-83.521765,37.886461]]}},{"type":"Feature","properties":{"osm_id":16309430,"highway":"residential","name":"Bufford Road","alt_name":null,"official_name":null,"surface":null,"tracktype":null,"service":null,"access":null,"motor_vehicle":null,"foot":null,"tiger_reviewed":"no","rrgh_part":0,"rrgh_tile_part":0},"geometry":{"type":"LineString","coordinates":[[-83.524491,37.883542],[-83.524579,37.883567],[-83.524723,37.883659],[-83.524798,37.88374],[-83.524826,37.883816],[-83.524881,37.883905],[-83.524905,37.883925],[-83.52496,37.883971],[-83.525095,37.884045],[-83.525164,37.884075],[-83.525284,37.884096],[-83.525367,37.884092],[-83.525498,37.88407],[-83.52568,37.884075],[-83.525762,37.884107],[-83.525832,37.884172],[-83.525844,37.884203],[-83.52586,37.884471],[-83.525848,37.884941],[-83.525859,37.885097],[-83.525888,37.885252],[-83.525939,37.885411],[-83.526171,37.885874],[-83.526193,37.885986],[-83.526162,37.886094],[-83.526086,37.88627],[-83.526006,37.886455],[-83.525894,37.886638],[-83.525861,37.886722],[-83.525854,37.886855],[-83.525897,37.887112],[-83.525906,37.88728],[-83.5259,37.887361],[-83.525843,37.887613],[-83.525836,37.887736],[-83.525843,37.88784],[-83.525976,37.888233],[-83.526012,37.888436],[-83.526045,37.888772],[-83.526092,37.888898],[-83.526283,37.889156],[-83.526754,37.889684],[-83.526888,37.889906],[-83.527027,37.890085],[-83.527062,37.89018],[-83.527061,37.890218],[-83.527059,37.890289]]}},{"type":"Feature","properties":{"osm_id":16310176,"highway":"residential","name":"Jdt Road","alt_name":null,"official_name":null,"surface":null,"tracktype":null,"service":null,"access":null,"motor_vehicle":null,"foot":null,"tiger_reviewed":"no","rrgh_part":0,"rrgh_tile_part":0},"geometry":{"type":"LineString","coordinates":[[-83.519771,37.895209],[-83.519891,37.895263],[-83.52033,37.895427],[-83.521148,37.895686],[-83.521586,37.895886],[-83.521745,37.895942],[-83.521894,37.895955],[-83.521963,37.895927],[-83.522126,37.895802],[-83.522286,37.895641],[-83.522358,37.895556],[-83.522425,37.895454],[-83.522496,37.895381],[-83.522565,37.895286],[-83.522612,37.895164],[-83.52278,37.894805],[-83.522779,37.894757],[-83.522761,37.894709],[-83.522766,37.894655],[-83.522789,37.894599],[-83.522941,37.89442],[-83.52314,37.894163],[-83.523155,37.894111],[-83.523136,37.893729],[-83.523118,37.893501],[-83.523143,37.893394],[-83.52316,37.893352],[-83.523204,37.893305],[-83.523304,37.893233],[-83.523425,37.893173],[-83.523944,37.89297],[-83.524335,37.892848],[-83.5248,37.892718],[-83.525002,37.892638],[-83.525191,37.892524],[-83.525539,37.892254],[-83.525842,37.892062],[-83.526185,37.89187],[-83.526282,37.891768],[-83.526302,37.891726],[-83.526315,37.891655]]}},{"type":"Feature","properties":{"osm_id":16309439,"highway":"residential","name":"Fugate North Road","alt_name":null,"official_name":null,"surface":null,"tracktype":null,"service":null,"access":null,"motor_vehicle":null,"foot":null,"tiger_reviewed":"no","rrgh_part":0,"rrgh_tile_part":0},"geometry":{"type":"LineString","coordinates":[[-83.5263,37.889869],[-83.526305,37.890077],[-83.526329,37.890191],[-83.526497,37.890427],[-83.526542,37.890517],[-83.526583,37.890675],[-83.526575,37.890857],[-83.526552,37.890971],[-83.526322,37.891472],[-83.526303,37.891613],[-83.526315,37.891655],[-83.526338,37.89171],[-83.52636,37.891819],[-83.526329,37.892121],[-83.526316,37.892711],[-83.526325,37.892935]]}},{"type":"Feature","properties":{"osm_id":16310697,"highway":"residential","name":"Windy Ridge Road","alt_name":null,"official_name":null,"surface":null,"tracktype":null,"service":null,"access":null,"motor_vehicle":null,"foot":null,"tiger_reviewed":"no","rrgh_part":0,"rrgh_tile_part":0},"geometry":{"type":"LineString","coordinates":[[-83.562819,37.897347],[-83.563062,37.89773],[-83.563143,37.897894],[-83.563173,37.897983],[-83.563266,37.898686],[-83.563315,37.899327],[-83.563353,37.899536],[-83.563445,37.899845],[-83.56350298288508,37.9]]}},{"type":"Feature","properties":{"osm_id":16310499,"highway":"service","name":"Bronco Lane","alt_name":null,"official_name":null,"surface":null,"tracktype":null,"service":null,"access":"private","motor_vehicle":null,"foot":null,"tiger_reviewed":"no","rrgh_part":0,"rrgh_tile_part":0},"geometry":{"type":"LineString","coordinates":[[-83.55453665341489,37.9],[-83.554503,37.899029],[-83.554475,37.898788]]}},{"type":"Feature","properties":{"osm_id":16310427,"highway":"residential","name":"Long Branch Road","alt_name":null,"official_name":null,"surface":null,"tracktype":null,"service":null,"access":null,"motor_vehicle":null,"foot":null,"tiger_reviewed":"no","rrgh_part":0,"rrgh_tile_part":0},"geometry":{"type":"LineString","coordinates":[[-83.527738,37.899152],[-83.527825,37.899268],[-83.528126,37.89975],[-83.52826538053098,37.9]]}},{"type":"Feature","properties":{"osm_id":16308945,"highway":"residential","name":null,"alt_name":null,"official_name":null,"surface":null,"tracktype":null,"service":null,"access":null,"motor_vehicle":null,"foot":null,"tiger_reviewed":"no","rrgh_part":0,"rrgh_tile_part":0},"geometry":{"type":"LineString","coordinates":[[-83.506001,37.874449],[-83.506103,37.874259],[-83.506126,37.874207],[-83.5062,37.874042],[-83.506282,37.873925],[-83.506452,37.873846]]}},{"type":"Feature","properties":{"osm_id":16309433,"highway":"residential","name":"Charley Roe Road","alt_name":null,"official_name":null,"surface":null,"tracktype":null,"service":null,"access":null,"motor_vehicle":null,"foot":null,"tiger_reviewed":"no","rrgh_part":0,"rrgh_tile_part":0},"geometry":{"type":"LineString","coordinates":[[-83.511288,37.875655],[-83.511327,37.876016],[-83.511235,37.876163],[-83.510972,37.876332],[-83.510555,37.876606],[-83.510219,37.876963],[-83.509832,37.877322],[-83.509669,37.877462]]}},{"type":"Feature","properties":{"osm_id":16309169,"highway":"residential","name":null,"alt_name":null,"official_name":null,"surface":null,"tracktype":null,"service":null,"access":null,"motor_vehicle":null,"foot":null,"tiger_reviewed":"no","rrgh_part":0,"rrgh_tile_part":0},"geometry":{"type":"LineString","coordinates":[[-83.514802,37.886705],[-83.513954,37.887261],[-83.513585,37.887435],[-83.513006,37.887272],[-83.512675,37.88706],[-83.512281,37.887023],[-83.511814,37.886994],[-83.511512,37.886942],[-83.511316,37.886824],[-83.510973,37.886232],[-83.510736,37.88613],[-83.510311,37.886014],[-83.510124,37.885976]]}},{"type":"Feature","properties":{"osm_id":16310298,"highway":"residential","name":"Melvin Wells Road","alt_name":null,"official_name":null,"surface":null,"tracktype":null,"service":null,"access":null,"motor_vehicle":null,"foot":null,"tiger_reviewed":"no","rrgh_part":0,"rrgh_tile_part":0},"geometry":{"type":"LineString","coordinates":[[-83.509545,37.892883],[-83.509226,37.893562],[-83.509254,37.894038],[-83.509368,37.894332],[-83.509973,37.894851],[-83.510116,37.8951],[-83.510201,37.895576],[-83.509825,37.895846],[-83.507828,37.896673],[-83.507423,37.897011],[-83.507161,37.897487],[-83.506987,37.898008],[-83.507071,37.898755],[-83.507791,37.89941],[-83.507732,37.899976],[-83.50771823529412,37.9]]}},{"type":"Feature","properties":{"osm_id":16309171,"highway":"residential","name":null,"alt_name":null,"official_name":null,"surface":null,"tracktype":null,"service":null,"access":null,"motor_vehicle":null,"foot":null,"tiger_reviewed":"no","rrgh_part":0,"rrgh_tile_part":0},"geometry":{"type":"LineString","coordinates":[[-83.515483,37.898094],[-83.515389,37.897773],[-83.514914,37.897116],[-83.51462,37.896743]]}}],"rrgh_tile":{"id":"r6c5","bounds":[37.825,-83.59,37.9,-83.505]}}
