{"type":"FeatureCollection","features":[{"type":"Feature","properties":{"osm_id":16384233,"highway":"residential","name":"Big Branch Road","alt_name":null,"official_name":null,"surface":null,"tracktype":null,"service":null,"access":null,"motor_vehicle":null,"foot":null,"tiger_reviewed":"no","rrgh_part":0,"rrgh_tile_part":0},"geometry":{"type":"LineString","coordinates":[[-83.48780833488372,37.825],[-83.48782,37.825019],[-83.488002,37.825295],[-83.488101,37.825418],[-83.488305,37.825724],[-83.488403,37.825918],[-83.488493,37.826046],[-83.488699,37.826295],[-83.488745,37.826357],[-83.488834,37.826547],[-83.488874,37.826766],[-83.48891,37.826824],[-83.48895,37.826872],[-83.489258,37.827192],[-83.489301,37.827248],[-83.489395,37.827352],[-83.489481,37.827463],[-83.489516,37.827525],[-83.489781,37.828128],[-83.489817,37.828194],[-83.489872,37.828328],[-83.489936,37.828523],[-83.489994,37.828785],[-83.490049,37.829114],[-83.490066,37.82918],[-83.490092,37.829241],[-83.490101,37.829258],[-83.490129,37.829304],[-83.490652,37.83008],[-83.490727,37.830218],[-83.490793,37.83036],[-83.490816,37.830427],[-83.490881,37.830687],[-83.491071,37.831299],[-83.491097,37.831372],[-83.491166,37.831616],[-83.491298,37.831932],[-83.491363,37.832132],[-83.491394,37.832261],[-83.491476,37.832854],[-83.491498,37.832915],[-83.491533,37.832973],[-83.491698,37.833124],[-83.491763,37.833174],[-83.491815,37.833229],[-83.491874,37.833283],[-83.491976,37.833401],[-83.492015,37.833464],[-83.492046,37.83353],[-83.49207,37.833598],[-83.492103,37.833804],[-83.492142,37.834275],[-83.492261,37.835065],[-83.492264,37.835209],[-83.492247,37.835415],[-83.492199,37.835817],[-83.492167,37.835954],[-83.49215,37.836084],[-83.49214,37.836147],[-83.49213,37.836198],[-83.492107,37.83627],[-83.492081,37.83633],[-83.49189,37.83668],[-83.491732,37.836929],[-83.491631,37.837065],[-83.491456,37.837336],[-83.491389,37.837465],[-83.491337,37.837592],[-83.491118,37.838305],[-83.49109,37.838424],[-83.491058,37.838745],[-83.491,37.839084],[-83.491026,37.839187],[-83.491066,37.839225],[-83.491172,37.839254],[-83.491377,37.839286],[-83.491525,37.839326],[-83.491639,37.839372],[-83.491701,37.839402],[-83.491939,37.839624],[-83.491972,37.839675],[-83.492001,37.839732],[-83.492133,37.839939],[-83.492228,37.84007],[-83.492277,37.840164],[-83.492307,37.840264],[-83.492316,37.840378],[-83.492318,37.840474],[-83.492365,37.840582],[-83.492413,37.840656],[-83.492749,37.840908],[-83.492787,37.840951],[-83.492812,37.840995],[-83.492828,37.841042],[-83.492827,37.841085],[-83.492789,37.841257],[-83.492735,37.841437],[-83.492731,37.841493],[-83.492738,37.841554],[-83.492869,37.84191],[-83.49311,37.842281],[-83.493281,37.842597],[-83.493316,37.842644],[-83.493357,37.842686],[-83.493406,37.842724],[-83.493463,37.842753],[-83.493536,37.842773],[-83.493609,37.842787],[-83.49389,37.842814],[-83.494549,37.842831],[-83.494759,37.842812],[-83.494901,37.842803],[-83.494972,37.842808],[-83.495036,37.842817],[-83.495095,37.842841],[-83.495144,37.842877],[-83.495174,37.84291],[-83.495197,37.842957],[-83.495211,37.843008],[-83.495215,37.843061],[-83.495213,37.84312],[-83.495165,37.843436],[-83.495164,37.843552],[-83.495165,37.84357],[-83.495172,37.843621],[-83.495205,37.843731],[-83.495264,37.843897],[-83.495314,37.844102],[-83.495354,37.844373],[-83.49537,37.844421]]}},{"type":"Feature","properties":{"osm_id":16384221,"highway":"residential","name":"Falling Water Road","alt_name":null,"official_name":null,"surface":null,"tracktype":null,"service":null,"access":null,"motor_vehicle":null,"foot":null,"tiger_reviewed":"no","rrgh_part":0,"rrgh_tile_part":0},"geometry":{"type":"LineString","coordinates":[[-83.5011738095238,37.825],[-83.501145,37.825044],[-83.500952,37.825282],[-83.500789,37.825573],[-83.500773,37.825615],[-83.500767,37.825661],[-83.500775,37.825711],[-83.500837,37.825802],[-83.500973,37.825938],[-83.501199,37.826166],[-83.501228,37.826206],[-83.501282,37.826329],[-83.501331,37.826508],[-83.501419,37.826878],[-83.501417,37.826983],[-83.501405,37.827011],[-83.501388,37.827031],[-83.501368,37.827043],[-83.501332,37.82705]]}},{"type":"Feature","properties":{"osm_id":16381579,"highway":"residential","name":null,"alt_name":null,"official_name":null,"surface":null,"tracktype":null,"service":null,"access":null,"motor_vehicle":null,"foot":null,"tiger_reviewed":"no","rrgh_part":0,"rrgh_tile_part":0},"geometry":{"type":"LineString","coordinates":[[-83.501332,37.82705],[-83.501509,37.830766],[-83.501003,37.834719],[-83.500627,37.836626],[-83.500555,37.836818],[-83.500672,37.836904],[-83.502292,37.837006],[-83.503104,37.837226],[-83.503304,37.837376],[-83.503655,37.838116],[-83.504032,37.838417],[-83.504225,37.838456],[-83.50458,37.838539]]}},{"type":"Feature","properties":{"osm_id":16384677,"highway":"residential","name":"Lackey Creek Road","alt_name":null,"official_name":null,"surface":null,"tracktype":null,"service":null,"access":null,"motor_vehicle":null,"foot":null,"tiger_reviewed":"no","rrgh_part":0,"rrgh_tile_part":0},"geometry":{"type":"LineString","coordinates":[[-83.467425,37.82724],[-83.467551,37.827372],[-83.467607,37.827422],[-83.467653,37.827462],[-83.467752,37.827574],[-83.467818,37.827624],[-83.468078,37.827767],[-83.46813,37.827804],[-83.468184,37.827861],[-83.468324,37.828029],[-83.468501,37.828199],[-83.469138,37.828731],[-83.469279,37.82884],[-83.469322,37.828878],[-83.469401,37.828962],[-83.469603,37.829164],[-83.469836,37.829354],[-83.469978,37.829477],[-83.470078,37.829557],[-83.470123,37.829604],[-83.470222,37.829687],[-83.470264,37.829735],[-83.4704,37.829853],[-83.470754,37.83014],[-83.470793,37.830185],[-83.47088,37.830257],[-83.470966,37.830339],[-83.47102,37.830373],[-83.471104,37.830449],[-83.471244,37.830548],[-83.471279,37.830564],[-83.471456,37.830621],[-83.471544,37.830653],[-83.472007,37.830802],[-83.472174,37.830845],[-83.472447,37.830963],[-83.472529,37.831006],[-83.472574,37.831025],[-83.472891,37.831219],[-83.473041,37.8313],[-83.473364,37.831459],[-83.473407,37.831475],[-83.473575,37.831555],[-83.47371,37.831614],[-83.473792,37.831663],[-83.473903,37.831742],[-83.474048,37.831861],[-83.474372,37.832105],[-83.47468,37.832359],[-83.474953,37.832543],[-83.475201,37.832669],[-83.4757,37.832896],[-83.475794,37.832967],[-83.475865,37.833041],[-83.475939,37.833136],[-83.476155,37.833332]]}},{"type":"Feature","properties":{"osm_id":16318482,"highway":"residential","name":"Logan Back Road","alt_name":null,"official_name":null,"surface":null,"tracktype":null,"service":null,"access":null,"motor_vehicle":null,"foot":null,"tiger_reviewed":"no","rrgh_part":0,"rrgh_tile_part":0},"geometry":{"type":"LineString","coordinates":[[-83.459794,37.849049],[-83.459841,37.848995],[-83.459902,37.848956],[-83.459968,37.848932],[-83.460047,37.848917],[-83.460296,37.84891],[-83.461001,37.848852],[-83.461126,37.848863],[-83.46128,37.8489],[-83.461336,37.8489],[-83.461392,37.848886],[-83.461438,37.848855],[-83.461444,37.848845],[-83.461495,37.848762],[-83.461592,37.848468],[-83.461609,37.848349],[-83.461574,37.848178],[-83.461593,37.848137],[-83.461619,37.848128],[-83.461644,37.848129],[-83.461655,37.848129],[-83.461972,37.848202],[-83.462052,37.848207],[-83.462136,37.848187],[-83.462171,37.848159],[-83.462192,37.84812],[-83.462208,37.848026],[-83.462236,37.84798],[-83.462416,37.847835],[-83.462611,37.847647],[-83.462697,37.847588],[-83.462883,37.847495],[-83.463085,37.847431],[-83.463358,37.847363],[-83.463434,37.847334],[-83.463497,37.847286],[-83.463544,37.847219],[-83.463568,37.847132],[-83.463601,37.846929],[-83.463665,37.846719],[-83.463935,37.846073],[-83.464289,37.845442],[-83.464821,37.844561],[-83.464952,37.844202],[-83.465022,37.844048],[-83.465079,37.843987],[-83.465102,37.843974],[-83.465159,37.843941],[-83.465361,37.843871],[-83.465966,37.843723],[-83.46605,37.843709],[-83.466227,37.843678],[-83.466507,37.843653],[-83.466914,37.843646],[-83.467977,37.843707],[-83.469067,37.843825],[-83.469525,37.843844],[-83.469743,37.843823],[-83.470148,37.843753],[-83.470318,37.84371],[-83.470572,37.843631],[-83.470736,37.843598]]}},{"type":"Feature","properties":{"osm_id":16383399,"highway":"residential","name":"Swango Fork-Menifee County Lin Road","alt_name":null,"official_name":null,"surface":null,"tracktype":null,"service":null,"access":null,"motor_vehicle":null,"foot":null,"tiger_reviewed":"no","rrgh_part":0,"rrgh_tile_part":0},"geometry":{"type":"LineString","coordinates":[[-83.49537,37.844421],[-83.495397,37.844483],[-83.495446,37.844554],[-83.495925,37.845097],[-83.496311,37.845527],[-83.496352,37.845587],[-83.496401,37.845643],[-83.496507,37.845825],[-83.496752,37.84627],[-83.496846,37.846441],[-83.496864,37.84646],[-83.497173,37.847005],[-83.497181,37.847031],[-83.497254,37.847166]]}},{"type":"Feature","properties":{"osm_id":16383394,"highway":"residential","name":"Swango Fork-Menifee County Lin Road","alt_name":null,"official_name":null,"surface":null,"tracktype":null,"service":null,"access":null,"motor_vehicle":null,"foot":null,"tiger_reviewed":"no","rrgh_part":0,"rrgh_tile_part":0},"geometry":{"type":"LineString","coordinates":[[-83.497188,37.84618],[-83.49729,37.84625],[-83.497277,37.846505],[-83.49731,37.846772],[-83.497288,37.846928],[-83.497254,37.847166],[-83.497638,37.848459],[-83.498897,37.850128],[-83.499796,37.85176],[-83.500075,37.854018],[-83.500096,37.855015],[-83.499907,37.855234],[-83.499767,37.855612],[-83.499488,37.856494],[-83.499496,37.857122]]}},{"type":"Feature","properties":{"osm_id":16384086,"highway":"residential","name":"Estill Bowman Road","alt_name":null,"official_name":null,"surface":null,"tracktype":null,"service":null,"access":null,"motor_vehicle":null,"foot":null,"tiger_reviewed":"no","rrgh_part":0,"rrgh_tile_part":0},"geometry":{"type":"LineString","coordinates":[[-83.489142,37.844994],[-83.48922,37.845373],[-83.489316,37.84584],[-83.489461,37.846045],[-83.489779,37.84792],[-83.489924,37.848309],[-83.490213,37.84856],[-83.490559,37.848698],[-83.491165,37.849383],[-83.491455,37.849977],[-83.492896,37.851487],[-83.492983,37.852036],[-83.492408,37.853431],[-83.492149,37.854345],[-83.491831,37.854757],[-83.491774,37.855123],[-83.491861,37.855672],[-83.491948,37.855718],[-83.491977,37.856655]]}},{"type":"Feature","properties":{"osm_id":16381523,"highway":"residential","name":null,"alt_name":null,"official_name":null,"surface":null,"tracktype":null,"service":null,"access":null,"motor_vehicle":null,"foot":null,"tiger_reviewed":"no","rrgh_part":0,"rrgh_tile_part":0},"geometry":{"type":"LineString","coordinates":[[-83.499907,37.854852],[-83.499779,37.854972],[-83.499778,37.855376],[-83.499767,37.855612]]}},{"type":"Feature","properties":{"osm_id":16310633,"highway":"residential","name":"Spencer Road","alt_name":null,"official_name":null,"surface":null,"tracktype":null,"service":null,"access":null,"motor_vehicle":null,"foot":null,"tiger_reviewed":"no","rrgh_part":0,"rrgh_tile_part":0},"geometry":{"type":"LineString","coordinates":[[-83.499496,37.857122],[-83.499486,37.857853]]}},{"type":"Feature","properties":{"osm_id":16318029,"highway":"residential","name":null,"alt_name":null,"official_name":null,"surface":null,"tracktype":null,"service":null,"access":null,"motor_vehicle":null,"foot":null,"tiger_reviewed":"no","rrgh_part":0,"rrgh_tile_part":0},"geometry":{"type":"LineString","coordinates":[[-83.495255,37.861685],[-83.495076,37.861697],[-83.49504,37.861693],[-83.494807,37.86165],[-83.49421,37.86166]]}},{"type":"Feature","properties":{"osm_id":16309729,"highway":"residential","name":"Sorrell Road","alt_name":null,"official_name":null,"surface":null,"tracktype":null,"service":null,"access":null,"motor_vehicle":null,"foot":null,"tiger_reviewed":"no","rrgh_part":0,"rrgh_tile_part":0},"geometry":{"type":"LineString","coordinates":[[-83.495907,37.862763],[-83.495745,37.862799],[-83.495331,37.862774],[-83.495107,37.862792],[-83.495002,37.862812],[-83.494668,37.86294],[-83.493844,37.863281],[-83.493137,37.863533],[-83.492694,37.863715],[-83.492611,37.863757],[-83.492535,37.863811],[-83.492397,37.863937],[-83.492202,37.86418],[-83.492186,37.864201]]}},{"type":"Feature","properties":{"osm_id":16381365,"highway":"residential","name":null,"alt_name":null,"official_name":null,"surface":null,"tracktype":null,"service":null,"access":null,"motor_vehicle":null,"foot":null,"tiger_reviewed":"no","rrgh_part":0,"rrgh_tile_part":0},"geometry":{"type":"LineString","coordinates":[[-83.491977,37.856655],[-83.491316,37.857866],[-83.491249,37.857946]]}},{"type":"Feature","properties":{"osm_id":16318204,"highway":"residential","name":null,"alt_name":null,"official_name":null,"surface":null,"tracktype":null,"service":null,"access":null,"motor_vehicle":null,"foot":null,"tiger_reviewed":"no","rrgh_part":0,"rrgh_tile_part":0},"geometry":{"type":"LineString","coordinates":[[-83.471123,37.84926],[-83.471275,37.849305],[-83.471404,37.849424]]}},{"type":"Feature","properties":{"osm_id":16322920,"highway":"service","name":"Stamper Lane","alt_name":null,"official_name":null,"surface":null,"tracktype":null,"service":null,"access":"private","motor_vehicle":null,"foot":null,"tiger_reviewed":"no","rrgh_part":0,"rrgh_tile_part":0},"geometry":{"type":"LineString","coordinates":[[-83.469779,37.852811],[-83.469938,37.852886],[-83.470318,37.853092],[-83.470735,37.853295],[-83.47129,37.853653],[-83.471336,37.853694],[-83.471364,37.853739],[-83.471371,37.85379],[-83.471339,37.853892],[-83.471339,37.853939],[-83.471347,37.853956],[-83.471359,37.853984],[-83.471442,37.854057],[-83.471621,37.854184],[-83.471902,37.854371],[-83.471977,37.854432],[-83.471998,37.854465],[-83.472001,37.854498],[-83.47197,37.854613],[-83.471951,37.854845],[-83.471893,37.855167],[-83.471902,37.855206],[-83.471952,37.855265]]}},{"type":"Feature","properties":{"osm_id":16317702,"highway":"track","name":null,"alt_name":null,"official_name":null,"surface":null,"tracktype":null,"service":null,"access":"private","motor_vehicle":null,"foot":null,"tiger_reviewed":"no","rrgh_part":0,"rrgh_tile_part":0},"geometry":{"type":"LineString","coordinates":[[-83.4894043,37.8660025],[-83.4891057,37.8658464],[-83.4881728,37.8656761],[-83.487308,37.865946],[-83.486023,37.866346],[-83.4854766,37.866581],[-83.4849739,37.866653],[-83.484338,37.86704],[-83.48409,37.867244]]}},{"type":"Feature","properties":{"osm_id":16321842,"highway":"residential","name":"Sorrell Road","alt_name":null,"official_name":null,"surface":null,"tracktype":null,"service":null,"access":null,"motor_vehicle":null,"foot":null,"tiger_reviewed":"no","rrgh_part":0,"rrgh_tile_part":0},"geometry":{"type":"LineString","coordinates":[[-83.492186,37.864201],[-83.491263,37.865419],[-83.490657,37.865808],[-83.490526,37.86586],[-83.490224,37.86598],[-83.490138,37.866014],[-83.4897404,37.8660087]]}},{"type":"Feature","properties":{"osm_id":16321842,"highway":"residential","name":"Sorrell Road","alt_name":null,"official_name":null,"surface":null,"tracktype":null,"service":null,"access":null,"motor_vehicle":null,"foot":null,"tiger_reviewed":"no","rrgh_part":1,"rrgh_tile_part":0},"geometry":{"type":"LineString","coordinates":[[-83.4897404,37.8660087],[-83.4895152,37.8660717],[-83.4894529,37.8660608],[-83.4894043,37.8660025],[-83.4894674,37.8659654],[-83.4895614,37.8659485],[-83.4897404,37.8660087]]}},{"type":"Feature","properties":{"osm_id":1521970899,"highway":"service","name":null,"alt_name":null,"official_name":null,"surface":null,"tracktype":null,"service":null,"access":null,"motor_vehicle":null,"foot":null,"tiger_reviewed":"no","rrgh_part":0,"rrgh_tile_part":0},"geometry":{"type":"LineString","coordinates":[[-83.4839905,37.86928],[-83.4841191,37.8683194],[-83.4841084,37.8682178],[-83.4840816,37.8681628],[-83.4839583,37.8681036],[-83.483449,37.8680316],[-83.4832631,37.8680427],[-83.483068,37.868138],[-83.4829755,37.8682025],[-83.4829109,37.8686498],[-83.4828691,37.8687321]]}},{"type":"Feature","properties":{"osm_id":1521970900,"highway":"track","name":null,"alt_name":null,"official_name":null,"surface":null,"tracktype":null,"service":null,"access":"private","motor_vehicle":null,"foot":null,"tiger_reviewed":"no","rrgh_part":0,"rrgh_tile_part":0},"geometry":{"type":"LineString","coordinates":[[-83.4836958,37.86704],[-83.4835534,37.867231],[-83.4835658,37.8673863],[-83.4835015,37.867493],[-83.4832048,37.8676568],[-83.4832631,37.8680427]]}},{"type":"Feature","properties":{"osm_id":110153721,"highway":"residential","name":"Meetinghouse Branch Road","alt_name":null,"official_name":null,"surface":null,"tracktype":null,"service":null,"access":null,"motor_vehicle":null,"foot":null,"tiger_reviewed":"no","rrgh_part":0,"rrgh_tile_part":0},"geometry":{"type":"LineString","coordinates":[[-83.448936,37.89308],[-83.449094,37.893129],[-83.449189,37.893171],[-83.449492,37.893346],[-83.449619,37.89341],[-83.449749,37.893458],[-83.44988,37.893486],[-83.449967,37.893493],[-83.450129,37.893478],[-83.450241,37.89344],[-83.450751,37.893221],[-83.451362,37.892975],[-83.451638,37.892852],[-83.451727,37.892795],[-83.451793,37.892721],[-83.451842,37.89263],[-83.452024,37.892165],[-83.452036,37.892124],[-83.452038,37.892044],[-83.452009,37.891967],[-83.451924,37.891863],[-83.451506,37.891506],[-83.451331,37.891327],[-83.451175,37.891113],[-83.450842,37.890604],[-83.450633,37.890335],[-83.450526,37.890228],[-83.450414,37.890134],[-83.449746,37.889615],[-83.449289,37.88928],[-83.449241,37.889217],[-83.449222,37.889148],[-83.449237,37.889082],[-83.449286,37.889013],[-83.449461,37.88885],[-83.449902,37.888405],[-83.450055,37.888268],[-83.450187,37.888173],[-83.450324,37.888092],[-83.450712,37.887905],[-83.450737,37.887885],[-83.450806,37.887831],[-83.450866,37.887745],[-83.451012,37.887325],[-83.451195,37.886921],[-83.451264,37.886727],[-83.451301,37.886569],[-83.451376,37.886081],[-83.451596,37.884898],[-83.45163,37.88477],[-83.451647,37.88474],[-83.451691,37.88466],[-83.45172,37.88463],[-83.451793,37.88459],[-83.451891,37.88456],[-83.452152,37.884504],[-83.452278,37.884463],[-83.452388,37.884407],[-83.452481,37.884335],[-83.452657,37.884167],[-83.452763,37.884093],[-83.452844,37.884051],[-83.452979,37.883998],[-83.453171,37.883938],[-83.453324,37.883902],[-83.453463,37.883869],[-83.453794,37.883803],[-83.454117,37.883715],[-83.454398,37.883679],[-83.454593,37.883675],[-83.455212,37.883717],[-83.455893,37.883775],[-83.456292,37.883809],[-83.456832,37.88384],[-83.459303,37.883931],[-83.460644,37.883954],[-83.460825,37.883969],[-83.460997,37.883995],[-83.461155,37.884034],[-83.46156,37.884163],[-83.461722,37.884197],[-83.461832,37.884211],[-83.462059,37.884213],[-83.462769,37.884165],[-83.463239,37.884152],[-83.463951,37.884181],[-83.46455,37.884231],[-83.465009,37.884293],[-83.465424,37.884366],[-83.465554,37.884389],[-83.465951,37.884476],[-83.466129,37.884526],[-83.466289,37.884585],[-83.466479,37.884682],[-83.466847,37.884924],[-83.467368,37.885224],[-83.468459,37.885876],[-83.468832,37.886119],[-83.468968,37.886192],[-83.46913,37.886264],[-83.469288,37.886316],[-83.469456,37.886347],[-83.469903,37.886386],[-83.470039,37.88642],[-83.470154,37.886475],[-83.470257,37.886548],[-83.47035,37.886632],[-83.470486,37.886807],[-83.470719,37.887252],[-83.47085,37.887459],[-83.470913,37.887536],[-83.471152,37.887774],[-83.471325,37.888009],[-83.471401,37.888083],[-83.471491,37.88814],[-83.471731,37.888233],[-83.471866,37.888328],[-83.471933,37.888411],[-83.472042,37.888625],[-83.472098,37.888695],[-83.472133,37.888722],[-83.472225,37.888752],[-83.472323,37.888756],[-83.472567,37.888738],[-83.472693,37.888745],[-83.472752,37.88876],[-83.47281,37.88878],[-83.472909,37.888831],[-83.473033,37.888924],[-83.473098,37.888991],[-83.473163,37.889101],[-83.473171,37.889179],[-83.473154,37.889255],[-83.473004,37.889502],[-83.472978,37.889585],[-83.472991,37.889663],[-83.473046,37.889729],[-83.47326,37.889872],[-83.473296,37.889905],[-83.473351,37.889984],[-83.473386,37.890082],[-83.473431,37.890305],[-83.473467,37.89041],[-83.473533,37.890499],[-83.473734,37.890645],[-83.473784,37.89071],[-83.473809,37.89079],[-83.473828,37.891014],[-83.473862,37.891097],[-83.473893,37.891133],[-83.473929,37.891165],[-83.474026,37.891218],[-83.474329,37.891304],[-83.474543,37.891398],[-83.474648,37.891475],[-83.47503,37.891878],[-83.475302,37.892104],[-83.47543,37.892193],[-83.475609,37.892297],[-83.475699,37.892338],[-83.475791,37.892357],[-83.4759,37.892348],[-83.476008,37.892313],[-83.476575,37.892036],[-83.476735,37.891969],[-83.476903,37.891912],[-83.477079,37.891868],[-83.477766,37.891727],[-83.4783,37.891601],[-83.479029,37.891401],[-83.479698,37.891203],[-83.479924,37.891146],[-83.480145,37.891101],[-83.480571,37.891033],[-83.480776,37.891006],[-83.481028,37.89099],[-83.481222,37.890984],[-83.481443,37.890994],[-83.481602,37.891018],[-83.481735,37.891055],[-83.481888,37.891126],[-83.482211,37.891381]]}},{"type":"Feature","properties":{"osm_id":16308444,"highway":"residential","name":"Arvel Jones Road","alt_name":null,"official_name":null,"surface":null,"tracktype":null,"service":null,"access":null,"motor_vehicle":null,"foot":null,"tiger_reviewed":"no","rrgh_part":0,"rrgh_tile_part":0},"geometry":{"type":"LineString","coordinates":[[-83.498745,37.876384],[-83.498763,37.876509],[-83.498753,37.876613],[-83.498761,37.876651],[-83.498799,37.876723],[-83.498831,37.876748],[-83.498875,37.876761],[-83.498924,37.876755],[-83.499009,37.876698],[-83.499055,37.876675],[-83.499108,37.876663],[-83.499167,37.876666],[-83.499227,37.876681],[-83.499288,37.876706],[-83.499409,37.876789],[-83.499572,37.876958],[-83.499693,37.877141],[-83.499766,37.877314],[-83.499773,37.877374],[-83.499752,37.877554],[-83.499761,37.877679],[-83.499776,37.877742],[-83.499822,37.877837],[-83.499873,37.877883],[-83.500128,37.878011],[-83.500323,37.878148],[-83.500443,37.878256],[-83.500496,37.878317],[-83.500717,37.878601],[-83.500806,37.878742],[-83.500838,37.878811],[-83.500871,37.878955],[-83.500877,37.879176],[-83.500895,37.879312],[-83.500951,37.879439],[-83.500995,37.879498],[-83.501048,37.87955],[-83.501149,37.879625],[-83.501436,37.879774],[-83.501728,37.87994],[-83.501928,37.880101],[-83.50202,37.880382],[-83.502249,37.880775],[-83.502279,37.880887],[-83.502296,37.881132],[-83.502316,37.881168],[-83.502413,37.881233]]}},{"type":"Feature","properties":{"osm_id":16308823,"highway":"residential","name":null,"alt_name":null,"official_name":null,"surface":null,"tracktype":null,"service":null,"access":null,"motor_vehicle":null,"foot":null,"tiger_reviewed":"no","rrgh_part":0,"rrgh_tile_part":0},"geometry":{"type":"LineString","coordinates":[[-83.496324,37.889139],[-83.496569,37.888996],[-83.496884,37.888884],[-83.497179,37.8889],[-83.497504,37.888997]]}},{"type":"Feature","properties":{"osm_id":16318158,"highway":"residential","name":null,"alt_name":null,"official_name":null,"surface":null,"tracktype":null,"service":null,"access":null,"motor_vehicle":null,"foot":null,"tiger_reviewed":"no","rrgh_part":0,"rrgh_tile_part":0},"geometry":{"type":"LineString","coordinates":[[-83.495652,37.889351],[-83.496087,37.889266],[-83.496324,37.889139]]}},{"type":"Feature","properties":{"osm_id":16310703,"highway":"residential","name":"Lawson Road","alt_name":null,"official_name":null,"surface":null,"tracktype":null,"service":null,"access":null,"motor_vehicle":null,"foot":null,"tiger_reviewed":"no","rrgh_part":0,"rrgh_tile_part":0},"geometry":{"type":"LineString","coordinates":[[-83.499117,37.895726],[-83.498984,37.896065],[-83.498815,37.896295],[-83.498802,37.896312],[-83.498648,37.896463],[-83.49859,37.896497],[-83.498458,37.896549],[-83.49832,37.896577],[-83.498035,37.896549],[-83.497829,37.8965],[-83.497644,37.896422],[-83.497368,37.89629],[-83.496944,37.896031],[-83.496714,37.895954],[-83.496553,37.895934],[-83.496409,37.895945],[-83.496292,37.895983],[-83.496175,37.896043],[-83.496012,37.896091],[-83.495625,37.896123],[-83.49518,37.896138],[-83.495044,37.896153],[-83.494899,37.896187]]}},{"type":"Feature","properties":{"osm_id":16318157,"highway":"residential","name":null,"alt_name":null,"official_name":null,"surface":null,"tracktype":null,"service":null,"access":null,"motor_vehicle":null,"foot":null,"tiger_reviewed":"no","rrgh_part":0,"rrgh_tile_part":0},"geometry":{"type":"LineString","coordinates":[[-83.495516,37.891294],[-83.495204,37.891196],[-83.494826,37.890945],[-83.49436,37.890977],[-83.493892,37.891186],[-83.493658,37.891339],[-83.493545,37.891548],[-83.493494,37.891774],[-83.493453,37.892016],[-83.493331,37.892161]]}},{"type":"Feature","properties":{"osm_id":16317703,"highway":"service","name":null,"alt_name":null,"official_name":null,"surface":null,"tracktype":null,"service":null,"access":null,"motor_vehicle":null,"foot":null,"tiger_reviewed":"no","rrgh_part":0,"rrgh_tile_part":0},"geometry":{"type":"LineString","coordinates":[[-83.491125,37.872718],[-83.489467,37.87208],[-83.488492,37.871897],[-83.487397,37.871502],[-83.486453,37.871571],[-83.486186,37.871473],[-83.485856,37.871117],[-83.485837,37.871081],[-83.48564,37.870676],[-83.485473,37.870592],[-83.48522,37.870691],[-83.485113,37.870884],[-83.485213,37.872122],[-83.485157,37.873836]]}},{"type":"Feature","properties":{"osm_id":16320821,"highway":"service","name":"Long Driveway","alt_name":null,"official_name":null,"surface":null,"tracktype":null,"service":null,"access":"private","motor_vehicle":null,"foot":null,"tiger_reviewed":"no","rrgh_part":0,"rrgh_tile_part":0},"geometry":{"type":"LineString","coordinates":[[-83.486821,37.874083],[-83.486507,37.874019],[-83.486346,37.873987],[-83.485951,37.873852],[-83.485847,37.873825],[-83.485636,37.873794],[-83.485428,37.873791],[-83.485225,37.873819],[-83.485157,37.873836],[-83.48494,37.873891],[-83.484777,37.873952],[-83.484647,37.874026],[-83.484541,37.874114],[-83.484497,37.874164],[-83.484429,37.874276],[-83.484381,37.874407],[-83.484351,37.874559],[-83.484347,37.874887],[-83.484334,37.87496],[-83.484294,37.875061],[-83.484286,37.875079],[-83.484232,37.875161],[-83.484189,37.875203],[-83.484119,37.875239]]}},{"type":"Feature","properties":{"osm_id":16318272,"highway":"service","name":null,"alt_name":null,"official_name":null,"surface":null,"tracktype":null,"service":null,"access":"private","motor_vehicle":null,"foot":null,"tiger_reviewed":"no","rrgh_part":0,"rrgh_tile_part":0},"geometry":{"type":"LineString","coordinates":[[-83.485084,37.878516],[-83.483875,37.87892],[-83.483452,37.879061],[-83.482718,37.879306]]}},{"type":"Feature","properties":{"osm_id":16320446,"highway":"residential","name":"Reed Murphy Road","alt_name":null,"official_name":null,"surface":null,"tracktype":null,"service":null,"access":null,"motor_vehicle":null,"foot":null,"tiger_reviewed":"no","rrgh_part":0,"rrgh_tile_part":0},"geometry":{"type":"LineString","coordinates":[[-83.474671,37.872431],[-83.474809,37.872517],[-83.474897,37.872593],[-83.475101,37.872838],[-83.475363,37.873129],[-83.475484,37.87328],[-83.476081,37.874197],[-83.476412,37.874758],[-83.476638,37.875088],[-83.476692,37.875191],[-83.476748,37.875372],[-83.476819,37.875489]]}},{"type":"Feature","properties":{"osm_id":16318168,"highway":"service","name":null,"alt_name":null,"official_name":null,"surface":null,"tracktype":null,"service":null,"access":"private","motor_vehicle":null,"foot":null,"tiger_reviewed":"no","rrgh_part":0,"rrgh_tile_part":0},"geometry":{"type":"LineString","coordinates":[[-83.470477,37.87264],[-83.469973,37.871645]]}},{"type":"Feature","properties":{"osm_id":16322725,"highway":"residential","name":"Joe Lane","alt_name":null,"official_name":null,"surface":null,"tracktype":null,"service":null,"access":null,"motor_vehicle":null,"foot":null,"tiger_reviewed":"no","rrgh_part":0,"rrgh_tile_part":0},"geometry":{"type":"LineString","coordinates":[[-83.487016,37.888333],[-83.487209,37.888454],[-83.487347,37.888503],[-83.487535,37.888527],[-83.487696,37.888532],[-83.487877,37.888524],[-83.488157,37.888486],[-83.488457,37.888412],[-83.488652,37.888334],[-83.488812,37.888224],[-83.488952,37.888074],[-83.489025,37.887935],[-83.489081,37.88754],[-83.48912,37.887397],[-83.489216,37.88713],[-83.489277,37.886732],[-83.489374,37.886497]]}},{"type":"Feature","properties":{"osm_id":16318765,"highway":"residential","name":"Meetinghouse Branch Road","alt_name":null,"official_name":null,"surface":null,"tracktype":null,"service":null,"access":null,"motor_vehicle":null,"foot":null,"tiger_reviewed":"no","rrgh_part":0,"rrgh_tile_part":0},"geometry":{"type":"LineString","coordinates":[[-83.481735,37.891055],[-83.481886,37.891071],[-83.482294,37.891093]]}},{"type":"Feature","properties":{"osm_id":16320848,"highway":"residential","name":"Lockhart Cemetery Road","alt_name":null,"official_name":null,"surface":null,"tracktype":null,"service":null,"access":null,"motor_vehicle":null,"foot":null,"tiger_reviewed":"no","rrgh_part":0,"rrgh_tile_part":0},"geometry":{"type":"LineString","coordinates":[[-83.479029,37.891401],[-83.479289,37.892464],[-83.479409,37.892698],[-83.479628,37.89294]]}},{"type":"Feature","properties":{"osm_id":16321190,"highway":"residential","name":"Knocking Cave Road","alt_name":null,"official_name":null,"surface":null,"tracktype":null,"service":null,"access":null,"motor_vehicle":null,"foot":null,"tiger_reviewed":"no","rrgh_part":0,"rrgh_tile_part":0},"geometry":{"type":"LineString","coordinates":[[-83.475791,37.892357],[-83.475703,37.892457],[-83.475693,37.892543],[-83.475808,37.892686],[-83.475873,37.892792],[-83.475887,37.892843],[-83.475883,37.892899],[-83.475835,37.892944],[-83.475774,37.892983],[-83.475363,37.893173],[-83.475094,37.893309],[-83.474821,37.893472],[-83.474557,37.893673],[-83.474294,37.8939],[-83.474216,37.893981],[-83.474097,37.894148],[-83.473925,37.894512],[-83.473907,37.894612],[-83.473926,37.894649],[-83.47396,37.894676],[-83.474085,37.894722],[-83.474165,37.894781],[-83.47421,37.894867],[-83.474222,37.894954],[-83.474208,37.895003]]}},{"type":"Feature","properties":{"osm_id":16308824,"highway":"residential","name":null,"alt_name":null,"official_name":null,"surface":null,"tracktype":null,"service":null,"access":null,"motor_vehicle":null,"foot":null,"tiger_reviewed":"no","rrgh_part":0,"rrgh_tile_part":0},"geometry":{"type":"LineString","coordinates":[[-83.498815,37.896295],[-83.499135,37.896704],[-83.499273,37.89702],[-83.499303,37.897216],[-83.499296,37.897579]]}},{"type":"Feature","properties":{"osm_id":16319207,"highway":"residential","name":"Stamper Road","alt_name":null,"official_name":null,"surface":null,"tracktype":null,"service":null,"access":null,"motor_vehicle":null,"foot":null,"tiger_reviewed":"no","rrgh_part":0,"rrgh_tile_part":0},"geometry":{"type":"LineString","coordinates":[[-83.484626,37.896725],[-83.484761,37.896736],[-83.484911,37.89677],[-83.485102,37.896834],[-83.485187,37.896898],[-83.485275,37.896982],[-83.485356,37.897075],[-83.485385,37.897142],[-83.485429,37.897208],[-83.485493,37.897276],[-83.485537,37.897308]]}},{"type":"Feature","properties":{"osm_id":1080274228,"highway":"unclassified","name":"Cherokee Loop","alt_name":null,"official_name":null,"surface":null,"tracktype":null,"service":null,"access":null,"motor_vehicle":null,"foot":null,"tiger_reviewed":null,"rrgh_part":0,"rrgh_tile_part":0},"geometry":{"type":"LineString","coordinates":[[-83.4607524916146,37.9],[-83.4607622,37.8999552]]}},{"type":"Feature","properties":{"osm_id":16384669,"highway":"residential","name":"Chapel Branch Road","alt_name":null,"official_name":null,"surface":null,"tracktype":null,"service":null,"access":null,"motor_vehicle":null,"foot":null,"tiger_reviewed":"no","rrgh_part":0,"rrgh_tile_part":0},"geometry":{"type":"LineString","coordinates":[[-83.44945768403171,37.825],[-83.449063,37.825643],[-83.448674,37.826458],[-83.448628,37.826534],[-83.448591,37.826616],[-83.448533,37.826728],[-83.448412,37.826909],[-83.448128,37.827234],[-83.448038,37.827346],[-83.447963,37.82746],[-83.447875,37.827652],[-83.447824,37.827786],[-83.447787,37.827934],[-83.447726,37.828176],[-83.447643,37.828438],[-83.447515,37.828746],[-83.447497,37.828866],[-83.447501,37.82904],[-83.447504,37.829058],[-83.447527,37.829157],[-83.447546,37.829209],[-83.447554,37.829264],[-83.44759,37.829363],[-83.447644,37.829458],[-83.447743,37.829619],[-83.447767,37.829663],[-83.447818,37.829762],[-83.448027,37.8302],[-83.448078,37.830316],[-83.448099,37.830378],[-83.448123,37.830458],[-83.44827,37.830974],[-83.448361,37.831247],[-83.448378,37.831346],[-83.448371,37.831485],[-83.448348,37.831586]]}},{"type":"Feature","properties":{"osm_id":16322201,"highway":"residential","name":"Upper Long Branch Road","alt_name":null,"official_name":null,"surface":null,"tracktype":null,"service":null,"access":null,"motor_vehicle":null,"foot":null,"tiger_reviewed":"no","rrgh_part":0,"rrgh_tile_part":0},"geometry":{"type":"LineString","coordinates":[[-83.42,37.87944031818182],[-83.420146,37.87951],[-83.420321,37.879563],[-83.420659,37.879644],[-83.42081,37.879706],[-83.420951,37.879789],[-83.421641,37.880285],[-83.421747,37.880381],[-83.422029,37.88072],[-83.422158,37.880818],[-83.422308,37.880891],[-83.422474,37.880946],[-83.422637,37.881014],[-83.422938,37.881201],[-83.423076,37.881306],[-83.423678,37.881703],[-83.424007,37.881848],[-83.424167,37.881938],[-83.424312,37.882046],[-83.424582,37.882279],[-83.424725,37.882386],[-83.425559,37.882898],[-83.425718,37.883005],[-83.426123,37.88334],[-83.426283,37.883428],[-83.426463,37.883494],[-83.427263,37.883687],[-83.427455,37.883744],[-83.427639,37.883816],[-83.42875,37.884293],[-83.428928,37.884383],[-83.429096,37.884483],[-83.429551,37.884777],[-83.429699,37.884846],[-83.429864,37.884893],[-83.43041,37.885018],[-83.430585,37.885071],[-83.430752,37.885142],[-83.431085,37.885323],[-83.43158,37.885623],[-83.431881,37.885846],[-83.432167,37.886082],[-83.432297,37.886206],[-83.432413,37.88634],[-83.432511,37.886483],[-83.432689,37.886777],[-83.432763,37.886919],[-83.432816,37.887061],[-83.432862,37.887464],[-83.43296,37.887675],[-83.43309,37.887892],[-83.433181,37.887966]]}},{"type":"Feature","properties":{"osm_id":16382538,"highway":"residential","name":null,"alt_name":null,"official_name":null,"surface":null,"tracktype":null,"service":null,"access":null,"motor_vehicle":null,"foot":null,"tiger_reviewed":"no","rrgh_part":0,"rrgh_tile_part":0},"geometry":{"type":"LineString","coordinates":[[-83.4513310252936,37.825],[-83.451447,37.825472],[-83.45256,37.827019],[-83.453126,37.828865],[-83.453248,37.829648],[-83.453365,37.829718],[-83.453366,37.829902],[-83.453777,37.83057],[-83.453727,37.831263],[-83.45359,37.832071],[-83.453655,37.832762],[-83.453743,37.832924],[-83.453659,37.833131],[-83.453401,37.833293],[-83.453432,37.833456],[-83.453868,37.833642],[-83.454079,37.834564],[-83.454025,37.834754]]}},{"type":"Feature","properties":{"osm_id":16318923,"highway":"residential","name":"Greasy-Blackwater Creek Road","alt_name":null,"official_name":null,"surface":null,"tracktype":null,"service":null,"access":null,"motor_vehicle":null,"foot":null,"tiger_reviewed":"no","rrgh_part":0,"rrgh_tile_part":0},"geometry":{"type":"LineString","coordinates":[[-83.436872,37.858999],[-83.43823,37.859431],[-83.438465,37.859519],[-83.438708,37.859625],[-83.438949,37.859757],[-83.439246,37.859982],[-83.439777,37.860303],[-83.440072,37.860554],[-83.440142,37.860648],[-83.440254,37.860731],[-83.440486,37.860876],[-83.441069,37.86121],[-83.441269,37.861353],[-83.441507,37.861614],[-83.441865,37.861902],[-83.442125,37.86215],[-83.442749,37.862803],[-83.442817,37.862852],[-83.442893,37.862878],[-83.442956,37.862883],[-83.442992,37.862886],[-83.443455,37.862891],[-83.443852,37.862924],[-83.443976,37.862924],[-83.444436,37.862862],[-83.444702,37.862791],[-83.444845,37.862765],[-83.445581,37.862535],[-83.446539,37.862256],[-83.447483,37.86196],[-83.447785,37.86185],[-83.448375,37.861577],[-83.44882,37.861403],[-83.448965,37.86136],[-83.449265,37.861314],[-83.449586,37.861309],[-83.449704,37.861331],[-83.449912,37.86132],[-83.4504,37.861341],[-83.450687,37.861362],[-83.450953,37.861402],[-83.4510695,37.8614332],[-83.45154,37.861559],[-83.451577,37.861566],[-83.452252,37.861685],[-83.452321,37.861733],[-83.452401,37.861911],[-83.452549,37.862418],[-83.452683,37.862974],[-83.452698,37.863038],[-83.452774,37.863238],[-83.452874,37.863463],[-83.452887,37.863492],[-83.452919,37.863563],[-83.453064,37.864132],[-83.453105,37.864235],[-83.453205,37.864407],[-83.453415,37.864644],[-83.453644,37.86488],[-83.453752,37.865013],[-83.453817,37.865124],[-83.453864,37.865282],[-83.453867,37.865338],[-83.45383,37.865528],[-83.453854,37.865621],[-83.453921,37.865708],[-83.454122,37.865873]]}},{"type":"Feature","properties":{"osm_id":16321708,"highway":"residential","name":"Lower Nickell Branch Road","alt_name":null,"official_name":null,"surface":null,"tracktype":null,"service":null,"access":null,"motor_vehicle":null,"foot":null,"tiger_reviewed":"no","rrgh_part":0,"rrgh_tile_part":0},"geometry":{"type":"LineString","coordinates":[[-83.42,37.83959372205438],[-83.420413,37.839716],[-83.420583,37.83975],[-83.421092,37.839825],[-83.421475,37.839905],[-83.421723,37.839996],[-83.422108,37.840185],[-83.422248,37.840237],[-83.422674,37.840368],[-83.422991,37.840567],[-83.423102,37.840606],[-83.423639,37.840671],[-83.424056,37.840775],[-83.424505,37.840856],[-83.424825,37.8409],[-83.425355,37.840949],[-83.425732,37.841038],[-83.425874,37.841059],[-83.426177,37.841085],[-83.426332,37.841112],[-83.426636,37.841203],[-83.427002,37.841341],[-83.427242,37.841454],[-83.427357,37.841565],[-83.427412,37.84166],[-83.42743,37.84169],[-83.427489,37.841735],[-83.427535,37.841739],[-83.427557,37.841729],[-83.427583,37.841689],[-83.427593,37.841631],[-83.427601,37.841462],[-83.427616,37.84137],[-83.427644,37.841306],[-83.427671,37.841277],[-83.427705,37.841253],[-83.427989,37.841201],[-83.428208,37.841254],[-83.42837,37.841324],[-83.42854,37.84138],[-83.428837,37.841495],[-83.428957,37.841563],[-83.429013,37.84161],[-83.429076,37.841707],[-83.429109,37.841787],[-83.429146,37.841931],[-83.429208,37.842334],[-83.429286,37.842649],[-83.4293,37.842998],[-83.429336,37.843069],[-83.429376,37.84309],[-83.429417,37.84309],[-83.429455,37.843077],[-83.429484,37.843051],[-83.429543,37.842932],[-83.429656,37.842748],[-83.429745,37.842641],[-83.429886,37.842383],[-83.429975,37.842253],[-83.430094,37.842139],[-83.430161,37.842098],[-83.430234,37.842075],[-83.43048,37.842053],[-83.430557,37.842026],[-83.430732,37.841903],[-83.430865,37.841853],[-83.431235,37.841778],[-83.431631,37.841714],[-83.431759,37.841669],[-83.431826,37.841631],[-83.431848,37.841608]]}},{"type":"Feature","properties":{"osm_id":16322057,"highway":"residential","name":"Bryant Fork Road","alt_name":null,"official_name":null,"surface":null,"tracktype":null,"service":null,"access":null,"motor_vehicle":null,"foot":null,"tiger_reviewed":"no","rrgh_part":0,"rrgh_tile_part":0},"geometry":{"type":"LineString","coordinates":[[-83.434834,37.871571],[-83.434718,37.871549],[-83.434668,37.871524],[-83.433895,37.870973],[-83.433787,37.870911],[-83.433673,37.870866],[-83.433595,37.870841],[-83.433181,37.870706],[-83.433041,37.870678],[-83.432891,37.870667],[-83.432256,37.870657],[-83.432098,37.870666],[-83.431942,37.870693],[-83.431792,37.870741],[-83.43134,37.870928],[-83.431177,37.870984],[-83.431003,37.871026],[-83.430234,37.871112],[-83.429638,37.871193],[-83.429453,37.871231],[-83.429296,37.871285],[-83.429166,37.871359],[-83.429056,37.87145],[-83.428692,37.871834],[-83.428597,37.871893],[-83.428489,37.87192],[-83.428387,37.871909],[-83.428366,37.871901],[-83.428288,37.871858],[-83.428141,37.87171],[-83.428052,37.871638],[-83.427944,37.871577],[-83.42782,37.871531],[-83.427683,37.871502],[-83.427538,37.87149],[-83.426428,37.871443],[-83.425987,37.871403],[-83.425312,37.871321],[-83.425091,37.871284],[-83.424874,37.871235],[-83.424723,37.871199],[-83.424231,37.87108],[-83.42338,37.870909],[-83.422959,37.870833],[-83.422327,37.870748],[-83.422119,37.870711],[-83.421913,37.870662],[-83.421712,37.870598],[-83.421519,37.870521],[-83.420805,37.870191],[-83.420247,37.870015],[-83.42,37.8699559046729]]}},{"type":"Feature","properties":{"osm_id":16322803,"highway":"residential","name":"Hall Road","alt_name":null,"official_name":null,"surface":null,"tracktype":null,"service":null,"access":null,"motor_vehicle":null,"foot":null,"tiger_reviewed":"no","rrgh_part":0,"rrgh_tile_part":0},"geometry":{"type":"LineString","coordinates":[[-83.446818,37.843523],[-83.446437,37.843548],[-83.446186,37.843566],[-83.446044,37.843617],[-83.446,37.843798],[-83.445958,37.84401],[-83.445881,37.844189],[-83.445848,37.84435],[-83.445822,37.844554]]}},{"type":"Feature","properties":{"osm_id":16318702,"highway":"residential","name":"Upper Nickell Branch Road","alt_name":null,"official_name":null,"surface":null,"tracktype":null,"service":null,"access":null,"motor_vehicle":null,"foot":null,"tiger_reviewed":"no","rrgh_part":0,"rrgh_tile_part":0},"geometry":{"type":"LineString","coordinates":[[-83.42729,37.825398],[-83.427418,37.825444],[-83.427573,37.825519],[-83.427977,37.825769],[-83.428394,37.826027],[-83.428504,37.826095],[-83.428949,37.826329],[-83.428972,37.826361],[-83.428984,37.826435],[-83.428973,37.826459],[-83.428934,37.826547],[-83.428911,37.826657],[-83.428931,37.826718],[-83.428953,37.826741],[-83.42899,37.826763],[-83.429248,37.826823],[-83.429557,37.826949],[-83.430064,37.827173],[-83.430131,37.827197],[-83.430444,37.827309],[-83.430534,37.827367],[-83.430562,37.827398],[-83.430647,37.827494],[-83.430895,37.827878],[-83.430994,37.828054],[-83.431075,37.82826]]}},{"type":"Feature","properties":{"osm_id":16317773,"highway":"service","name":null,"alt_name":null,"official_name":null,"surface":null,"tracktype":null,"service":null,"access":"private","motor_vehicle":null,"foot":null,"tiger_reviewed":"no","rrgh_part":0,"rrgh_tile_part":0},"geometry":{"type":"LineString","coordinates":[[-83.464202,37.851293],[-83.464336,37.850191],[-83.463651,37.84963],[-83.463343,37.849195]]}},{"type":"Feature","properties":{"osm_id":16320632,"highway":"residential","name":"Garland Combs Road","alt_name":null,"official_name":null,"surface":null,"tracktype":null,"service":null,"access":null,"motor_vehicle":null,"foot":null,"tiger_reviewed":"no","rrgh_part":0,"rrgh_tile_part":0},"geometry":{"type":"LineString","coordinates":[[-83.45962,37.849063],[-83.459226,37.849373],[-83.459119,37.849493],[-83.458965,37.849706],[-83.458591,37.850287],[-83.458399,37.850648],[-83.45834,37.850847],[-83.458323,37.851128],[-83.458326,37.851211],[-83.458359,37.851392],[-83.45844,37.851545],[-83.4585,37.851606],[-83.458737,37.851708],[-83.458919,37.851738],[-83.459013,37.851741],[-83.459122,37.85173],[-83.459235,37.851707],[-83.459665,37.85158],[-83.459768,37.851538],[-83.459847,37.851517],[-83.459928,37.851513],[-83.460012,37.851529],[-83.460096,37.851561],[-83.460169,37.851613],[-83.460215,37.851681],[-83.460247,37.851754],[-83.460234,37.851917],[-83.460138,37.852151],[-83.460118,37.852228],[-83.460125,37.852305],[-83.460165,37.852381],[-83.460233,37.852451],[-83.460387,37.852577],[-83.460455,37.852648],[-83.460563,37.852823],[-83.460638,37.853007],[-83.460669,37.853189],[-83.460628,37.853554],[-83.460652,37.853833],[-83.46064,37.853906],[-83.460611,37.853979],[-83.460552,37.854058],[-83.460513,37.85411],[-83.460131,37.854505],[-83.459956,37.854701],[-83.459739,37.85491],[-83.459423,37.855163],[-83.459175,37.855397]]}},{"type":"Feature","properties":{"osm_id":16318129,"highway":"service","name":null,"alt_name":null,"official_name":null,"surface":null,"tracktype":null,"service":null,"access":"private","motor_vehicle":null,"foot":null,"tiger_reviewed":"no","rrgh_part":0,"rrgh_tile_part":0},"geometry":{"type":"LineString","coordinates":[[-83.442398,37.847729],[-83.442176,37.847513],[-83.44138,37.8467],[-83.441267,37.846654],[-83.441073,37.846564],[-83.440787,37.846248],[-83.440624,37.846009],[-83.440408,37.845668],[-83.440222,37.845262],[-83.440108,37.844931],[-83.439985,37.844561],[-83.439871,37.844314],[-83.439769,37.844168]]}},{"type":"Feature","properties":{"osm_id":16317730,"highway":"service","name":null,"alt_name":null,"official_name":null,"surface":null,"tracktype":null,"service":null,"access":null,"motor_vehicle":null,"foot":null,"tiger_reviewed":"no","rrgh_part":0,"rrgh_tile_part":0},"geometry":{"type":"LineString","coordinates":[[-83.464962,37.857114],[-83.465068,37.857207],[-83.466606,37.858559]]}},{"type":"Feature","properties":{"osm_id":16318170,"highway":"service","name":null,"alt_name":null,"official_name":null,"surface":null,"tracktype":null,"service":null,"access":"private","motor_vehicle":null,"foot":null,"tiger_reviewed":"no","rrgh_part":0,"rrgh_tile_part":0},"geometry":{"type":"LineString","coordinates":[[-83.458309,37.862314],[-83.458805,37.862664]]}},{"type":"Feature","properties":{"osm_id":16317741,"highway":"service","name":null,"alt_name":null,"official_name":null,"surface":null,"tracktype":null,"service":null,"access":"private","motor_vehicle":null,"foot":null,"tiger_reviewed":"no","rrgh_part":0,"rrgh_tile_part":0},"geometry":{"type":"LineString","coordinates":[[-83.460406,37.863781],[-83.458805,37.862664],[-83.457884,37.862742]]}},{"type":"Feature","properties":{"osm_id":16317742,"highway":"service","name":null,"alt_name":null,"official_name":null,"surface":null,"tracktype":null,"service":null,"access":null,"motor_vehicle":null,"foot":null,"tiger_reviewed":"no","rrgh_part":0,"rrgh_tile_part":0},"geometry":{"type":"LineString","coordinates":[[-83.46036,37.860343],[-83.460235,37.860242],[-83.460133,37.860208],[-83.460041,37.860229],[-83.459931,37.860309],[-83.459774,37.860393],[-83.459663,37.860359],[-83.459629,37.860292]]}},{"type":"Feature","properties":{"osm_id":16317813,"highway":"service","name":null,"alt_name":null,"official_name":null,"surface":null,"tracktype":null,"service":null,"access":"private","motor_vehicle":null,"foot":null,"tiger_reviewed":"no","rrgh_part":0,"rrgh_tile_part":0},"geometry":{"type":"LineString","coordinates":[[-83.457266,37.863366],[-83.457622,37.863634],[-83.458377,37.864202]]}},{"type":"Feature","properties":{"osm_id":16317774,"highway":"residential","name":null,"alt_name":null,"official_name":null,"surface":null,"tracktype":null,"service":null,"access":null,"motor_vehicle":null,"foot":null,"tiger_reviewed":"no","rrgh_part":0,"rrgh_tile_part":0},"geometry":{"type":"LineString","coordinates":[[-83.4510695,37.8614332],[-83.4512579,37.860698],[-83.4514499,37.859485],[-83.4513491,37.8589497],[-83.4506572,37.8586976],[-83.449633,37.8591105],[-83.4487922,37.8592917]]}},{"type":"Feature","properties":{"osm_id":16322227,"highway":"residential","name":"Pierat Cemetery Road","alt_name":null,"official_name":null,"surface":null,"tracktype":null,"service":null,"access":null,"motor_vehicle":null,"foot":null,"tiger_reviewed":"no","rrgh_part":0,"rrgh_tile_part":0},"geometry":{"type":"LineString","coordinates":[[-83.452874,37.863463],[-83.452023,37.864289],[-83.45188,37.864353],[-83.451715,37.864436],[-83.45153,37.864463],[-83.451358,37.864453],[-83.451198,37.864391]]}},{"type":"Feature","properties":{"osm_id":16318141,"highway":"service","name":null,"alt_name":null,"official_name":null,"surface":null,"tracktype":null,"service":null,"access":"private","motor_vehicle":null,"foot":null,"tiger_reviewed":"no","rrgh_part":0,"rrgh_tile_part":0},"geometry":{"type":"LineString","coordinates":[[-83.438117,37.854465],[-83.438376,37.854555],[-83.438527,37.854612],[-83.438787,37.854709]]}},{"type":"Feature","properties":{"osm_id":115052653,"highway":"residential","name":"Bill E Murphy Road","alt_name":null,"official_name":null,"surface":null,"tracktype":null,"service":null,"access":null,"motor_vehicle":null,"foot":null,"tiger_reviewed":"no","rrgh_part":0,"rrgh_tile_part":0},"geometry":{"type":"LineString","coordinates":[[-83.4210778,37.855643],[-83.4214182,37.8553743],[-83.4215926,37.85525],[-83.4217926,37.8551425],[-83.4221042,37.8550344],[-83.42278,37.854871],[-83.422958,37.854803],[-83.423109,37.854725],[-83.423315,37.854574],[-83.423545,37.854441],[-83.423647,37.854374],[-83.423846,37.854242],[-83.42407,37.854157],[-83.42425,37.854123]]}},{"type":"Feature","properties":{"osm_id":16317667,"highway":"service","name":null,"alt_name":null,"official_name":null,"surface":null,"tracktype":null,"service":null,"access":"private","motor_vehicle":null,"foot":null,"tiger_reviewed":"no","rrgh_part":0,"rrgh_tile_part":0},"geometry":{"type":"LineString","coordinates":[[-83.436602,37.859223],[-83.435755,37.858947],[-83.435605,37.85882],[-83.435589,37.858664],[-83.435329,37.858425],[-83.435073,37.85823],[-83.435022,37.858104]]}},{"type":"Feature","properties":{"osm_id":16318116,"highway":"service","name":null,"alt_name":null,"official_name":null,"surface":null,"tracktype":null,"service":null,"access":"private","motor_vehicle":null,"foot":null,"tiger_reviewed":"no","rrgh_part":0,"rrgh_tile_part":0},"geometry":{"type":"LineString","coordinates":[[-83.431454,37.862152],[-83.43149,37.862286],[-83.431478,37.862391],[-83.431381,37.862487],[-83.431235,37.862506],[-83.430191,37.862477],[-83.429888,37.862487],[-83.4297564,37.8625117],[-83.4296926,37.8625789],[-83.4295565,37.8628778],[-83.429565,37.8629685],[-83.4296161,37.8630558],[-83.4297292,37.8631674]]}},{"type":"Feature","properties":{"osm_id":115052585,"highway":"unclassified","name":"Bushrod Road","alt_name":null,"official_name":null,"surface":null,"tracktype":null,"service":null,"access":null,"motor_vehicle":null,"foot":null,"tiger_reviewed":"no","rrgh_part":0,"rrgh_tile_part":0},"geometry":{"type":"LineString","coordinates":[[-83.4333646,37.8641321],[-83.432995,37.863892],[-83.432744,37.863748],[-83.432574,37.863665],[-83.432398,37.863594],[-83.432214,37.863535],[-83.432022,37.86349],[-83.431822,37.863454],[-83.4315007,37.8634186],[-83.4311986,37.8634085],[-83.4310029,37.8634454],[-83.4308498,37.8634857]]}},{"type":"Feature","properties":{"osm_id":115052609,"highway":"unclassified","name":null,"alt_name":null,"official_name":null,"surface":null,"tracktype":null,"service":null,"access":null,"motor_vehicle":null,"foot":null,"tiger_reviewed":"no","rrgh_part":0,"rrgh_tile_part":0},"geometry":{"type":"LineString","coordinates":[[-83.4308498,37.8634857],[-83.4307732,37.8633783],[-83.4306796,37.8633312],[-83.4305435,37.8632708],[-83.4302882,37.8632305],[-83.4299402,37.8631874],[-83.4297292,37.8631674],[-83.4295442,37.8631624],[-83.4293352,37.8631754],[-83.4290934,37.8632286]]}},{"type":"Feature","properties":{"osm_id":115052553,"highway":"unclassified","name":"Bushrod Road","alt_name":null,"official_name":null,"surface":null,"tracktype":null,"service":null,"access":null,"motor_vehicle":null,"foot":null,"tiger_reviewed":null,"rrgh_part":0,"rrgh_tile_part":0},"geometry":{"type":"LineString","coordinates":[[-83.4308498,37.8634857],[-83.4307307,37.8638451]]}},{"type":"Feature","properties":{"osm_id":115052602,"highway":"unclassified","name":null,"alt_name":null,"official_name":null,"surface":null,"tracktype":null,"service":null,"access":null,"motor_vehicle":null,"foot":null,"tiger_reviewed":"no","rrgh_part":0,"rrgh_tile_part":0},"geometry":{"type":"LineString","coordinates":[[-83.4248684,37.8625957],[-83.4247067,37.8627334],[-83.4245961,37.8627905],[-83.424454,37.862801],[-83.424378,37.862784],[-83.424299,37.862757],[-83.424221,37.862719],[-83.424137,37.862663],[-83.424069,37.862609],[-83.423999,37.862535],[-83.423696,37.862173],[-83.4235646,37.8620091]]}},{"type":"Feature","properties":{"osm_id":313840178,"highway":"service","name":null,"alt_name":null,"official_name":null,"surface":null,"tracktype":null,"service":null,"access":null,"motor_vehicle":null,"foot":null,"tiger_reviewed":null,"rrgh_part":0,"rrgh_tile_part":0},"geometry":{"type":"LineString","coordinates":[[-83.4235646,37.8620091],[-83.4233916,37.8619628],[-83.4231376,37.8620554],[-83.422877,37.8621685],[-83.4227598,37.8621685],[-83.4225709,37.8620451],[-83.4224537,37.8618754],[-83.4223755,37.8617983]]}},{"type":"Feature","properties":{"osm_id":16322465,"highway":"service","name":"Maple Lane","alt_name":null,"official_name":null,"surface":null,"tracktype":null,"service":null,"access":null,"motor_vehicle":null,"foot":null,"tiger_reviewed":"no","rrgh_part":0,"rrgh_tile_part":0},"geometry":{"type":"LineString","coordinates":[[-83.455948,37.882098],[-83.455745,37.882747],[-83.455786,37.882896],[-83.456055,37.88313],[-83.45619,37.883311],[-83.456136,37.88346],[-83.456004,37.883591],[-83.455934,37.88363],[-83.455893,37.883775]]}},{"type":"Feature","properties":{"osm_id":16318149,"highway":"track","name":null,"alt_name":null,"official_name":null,"surface":null,"tracktype":null,"service":null,"access":"private","motor_vehicle":null,"foot":null,"tiger_reviewed":"no","rrgh_part":0,"rrgh_tile_part":0},"geometry":{"type":"LineString","coordinates":[[-83.443165,37.882203],[-83.442481,37.88217],[-83.442062,37.882181],[-83.441243,37.882148],[-83.44053,37.882186]]}},{"type":"Feature","properties":{"osm_id":16318293,"highway":"track","name":null,"alt_name":null,"official_name":null,"surface":null,"tracktype":null,"service":null,"access":"private","motor_vehicle":null,"foot":null,"tiger_reviewed":"no","rrgh_part":0,"rrgh_tile_part":0},"geometry":{"type":"LineString","coordinates":[[-83.4436,37.881832],[-83.444974,37.881939]]}},{"type":"Feature","properties":{"osm_id":16317726,"highway":"residential","name":null,"alt_name":null,"official_name":null,"surface":null,"tracktype":null,"service":null,"access":null,"motor_vehicle":null,"foot":null,"tiger_reviewed":"no","rrgh_part":0,"rrgh_tile_part":0},"geometry":{"type":"LineString","coordinates":[[-83.465424,37.884366],[-83.465899,37.884157],[-83.466265,37.884128]]}},{"type":"Feature","properties":{"osm_id":16320694,"highway":"residential","name":"Harold Rose Road","alt_name":null,"official_name":null,"surface":null,"tracktype":null,"service":null,"access":null,"motor_vehicle":null,"foot":null,"tiger_reviewed":"no","rrgh_part":0,"rrgh_tile_part":0},"geometry":{"type":"LineString","coordinates":[[-83.455075,37.893997],[-83.454894,37.89407],[-83.454788,37.8941],[-83.454322,37.894175],[-83.453614,37.894352],[-83.45284,37.894519],[-83.452756,37.894528],[-83.45266,37.89452],[-83.452135,37.894344],[-83.451972,37.894264],[-83.45191,37.894211],[-83.451865,37.894148],[-83.451843,37.894073],[-83.451839,37.893992],[-83.451872,37.89367],[-83.45185,37.893525],[-83.45182,37.893463],[-83.451765,37.893414],[-83.451693,37.893378],[-83.451519,37.893351],[-83.45126,37.893354],[-83.451044,37.893386],[-83.45052,37.893502],[-83.450413,37.893517],[-83.450257,37.893511],[-83.450129,37.893478]]}},{"type":"Feature","properties":{"osm_id":16318127,"highway":"residential","name":null,"alt_name":null,"official_name":null,"surface":null,"tracktype":null,"service":null,"access":null,"motor_vehicle":null,"foot":null,"tiger_reviewed":"no","rrgh_part":0,"rrgh_tile_part":0},"geometry":{"type":"LineString","coordinates":[[-83.45046,37.883662],[-83.450771,37.884077],[-83.450892,37.884343],[-83.450946,37.884449],[-83.451059,37.884449],[-83.451189,37.884449],[-83.451391,37.884407],[-83.451553,37.884407],[-83.45162,37.884481],[-83.45172,37.88463]]}},{"type":"Feature","properties":{"osm_id":16317618,"highway":"service","name":null,"alt_name":null,"official_name":null,"surface":null,"tracktype":null,"service":null,"access":"private","motor_vehicle":null,"foot":null,"tiger_reviewed":"no","rrgh_part":0,"rrgh_tile_part":0},"geometry":{"type":"LineString","coordinates":[[-83.4434921,37.8859375],[-83.443186,37.8859684],[-83.4429645,37.8860763],[-83.4426584,37.886102],[-83.4425346,37.8860404],[-83.4424825,37.8859067],[-83.4425216,37.8857525],[-83.4424369,37.885624],[-83.4422611,37.8855828],[-83.441486,37.8855623],[-83.4413687,37.8856291],[-83.441276,37.88586]]}},{"type":"Feature","properties":{"osm_id":313839513,"highway":"service","name":null,"alt_name":null,"official_name":null,"surface":null,"tracktype":null,"service":null,"access":"private","motor_vehicle":null,"foot":null,"tiger_reviewed":"no","rrgh_part":0,"rrgh_tile_part":0},"geometry":{"type":"LineString","coordinates":[[-83.442042,37.886909],[-83.4419158,37.887125],[-83.4417726,37.887233],[-83.4407565,37.8873512],[-83.4406197,37.8874283],[-83.440561,37.8875877],[-83.4404438,37.8876442]]}},{"type":"Feature","properties":{"osm_id":16317799,"highway":"service","name":null,"alt_name":null,"official_name":null,"surface":null,"tracktype":null,"service":null,"access":"private","motor_vehicle":null,"foot":null,"tiger_reviewed":"no","rrgh_part":0,"rrgh_tile_part":0},"geometry":{"type":"LineString","coordinates":[[-83.445804,37.890126],[-83.44602,37.889825],[-83.446159,37.889541],[-83.446263,37.889249],[-83.44638,37.889077],[-83.446513,37.889001]]}},{"type":"Feature","properties":{"osm_id":16318266,"highway":"service","name":null,"alt_name":null,"official_name":null,"surface":null,"tracktype":null,"service":null,"access":"private","motor_vehicle":null,"foot":null,"tiger_reviewed":"no","rrgh_part":0,"rrgh_tile_part":0},"geometry":{"type":"LineString","coordinates":[[-83.4398381,37.8876339],[-83.4402484,37.8874129],[-83.4407565,37.8873512]]}},{"type":"Feature","properties":{"osm_id":16318777,"highway":"residential","name":"Meetinghouse Branch Road","alt_name":null,"official_name":null,"surface":null,"tracktype":null,"service":null,"access":null,"motor_vehicle":null,"foot":null,"tiger_reviewed":"no","rrgh_part":0,"rrgh_tile_part":0},"geometry":{"type":"LineString","coordinates":[[-83.445064,37.892123],[-83.445323,37.892186],[-83.445934,37.892345],[-83.446676,37.892527],[-83.447233,37.89268],[-83.447982,37.892903],[-83.448274,37.892966],[-83.448664,37.893029],[-83.448936,37.89308]]}},{"type":"Feature","properties":{"osm_id":16319721,"highway":"residential","name":"Walnut Street","alt_name":null,"official_name":null,"surface":null,"tracktype":null,"service":null,"access":null,"motor_vehicle":null,"foot":null,"tiger_reviewed":"no","rrgh_part":0,"rrgh_tile_part":0},"geometry":{"type":"LineString","coordinates":[[-83.44335,37.888635],[-83.443403,37.888629],[-83.443469,37.888631],[-83.443532,37.888655],[-83.443965,37.888862],[-83.444315,37.889035],[-83.444719,37.889283],[-83.444877,37.8894],[-83.445263,37.889712],[-83.445804,37.890126],[-83.44597,37.890254],[-83.44623,37.890443],[-83.446547,37.890646],[-83.447195,37.891038],[-83.447473,37.891215],[-83.447912,37.89152],[-83.448336,37.89183],[-83.448727,37.892085],[-83.448828,37.892163],[-83.44893,37.892266],[-83.448985,37.892356],[-83.449018,37.892457],[-83.449026,37.892556],[-83.449011,37.892716],[-83.448971,37.892948],[-83.448936,37.89308]]}},{"type":"Feature","properties":{"osm_id":16320199,"highway":"residential","name":"Nipper Drive","alt_name":null,"official_name":null,"surface":null,"tracktype":null,"service":null,"access":null,"motor_vehicle":null,"foot":null,"tiger_reviewed":"no","rrgh_part":0,"rrgh_tile_part":0},"geometry":{"type":"LineString","coordinates":[[-83.443765,37.889932],[-83.443023,37.889161],[-83.442453,37.888595]]}},{"type":"Feature","properties":{"osm_id":16320530,"highway":"residential","name":"Ezel Cemetery Road","alt_name":null,"official_name":null,"surface":null,"tracktype":null,"service":null,"access":null,"motor_vehicle":null,"foot":null,"tiger_reviewed":"no","rrgh_part":0,"rrgh_tile_part":0},"geometry":{"type":"LineString","coordinates":[[-83.443478,37.891767],[-83.443357,37.891742],[-83.44332,37.891727],[-83.443162,37.891705],[-83.443027,37.891726],[-83.442755,37.891686],[-83.442136,37.891543],[-83.44209,37.891541],[-83.442042,37.891557],[-83.441952,37.891614],[-83.441887,37.891641],[-83.441806,37.891658],[-83.441406,37.891676],[-83.440886,37.891712],[-83.440629,37.89173],[-83.440408,37.891752],[-83.44031,37.891772],[-83.440149,37.891827],[-83.440098,37.891864],[-83.440075,37.891906],[-83.440088,37.891943],[-83.440126,37.891966],[-83.440162,37.891971],[-83.440185,37.891974],[-83.440259,37.891973]]}},{"type":"Feature","properties":{"osm_id":16320533,"highway":"residential","name":"Ezel Cemetery Road","alt_name":null,"official_name":null,"surface":null,"tracktype":null,"service":null,"access":null,"motor_vehicle":null,"foot":null,"tiger_reviewed":"no","rrgh_part":0,"rrgh_tile_part":0},"geometry":{"type":"LineString","coordinates":[[-83.44037,37.89197],[-83.440504,37.891968],[-83.440845,37.891961],[-83.440996,37.891947],[-83.441066,37.891928],[-83.441129,37.891896],[-83.441327,37.891717],[-83.441406,37.891676]]}},{"type":"Feature","properties":{"osm_id":16321888,"highway":"residential","name":"Frog Hollow Road","alt_name":null,"official_name":null,"surface":null,"tracktype":null,"service":null,"access":null,"motor_vehicle":null,"foot":null,"tiger_reviewed":"no","rrgh_part":0,"rrgh_tile_part":0},"geometry":{"type":"LineString","coordinates":[[-83.445019,37.892375],[-83.444753,37.892894],[-83.444595,37.893274],[-83.444526,37.893504],[-83.444256,37.894407],[-83.444074,37.895124],[-83.444033,37.895251],[-83.443817,37.895815],[-83.443561,37.896533],[-83.443409,37.896998],[-83.443199,37.897501],[-83.442978,37.898101],[-83.442862,37.898337],[-83.442817,37.898478],[-83.442817,37.898551],[-83.442843,37.898623],[-83.442899,37.898685],[-83.442982,37.89873],[-83.443286,37.898822],[-83.443375,37.898856],[-83.443445,37.898917],[-83.443494,37.89902],[-83.443508,37.899079],[-83.443527,37.899466],[-83.443597,37.899855],[-83.44361344957983,37.9]]}},{"type":"Feature","properties":{"osm_id":16322258,"highway":"residential","name":"Mays Road","alt_name":null,"official_name":null,"surface":null,"tracktype":null,"service":null,"access":null,"motor_vehicle":null,"foot":null,"tiger_reviewed":"no","rrgh_part":0,"rrgh_tile_part":0},"geometry":{"type":"LineString","coordinates":[[-83.44196,37.888903],[-83.441868,37.889017],[-83.441766,37.889187],[-83.441663,37.889417],[-83.441265,37.890168]]}},{"type":"Feature","properties":{"osm_id":16322939,"highway":"service","name":"Doc Murphy Road","alt_name":null,"official_name":null,"surface":null,"tracktype":null,"service":null,"access":null,"motor_vehicle":null,"foot":null,"tiger_reviewed":"no","rrgh_part":0,"rrgh_tile_part":0},"geometry":{"type":"LineString","coordinates":[[-83.450923,37.896198],[-83.450827,37.896237],[-83.450788,37.89624],[-83.450744,37.896224],[-83.450514,37.896023],[-83.450397,37.89594],[-83.450269,37.895868],[-83.450206,37.895853],[-83.450146,37.895853],[-83.450092,37.895868],[-83.449999,37.895916],[-83.449915,37.895976],[-83.449451,37.896363],[-83.449352,37.896467],[-83.449157,37.896712],[-83.449029,37.896919],[-83.448935,37.897106],[-83.448846,37.897282],[-83.448792,37.897415],[-83.448757,37.897535],[-83.448754,37.897646],[-83.448773,37.89775],[-83.448817,37.897856],[-83.4491036,37.8982544],[-83.449303,37.898624],[-83.449344,37.89883],[-83.449369,37.899099],[-83.449358,37.899168],[-83.449281,37.899268],[-83.448992,37.899448],[-83.448635,37.899642],[-83.448359,37.899665],[-83.4480564,37.8996604],[-83.447768,37.89972],[-83.447651,37.899725],[-83.447578,37.899715],[-83.447327,37.89965],[-83.447093,37.8996],[-83.446687,37.899552],[-83.446354,37.899533],[-83.445991,37.899422],[-83.445709,37.899365],[-83.445385,37.899324],[-83.445149,37.899306],[-83.445024,37.899309],[-83.444903,37.899326],[-83.444467,37.899443],[-83.444295,37.899474],[-83.444213,37.899476],[-83.44413,37.899465],[-83.444048,37.89944],[-83.443973,37.899402],[-83.443845,37.899303],[-83.443594,37.899045],[-83.443566,37.899032],[-83.443494,37.89902]]}},{"type":"Feature","properties":{"osm_id":110153722,"highway":"residential","name":"Liberty Road","alt_name":null,"official_name":null,"surface":null,"tracktype":null,"service":null,"access":null,"motor_vehicle":null,"foot":null,"tiger_reviewed":"no","rrgh_part":0,"rrgh_tile_part":0},"geometry":{"type":"LineString","coordinates":[[-83.4398586,37.8895928],[-83.439933,37.889651],[-83.44002,37.88971],[-83.440123,37.88976],[-83.440207,37.889794],[-83.440443,37.889874],[-83.441265,37.890168],[-83.441753,37.890343],[-83.441918,37.890407],[-83.442394,37.890563],[-83.442844,37.89072],[-83.44311,37.890813],[-83.443592,37.890982],[-83.44495,37.891484],[-83.445229,37.89157]]}},{"type":"Feature","properties":{"osm_id":16319959,"highway":"residential","name":"Cemetery Road","alt_name":null,"official_name":null,"surface":null,"tracktype":null,"service":null,"access":null,"motor_vehicle":null,"foot":null,"tiger_reviewed":"no","rrgh_part":0,"rrgh_tile_part":0},"geometry":{"type":"LineString","coordinates":[[-83.442394,37.890563],[-83.442204,37.891075],[-83.442103,37.89131],[-83.442042,37.891557]]}},{"type":"Feature","properties":{"osm_id":16321709,"highway":"residential","name":"Presbyterian Church Road","alt_name":null,"official_name":null,"surface":null,"tracktype":null,"service":null,"access":null,"motor_vehicle":null,"foot":null,"tiger_reviewed":"no","rrgh_part":0,"rrgh_tile_part":0},"geometry":{"type":"LineString","coordinates":[[-83.443478,37.891767],[-83.443771,37.891829],[-83.44411,37.89189],[-83.445064,37.892123]]}},{"type":"Feature","properties":{"osm_id":16322463,"highway":"residential","name":"Crossover Road","alt_name":null,"official_name":null,"surface":null,"tracktype":null,"service":null,"access":null,"motor_vehicle":null,"foot":null,"tiger_reviewed":"no","rrgh_part":0,"rrgh_tile_part":0},"geometry":{"type":"LineString","coordinates":[[-83.444288,37.889877],[-83.444202,37.889905],[-83.444104,37.889919],[-83.443765,37.889932],[-83.443651,37.889945],[-83.443556,37.889971],[-83.443474,37.890016],[-83.443414,37.890074],[-83.443372,37.890142],[-83.443255,37.890474],[-83.44311,37.890813]]}},{"type":"Feature","properties":{"osm_id":16319826,"highway":"residential","name":"Back-Holland Cemetery Road","alt_name":null,"official_name":null,"surface":null,"tracktype":null,"service":null,"access":null,"motor_vehicle":null,"foot":null,"tiger_reviewed":"no","rrgh_part":0,"rrgh_tile_part":0},"geometry":{"type":"LineString","coordinates":[[-83.435661,37.872394],[-83.435756,37.872367],[-83.436,37.872327],[-83.436274,37.872253],[-83.436381,37.87224],[-83.43644,37.872248],[-83.436508,37.872271],[-83.436563,37.872344],[-83.436605,37.872499],[-83.436633,37.872656],[-83.436695,37.87279],[-83.436771,37.872872],[-83.437004,37.873054],[-83.437086,37.873134],[-83.437447,37.873556],[-83.437722,37.873923],[-83.437779,37.87398],[-83.437923,37.874059],[-83.438006,37.874082],[-83.438087,37.874081],[-83.438151,37.874058],[-83.438202,37.874011],[-83.43838,37.873724],[-83.438635,37.873395],[-83.438689,37.873294],[-83.438804,37.872976],[-83.4389356,37.8727669],[-83.4389739,37.872691]]}},{"type":"Feature","properties":{"osm_id":1521973263,"highway":"service","name":null,"alt_name":null,"official_name":null,"surface":null,"tracktype":null,"service":null,"access":null,"motor_vehicle":null,"foot":null,"tiger_reviewed":null,"rrgh_part":0,"rrgh_tile_part":0},"geometry":{"type":"LineString","coordinates":[[-83.4389739,37.872691],[-83.4387869,37.8724941]]}},{"type":"Feature","properties":{"osm_id":16322628,"highway":"residential","name":"Liberty Road","alt_name":null,"official_name":null,"surface":null,"tracktype":null,"service":null,"access":null,"motor_vehicle":null,"foot":null,"tiger_reviewed":"no","rrgh_part":0,"rrgh_tile_part":0},"geometry":{"type":"LineString","coordinates":[[-83.437761,37.888156],[-83.437836,37.888149],[-83.437926,37.888178],[-83.438278,37.888416],[-83.438735,37.8887],[-83.439366,37.889164],[-83.4398586,37.8895928]]}},{"type":"Feature","properties":{"osm_id":16321404,"highway":"residential","name":"Old Ezel School Road","alt_name":null,"official_name":null,"surface":null,"tracktype":null,"service":null,"access":null,"motor_vehicle":null,"foot":null,"tiger_reviewed":"no","rrgh_part":0,"rrgh_tile_part":0},"geometry":{"type":"LineString","coordinates":[[-83.437761,37.888156],[-83.4373,37.888239],[-83.437093,37.888374],[-83.43678,37.888424],[-83.436633,37.888498],[-83.436503,37.888588],[-83.436459,37.888645],[-83.43643,37.888708],[-83.436368,37.888919],[-83.436077,37.889676],[-83.43595,37.889893],[-83.435603,37.890375],[-83.435472,37.890532],[-83.43533,37.890664],[-83.435089,37.890916],[-83.434992,37.890995],[-83.434907,37.891037],[-83.434581,37.89111]]}},{"type":"Feature","properties":{"osm_id":16321892,"highway":"residential","name":"Archie Watkins Road","alt_name":null,"official_name":null,"surface":null,"tracktype":null,"service":null,"access":null,"motor_vehicle":null,"foot":null,"tiger_reviewed":"no","rrgh_part":0,"rrgh_tile_part":0},"geometry":{"type":"LineString","coordinates":[[-83.433624,37.887528],[-83.433747,37.887796],[-83.433881,37.888017],[-83.433968,37.888186],[-83.434055,37.888453],[-83.434089,37.888631],[-83.4341,37.888799],[-83.434119,37.88888],[-83.434025,37.889246],[-83.434023,37.889303],[-83.434058,37.889412]]}},{"type":"Feature","properties":{"osm_id":16322574,"highway":"residential","name":"Master Lane","alt_name":null,"official_name":null,"surface":null,"tracktype":null,"service":null,"access":null,"motor_vehicle":null,"foot":null,"tiger_reviewed":"no","rrgh_part":0,"rrgh_tile_part":0},"geometry":{"type":"LineString","coordinates":[[-83.42943,37.891018],[-83.425124,37.889435]]}},{"type":"Feature","properties":{"osm_id":16322061,"highway":"residential","name":"Liberty Lane","alt_name":null,"official_name":null,"surface":null,"tracktype":null,"service":null,"access":null,"motor_vehicle":null,"foot":null,"tiger_reviewed":"no","rrgh_part":0,"rrgh_tile_part":0},"geometry":{"type":"LineString","coordinates":[[-83.440259,37.891973],[-83.44037,37.89197]]}},{"type":"Feature","properties":{"osm_id":16317740,"highway":"service","name":null,"alt_name":null,"official_name":null,"surface":null,"tracktype":null,"service":null,"access":"private","motor_vehicle":null,"foot":null,"tiger_reviewed":"no","rrgh_part":0,"rrgh_tile_part":0},"geometry":{"type":"LineString","coordinates":[[-83.424576,37.896622],[-83.422142,37.894844],[-83.422044,37.894274]]}},{"type":"Feature","properties":{"osm_id":16318123,"highway":"service","name":null,"alt_name":null,"official_name":null,"surface":null,"tracktype":null,"service":null,"access":"private","motor_vehicle":null,"foot":null,"tiger_reviewed":"no","rrgh_part":0,"rrgh_tile_part":0},"geometry":{"type":"LineString","coordinates":[[-83.42,37.896405817813765],[-83.420354,37.896477],[-83.42048,37.896525],[-83.420584,37.896567],[-83.421168,37.896802],[-83.42136,37.897053],[-83.421594,37.897222],[-83.421899,37.897336]]}},{"type":"Feature","properties":{"osm_id":16317696,"highway":"residential","name":null,"alt_name":null,"official_name":null,"surface":null,"tracktype":null,"service":null,"access":null,"motor_vehicle":null,"foot":null,"tiger_reviewed":"no","rrgh_part":0,"rrgh_tile_part":0},"geometry":{"type":"LineString","coordinates":[[-83.420475,37.894501],[-83.420433,37.894159],[-83.420438,37.893859],[-83.420504,37.89351],[-83.420558,37.893229],[-83.420605,37.89274],[-83.420661,37.892369],[-83.420735,37.892157]]}},{"type":"Feature","properties":{"osm_id":16320307,"highway":"service","name":"South Sawmill Road","alt_name":null,"official_name":null,"surface":null,"tracktype":null,"service":null,"access":null,"motor_vehicle":null,"foot":null,"tiger_reviewed":"no","rrgh_part":0,"rrgh_tile_part":0},"geometry":{"type":"LineString","coordinates":[[-83.45388,37.899012],[-83.45388,37.899299],[-83.453843,37.899356],[-83.453773,37.899406],[-83.45368,37.899455],[-83.453573,37.899496],[-83.453454,37.899527]]}},{"type":"Feature","properties":{"osm_id":313839508,"highway":"service","name":null,"alt_name":null,"official_name":null,"surface":null,"tracktype":null,"service":null,"access":null,"motor_vehicle":null,"foot":null,"tiger_reviewed":null,"rrgh_part":0,"rrgh_tile_part":0},"geometry":{"type":"LineString","coordinates":[[-83.453454,37.899527],[-83.4535756,37.8995462],[-83.4537733,37.8994994],[-83.4539908,37.8994432],[-83.4541119,37.899408],[-83.4541411,37.8993996],[-83.4542518,37.8993777],[-83.454489,37.8994089],[-83.4545918,37.8994089],[-83.4546567,37.8993497]]}},{"type":"Feature","properties":{"osm_id":313839511,"highway":"service","name":null,"alt_name":null,"official_name":null,"surface":null,"tracktype":null,"service":null,"access":null,"motor_vehicle":null,"foot":null,"tiger_reviewed":null,"rrgh_part":0,"rrgh_tile_part":0},"geometry":{"type":"LineString","coordinates":[[-83.4541119,37.899408],[-83.4539908,37.8996336],[-83.4537891,37.8998364],[-83.45371,37.899905],[-83.45365995138638,37.9]]}},{"type":"Feature","properties":{"osm_id":16319899,"highway":"service","name":"Paradise Hill","alt_name":null,"official_name":null,"surface":null,"tracktype":null,"service":null,"access":null,"motor_vehicle":null,"foot":null,"tiger_reviewed":"no","rrgh_part":0,"rrgh_tile_part":0},"geometry":{"type":"LineString","coordinates":[[-83.451943,37.897229],[-83.451846,37.897295],[-83.45172,37.897364],[-83.451604,37.897419],[-83.451469,37.897464],[-83.451326,37.897481],[-83.450929,37.897442],[-83.450801,37.897445],[-83.450692,37.897471],[-83.450592,37.897522]]}},{"type":"Feature","properties":{"osm_id":16320304,"highway":"service","name":"South Sawmill Road","alt_name":null,"official_name":null,"surface":null,"tracktype":null,"service":null,"access":null,"motor_vehicle":null,"foot":null,"tiger_reviewed":"no","rrgh_part":0,"rrgh_tile_part":0},"geometry":{"type":"LineString","coordinates":[[-83.453157,37.899528],[-83.453454,37.899527],[-83.453352,37.899553],[-83.453311,37.899578],[-83.453215,37.899668],[-83.453172,37.899685],[-83.453124,37.899687],[-83.453082,37.899671],[-83.453055,37.899641],[-83.453049,37.899604],[-83.453068,37.899568],[-83.453107,37.899543],[-83.453157,37.899528]]}},{"type":"Feature","properties":{"osm_id":16317796,"highway":"residential","name":null,"alt_name":null,"official_name":null,"surface":null,"tracktype":null,"service":null,"access":null,"motor_vehicle":null,"foot":null,"tiger_reviewed":"no","rrgh_part":0,"rrgh_tile_part":0},"geometry":{"type":"LineString","coordinates":[[-83.435902,37.898796],[-83.43756700344431,37.9]]}},{"type":"Feature","properties":{"osm_id":16318124,"highway":"service","name":null,"alt_name":null,"official_name":null,"surface":null,"tracktype":null,"service":null,"access":"private","motor_vehicle":null,"foot":null,"tiger_reviewed":"no","rrgh_part":0,"rrgh_tile_part":0},"geometry":{"type":"LineString","coordinates":[[-83.42,37.89748568438539],[-83.420584,37.896567]]}}],"rrgh_tile":{"id":"r6c6","bounds":[37.825,-83.505,37.9,-83.42]}}
