{"type":"FeatureCollection","features":[{"type":"Feature","properties":{"osm_id":16322201,"highway":"residential","name":"Upper Long Branch Road","alt_name":null,"official_name":null,"surface":null,"tracktype":null,"service":null,"access":null,"motor_vehicle":null,"foot":null,"tiger_reviewed":"no","rrgh_part":0,"rrgh_tile_part":0},"geometry":{"type":"LineString","coordinates":[[-83.352263,37.888261],[-83.352415,37.888223],[-83.352564,37.888159],[-83.352737,37.888049],[-83.353029,37.887822],[-83.353121,37.887734],[-83.353201,37.887638],[-83.353265,37.887535],[-83.353407,37.887229],[-83.353463,37.88713],[-83.353604,37.886934],[-83.353692,37.886845],[-83.353797,37.886748],[-83.353914,37.886659],[-83.354469,37.886306],[-83.354874,37.886013],[-83.35502,37.885927],[-83.356148,37.885333],[-83.357325,37.88474],[-83.35749,37.884671],[-83.357658,37.884615],[-83.357833,37.88457],[-83.358017,37.884538],[-83.358606,37.884466],[-83.359645,37.884355],[-83.360441,37.884255],[-83.360649,37.884242],[-83.360857,37.884241],[-83.36147,37.884304],[-83.361686,37.884319],[-83.361904,37.884322],[-83.362077,37.88431],[-83.362531,37.884278],[-83.362744,37.884276],[-83.364069,37.884215],[-83.365174,37.884186],[-83.365376,37.884162],[-83.365571,37.884119],[-83.36591,37.884023],[-83.366037,37.883974],[-83.366353,37.883768],[-83.366479,37.883716],[-83.366617,37.883687],[-83.36695,37.883647],[-83.36712,37.883642],[-83.367292,37.88365],[-83.367654,37.883686],[-83.368412,37.883782],[-83.368962,37.883881],[-83.36914,37.883902],[-83.369284,37.883904],[-83.369315,37.883905],[-83.369494,37.883893],[-83.370019,37.883814],[-83.370171,37.883806],[-83.370301,37.883819],[-83.370409,37.883857],[-83.370659,37.884044],[-83.370747,37.884093],[-83.370844,37.884118],[-83.37091,37.884118],[-83.370951,37.884118],[-83.371063,37.8841],[-83.371177,37.884065],[-83.371672,37.883832],[-83.37251,37.8835],[-83.373772,37.882953],[-83.373908,37.882875],[-83.374018,37.882799],[-83.374253,37.882539],[-83.374355,37.882463],[-83.374474,37.882406],[-83.375173,37.88221],[-83.375965,37.88201],[-83.37685,37.881763],[-83.377215,37.881704],[-83.378175,37.8816],[-83.378369,37.881587],[-83.378746,37.881596],[-83.378928,37.881591],[-83.379103,37.881562],[-83.379274,37.881511],[-83.379762,37.881321],[-83.379934,37.881269],[-83.380115,37.881228],[-83.3807,37.881145],[-83.381095,37.881108],[-83.381705,37.881035],[-83.38191,37.881021],[-83.382384,37.881016],[-83.38252,37.881015],[-83.382722,37.880999],[-83.382918,37.880969],[-83.383107,37.880924],[-83.38329,37.880865],[-83.383355,37.880836],[-83.383987,37.880552],[-83.384166,37.880493],[-83.38435,37.880448],[-83.38454,37.880419],[-83.384734,37.880406],[-83.384929,37.880413],[-83.385505,37.880495],[-83.385691,37.880532],[-83.385786,37.880556],[-83.385875,37.880579],[-83.386388,37.880764],[-83.386542,37.880805],[-83.386697,37.88083],[-83.386858,37.880837],[-83.387021,37.880825],[-83.38736,37.88078],[-83.38753,37.880743],[-83.387697,37.880689],[-83.388019,37.880559],[-83.388188,37.880516],[-83.388538,37.880478],[-83.38888,37.880415],[-83.389196,37.88033],[-83.389926,37.880134],[-83.390213,37.879994],[-83.390351,37.879917],[-83.3905,37.879855],[-83.390983,37.879813],[-83.391159,37.879812],[-83.391529,37.87979],[-83.391702,37.879788],[-83.392228,37.879835],[-83.39241,37.879835],[-83.392591,37.879814],[-83.392781,37.87978],[-83.393314,37.879597],[-83.393881,37.879439],[-83.394233,37.879297],[-83.394574,37.879176],[-83.395426,37.878945],[-83.395623,37.878903],[-83.395891,37.878865],[-83.39604,37.878844],[-83.396239,37.878823],[-83.396427,37.878826],[-83.396608,37.878855],[-83.398562,37.879268],[-83.398763,37.879317],[-83.398958,37.879377],[-83.399148,37.879453],[-83.3998,37.879753],[-83.399896,37.879797],[-83.400086,37.879867],[-83.40028,37.879916],[-83.400682,37.879978],[-83.401106,37.880026],[-83.40195,37.880099],[-83.402151,37.880093],[-83.402547,37.880048],[-83.403172,37.879993],[-83.403787,37.879907],[-83.404013,37.879853],[-83.404115,37.879817],[-83.404217,37.879781],[-83.404408,37.87969],[-83.404904,37.879429],[-83.405938,37.878911],[-83.406304,37.878696],[-83.406653,37.878507],[-83.406855,37.878398],[-83.407341,37.878083],[-83.407679,37.877899],[-83.407836,37.87783],[-83.40801,37.87777],[-83.408122,37.877731],[-83.408435,37.877666],[-83.408547,37.877628],[-83.408866,37.877468],[-83.409127,37.877367],[-83.409346,37.877248],[-83.409607,37.877143],[-83.409883,37.877017],[-83.410176,37.876922],[-83.410496,37.876836],[-83.41085,37.876769],[-83.411648,37.876683],[-83.41184,37.876682],[-83.412023,37.876701],[-83.412193,37.876739],[-83.412334,37.8768],[-83.412452,37.876886],[-83.412547,37.87699],[-83.412622,37.877108],[-83.41279,37.877506],[-83.412934,37.877783],[-83.413341,37.878341],[-83.413443,37.878463],[-83.413559,37.878559],[-83.413665,37.878632],[-83.413792,37.878679],[-83.413983,37.878692],[-83.414499,37.878706],[-83.414867,37.878736],[-83.415742,37.878864],[-83.41677,37.878956],[-83.417149,37.879013],[-83.417423,37.879054],[-83.417808,37.8791],[-83.418012,37.879111],[-83.418681,37.879119],[-83.419102,37.879142],[-83.419297,37.879173],[-83.419484,37.879218],[-83.419662,37.879279],[-83.42,37.87944031818182]]}},{"type":"Feature","properties":{"osm_id":16321708,"highway":"residential","name":"Lower Nickell Branch Road","alt_name":null,"official_name":null,"surface":null,"tracktype":null,"service":null,"access":null,"motor_vehicle":null,"foot":null,"tiger_reviewed":"no","rrgh_part":0,"rrgh_tile_part":0},"geometry":{"type":"LineString","coordinates":[[-83.410103,37.83671],[-83.41027,37.837032],[-83.410355,37.837116],[-83.410502,37.837202],[-83.410602,37.837243],[-83.410851,37.837323],[-83.411315,37.837447],[-83.412351,37.83782],[-83.413115,37.838066],[-83.413662,37.83829],[-83.414224,37.8385],[-83.414403,37.838581],[-83.414927,37.838854],[-83.415287,37.839012],[-83.415575,37.839125],[-83.415708,37.839159],[-83.415847,37.839183],[-83.416299,37.839226],[-83.416458,37.839226],[-83.416565,37.839219],[-83.416783,37.839205],[-83.416944,37.839205],[-83.417257,37.839234],[-83.417576,37.839236],[-83.417735,37.839226],[-83.418035,37.839191],[-83.41817,37.839183],[-83.418293,37.839191],[-83.418875,37.839361],[-83.41928,37.839428],[-83.419751,37.83952],[-83.42,37.83959372205438]]}},{"type":"Feature","properties":{"osm_id":16322057,"highway":"residential","name":"Bryant Fork Road","alt_name":null,"official_name":null,"surface":null,"tracktype":null,"service":null,"access":null,"motor_vehicle":null,"foot":null,"tiger_reviewed":"no","rrgh_part":0,"rrgh_tile_part":0},"geometry":{"type":"LineString","coordinates":[[-83.42,37.8699559046729],[-83.419712,37.869887],[-83.419562,37.869831],[-83.419423,37.869754],[-83.419105,37.869553],[-83.418578,37.86922],[-83.418433,37.869139],[-83.418281,37.869071],[-83.418082,37.869009],[-83.417954,37.868969],[-83.417787,37.868934],[-83.417617,37.868914],[-83.417446,37.868913],[-83.415973,37.868993],[-83.415593,37.869044],[-83.415416,37.869094],[-83.415248,37.869163],[-83.415083,37.869243],[-83.414767,37.869432],[-83.414009,37.869966],[-83.41358,37.870301],[-83.413285,37.870516],[-83.412974,37.870708],[-83.412656,37.870875],[-83.412368,37.870995],[-83.412228,37.871028],[-83.412085,37.871047],[-83.41165,37.871066],[-83.411517,37.871079],[-83.41137,37.871093],[-83.411305,37.871088],[-83.411241,37.871069],[-83.411176,37.871036],[-83.410921,37.870787],[-83.410689,37.870582],[-83.410528,37.870287],[-83.410476,37.870207],[-83.410413,37.870142],[-83.410323,37.87009],[-83.4101,37.869996],[-83.409873,37.869858],[-83.409759,37.869777],[-83.408934,37.869005],[-83.408711,37.868819],[-83.408467,37.868652],[-83.408252,37.868475],[-83.407892,37.868144],[-83.407792,37.868091],[-83.407261,37.868002],[-83.407172,37.867998],[-83.407118,37.867996],[-83.406853,37.868025],[-83.406741,37.868027],[-83.406619,37.867996],[-83.406543,37.867955],[-83.406492,37.867904],[-83.406386,37.867832],[-83.406342,37.867803],[-83.406029,37.86768],[-83.405932,37.867619],[-83.405689,37.867412],[-83.405302,37.86718],[-83.405069,37.867102],[-83.405028,37.867079],[-83.404999,37.867049],[-83.404941,37.866949]]}},{"type":"Feature","properties":{"osm_id":16319636,"highway":"residential","name":"Holland Road","alt_name":null,"official_name":null,"surface":null,"tracktype":null,"service":null,"access":null,"motor_vehicle":null,"foot":null,"tiger_reviewed":"no","rrgh_part":0,"rrgh_tile_part":0},"geometry":{"type":"LineString","coordinates":[[-83.416785,37.831042],[-83.41671,37.830972],[-83.416679,37.830943],[-83.416616,37.830924],[-83.416444,37.830838],[-83.416326,37.830757],[-83.415958,37.830532],[-83.415695,37.830345]]}},{"type":"Feature","properties":{"osm_id":16317698,"highway":"service","name":null,"alt_name":null,"official_name":null,"surface":null,"tracktype":null,"service":null,"access":"private","motor_vehicle":null,"foot":null,"tiger_reviewed":"no","rrgh_part":0,"rrgh_tile_part":0},"geometry":{"type":"LineString","coordinates":[[-83.415191,37.8314],[-83.415471,37.831553],[-83.415682,37.831669]]}},{"type":"Feature","properties":{"osm_id":16318140,"highway":"service","name":null,"alt_name":null,"official_name":null,"surface":null,"tracktype":null,"service":null,"access":"private","motor_vehicle":null,"foot":null,"tiger_reviewed":"no","rrgh_part":0,"rrgh_tile_part":0},"geometry":{"type":"LineString","coordinates":[[-83.416217,37.83241],[-83.415933,37.832248],[-83.415712,37.832086],[-83.415507,37.832111],[-83.415017,37.832459],[-83.414822,37.832474]]}},{"type":"Feature","properties":{"osm_id":16317699,"highway":"service","name":null,"alt_name":null,"official_name":null,"surface":null,"tracktype":null,"service":null,"access":"private","motor_vehicle":null,"foot":null,"tiger_reviewed":"no","rrgh_part":0,"rrgh_tile_part":0},"geometry":{"type":"LineString","coordinates":[[-83.41377,37.832036],[-83.414348,37.832357],[-83.414727,37.832568]]}},{"type":"Feature","properties":{"osm_id":313840179,"highway":"service","name":"Bobby Jones Branch Road","alt_name":null,"official_name":null,"surface":null,"tracktype":null,"service":null,"access":null,"motor_vehicle":null,"foot":null,"tiger_reviewed":null,"rrgh_part":0,"rrgh_tile_part":0},"geometry":{"type":"LineString","coordinates":[[-83.414669,37.855703],[-83.4151651,37.8561621],[-83.4154712,37.8564038],[-83.4156341,37.8567123],[-83.415595,37.8568821],[-83.4158295,37.8574683],[-83.4158099,37.8579157]]}},{"type":"Feature","properties":{"osm_id":16317676,"highway":"service","name":null,"alt_name":null,"official_name":null,"surface":null,"tracktype":null,"service":null,"access":"private","motor_vehicle":null,"foot":null,"tiger_reviewed":"no","rrgh_part":0,"rrgh_tile_part":0},"geometry":{"type":"LineString","coordinates":[[-83.4179467,37.8549477],[-83.417681,37.854342],[-83.417623,37.854152],[-83.417623,37.853872],[-83.417692,37.853718]]}},{"type":"Feature","properties":{"osm_id":16321247,"highway":"residential","name":"Phils Branch Road","alt_name":null,"official_name":null,"surface":null,"tracktype":null,"service":null,"access":null,"motor_vehicle":null,"foot":null,"tiger_reviewed":"no","rrgh_part":0,"rrgh_tile_part":0},"geometry":{"type":"LineString","coordinates":[[-83.362857,37.850286],[-83.362881,37.850247],[-83.363027,37.850129],[-83.363054,37.850091],[-83.363078,37.849982],[-83.363,37.849939],[-83.362914,37.849844],[-83.362882,37.849784],[-83.362866,37.849714],[-83.362863,37.849554],[-83.3629,37.849181],[-83.362905,37.849012],[-83.362872,37.848849],[-83.362776,37.848585],[-83.362708,37.848318],[-83.362673,37.848045],[-83.3627,37.847503],[-83.362772,37.847132],[-83.362792,37.846962],[-83.362809,37.846449],[-83.362751,37.846218],[-83.362722,37.845994],[-83.362777,37.845529],[-83.362782,37.845049],[-83.362827,37.844747],[-83.362838,37.844464],[-83.362854,37.844379],[-83.36288,37.844297],[-83.363069,37.843935],[-83.363116,37.843797],[-83.363138,37.843653],[-83.363139,37.843575],[-83.363119,37.843482],[-83.363122,37.843305],[-83.36319,37.843017],[-83.363305,37.842733],[-83.363335,37.842634],[-83.363489,37.842311],[-83.363718,37.841888],[-83.363917,37.841426],[-83.363997,37.841168],[-83.36408,37.840814],[-83.364314,37.840199],[-83.3644,37.840014],[-83.364558,37.839752],[-83.3646,37.839662],[-83.364609,37.839631],[-83.364814,37.83891],[-83.364928,37.838584],[-83.364938,37.838556],[-83.365003,37.838276],[-83.365013,37.838235],[-83.365059,37.83812],[-83.365142,37.837978],[-83.365194,37.83776],[-83.365218,37.837662],[-83.365311,37.837489],[-83.3656,37.837047],[-83.365776,37.836648],[-83.365921,37.836373],[-83.366038,37.836091],[-83.366121,37.835825],[-83.366149,37.835698],[-83.366161,37.835577],[-83.366154,37.835459],[-83.366076,37.835106],[-83.36604,37.834737],[-83.366043,37.834358],[-83.366025,37.834238],[-83.36599,37.834122],[-83.365935,37.834011],[-83.365764,37.833794],[-83.365369,37.833382],[-83.365292,37.833273],[-83.365112,37.832913],[-83.36497,37.832687],[-83.364445,37.832147],[-83.364343,37.832082],[-83.364241,37.832035],[-83.364082,37.831981],[-83.364025,37.831961],[-83.363793,37.831862],[-83.363525,37.831728],[-83.363384,37.831638],[-83.363243,37.83157],[-83.362834,37.83134],[-83.362664,37.831222],[-83.362597,37.831175],[-83.362363,37.830969],[-83.362017,37.83076],[-83.36187,37.830644],[-83.36183,37.830594],[-83.361813,37.830545],[-83.361814,37.830493],[-83.361899,37.83033],[-83.361915,37.83027],[-83.361916,37.830205],[-83.361843,37.829932],[-83.361761,37.829758],[-83.361644,37.829149],[-83.361587,37.828974],[-83.361525,37.828892],[-83.361438,37.828817],[-83.361328,37.828741],[-83.361085,37.828622],[-83.360851,37.828525],[-83.360733,37.828492],[-83.360258,37.828422],[-83.359934,37.828363],[-83.359828,37.82834],[-83.359535,37.828251],[-83.359432,37.828233],[-83.35932,37.828238],[-83.359049,37.828288],[-83.358551,37.828408],[-83.358029,37.828566],[-83.357295,37.828824],[-83.35703,37.828935],[-83.356503,37.829194],[-83.35614,37.829333],[-83.355722,37.829516],[-83.355323,37.829652],[-83.35468,37.830009],[-83.354563,37.830095],[-83.354172,37.830477],[-83.353879,37.83085],[-83.353733,37.831009],[-83.353648,37.831074],[-83.353619,37.831088],[-83.353342,37.831224],[-83.353229,37.831293],[-83.353113,37.83138],[-83.352661,37.831756],[-83.352475,37.831902],[-83.35224,37.832085],[-83.352013,37.832211],[-83.351769,37.832491],[-83.351669,37.832576],[-83.351555,37.832648],[-83.351392,37.832731],[-83.351326,37.832765],[-83.350996,37.832873],[-83.350799,37.832951],[-83.35071,37.833001],[-83.350401,37.833282],[-83.35027,37.833377],[-83.35014,37.833486],[-83.350029,37.833596],[-83.349756,37.833815],[-83.349173,37.834211],[-83.348926,37.834391],[-83.3488,37.834467],[-83.348673,37.834523],[-83.348271,37.83466],[-83.348038,37.834767],[-83.347967,37.8348],[-83.347877,37.834855],[-83.347793,37.834873],[-83.347686,37.834873],[-83.347308,37.834795],[-83.347235,37.83478],[-83.346811,37.834725],[-83.34624,37.834631],[-83.345948,37.834596],[-83.345803,37.834592],[-83.345653,37.834601],[-83.345509,37.834624],[-83.345371,37.834668],[-83.34524,37.834724],[-83.34512,37.834789],[-83.344909,37.834943],[-83.344708,37.835137],[-83.344693,37.835152],[-83.344602,37.835242],[-83.344087,37.83575],[-83.343742,37.835972],[-83.34289,37.836378],[-83.342764,37.836419],[-83.342129,37.836547],[-83.342003,37.836561],[-83.341772,37.836566],[-83.341473,37.836542],[-83.34138,37.83657],[-83.341301,37.83662],[-83.341261,37.836663],[-83.341237,37.83669],[-83.341198,37.836777],[-83.341179,37.836877],[-83.341167,37.837118],[-83.341176,37.837378],[-83.341157,37.837636]]}},{"type":"Feature","properties":{"osm_id":16318305,"highway":"residential","name":null,"alt_name":null,"official_name":null,"surface":null,"tracktype":null,"service":null,"access":null,"motor_vehicle":null,"foot":null,"tiger_reviewed":"no","rrgh_part":0,"rrgh_tile_part":0},"geometry":{"type":"LineString","coordinates":[[-83.388921,37.829622],[-83.389518,37.830312]]}},{"type":"Feature","properties":{"osm_id":16317695,"highway":"service","name":null,"alt_name":null,"official_name":null,"surface":null,"tracktype":null,"service":null,"access":"private","motor_vehicle":null,"foot":null,"tiger_reviewed":"no","rrgh_part":0,"rrgh_tile_part":0},"geometry":{"type":"LineString","coordinates":[[-83.40845,37.838315],[-83.408052,37.837963],[-83.407685,37.837594],[-83.407276,37.837354],[-83.407048,37.837245],[-83.406708,37.837085],[-83.406287,37.836839],[-83.406222,37.83654],[-83.406118,37.836288],[-83.405995,37.836173],[-83.4058,37.836172]]}},{"type":"Feature","properties":{"osm_id":16322453,"highway":"residential","name":"Bear Branch Road","alt_name":null,"official_name":null,"surface":null,"tracktype":null,"service":null,"access":null,"motor_vehicle":null,"foot":null,"tiger_reviewed":"no","rrgh_part":0,"rrgh_tile_part":0},"geometry":{"type":"LineString","coordinates":[[-83.38331453197675,37.825],[-83.38341,37.825246],[-83.383509,37.825814],[-83.383555,37.826034],[-83.38376,37.826413],[-83.383854,37.826626],[-83.384138,37.827487],[-83.384338,37.82801],[-83.384343,37.828136],[-83.384266,37.828648],[-83.38419,37.828994],[-83.384164,37.829228],[-83.384164,37.829458],[-83.384144,37.829562],[-83.384111,37.829662],[-83.384004,37.829858],[-83.383933,37.829943],[-83.383573,37.83027],[-83.38329,37.830479],[-83.382904,37.830693],[-83.382834,37.830755],[-83.382743,37.830888],[-83.382698,37.831018],[-83.38268,37.831048],[-83.382665,37.831074],[-83.382613,37.831123],[-83.382548,37.831171],[-83.382472,37.831211],[-83.382141,37.831356],[-83.382083,37.831397],[-83.382018,37.831469]]}},{"type":"Feature","properties":{"osm_id":16318627,"highway":"residential","name":"Risner Branch Road","alt_name":null,"official_name":null,"surface":null,"tracktype":null,"service":null,"access":null,"motor_vehicle":null,"foot":null,"tiger_reviewed":"no","rrgh_part":0,"rrgh_tile_part":0},"geometry":{"type":"LineString","coordinates":[[-83.383968,37.838259],[-83.384719,37.838551],[-83.385071,37.838813],[-83.385477,37.838936],[-83.386243,37.838987]]}},{"type":"Feature","properties":{"osm_id":16320431,"highway":"track","name":null,"alt_name":null,"official_name":null,"surface":null,"tracktype":null,"service":null,"access":null,"motor_vehicle":null,"foot":null,"tiger_reviewed":"no","rrgh_part":0,"rrgh_tile_part":0},"geometry":{"type":"LineString","coordinates":[[-83.409211,37.856877],[-83.409446,37.857117],[-83.409717,37.857971],[-83.409805,37.858098],[-83.409864,37.858186],[-83.410264,37.860013],[-83.410351,37.860063],[-83.410384,37.860371],[-83.410634,37.860951],[-83.410712,37.861132]]}},{"type":"Feature","properties":{"osm_id":16317766,"highway":"service","name":null,"alt_name":null,"official_name":null,"surface":null,"tracktype":null,"service":null,"access":"private","motor_vehicle":null,"foot":null,"tiger_reviewed":"no","rrgh_part":0,"rrgh_tile_part":0},"geometry":{"type":"LineString","coordinates":[[-83.402625,37.870063],[-83.403112,37.868688],[-83.404598,37.867585],[-83.405069,37.867102]]}},{"type":"Feature","properties":{"osm_id":16318195,"highway":"service","name":null,"alt_name":null,"official_name":null,"surface":null,"tracktype":null,"service":null,"access":"private","motor_vehicle":null,"foot":null,"tiger_reviewed":"no","rrgh_part":0,"rrgh_tile_part":0},"geometry":{"type":"LineString","coordinates":[[-83.409567,37.866848],[-83.408448,37.866471],[-83.407232,37.867313],[-83.407172,37.867998]]}},{"type":"Feature","properties":{"osm_id":16317762,"highway":"track","name":null,"alt_name":null,"official_name":null,"surface":null,"tracktype":null,"service":null,"access":null,"motor_vehicle":null,"foot":null,"tiger_reviewed":"no","rrgh_part":0,"rrgh_tile_part":0},"geometry":{"type":"LineString","coordinates":[[-83.3989727,37.8618703],[-83.3989141,37.8609652],[-83.3990248,37.8606207]]}},{"type":"Feature","properties":{"osm_id":313840180,"highway":"service","name":"Bryant Fork Road","alt_name":null,"official_name":null,"surface":null,"tracktype":null,"service":null,"access":null,"motor_vehicle":null,"foot":null,"tiger_reviewed":"no","rrgh_part":0,"rrgh_tile_part":0},"geometry":{"type":"LineString","coordinates":[[-83.3990075,37.8584563],[-83.3988098,37.8589905],[-83.3987382,37.859731],[-83.3989531,37.8601321],[-83.3989141,37.8603636],[-83.3990248,37.8606207],[-83.3992006,37.860703]]}},{"type":"Feature","properties":{"osm_id":313840181,"highway":"service","name":null,"alt_name":null,"official_name":null,"surface":null,"tracktype":null,"service":null,"access":null,"motor_vehicle":null,"foot":null,"tiger_reviewed":null,"rrgh_part":0,"rrgh_tile_part":0},"geometry":{"type":"LineString","coordinates":[[-83.3978133,37.8585438],[-83.3978719,37.8588671],[-83.3977286,37.8594328]]}},{"type":"Feature","properties":{"osm_id":16317523,"highway":"service","name":"Wright Cemetery Road","alt_name":null,"official_name":null,"surface":null,"tracktype":null,"service":null,"access":"private","motor_vehicle":null,"foot":null,"tiger_reviewed":"no","rrgh_part":0,"rrgh_tile_part":0},"geometry":{"type":"LineString","coordinates":[[-83.391499,37.858042],[-83.391501,37.858096],[-83.391515,37.858124],[-83.391553,37.858151],[-83.391612,37.858168],[-83.391768,37.858187],[-83.392142,37.85821],[-83.392228,37.85823],[-83.392298,37.858261],[-83.392348,37.858301],[-83.39238,37.858349],[-83.392393,37.858456],[-83.392153,37.859237],[-83.39178,37.860381],[-83.391598,37.860876],[-83.391412,37.861529],[-83.391316,37.86177]]}},{"type":"Feature","properties":{"osm_id":16317693,"highway":"service","name":null,"alt_name":null,"official_name":null,"surface":null,"tracktype":null,"service":null,"access":"private","motor_vehicle":null,"foot":null,"tiger_reviewed":"no","rrgh_part":0,"rrgh_tile_part":0},"geometry":{"type":"LineString","coordinates":[[-83.373871,37.847421],[-83.374291,37.847404],[-83.374953,37.847353],[-83.37559,37.8473],[-83.375795,37.847258],[-83.375939,37.847218]]}},{"type":"Feature","properties":{"osm_id":16317879,"highway":"service","name":null,"alt_name":null,"official_name":null,"surface":null,"tracktype":null,"service":null,"access":"private","motor_vehicle":null,"foot":null,"tiger_reviewed":"no","rrgh_part":0,"rrgh_tile_part":0},"geometry":{"type":"LineString","coordinates":[[-83.375112,37.852737],[-83.374931,37.852707],[-83.374785,37.852707],[-83.374515,37.852732],[-83.374344,37.852745],[-83.374173,37.852732],[-83.37405,37.8527]]}},{"type":"Feature","properties":{"osm_id":16319819,"highway":"residential","name":"Mize Church Road","alt_name":null,"official_name":null,"surface":null,"tracktype":null,"service":null,"access":null,"motor_vehicle":null,"foot":null,"tiger_reviewed":"no","rrgh_part":0,"rrgh_tile_part":0},"geometry":{"type":"LineString","coordinates":[[-83.385486,37.859654],[-83.385523,37.859795],[-83.385518,37.859941],[-83.385484,37.860058],[-83.385418,37.860218],[-83.385413,37.86033],[-83.385422,37.860381],[-83.385623,37.860753],[-83.385651,37.860879],[-83.385595,37.861242],[-83.385588,37.861284],[-83.385591,37.861485],[-83.385607,37.861627],[-83.385625,37.861695],[-83.385679,37.861816],[-83.385763,37.861923],[-83.385905,37.862074],[-83.386185,37.862442]]}},{"type":"Feature","properties":{"osm_id":16319708,"highway":"residential","name":"Old Grassy Church Road","alt_name":null,"official_name":null,"surface":null,"tracktype":null,"service":null,"access":null,"motor_vehicle":null,"foot":null,"tiger_reviewed":"no","rrgh_part":0,"rrgh_tile_part":0},"geometry":{"type":"LineString","coordinates":[[-83.369444,37.865499],[-83.369571,37.865554],[-83.369892,37.865616],[-83.369982,37.865645],[-83.370072,37.865688],[-83.370339,37.865876],[-83.370799,37.866291],[-83.37128,37.866653],[-83.371394,37.866752],[-83.371809,37.867188],[-83.371895,37.867301],[-83.372023,37.86753],[-83.372074,37.867643],[-83.372145,37.867857],[-83.372198,37.86794],[-83.372272,37.868001],[-83.372454,37.86811],[-83.372547,37.868176],[-83.372637,37.868252],[-83.372898,37.868516],[-83.373083,37.868668],[-83.373165,37.868747],[-83.37345,37.869118],[-83.373647,37.869403],[-83.373726,37.869486],[-83.373921,37.869642],[-83.37465,37.870164],[-83.374877,37.870344],[-83.374928,37.8704],[-83.374986,37.870508],[-83.374997,37.870557],[-83.374988,37.870736],[-83.374998,37.870877],[-83.374985,37.87099]]}},{"type":"Feature","properties":{"osm_id":16322927,"highway":"residential","name":"Leonard Havens Road","alt_name":null,"official_name":null,"surface":null,"tracktype":null,"service":null,"access":null,"motor_vehicle":null,"foot":null,"tiger_reviewed":"no","rrgh_part":0,"rrgh_tile_part":0},"geometry":{"type":"LineString","coordinates":[[-83.367684,37.866218],[-83.367739,37.866293],[-83.367843,37.866335],[-83.368005,37.866385],[-83.368081,37.866422],[-83.368143,37.866474],[-83.368191,37.866542],[-83.36831,37.8669],[-83.368316,37.866918],[-83.368367,37.867011],[-83.368496,37.867192],[-83.368599,37.867393],[-83.368696,37.867746],[-83.368808,37.868236],[-83.36886,37.868595],[-83.368939,37.868979],[-83.368937,37.869105],[-83.368892,37.869459],[-83.368896,37.869761],[-83.368862,37.869847],[-83.368806,37.869926],[-83.368617,37.870118],[-83.368576,37.870176],[-83.368546,37.870288],[-83.36855,37.87034],[-83.368567,37.870381],[-83.368597,37.870407],[-83.368673,37.870427],[-83.368856,37.870435],[-83.368957,37.870472],[-83.369001,37.870507],[-83.369137,37.87065],[-83.369234,37.870772],[-83.369528,37.87124],[-83.369598,37.871417],[-83.369987,37.872645],[-83.370244,37.873188],[-83.370268,37.873284],[-83.370333,37.873454],[-83.370403,37.873602],[-83.370441,37.873748]]}},{"type":"Feature","properties":{"osm_id":16317611,"highway":"service","name":null,"alt_name":null,"official_name":null,"surface":null,"tracktype":null,"service":null,"access":"private","motor_vehicle":null,"foot":null,"tiger_reviewed":"no","rrgh_part":0,"rrgh_tile_part":0},"geometry":{"type":"LineString","coordinates":[[-83.369328,37.865579],[-83.36945,37.865641],[-83.369791,37.86576],[-83.369948,37.865858],[-83.370011,37.865934],[-83.37004,37.866017],[-83.370049,37.866103],[-83.37003,37.866222],[-83.370008,37.866284],[-83.369919,37.866471],[-83.369815,37.866655],[-83.369618,37.866969],[-83.369547,37.867014],[-83.369499,37.867021],[-83.369388,37.867001],[-83.369245,37.866922],[-83.369132,37.866819],[-83.368782,37.866498],[-83.368702,37.866414],[-83.36863,37.866313],[-83.368504,37.866013]]}},{"type":"Feature","properties":{"osm_id":16318662,"highway":"residential","name":"Cr-1293A","alt_name":null,"official_name":null,"surface":null,"tracktype":null,"service":null,"access":null,"motor_vehicle":null,"foot":null,"tiger_reviewed":"no","rrgh_part":0,"rrgh_tile_part":0},"geometry":{"type":"LineString","coordinates":[[-83.370354,37.86505],[-83.370372,37.865076],[-83.370384,37.865142],[-83.370374,37.865234],[-83.3703525,37.8653791],[-83.3702734,37.8654849]]}},{"type":"Feature","properties":{"osm_id":16319843,"highway":"residential","name":"Old Grassy Cemetery Road","alt_name":null,"official_name":null,"surface":null,"tracktype":null,"service":null,"access":null,"motor_vehicle":null,"foot":null,"tiger_reviewed":"no","rrgh_part":0,"rrgh_tile_part":0},"geometry":{"type":"LineString","coordinates":[[-83.370104,37.864783],[-83.370186,37.864826],[-83.370239,37.864872],[-83.370272,37.86491],[-83.370354,37.86505],[-83.370504,37.865124]]}},{"type":"Feature","properties":{"osm_id":16319845,"highway":"residential","name":"Old Grassy Cemetery Road","alt_name":null,"official_name":null,"surface":null,"tracktype":null,"service":null,"access":null,"motor_vehicle":null,"foot":null,"tiger_reviewed":"no","rrgh_part":0,"rrgh_tile_part":0},"geometry":{"type":"LineString","coordinates":[[-83.370558,37.865166],[-83.370504,37.865124],[-83.370678,37.865132],[-83.370932,37.8651],[-83.371131,37.865113],[-83.371341,37.865168],[-83.371486,37.865244],[-83.371548,37.86529],[-83.371804,37.865526],[-83.371871,37.865626],[-83.371879,37.865674],[-83.371869,37.865719],[-83.371845,37.865757],[-83.371766,37.865824],[-83.371623,37.865913],[-83.371526,37.865949],[-83.371469,37.865952],[-83.371409,37.86594],[-83.371293,37.865889],[-83.37113,37.865772],[-83.371031,37.865678],[-83.37074,37.865378],[-83.370558,37.865166]]}},{"type":"Feature","properties":{"osm_id":16317812,"highway":"residential","name":null,"alt_name":null,"official_name":null,"surface":null,"tracktype":null,"service":null,"access":null,"motor_vehicle":null,"foot":null,"tiger_reviewed":"no","rrgh_part":0,"rrgh_tile_part":0},"geometry":{"type":"LineString","coordinates":[[-83.366865,37.867569],[-83.367861,37.867158],[-83.36831,37.8669]]}},{"type":"Feature","properties":{"osm_id":16321315,"highway":"residential","name":"Sellars Fork-Buskirk Road","alt_name":null,"official_name":null,"surface":null,"tracktype":null,"service":null,"access":null,"motor_vehicle":null,"foot":null,"tiger_reviewed":"no","rrgh_part":0,"rrgh_tile_part":0},"geometry":{"type":"LineString","coordinates":[[-83.33550138461538,37.825],[-83.335606,37.82517],[-83.335759,37.825385],[-83.335819,37.825497],[-83.335857,37.825616],[-83.335916,37.825876],[-83.335963,37.826149],[-83.335973,37.826445],[-83.335957,37.82675],[-83.335906,37.827047],[-83.335803,37.827335],[-83.335764,37.827479],[-83.335735,37.827745],[-83.335773,37.827824],[-83.335832,37.827905],[-83.336067,37.828198],[-83.336134,37.828305],[-83.336175,37.828426],[-83.336189,37.828552],[-83.336172,37.82869],[-83.336149,37.82882],[-83.336019,37.829334],[-83.336007,37.82947],[-83.336012,37.829755],[-83.336104,37.830362],[-83.336223,37.830989],[-83.336351,37.831425],[-83.336498,37.83173],[-83.336627,37.831926]]}},{"type":"Feature","properties":{"osm_id":16322072,"highway":"residential","name":"New Cummer Road","alt_name":null,"official_name":null,"surface":null,"tracktype":null,"service":null,"access":null,"motor_vehicle":null,"foot":null,"tiger_reviewed":"no","rrgh_part":0,"rrgh_tile_part":0},"geometry":{"type":"LineString","coordinates":[[-83.349663,37.86662],[-83.349948,37.867239],[-83.349997,37.867367],[-83.350023,37.867513],[-83.350017,37.867664],[-83.34995,37.867968],[-83.349873,37.868221],[-83.349785,37.868391],[-83.349525,37.868818],[-83.349489,37.868904],[-83.349468,37.868988],[-83.349467,37.86907],[-83.349486,37.869148],[-83.349521,37.869221],[-83.349703,37.869505],[-83.349733,37.869602],[-83.349748,37.869653],[-83.349812,37.870138],[-83.349938,37.870928],[-83.349949,37.87121],[-83.349935,37.871291],[-83.349882,37.871471],[-83.349776,37.871664],[-83.349577,37.871986],[-83.349479,37.872238],[-83.34942,37.872504],[-83.349399,37.872925],[-83.349371,37.873089],[-83.34935,37.87321],[-83.349171,37.873964],[-83.348922,37.87476],[-83.34889,37.874922],[-83.34876,37.875912],[-83.34865,37.877034],[-83.348592,37.87731],[-83.348532,37.877695],[-83.348489,37.877841],[-83.348181,37.878464],[-83.348102,37.878762],[-83.348042,37.879068],[-83.348017,37.879275],[-83.348018,37.879382],[-83.348091,37.879854],[-83.348053,37.880362],[-83.348051,37.881514],[-83.348039,37.881963],[-83.348024,37.882116],[-83.347993,37.882271],[-83.347888,37.882581],[-83.347817,37.882735],[-83.347352,37.883653],[-83.3473,37.88379],[-83.347277,37.88392],[-83.347288,37.884045],[-83.347334,37.884166],[-83.347419,37.884275],[-83.347536,37.88437],[-83.347952,37.884638],[-83.348076,37.884745],[-83.348179,37.88487],[-83.348257,37.885011],[-83.348312,37.885164],[-83.34835,37.885324],[-83.348368,37.885488],[-83.348366,37.885654],[-83.348289,37.886118],[-83.348281,37.88625],[-83.348303,37.886373],[-83.348362,37.88648],[-83.348451,37.886568],[-83.34883,37.886793],[-83.34895,37.886892],[-83.349045,37.88701],[-83.349187,37.887263],[-83.349262,37.887365],[-83.34935,37.887452],[-83.349453,37.88751],[-83.349563,37.887532],[-83.349678,37.887521],[-83.349791,37.887483],[-83.350007,37.887338],[-83.350034,37.887303],[-83.350428,37.886801],[-83.350531,37.886693],[-83.350639,37.886607],[-83.350759,37.886543],[-83.350884,37.886506],[-83.351135,37.886513],[-83.351165,37.886522],[-83.351268,37.886552],[-83.351391,37.886619],[-83.351492,37.886708],[-83.351631,37.886944],[-83.352263,37.888261],[-83.352717,37.889176],[-83.352838,37.889375],[-83.353546,37.890541],[-83.354173,37.891624],[-83.354279,37.891784],[-83.3544,37.891929],[-83.354537,37.892061],[-83.354692,37.892176],[-83.355033,37.892349],[-83.35518,37.892433],[-83.355301,37.892533],[-83.355388,37.892653],[-83.355436,37.892792],[-83.355446,37.892939],[-83.35544,37.893245],[-83.355455,37.893401],[-83.355492,37.893557],[-83.355613,37.893868],[-83.355944,37.894827],[-83.356094,37.895167],[-83.356325,37.895826],[-83.356395,37.895982],[-83.356713,37.896578],[-83.356769,37.896704],[-83.356801,37.89683],[-83.356796,37.896956],[-83.35675,37.897077],[-83.356672,37.897192],[-83.356568,37.897321],[-83.356491,37.897416],[-83.356426,37.897538],[-83.356392,37.897677],[-83.356355,37.897903],[-83.356316,37.898141],[-83.356261,37.898283],[-83.356004,37.898673],[-83.355767,37.899084],[-83.355591,37.899346],[-83.355481,37.899459],[-83.355348,37.899549],[-83.355196,37.899615],[-83.354803,37.899754],[-83.354668,37.89981],[-83.354639,37.899834]]}},{"type":"Feature","properties":{"osm_id":16322423,"highway":"residential","name":"Watson Lane","alt_name":null,"official_name":null,"surface":null,"tracktype":null,"service":null,"access":null,"motor_vehicle":null,"foot":null,"tiger_reviewed":"no","rrgh_part":0,"rrgh_tile_part":0},"geometry":{"type":"LineString","coordinates":[[-83.339088,37.831516],[-83.338616,37.831166],[-83.33809,37.830632]]}},{"type":"Feature","properties":{"osm_id":16321099,"highway":"residential","name":"Raney Lane","alt_name":null,"official_name":null,"surface":null,"tracktype":null,"service":null,"access":null,"motor_vehicle":null,"foot":null,"tiger_reviewed":"no","rrgh_part":0,"rrgh_tile_part":0},"geometry":{"type":"LineString","coordinates":[[-83.351392,37.832731],[-83.351627,37.832833],[-83.352178,37.832999],[-83.352433,37.833203],[-83.352664,37.833533],[-83.35296,37.833712],[-83.353567,37.833903],[-83.353932,37.83408],[-83.354204,37.834379]]}},{"type":"Feature","properties":{"osm_id":16319270,"highway":"residential","name":"Stacy Lane","alt_name":null,"official_name":null,"surface":null,"tracktype":null,"service":null,"access":null,"motor_vehicle":null,"foot":null,"tiger_reviewed":"no","rrgh_part":0,"rrgh_tile_part":0},"geometry":{"type":"LineString","coordinates":[[-83.356296,37.834889],[-83.356189,37.834068],[-83.354831,37.832929],[-83.352627,37.8321],[-83.352475,37.831902]]}},{"type":"Feature","properties":{"osm_id":16318050,"highway":"service","name":null,"alt_name":null,"official_name":null,"surface":null,"tracktype":null,"service":null,"access":"private","motor_vehicle":null,"foot":null,"tiger_reviewed":"no","rrgh_part":0,"rrgh_tile_part":0},"geometry":{"type":"LineString","coordinates":[[-83.344708,37.835137],[-83.344701,37.835043]]}},{"type":"Feature","properties":{"osm_id":16317521,"highway":"residential","name":"Halsey Branch Road","alt_name":null,"official_name":null,"surface":null,"tracktype":null,"service":null,"access":null,"motor_vehicle":null,"foot":null,"tiger_reviewed":"no","rrgh_part":0,"rrgh_tile_part":0},"geometry":{"type":"LineString","coordinates":[[-83.341157,37.837636],[-83.341142,37.837739],[-83.341122,37.838155],[-83.341134,37.838319],[-83.341124,37.838643],[-83.341056,37.839786],[-83.341058,37.83994],[-83.341101,37.840247],[-83.341352,37.841477],[-83.341622,37.842536],[-83.341659,37.842681],[-83.341761,37.842952],[-83.341956,37.843346],[-83.342058,37.843613],[-83.342119,37.843873],[-83.342134,37.843999],[-83.342142,37.844245],[-83.342181,37.844483],[-83.342249,37.844697],[-83.342375,37.844893],[-83.342423,37.844992],[-83.342454,37.845089],[-83.342468,37.845184],[-83.342473,37.845459],[-83.342495,37.845542],[-83.342561,37.845686],[-83.342571,37.845763],[-83.342536,37.845842],[-83.342444,37.84597],[-83.342344,37.846182],[-83.342253,37.846421],[-83.342249,37.846684],[-83.342308,37.847038],[-83.342348,37.84715],[-83.342408,37.847248],[-83.342488,37.847333],[-83.342583,37.847402],[-83.342878,37.847548],[-83.342935,37.847594],[-83.342991,37.847669],[-83.34302,37.847742],[-83.343016,37.84785],[-83.343013,37.847929],[-83.342971,37.848172],[-83.342967,37.848428],[-83.343045,37.848807],[-83.343093,37.849281],[-83.343098,37.849463],[-83.343076,37.849541],[-83.34306,37.849563],[-83.343027,37.849611],[-83.342942,37.849674],[-83.342524,37.849879],[-83.34238,37.849957],[-83.342248,37.850042],[-83.342134,37.850135],[-83.342039,37.850234],[-83.341968,37.850342],[-83.341939,37.850462],[-83.341953,37.850598],[-83.342,37.850738],[-83.342078,37.850878],[-83.342273,37.851165],[-83.34236,37.851321],[-83.3424,37.851476],[-83.342421,37.851635],[-83.342421,37.851792],[-83.342407,37.851945],[-83.342371,37.852095],[-83.342267,37.852371],[-83.342012,37.852907],[-83.341968,37.853025],[-83.341921,37.853237],[-83.341904,37.853392],[-83.341901,37.853417],[-83.341875,37.853489],[-83.341825,37.853543],[-83.341759,37.853578],[-83.34168,37.853603],[-83.341622,37.853617],[-83.341121,37.853741],[-83.340504,37.853922],[-83.340324,37.853964]]}},{"type":"Feature","properties":{"osm_id":16322228,"highway":"residential","name":"Sellers Road","alt_name":null,"official_name":null,"surface":null,"tracktype":null,"service":null,"access":null,"motor_vehicle":null,"foot":null,"tiger_reviewed":"no","rrgh_part":0,"rrgh_tile_part":0},"geometry":{"type":"LineString","coordinates":[[-83.336627,37.831926],[-83.337673,37.833164],[-83.337936,37.833447],[-83.338459,37.833979],[-83.338557,37.834099],[-83.338639,37.834228],[-83.33877,37.834511],[-83.338886,37.834807],[-83.339042,37.835255],[-83.339103,37.83541],[-83.339181,37.835561],[-83.339275,37.83571],[-83.339715,37.836293],[-83.339903,37.836603],[-83.34003,37.83683],[-83.340217,37.837165],[-83.340301,37.837267],[-83.340403,37.837354],[-83.340521,37.837426],[-83.340783,37.837544],[-83.340968,37.837615],[-83.341063,37.837635],[-83.341157,37.837636]]}},{"type":"Feature","properties":{"osm_id":16321983,"highway":"residential","name":"Waldo Lacy Fork","alt_name":null,"official_name":null,"surface":null,"tracktype":null,"service":null,"access":null,"motor_vehicle":null,"foot":null,"tiger_reviewed":"no","rrgh_part":0,"rrgh_tile_part":0},"geometry":{"type":"LineString","coordinates":[[-83.341622,37.842536],[-83.341168,37.842611],[-83.34088,37.842704],[-83.340619,37.842967],[-83.340547,37.842957],[-83.340439,37.842944],[-83.340297,37.842862],[-83.340149,37.842693],[-83.340069,37.842606],[-83.339939,37.842548],[-83.339842,37.842588],[-83.339743,37.842637]]}},{"type":"Feature","properties":{"osm_id":16321766,"highway":"residential","name":"R Stacy Road","alt_name":null,"official_name":null,"surface":null,"tracktype":null,"service":null,"access":null,"motor_vehicle":null,"foot":null,"tiger_reviewed":"no","rrgh_part":0,"rrgh_tile_part":0},"geometry":{"type":"LineString","coordinates":[[-83.350755,37.844761],[-83.350714,37.844829],[-83.350505,37.845002],[-83.350344,37.845211],[-83.350221,37.845331],[-83.350181,37.845399],[-83.350148,37.845495],[-83.350115,37.845528],[-83.350065,37.845558],[-83.350005,37.845595],[-83.349937,37.84562],[-83.349766,37.845653],[-83.349673,37.845684],[-83.349575,37.845738],[-83.349418,37.845889],[-83.349174,37.84608],[-83.349088,37.846129],[-83.348745,37.846222],[-83.348366,37.846278],[-83.34825,37.846312],[-83.347899,37.846478],[-83.347762,37.846522],[-83.347156,37.846664],[-83.34656,37.84683],[-83.346135,37.846924],[-83.345769,37.847064],[-83.345568,37.847097],[-83.345324,37.847136],[-83.34509,37.847182],[-83.344969,37.847215],[-83.344711,37.847254],[-83.344446,37.847277],[-83.34393,37.847297],[-83.343808,37.847315],[-83.343689,37.847338],[-83.34338,37.847422],[-83.342935,37.847594]]}},{"type":"Feature","properties":{"osm_id":16318660,"highway":"residential","name":"Bert Gevedon","alt_name":null,"official_name":null,"surface":null,"tracktype":null,"service":null,"access":null,"motor_vehicle":null,"foot":null,"tiger_reviewed":"no","rrgh_part":0,"rrgh_tile_part":0},"geometry":{"type":"LineString","coordinates":[[-83.341904,37.853392],[-83.342087,37.853394],[-83.342377,37.853451],[-83.342719,37.853363],[-83.343041,37.853219],[-83.343363,37.853124],[-83.34356,37.853051],[-83.343747,37.852931],[-83.344089,37.852899],[-83.344358,37.852948]]}},{"type":"Feature","properties":{"osm_id":16319590,"highway":"residential","name":"Buck Branch Road","alt_name":null,"official_name":null,"surface":null,"tracktype":null,"service":null,"access":null,"motor_vehicle":null,"foot":null,"tiger_reviewed":"no","rrgh_part":0,"rrgh_tile_part":0},"geometry":{"type":"LineString","coordinates":[[-83.337315,37.850767],[-83.336668,37.850893],[-83.335812,37.851391],[-83.33500000000001,37.85164970349908]]}},{"type":"Feature","properties":{"osm_id":16319938,"highway":"residential","name":"Testerman Road","alt_name":null,"official_name":null,"surface":null,"tracktype":null,"service":null,"access":null,"motor_vehicle":null,"foot":null,"tiger_reviewed":"no","rrgh_part":0,"rrgh_tile_part":0},"geometry":{"type":"LineString","coordinates":[[-83.34067,37.854864],[-83.34058,37.85491],[-83.340249,37.855106],[-83.340083,37.855213],[-83.340008,37.855281],[-83.339643,37.855712],[-83.339531,37.855823],[-83.339332,37.855873],[-83.339072,37.856078],[-83.338866,37.856192],[-83.338759,37.856341],[-83.338687,37.856518],[-83.338544,37.856696],[-83.338427,37.856817],[-83.338329,37.856931],[-83.338212,37.857065],[-83.338087,37.857193],[-83.337755,37.857448],[-83.337584,37.857633],[-83.337351,37.857807],[-83.337204,37.85809],[-83.337065,37.858236],[-83.33685,37.858569],[-83.336796,37.858733],[-83.336626,37.858939],[-83.336187,37.859267],[-83.335841,37.859456],[-83.335461,37.859601],[-83.33500000000001,37.859861680575534]]}},{"type":"Feature","properties":{"osm_id":16321868,"highway":"residential","name":"French Lane","alt_name":null,"official_name":null,"surface":null,"tracktype":null,"service":null,"access":null,"motor_vehicle":null,"foot":null,"tiger_reviewed":"no","rrgh_part":0,"rrgh_tile_part":0},"geometry":{"type":"LineString","coordinates":[[-83.339531,37.855823],[-83.339456,37.855896],[-83.339357,37.855982],[-83.339253,37.856057],[-83.338964,37.856363],[-83.338902,37.856454],[-83.338611,37.856778],[-83.338517,37.856943],[-83.338516,37.856982],[-83.338532,37.857019]]}},{"type":"Feature","properties":{"osm_id":16322469,"highway":"residential","name":"Markwell Drive","alt_name":null,"official_name":null,"surface":null,"tracktype":null,"service":null,"access":null,"motor_vehicle":null,"foot":null,"tiger_reviewed":"no","rrgh_part":0,"rrgh_tile_part":0},"geometry":{"type":"LineString","coordinates":[[-83.34273,37.856515],[-83.342077,37.857198],[-83.341311,37.857286],[-83.341064,37.856791],[-83.341028,37.856214]]}},{"type":"Feature","properties":{"osm_id":16322540,"highway":"residential","name":"Joe Frank Ferguson Lane","alt_name":null,"official_name":null,"surface":null,"tracktype":null,"service":null,"access":null,"motor_vehicle":null,"foot":null,"tiger_reviewed":"no","rrgh_part":0,"rrgh_tile_part":0},"geometry":{"type":"LineString","coordinates":[[-83.34273,37.856515],[-83.342891,37.856442],[-83.343073,37.856377],[-83.343222,37.856357],[-83.343353,37.856391],[-83.343775,37.856592],[-83.344249,37.856753],[-83.345021,37.856913],[-83.345483,37.856994],[-83.345679,37.856921],[-83.345979,37.856823],[-83.346246,37.856872],[-83.346402,37.857017],[-83.346395,37.857323],[-83.3464,37.857532],[-83.346596,37.857653],[-83.346823,37.857822],[-83.346847,37.858062],[-83.346817,37.858691],[-83.346766,37.859326]]}},{"type":"Feature","properties":{"osm_id":16321309,"highway":"residential","name":"Brad Gevedon Road","alt_name":null,"official_name":null,"surface":null,"tracktype":null,"service":null,"access":null,"motor_vehicle":null,"foot":null,"tiger_reviewed":"no","rrgh_part":0,"rrgh_tile_part":0},"geometry":{"type":"LineString","coordinates":[[-83.336478,37.852375],[-83.336447,37.852301],[-83.336378,37.85223],[-83.336259,37.852186],[-83.336058,37.85214],[-83.33601,37.85211],[-83.33597,37.85202],[-83.335979,37.85197],[-83.336008,37.851918],[-83.336056,37.851872],[-83.336114,37.851836],[-83.336179,37.85181],[-83.336476,37.851741],[-83.33655,37.851715],[-83.336674,37.851648],[-83.337084,37.851379],[-83.33715,37.851311],[-83.337187,37.851233],[-83.337236,37.850934],[-83.337332,37.850797]]}},{"type":"Feature","properties":{"osm_id":16320699,"highway":"service","name":"Prentiss Bach Lane","alt_name":null,"official_name":null,"surface":null,"tracktype":null,"service":null,"access":"private","motor_vehicle":null,"foot":null,"tiger_reviewed":"no","rrgh_part":0,"rrgh_tile_part":0},"geometry":{"type":"LineString","coordinates":[[-83.344096,37.863117],[-83.344395,37.86299],[-83.345027,37.86281],[-83.345647,37.862712],[-83.346216,37.862653],[-83.346485,37.862668],[-83.346576,37.862675],[-83.346678,37.862684],[-83.34682,37.862651],[-83.346909,37.862505],[-83.346898,37.862409],[-83.346826,37.862312],[-83.346682,37.862183],[-83.346671,37.86198],[-83.34672,37.861803],[-83.346821,37.86173],[-83.347022,37.861682],[-83.347243,37.861762],[-83.347545,37.861866]]}},{"type":"Feature","properties":{"osm_id":16318134,"highway":"residential","name":null,"alt_name":null,"official_name":null,"surface":null,"tracktype":null,"service":null,"access":null,"motor_vehicle":null,"foot":null,"tiger_reviewed":"no","rrgh_part":0,"rrgh_tile_part":0},"geometry":{"type":"LineString","coordinates":[[-83.338588,37.858067],[-83.338678,37.858169],[-83.338747,37.858266],[-83.338816,37.85832],[-83.338861,37.858336],[-83.338913,37.85834],[-83.338964,37.858332],[-83.33901,37.858311],[-83.339064,37.858255],[-83.339065,37.85822],[-83.339031,37.858088],[-83.338791,37.857514],[-83.338623,37.857155],[-83.338532,37.857019]]}},{"type":"Feature","properties":{"osm_id":16321870,"highway":"residential","name":"French Lane","alt_name":null,"official_name":null,"surface":null,"tracktype":null,"service":null,"access":null,"motor_vehicle":null,"foot":null,"tiger_reviewed":"no","rrgh_part":0,"rrgh_tile_part":0},"geometry":{"type":"LineString","coordinates":[[-83.338532,37.857019],[-83.338396,37.857135],[-83.33811,37.857416],[-83.337715,37.8578],[-83.337345,37.858101],[-83.33713,37.858354],[-83.337068,37.858458],[-83.337015,37.858563],[-83.336985,37.858632]]}},{"type":"Feature","properties":{"osm_id":313840671,"highway":"residential","name":"Grassy Hill Road West","alt_name":null,"official_name":null,"surface":null,"tracktype":null,"service":null,"access":null,"motor_vehicle":null,"foot":null,"tiger_reviewed":"no","rrgh_part":0,"rrgh_tile_part":0},"geometry":{"type":"LineString","coordinates":[[-83.3350167,37.8669695],[-83.3350585,37.86719],[-83.3350845,37.8673134],[-83.33500000000001,37.86738960751095]]}},{"type":"Feature","properties":{"osm_id":16320759,"highway":"residential","name":"Smith Lane","alt_name":null,"official_name":null,"surface":null,"tracktype":null,"service":null,"access":null,"motor_vehicle":null,"foot":null,"tiger_reviewed":"no","rrgh_part":0,"rrgh_tile_part":0},"geometry":{"type":"LineString","coordinates":[[-83.416164,37.881095],[-83.416934,37.880403],[-83.417107,37.879474],[-83.417149,37.879013]]}},{"type":"Feature","properties":{"osm_id":16317995,"highway":"residential","name":null,"alt_name":null,"official_name":null,"surface":null,"tracktype":null,"service":null,"access":null,"motor_vehicle":null,"foot":null,"tiger_reviewed":"no","rrgh_part":0,"rrgh_tile_part":0},"geometry":{"type":"LineString","coordinates":[[-83.415107,37.895857],[-83.414503,37.896873]]}},{"type":"Feature","properties":{"osm_id":16318123,"highway":"service","name":null,"alt_name":null,"official_name":null,"surface":null,"tracktype":null,"service":null,"access":"private","motor_vehicle":null,"foot":null,"tiger_reviewed":"no","rrgh_part":0,"rrgh_tile_part":0},"geometry":{"type":"LineString","coordinates":[[-83.418927,37.895658],[-83.419337,37.896083],[-83.419613,37.896328],[-83.42,37.896405817813765]]}},{"type":"Feature","properties":{"osm_id":16318937,"highway":"residential","name":"Boldens Branch Spur","alt_name":null,"official_name":null,"surface":null,"tracktype":null,"service":null,"access":null,"motor_vehicle":null,"foot":null,"tiger_reviewed":"no","rrgh_part":0,"rrgh_tile_part":0},"geometry":{"type":"LineString","coordinates":[[-83.414581,37.894632],[-83.41436,37.894811],[-83.413888,37.895158],[-83.413712,37.895301]]}},{"type":"Feature","properties":{"osm_id":16321733,"highway":"residential","name":"Boldens Branch Road","alt_name":null,"official_name":null,"surface":null,"tracktype":null,"service":null,"access":null,"motor_vehicle":null,"foot":null,"tiger_reviewed":"no","rrgh_part":0,"rrgh_tile_part":0},"geometry":{"type":"LineString","coordinates":[[-83.415107,37.895857],[-83.415092,37.895754],[-83.414966,37.895382],[-83.414863,37.894995],[-83.414776,37.894854],[-83.414581,37.894632],[-83.414542,37.894576],[-83.414524,37.89454],[-83.414434,37.894359],[-83.414418,37.894293],[-83.41443,37.894152],[-83.414505,37.893929],[-83.414606,37.893778],[-83.414727,37.893648],[-83.414777,37.893574],[-83.414815,37.893494],[-83.414939,37.893139],[-83.41499,37.892956],[-83.415013,37.892768],[-83.415009,37.892672],[-83.414962,37.892357],[-83.414932,37.89215],[-83.414906,37.892041],[-83.414826,37.891829],[-83.414719,37.891615],[-83.41459,37.890674],[-83.41452,37.890326],[-83.41449,37.890251],[-83.414449,37.890186],[-83.414399,37.890134],[-83.414336,37.890087],[-83.413861,37.889781],[-83.413695,37.889662],[-83.413262,37.889402],[-83.413112,37.889347],[-83.41286,37.88931],[-83.412776,37.889307],[-83.412559,37.889342],[-83.412495,37.889355],[-83.412376,37.889363],[-83.412206,37.889297],[-83.412178,37.889241],[-83.412147,37.889139],[-83.412114,37.88903],[-83.412035,37.88892],[-83.411944,37.888861],[-83.411773,37.888782]]}},{"type":"Feature","properties":{"osm_id":16318124,"highway":"service","name":null,"alt_name":null,"official_name":null,"surface":null,"tracktype":null,"service":null,"access":"private","motor_vehicle":null,"foot":null,"tiger_reviewed":"no","rrgh_part":0,"rrgh_tile_part":0},"geometry":{"type":"LineString","coordinates":[[-83.419982,37.897514],[-83.42,37.89748568438539]]}},{"type":"Feature","properties":{"osm_id":16322059,"highway":"residential","name":"Bryant Fork Road","alt_name":null,"official_name":null,"surface":null,"tracktype":null,"service":null,"access":null,"motor_vehicle":null,"foot":null,"tiger_reviewed":"no","rrgh_part":0,"rrgh_tile_part":0},"geometry":{"type":"LineString","coordinates":[[-83.411517,37.871079],[-83.41146,37.871695],[-83.411661,37.872286],[-83.412123,37.872765],[-83.412296,37.873197],[-83.412758,37.873653],[-83.413133,37.873904],[-83.413479,37.874587],[-83.413479,37.874803],[-83.413582,37.875085]]}},{"type":"Feature","properties":{"osm_id":16317808,"highway":"service","name":null,"alt_name":null,"official_name":null,"surface":null,"tracktype":null,"service":null,"access":"private","motor_vehicle":null,"foot":null,"tiger_reviewed":"no","rrgh_part":0,"rrgh_tile_part":0},"geometry":{"type":"LineString","coordinates":[[-83.40801,37.87777],[-83.407467,37.877549],[-83.4073,37.87749],[-83.406854,37.877596],[-83.406497,37.877861],[-83.406556,37.878153],[-83.406577,37.878288],[-83.406653,37.878507]]}},{"type":"Feature","properties":{"osm_id":16321158,"highway":"residential","name":"Phillips Cemetery Road","alt_name":null,"official_name":null,"surface":null,"tracktype":null,"service":null,"access":null,"motor_vehicle":null,"foot":null,"tiger_reviewed":"no","rrgh_part":0,"rrgh_tile_part":0},"geometry":{"type":"LineString","coordinates":[[-83.404904,37.879429],[-83.404929,37.879494],[-83.404959,37.87964],[-83.405087,37.879982],[-83.405238,37.880205],[-83.405329,37.880315],[-83.40554,37.880487],[-83.405665,37.880618],[-83.405739,37.880672],[-83.405755,37.880702],[-83.405773,37.880718],[-83.405797,37.880728],[-83.405902,37.880829],[-83.406321,37.881092],[-83.406506,37.881233],[-83.406746,37.881358]]}},{"type":"Feature","properties":{"osm_id":16318200,"highway":"residential","name":null,"alt_name":null,"official_name":null,"surface":null,"tracktype":null,"service":null,"access":null,"motor_vehicle":null,"foot":null,"tiger_reviewed":"no","rrgh_part":0,"rrgh_tile_part":0},"geometry":{"type":"LineString","coordinates":[[-83.3998,37.879753],[-83.399393,37.880475],[-83.399415,37.880702],[-83.399853,37.882016],[-83.400022,37.882868],[-83.400221,37.883444],[-83.400202,37.883704]]}},{"type":"Feature","properties":{"osm_id":16318197,"highway":"service","name":null,"alt_name":null,"official_name":null,"surface":null,"tracktype":null,"service":null,"access":"private","motor_vehicle":null,"foot":null,"tiger_reviewed":"no","rrgh_part":0,"rrgh_tile_part":0},"geometry":{"type":"LineString","coordinates":[[-83.395891,37.878865],[-83.395538,37.878593],[-83.395329,37.878499],[-83.395189,37.878311],[-83.395139,37.8781],[-83.394948,37.877856]]}},{"type":"Feature","properties":{"osm_id":16317765,"highway":"residential","name":null,"alt_name":null,"official_name":null,"surface":null,"tracktype":null,"service":null,"access":null,"motor_vehicle":null,"foot":null,"tiger_reviewed":"no","rrgh_part":0,"rrgh_tile_part":0},"geometry":{"type":"LineString","coordinates":[[-83.382384,37.881016],[-83.381939,37.880665],[-83.381362,37.88037],[-83.381161,37.880242],[-83.380984,37.880137],[-83.380759,37.879785],[-83.380754,37.87956],[-83.380712,37.879275],[-83.380814,37.878752],[-83.380904,37.878376],[-83.381132,37.87822],[-83.38144,37.878076],[-83.381687,37.877851]]}},{"type":"Feature","properties":{"osm_id":16318194,"highway":"residential","name":null,"alt_name":null,"official_name":null,"surface":null,"tracktype":null,"service":null,"access":null,"motor_vehicle":null,"foot":null,"tiger_reviewed":"no","rrgh_part":0,"rrgh_tile_part":0},"geometry":{"type":"LineString","coordinates":[[-83.385786,37.880556],[-83.385794,37.881116],[-83.385791,37.881532],[-83.3858,37.881654],[-83.38595,37.881957]]}},{"type":"Feature","properties":{"osm_id":16318866,"highway":"service","name":"Whitney Lane","alt_name":null,"official_name":null,"surface":null,"tracktype":null,"service":null,"access":"private","motor_vehicle":null,"foot":null,"tiger_reviewed":"no","rrgh_part":0,"rrgh_tile_part":0},"geometry":{"type":"LineString","coordinates":[[-83.381293,37.8986],[-83.381213,37.89858],[-83.381131,37.898571],[-83.380873,37.898564],[-83.380721,37.89855],[-83.380627,37.898542],[-83.380513,37.89855],[-83.380406,37.898597],[-83.380313,37.898662],[-83.380106,37.898854],[-83.379833,37.899086]]}},{"type":"Feature","properties":{"osm_id":16321356,"highway":"residential","name":"Wm Gibson Road","alt_name":null,"official_name":null,"surface":null,"tracktype":null,"service":null,"access":null,"motor_vehicle":null,"foot":null,"tiger_reviewed":"no","rrgh_part":0,"rrgh_tile_part":0},"geometry":{"type":"LineString","coordinates":[[-83.37110849413736,37.9],[-83.371107,37.899554],[-83.371082,37.89942],[-83.371037,37.8993],[-83.371028,37.899186],[-83.371074,37.899076],[-83.371276,37.898701]]}},{"type":"Feature","properties":{"osm_id":16319161,"highway":"residential","name":"Denniston Road","alt_name":null,"official_name":null,"surface":null,"tracktype":null,"service":null,"access":null,"motor_vehicle":null,"foot":null,"tiger_reviewed":"no","rrgh_part":0,"rrgh_tile_part":0},"geometry":{"type":"LineString","coordinates":[[-83.354639,37.899834],[-83.354627,37.899883],[-83.35465,37.899983],[-83.3546578032787,37.9]]}},{"type":"Feature","properties":{"osm_id":16318962,"highway":"residential","name":"Cruey Road","alt_name":null,"official_name":null,"surface":null,"tracktype":null,"service":null,"access":null,"motor_vehicle":null,"foot":null,"tiger_reviewed":"no","rrgh_part":0,"rrgh_tile_part":0},"geometry":{"type":"LineString","coordinates":[[-83.343953,37.878612],[-83.343846,37.878607],[-83.343703,37.878633],[-83.343586,37.878642],[-83.343214,37.878621],[-83.343138,37.878623],[-83.342747,37.878684],[-83.342597,37.878632],[-83.341866,37.878255],[-83.341604,37.878201],[-83.341341,37.878091],[-83.341239,37.878037],[-83.341003,37.877888],[-83.340647,37.877648],[-83.339908,37.877308],[-83.339777,37.877248],[-83.339651,37.877165],[-83.339528,37.87699],[-83.339507,37.876927],[-83.339528,37.876815],[-83.339633,37.876444],[-83.339698,37.876275],[-83.339697,37.876246],[-83.339683,37.876224],[-83.339649,37.876215],[-83.339624,37.876222]]}},{"type":"Feature","properties":{"osm_id":16318665,"highway":"residential","name":"Leach Road","alt_name":null,"official_name":null,"surface":null,"tracktype":null,"service":null,"access":null,"motor_vehicle":null,"foot":null,"tiger_reviewed":"no","rrgh_part":0,"rrgh_tile_part":0},"geometry":{"type":"LineString","coordinates":[[-83.339034,37.881557],[-83.339315,37.881557],[-83.339437,37.881567],[-83.339748,37.881572],[-83.339983,37.881515],[-83.340058,37.881486],[-83.340483,37.881423],[-83.340894,37.881659],[-83.34101,37.88175],[-83.341057,37.881803],[-83.341143,37.881953],[-83.34129,37.882149],[-83.341376,37.882299],[-83.341468,37.882427],[-83.341683,37.882556],[-83.341748,37.882583],[-83.34184,37.882601]]}},{"type":"Feature","properties":{"osm_id":16322424,"highway":"residential","name":"Cecil Branch Road","alt_name":null,"official_name":null,"surface":null,"tracktype":null,"service":null,"access":null,"motor_vehicle":null,"foot":null,"tiger_reviewed":"no","rrgh_part":0,"rrgh_tile_part":0},"geometry":{"type":"LineString","coordinates":[[-83.341265,37.887159],[-83.341408,37.887154],[-83.341516,37.887136],[-83.341627,37.887118],[-83.341746,37.887069],[-83.341904,37.886973],[-83.341983,37.886938],[-83.342117,37.886913],[-83.342278,37.886883],[-83.342539,37.886839],[-83.342742,37.886823],[-83.342958,37.886848],[-83.343117,37.886842],[-83.343755,37.886699]]}},{"type":"Feature","properties":{"osm_id":16319770,"highway":"residential","name":"Glen Lacy Road","alt_name":null,"official_name":null,"surface":null,"tracktype":null,"service":null,"access":null,"motor_vehicle":null,"foot":null,"tiger_reviewed":"no","rrgh_part":0,"rrgh_tile_part":0},"geometry":{"type":"LineString","coordinates":[[-83.347835,37.890077],[-83.347034,37.891157],[-83.346643,37.891417],[-83.346125,37.891374],[-83.345541,37.891232],[-83.344504,37.891399],[-83.343725,37.891817]]}},{"type":"Feature","properties":{"osm_id":16317567,"highway":"residential","name":null,"alt_name":null,"official_name":null,"surface":null,"tracktype":null,"service":null,"access":null,"motor_vehicle":null,"foot":null,"tiger_reviewed":"no","rrgh_part":0,"rrgh_tile_part":0},"geometry":{"type":"LineString","coordinates":[[-83.356568,37.897321],[-83.357018,37.8975],[-83.357299,37.897518],[-83.358836,37.897446]]}},{"type":"Feature","properties":{"osm_id":16321327,"highway":"residential","name":"Orville Henry Road","alt_name":null,"official_name":null,"surface":null,"tracktype":null,"service":null,"access":null,"motor_vehicle":null,"foot":null,"tiger_reviewed":"no","rrgh_part":0,"rrgh_tile_part":0},"geometry":{"type":"LineString","coordinates":[[-83.354639,37.899834],[-83.35416174999999,37.9]]}},{"type":"Feature","properties":{"osm_id":16319765,"highway":"residential","name":"Tim Keeton Road","alt_name":null,"official_name":null,"surface":null,"tracktype":null,"service":null,"access":null,"motor_vehicle":null,"foot":null,"tiger_reviewed":"no","rrgh_part":0,"rrgh_tile_part":0},"geometry":{"type":"LineString","coordinates":[[-83.340742,37.898774],[-83.341851,37.8999],[-83.34186296969698,37.9]]}},{"type":"Feature","properties":{"osm_id":16320416,"highway":"residential","name":"Roe Branch Road","alt_name":null,"official_name":null,"surface":null,"tracktype":null,"service":null,"access":null,"motor_vehicle":null,"foot":null,"tiger_reviewed":"no","rrgh_part":0,"rrgh_tile_part":0},"geometry":{"type":"LineString","coordinates":[[-83.341387,37.898661],[-83.341201,37.898591],[-83.341124,37.898534],[-83.341102,37.898512],[-83.341079,37.898491],[-83.341049,37.898448],[-83.340929,37.898265],[-83.34086,37.898129],[-83.340782,37.897886],[-83.340672,37.897723],[-83.34053,37.897511],[-83.340426,37.897404],[-83.340247,37.897281],[-83.340177,37.897192],[-83.340109,37.897057],[-83.340024,37.896953],[-83.339758,37.896777]]}},{"type":"Feature","properties":{"osm_id":16320418,"highway":"residential","name":"Roe Branch Road","alt_name":null,"official_name":null,"surface":null,"tracktype":null,"service":null,"access":null,"motor_vehicle":null,"foot":null,"tiger_reviewed":"no","rrgh_part":0,"rrgh_tile_part":0},"geometry":{"type":"LineString","coordinates":[[-83.341124,37.898534],[-83.341086,37.8986],[-83.340957,37.898712]]}}],"rrgh_tile":{"id":"r6c7","bounds":[37.825,-83.42,37.9,-83.33500000000001]}}
