{"type":"FeatureCollection","features":[{"type":"Feature","properties":{"osm_id":16322322,"highway":"residential","name":"Nickell Branch-Elmer Stacy Road","alt_name":null,"official_name":null,"surface":null,"tracktype":null,"service":null,"access":null,"motor_vehicle":null,"foot":null,"tiger_reviewed":"no","rrgh_part":0,"rrgh_tile_part":0},"geometry":{"type":"LineString","coordinates":[[-83.295393625,37.825],[-83.295478,37.82503],[-83.295881,37.825149],[-83.296005,37.825159],[-83.296147,37.825151],[-83.296291,37.825107],[-83.296443,37.825043],[-83.29652711874999,37.825]]}},{"type":"Feature","properties":{"osm_id":16322322,"highway":"residential","name":"Nickell Branch-Elmer Stacy Road","alt_name":null,"official_name":null,"surface":null,"tracktype":null,"service":null,"access":null,"motor_vehicle":null,"foot":null,"tiger_reviewed":"no","rrgh_part":0,"rrgh_tile_part":1},"geometry":{"type":"LineString","coordinates":[[-83.29738021266968,37.825],[-83.297493,37.825121],[-83.29763,37.825221],[-83.297703,37.825254],[-83.298005,37.82533],[-83.298191,37.825333],[-83.29832,37.825315],[-83.298643,37.825235],[-83.29919,37.825139],[-83.299731,37.825016],[-83.29978162686565,37.825]]}},{"type":"Feature","properties":{"osm_id":16322322,"highway":"residential","name":"Nickell Branch-Elmer Stacy Road","alt_name":null,"official_name":null,"surface":null,"tracktype":null,"service":null,"access":null,"motor_vehicle":null,"foot":null,"tiger_reviewed":"no","rrgh_part":0,"rrgh_tile_part":2},"geometry":{"type":"LineString","coordinates":[[-83.3013575769231,37.825],[-83.301507,37.825035],[-83.301764,37.825042],[-83.302194,37.825021],[-83.302487,37.825]]}},{"type":"Feature","properties":{"osm_id":16322322,"highway":"residential","name":"Nickell Branch-Elmer Stacy Road","alt_name":null,"official_name":null,"surface":null,"tracktype":null,"service":null,"access":null,"motor_vehicle":null,"foot":null,"tiger_reviewed":"no","rrgh_part":0,"rrgh_tile_part":3},"geometry":{"type":"LineString","coordinates":[[-83.30373363636365,37.825],[-83.303778,37.825012],[-83.304147,37.825075],[-83.304327,37.825105],[-83.304612,37.82518],[-83.305136,37.825334],[-83.305223,37.825359],[-83.305542,37.82544],[-83.305978,37.825594],[-83.306271,37.825736],[-83.306543,37.825868],[-83.306851,37.82604],[-83.307152,37.826189],[-83.307351,37.826295],[-83.307756,37.826511],[-83.307959,37.826636],[-83.308176,37.82672],[-83.30819,37.826725],[-83.308321,37.826752],[-83.308649,37.8268],[-83.309696,37.826897],[-83.31041,37.826998],[-83.31054,37.827011],[-83.310677,37.827013],[-83.310933,37.826962],[-83.311137,37.826898],[-83.311245,37.826888],[-83.311567,37.826906],[-83.311722,37.826914],[-83.311996,37.826908],[-83.312289,37.82689],[-83.312457,37.82686]]}},{"type":"Feature","properties":{"osm_id":16322450,"highway":"residential","name":"Fe Gevedon Branch Road","alt_name":null,"official_name":null,"surface":null,"tracktype":null,"service":null,"access":null,"motor_vehicle":null,"foot":null,"tiger_reviewed":"no","rrgh_part":0,"rrgh_tile_part":0},"geometry":{"type":"LineString","coordinates":[[-83.323816,37.830959],[-83.323634,37.830997],[-83.32336,37.831073],[-83.323195,37.831152],[-83.323129,37.831216],[-83.323071,37.831291],[-83.322965,37.83145],[-83.322888,37.831521],[-83.322685,37.831637],[-83.322057,37.831926],[-83.321889,37.832021],[-83.321821,37.83207],[-83.321561,37.832255],[-83.321284,37.83241],[-83.321133,37.832476],[-83.320813,37.832591],[-83.320484,37.832726],[-83.320206,37.832888],[-83.320173,37.832907],[-83.319836,37.833024],[-83.31917,37.833256],[-83.31886,37.833352],[-83.318576,37.833462],[-83.318283,37.833553],[-83.318137,37.833608],[-83.317718,37.833783],[-83.317291,37.834034],[-83.317206,37.83407],[-83.317114,37.834089],[-83.316799,37.83409],[-83.316569,37.834133],[-83.316075,37.834287],[-83.315974,37.834337],[-83.315822,37.834469],[-83.315688,37.834647],[-83.31559,37.8347],[-83.315474,37.83473],[-83.314856,37.834775],[-83.31474,37.834792],[-83.314509,37.834862],[-83.314294,37.834958],[-83.314098,37.835068],[-83.313988,37.835106],[-83.313866,37.83512],[-83.313738,37.835116],[-83.313174,37.835027],[-83.313018,37.835028],[-83.312853,37.835041],[-83.312532,37.835026],[-83.312195,37.834994],[-83.312028,37.834995],[-83.311875,37.835009],[-83.311712,37.835037],[-83.311373,37.83505],[-83.3112,37.835038],[-83.310916,37.835012],[-83.310852,37.835006],[-83.310361,37.834922],[-83.309905,37.834883],[-83.309448,37.83482],[-83.308964,37.83472],[-83.308645,37.834668],[-83.308502,37.834653],[-83.308366,37.834654],[-83.308234,37.83467],[-83.30806,37.834715],[-83.307976,37.834737],[-83.307726,37.834849],[-83.307476,37.834989],[-83.306679,37.835572],[-83.306484,37.835765],[-83.306348,37.835857]]}},{"type":"Feature","properties":{"osm_id":16320554,"highway":"residential","name":"Nickell Fork Road","alt_name":null,"official_name":null,"surface":null,"tracktype":null,"service":null,"access":null,"motor_vehicle":null,"foot":null,"tiger_reviewed":"no","rrgh_part":0,"rrgh_tile_part":0},"geometry":{"type":"LineString","coordinates":[[-83.312457,37.82686],[-83.312579,37.826839],[-83.312872,37.826806],[-83.313194,37.826738],[-83.313495,37.82664],[-83.31365,37.826603],[-83.313816,37.826579],[-83.313959,37.826584],[-83.314101,37.826575],[-83.314671,37.82652],[-83.315145,37.826511],[-83.315574,37.826539],[-83.315813,37.826554],[-83.316311,37.826627],[-83.316827,37.826754],[-83.317183,37.826827],[-83.317499,37.826923],[-83.317793,37.826979],[-83.318153,37.826982],[-83.31817,37.826981],[-83.318774,37.826955],[-83.319091,37.826892],[-83.31957,37.826813],[-83.319976,37.826712],[-83.320464,37.826497],[-83.320714,37.826374],[-83.320854,37.826337],[-83.321109,37.826292],[-83.321404,37.826308]]}},{"type":"Feature","properties":{"osm_id":16320725,"highway":"residential","name":"Walters Cemetery Road","alt_name":null,"official_name":null,"surface":null,"tracktype":null,"service":null,"access":null,"motor_vehicle":null,"foot":null,"tiger_reviewed":"no","rrgh_part":0,"rrgh_tile_part":0},"geometry":{"type":"LineString","coordinates":[[-83.31817,37.826981],[-83.31814,37.828896],[-83.318387,37.829202],[-83.318605,37.829267],[-83.319317,37.829706],[-83.319481,37.830645],[-83.319591,37.831255]]}},{"type":"Feature","properties":{"osm_id":16317981,"highway":"residential","name":null,"alt_name":null,"official_name":null,"surface":null,"tracktype":null,"service":null,"access":null,"motor_vehicle":null,"foot":null,"tiger_reviewed":"no","rrgh_part":0,"rrgh_tile_part":0},"geometry":{"type":"LineString","coordinates":[[-83.326105,37.833856],[-83.326232,37.833759],[-83.326312,37.833676],[-83.326307,37.83352],[-83.326172,37.833398],[-83.326278,37.83331]]}},{"type":"Feature","properties":{"osm_id":16322837,"highway":"residential","name":"Lloyd Conley Road","alt_name":null,"official_name":null,"surface":null,"tracktype":null,"service":null,"access":null,"motor_vehicle":null,"foot":null,"tiger_reviewed":"no","rrgh_part":0,"rrgh_tile_part":0},"geometry":{"type":"LineString","coordinates":[[-83.328891,37.83485],[-83.328689,37.834502],[-83.328457,37.834291],[-83.328263,37.834091]]}},{"type":"Feature","properties":{"osm_id":16318509,"highway":"residential","name":"Gevedon Cemetery Road","alt_name":null,"official_name":null,"surface":null,"tracktype":null,"service":null,"access":null,"motor_vehicle":null,"foot":null,"tiger_reviewed":"no","rrgh_part":0,"rrgh_tile_part":0},"geometry":{"type":"LineString","coordinates":[[-83.321821,37.83207],[-83.322481,37.83268],[-83.322299,37.833561],[-83.323726,37.835714]]}},{"type":"Feature","properties":{"osm_id":16320865,"highway":"residential","name":"Don Peyton Bridge","alt_name":null,"official_name":null,"surface":null,"tracktype":null,"service":null,"access":null,"motor_vehicle":null,"foot":null,"tiger_reviewed":"no","rrgh_part":0,"rrgh_tile_part":0},"geometry":{"type":"LineString","coordinates":[[-83.325333,37.840901],[-83.325291,37.840732],[-83.325199,37.840513],[-83.325146,37.840357],[-83.325105,37.84019],[-83.325028,37.840004],[-83.324871,37.839739],[-83.324692,37.839347],[-83.324559,37.839122],[-83.32454,37.839089],[-83.324467,37.838995]]}},{"type":"Feature","properties":{"osm_id":16318872,"highway":"residential","name":"Roce Branch Road","alt_name":null,"official_name":null,"surface":null,"tracktype":null,"service":null,"access":null,"motor_vehicle":null,"foot":null,"tiger_reviewed":"no","rrgh_part":0,"rrgh_tile_part":0},"geometry":{"type":"LineString","coordinates":[[-83.319888,37.842086],[-83.319981,37.842176],[-83.319992,37.842192],[-83.320025,37.842245],[-83.320168,37.842789],[-83.320168,37.842858],[-83.320143,37.842949],[-83.320116,37.84301],[-83.320053,37.843067]]}},{"type":"Feature","properties":{"osm_id":16318930,"highway":"residential","name":"Dempsey Peyton Bridge","alt_name":null,"official_name":null,"surface":null,"tracktype":null,"service":null,"access":null,"motor_vehicle":null,"foot":null,"tiger_reviewed":"no","rrgh_part":0,"rrgh_tile_part":0},"geometry":{"type":"LineString","coordinates":[[-83.319718,37.841285],[-83.320206,37.841232],[-83.32035,37.841232],[-83.320615,37.841242],[-83.320765,37.841323],[-83.320795,37.841467],[-83.320835,37.841621],[-83.320955,37.842087],[-83.320772,37.843392]]}},{"type":"Feature","properties":{"osm_id":16319499,"highway":"residential","name":"Vic Elam Road","alt_name":null,"official_name":null,"surface":null,"tracktype":null,"service":null,"access":null,"motor_vehicle":null,"foot":null,"tiger_reviewed":"no","rrgh_part":0,"rrgh_tile_part":0},"geometry":{"type":"LineString","coordinates":[[-83.320413,37.841721],[-83.320264,37.841636],[-83.320148,37.841605],[-83.319785,37.841725],[-83.319484,37.841825],[-83.319066,37.842069],[-83.318816,37.842255],[-83.318163,37.84274],[-83.318071,37.842842],[-83.317966,37.842934],[-83.317909,37.842974],[-83.317822,37.843036],[-83.317752,37.843065],[-83.317653,37.843106]]}},{"type":"Feature","properties":{"osm_id":16322165,"highway":"residential","name":"Anthony Henry Road","alt_name":null,"official_name":null,"surface":null,"tracktype":null,"service":null,"access":null,"motor_vehicle":null,"foot":null,"tiger_reviewed":"no","rrgh_part":0,"rrgh_tile_part":0},"geometry":{"type":"LineString","coordinates":[[-83.320765,37.841323],[-83.320886,37.841109],[-83.321006,37.840856],[-83.321626,37.84092],[-83.32183,37.840956],[-83.322095,37.841042],[-83.321957,37.841566]]}},{"type":"Feature","properties":{"osm_id":16319590,"highway":"residential","name":"Buck Branch Road","alt_name":null,"official_name":null,"surface":null,"tracktype":null,"service":null,"access":null,"motor_vehicle":null,"foot":null,"tiger_reviewed":"no","rrgh_part":0,"rrgh_tile_part":0},"geometry":{"type":"LineString","coordinates":[[-83.33500000000001,37.85164970349908],[-83.334183,37.85191],[-83.333208,37.852221],[-83.331579,37.852439],[-83.331323,37.852749],[-83.330811,37.852884],[-83.330634,37.852878],[-83.330022,37.852829],[-83.329403,37.852861],[-83.329261,37.85293],[-83.328908,37.853126],[-83.328453,37.853122],[-83.328032,37.853045],[-83.326976,37.852852]]}},{"type":"Feature","properties":{"osm_id":16319938,"highway":"residential","name":"Testerman Road","alt_name":null,"official_name":null,"surface":null,"tracktype":null,"service":null,"access":null,"motor_vehicle":null,"foot":null,"tiger_reviewed":"no","rrgh_part":0,"rrgh_tile_part":0},"geometry":{"type":"LineString","coordinates":[[-83.33500000000001,37.859861680575534],[-83.334766,37.859994]]}},{"type":"Feature","properties":{"osm_id":16320209,"highway":"residential","name":"Ed Elam Road","alt_name":null,"official_name":null,"surface":null,"tracktype":null,"service":null,"access":null,"motor_vehicle":null,"foot":null,"tiger_reviewed":"no","rrgh_part":0,"rrgh_tile_part":0},"geometry":{"type":"LineString","coordinates":[[-83.334992,37.847279],[-83.33486,37.847335],[-83.334722,37.847377],[-83.334533,37.847397],[-83.334352,37.847389],[-83.333629,37.847291],[-83.333424,37.847311],[-83.333078,37.847396],[-83.332695,37.84751],[-83.332565,37.847558],[-83.332168,37.847733],[-83.331904,37.847836],[-83.331773,37.847872],[-83.331347,37.847959],[-83.330933,37.848012],[-83.330106,37.848041],[-83.329884,37.84806],[-83.329653,37.848059],[-83.329433,37.848036],[-83.329247,37.847987]]}},{"type":"Feature","properties":{"osm_id":16320749,"highway":"residential","name":"Todd Frederick Road","alt_name":null,"official_name":null,"surface":null,"tracktype":null,"service":null,"access":null,"motor_vehicle":null,"foot":null,"tiger_reviewed":"no","rrgh_part":0,"rrgh_tile_part":0},"geometry":{"type":"LineString","coordinates":[[-83.327297,37.856655],[-83.327847,37.8554],[-83.327144,37.854314],[-83.326448,37.854389],[-83.322649,37.854796],[-83.31767,37.857401],[-83.317573,37.857452],[-83.313322,37.85989],[-83.310905,37.860089],[-83.310203,37.859967],[-83.309956,37.859925],[-83.309828,37.859936]]}},{"type":"Feature","properties":{"osm_id":16318663,"highway":"residential","name":"D Ferguson Road","alt_name":null,"official_name":null,"surface":null,"tracktype":null,"service":null,"access":null,"motor_vehicle":null,"foot":null,"tiger_reviewed":"no","rrgh_part":0,"rrgh_tile_part":0},"geometry":{"type":"LineString","coordinates":[[-83.310264,37.84801],[-83.310269,37.847949],[-83.310299,37.847906],[-83.310345,37.847885],[-83.310711,37.847791],[-83.310819,37.847791],[-83.311124,37.847815],[-83.3113,37.847871],[-83.311391,37.84792],[-83.311489,37.847952],[-83.311533,37.847955],[-83.311677,37.847966],[-83.311854,37.847979],[-83.312085,37.848011]]}},{"type":"Feature","properties":{"osm_id":16318682,"highway":"residential","name":"Adkins Lane","alt_name":null,"official_name":null,"surface":null,"tracktype":null,"service":null,"access":null,"motor_vehicle":null,"foot":null,"tiger_reviewed":"no","rrgh_part":0,"rrgh_tile_part":0},"geometry":{"type":"LineString","coordinates":[[-83.307522,37.856006],[-83.308861,37.856103],[-83.309903,37.856902],[-83.311124,37.857494]]}},{"type":"Feature","properties":{"osm_id":16320193,"highway":"residential","name":"Skaggs Lane","alt_name":null,"official_name":null,"surface":null,"tracktype":null,"service":null,"access":null,"motor_vehicle":null,"foot":null,"tiger_reviewed":"no","rrgh_part":0,"rrgh_tile_part":0},"geometry":{"type":"LineString","coordinates":[[-83.312058,37.855098],[-83.311539,37.854895],[-83.309668,37.854714],[-83.307175,37.854575],[-83.306115,37.854557]]}},{"type":"Feature","properties":{"osm_id":313840671,"highway":"residential","name":"Grassy Hill Road West","alt_name":null,"official_name":null,"surface":null,"tracktype":null,"service":null,"access":null,"motor_vehicle":null,"foot":null,"tiger_reviewed":"no","rrgh_part":0,"rrgh_tile_part":0},"geometry":{"type":"LineString","coordinates":[[-83.33500000000001,37.86738960751095],[-83.3349021,37.8674779],[-83.3342378,37.8676939],[-83.3331826,37.8677453],[-83.3319906,37.8677556],[-83.3313002,37.8678379],[-83.3296979,37.8681618],[-83.328092,37.868516],[-83.3271251,37.8686143],[-83.326577,37.868579],[-83.326154,37.868351],[-83.3249952,37.8678224],[-83.3247216,37.8676528],[-83.3245476,37.8674539]]}},{"type":"Feature","properties":{"osm_id":313840672,"highway":"residential","name":"Preece Road","alt_name":null,"official_name":null,"surface":null,"tracktype":null,"service":null,"access":null,"motor_vehicle":null,"foot":null,"tiger_reviewed":"no","rrgh_part":0,"rrgh_tile_part":0},"geometry":{"type":"LineString","coordinates":[[-83.3208032,37.86856],[-83.320807,37.8683418],[-83.3211262,37.8681721],[-83.3216929,37.8679253],[-83.3219469,37.8677093],[-83.3220446,37.8674985],[-83.3221032,37.8669895],[-83.3219664,37.8664598],[-83.3219599,37.8660793],[-83.3220055,37.8658376],[-83.3223768,37.8655497],[-83.3225592,37.865128],[-83.3229825,37.8646498],[-83.3233799,37.8642025],[-83.3239595,37.8637859]]}},{"type":"Feature","properties":{"osm_id":313840673,"highway":"residential","name":"Grassy Hill Road East","alt_name":null,"official_name":null,"surface":null,"tracktype":null,"service":null,"access":null,"motor_vehicle":null,"foot":null,"tiger_reviewed":"no","rrgh_part":0,"rrgh_tile_part":0},"geometry":{"type":"LineString","coordinates":[[-83.3224305,37.8679913],[-83.3225156,37.8682211],[-83.322315,37.86877],[-83.3218508,37.8697113],[-83.3214614,37.8702011],[-83.3209723,37.8705163],[-83.3207948,37.870595],[-83.3200869,37.8707901],[-83.3192658,37.8709122],[-83.3188679,37.8709236],[-83.3184699,37.8708692],[-83.3171333,37.8705986],[-83.3162672,37.8705733],[-83.3158177,37.8705579],[-83.3156501,37.8705268],[-83.3154885,37.8703763],[-83.315436,37.870247]]}},{"type":"Feature","properties":{"osm_id":16319821,"highway":"residential","name":"Ross Road","alt_name":null,"official_name":null,"surface":null,"tracktype":null,"service":null,"access":null,"motor_vehicle":null,"foot":null,"tiger_reviewed":"no","rrgh_part":0,"rrgh_tile_part":0},"geometry":{"type":"LineString","coordinates":[[-83.3342378,37.8676939],[-83.333873,37.8681155],[-83.3336776,37.8685115],[-83.3335018,37.8688714],[-83.33315,37.869149],[-83.3330719,37.8693804],[-83.3328699,37.8697506]]}},{"type":"Feature","properties":{"osm_id":16321816,"highway":"residential","name":"Burgett Fork","alt_name":null,"official_name":null,"surface":null,"tracktype":null,"service":null,"access":null,"motor_vehicle":null,"foot":null,"tiger_reviewed":"no","rrgh_part":0,"rrgh_tile_part":0},"geometry":{"type":"LineString","coordinates":[[-83.318888,37.861146],[-83.317589,37.860551],[-83.317359,37.860446],[-83.317542,37.859214],[-83.319193,37.858538],[-83.318582,37.857935],[-83.317879,37.857718],[-83.31767,37.857401]]}},{"type":"Feature","properties":{"osm_id":16318094,"highway":"residential","name":null,"alt_name":null,"official_name":null,"surface":null,"tracktype":null,"service":null,"access":null,"motor_vehicle":null,"foot":null,"tiger_reviewed":"no","rrgh_part":0,"rrgh_tile_part":0},"geometry":{"type":"LineString","coordinates":[[-83.309822,37.859752],[-83.309828,37.859936],[-83.309856,37.860481],[-83.30986,37.860669],[-83.309534,37.861142],[-83.308433,37.862019],[-83.308026,37.862582],[-83.307388,37.863251],[-83.306893,37.864249],[-83.306472,37.86459]]}},{"type":"Feature","properties":{"osm_id":1248315160,"highway":"service","name":null,"alt_name":null,"official_name":null,"surface":null,"tracktype":null,"service":null,"access":null,"motor_vehicle":null,"foot":null,"tiger_reviewed":null,"rrgh_part":0,"rrgh_tile_part":0},"geometry":{"type":"LineString","coordinates":[[-83.3155006,37.8694485],[-83.3143365,37.8697238],[-83.3142024,37.8697916],[-83.3141273,37.869872],[-83.3140105,37.8700608]]}},{"type":"Feature","properties":{"osm_id":1248315162,"highway":"residential","name":"Greear Drive","alt_name":null,"official_name":null,"surface":null,"tracktype":null,"service":null,"access":null,"motor_vehicle":null,"foot":null,"tiger_reviewed":null,"rrgh_part":0,"rrgh_tile_part":0},"geometry":{"type":"LineString","coordinates":[[-83.31428,37.870309],[-83.3141935,37.870158],[-83.3140105,37.8700608],[-83.3133668,37.8699882],[-83.3123784,37.8698438],[-83.3120795,37.8697727]]}},{"type":"Feature","properties":{"osm_id":16320847,"highway":"residential","name":"Centerville Road","alt_name":null,"official_name":null,"surface":null,"tracktype":null,"service":null,"access":null,"motor_vehicle":null,"foot":null,"tiger_reviewed":"no","rrgh_part":0,"rrgh_tile_part":0},"geometry":{"type":"LineString","coordinates":[[-83.301057,37.843577],[-83.30105,37.843867],[-83.301037,37.843977],[-83.300874,37.84467],[-83.300812,37.845317],[-83.300793,37.845513],[-83.300723,37.845944],[-83.300702,37.846147],[-83.300715,37.846341],[-83.300747,37.846526],[-83.301215,37.847587],[-83.30122,37.847617],[-83.301218,37.847705],[-83.301216,37.847723],[-83.301147,37.847929],[-83.30114,37.848132],[-83.301243,37.848371],[-83.301236,37.848905],[-83.301249,37.849375],[-83.301246,37.849638],[-83.301236,37.849714],[-83.301181,37.849891],[-83.301181,37.84996],[-83.301123,37.850125],[-83.301107,37.850423],[-83.301115,37.850699],[-83.301203,37.851237],[-83.301207,37.851263],[-83.301215,37.851436],[-83.301194,37.851523],[-83.301148,37.851622],[-83.301078,37.851726],[-83.300943,37.851983],[-83.300884,37.852119],[-83.300727,37.852559],[-83.30051,37.853394],[-83.300361,37.854045],[-83.300282,37.854686],[-83.300244,37.854816],[-83.300137,37.855061],[-83.29999,37.855292],[-83.299953,37.85535],[-83.299927,37.855391],[-83.299606,37.855782],[-83.299536,37.855898],[-83.299396,37.856151],[-83.299196,37.85656],[-83.299095,37.856745],[-83.29875,37.857381],[-83.298564,37.85777],[-83.2985,37.858026],[-83.29844,37.858268],[-83.298397,37.858369],[-83.298389,37.858386],[-83.298241,37.858604],[-83.297869,37.859042],[-83.297728,37.859174],[-83.297452,37.859395],[-83.2973,37.859545],[-83.297197,37.859669],[-83.29715,37.859843],[-83.297004,37.860486],[-83.296891,37.861276],[-83.296887,37.86156],[-83.296856,37.861824],[-83.296679,37.862344],[-83.296651,37.862486],[-83.296619,37.862774],[-83.296579,37.863355],[-83.296467,37.864174],[-83.296427,37.864684],[-83.296339,37.86553],[-83.296332,37.865721],[-83.296326,37.865866],[-83.296272,37.866286],[-83.296277,37.86656],[-83.296239,37.866854],[-83.296096,37.867256],[-83.295962,37.867556],[-83.29588,37.867963],[-83.295862,37.868379],[-83.29587,37.868503],[-83.295894,37.86862],[-83.295933,37.868731],[-83.295992,37.868852],[-83.296201,37.869214],[-83.296519,37.869809],[-83.296959,37.8705567],[-83.297158,37.870895],[-83.297294,37.871114],[-83.297392,37.871241],[-83.297507,37.871356],[-83.297633,37.87146],[-83.29777,37.871549],[-83.297792,37.87156],[-83.297915,37.871624],[-83.298214,37.871739],[-83.298503,37.871838],[-83.299161,37.87203],[-83.299241,37.872053],[-83.299349,37.872091],[-83.299517,37.872168]]}},{"type":"Feature","properties":{"osm_id":16321996,"highway":"residential","name":"Testerman Cemetery Road","alt_name":null,"official_name":null,"surface":null,"tracktype":null,"service":null,"access":null,"motor_vehicle":null,"foot":null,"tiger_reviewed":"no","rrgh_part":0,"rrgh_tile_part":0},"geometry":{"type":"LineString","coordinates":[[-83.29996729411764,37.825],[-83.299822,37.825095],[-83.299636,37.825185],[-83.29922,37.825344]]}},{"type":"Feature","properties":{"osm_id":16318593,"highway":"residential","name":"Havens Road","alt_name":null,"official_name":null,"surface":null,"tracktype":null,"service":null,"access":null,"motor_vehicle":null,"foot":null,"tiger_reviewed":"no","rrgh_part":0,"rrgh_tile_part":0},"geometry":{"type":"LineString","coordinates":[[-83.27958,37.829907],[-83.28011,37.830119],[-83.280509,37.830221],[-83.281114,37.830328],[-83.281263,37.83033],[-83.282013,37.830308],[-83.283243,37.830243],[-83.283472,37.830224],[-83.283789,37.830233],[-83.284216,37.830311],[-83.284766,37.830423],[-83.285127,37.830555],[-83.285283,37.830577],[-83.2855,37.830558],[-83.285925,37.830461],[-83.286074,37.83044],[-83.286139,37.830453],[-83.286334,37.830579],[-83.286408,37.830606],[-83.286655,37.830652],[-83.286822,37.8307],[-83.28704,37.830802],[-83.287484,37.83097],[-83.287735,37.831027],[-83.287913,37.831035]]}},{"type":"Feature","properties":{"osm_id":16318072,"highway":"residential","name":null,"alt_name":null,"official_name":null,"surface":null,"tracktype":null,"service":null,"access":null,"motor_vehicle":null,"foot":null,"tiger_reviewed":"no","rrgh_part":0,"rrgh_tile_part":0},"geometry":{"type":"LineString","coordinates":[[-83.30806,37.834715],[-83.307695,37.834665],[-83.307649,37.834661],[-83.307292,37.83454],[-83.306726,37.8342],[-83.306135,37.833916],[-83.305622,37.833671],[-83.30502,37.833457],[-83.304473,37.833349],[-83.303952,37.833288],[-83.303573,37.833337],[-83.302801,37.83358],[-83.302129,37.833722],[-83.301761,37.833803],[-83.301402,37.83386],[-83.300995,37.833819],[-83.300826,37.833774]]}},{"type":"Feature","properties":{"osm_id":16322397,"highway":"residential","name":"Jim Henry Finch Road","alt_name":null,"official_name":null,"surface":null,"tracktype":null,"service":null,"access":null,"motor_vehicle":null,"foot":null,"tiger_reviewed":"no","rrgh_part":0,"rrgh_tile_part":0},"geometry":{"type":"LineString","coordinates":[[-83.278885,37.825353],[-83.278487,37.825294],[-83.278365,37.825276],[-83.277924,37.825232],[-83.277431,37.825239],[-83.277309,37.82525],[-83.277075,37.825299],[-83.276743,37.825396],[-83.276403,37.825473],[-83.275945,37.8256],[-83.275903,37.825623],[-83.275883,37.825654],[-83.275873,37.825697],[-83.275906,37.825783],[-83.276054,37.826012],[-83.276489,37.826771],[-83.276694,37.827239],[-83.276796,37.827498],[-83.276974,37.82787],[-83.277014,37.827984],[-83.277033,37.828092],[-83.277062,37.828185],[-83.277102,37.828274],[-83.277435,37.828749]]}},{"type":"Feature","properties":{"osm_id":16322076,"highway":"service","name":"Burton Stacy Road","alt_name":null,"official_name":null,"surface":null,"tracktype":null,"service":null,"access":"private","motor_vehicle":null,"foot":null,"tiger_reviewed":"no","rrgh_part":0,"rrgh_tile_part":0},"geometry":{"type":"LineString","coordinates":[[-83.271118,37.83587],[-83.271343,37.835642],[-83.271368,37.835488],[-83.271358,37.835303],[-83.271382,37.835136],[-83.271387,37.835093],[-83.271409,37.83498],[-83.271595,37.834771]]}},{"type":"Feature","properties":{"osm_id":16322415,"highway":"residential","name":"Barker Branch Road","alt_name":null,"official_name":null,"surface":null,"tracktype":null,"service":null,"access":null,"motor_vehicle":null,"foot":null,"tiger_reviewed":"no","rrgh_part":0,"rrgh_tile_part":0},"geometry":{"type":"LineString","coordinates":[[-83.25955,37.850876],[-83.259637,37.850663],[-83.259701,37.850447],[-83.259932,37.849672],[-83.259941,37.84962],[-83.259997,37.849276],[-83.260086,37.8489],[-83.260121,37.848779],[-83.260212,37.848541],[-83.260322,37.848168],[-83.260414,37.847745],[-83.260471,37.847396],[-83.260604,37.847032],[-83.260634,37.846912],[-83.260685,37.846798],[-83.260755,37.846688],[-83.260843,37.846592],[-83.261046,37.846411],[-83.261255,37.846225],[-83.261481,37.846049],[-83.26173,37.845884],[-83.261848,37.845815],[-83.261981,37.845757],[-83.262128,37.84571],[-83.262766,37.845548],[-83.263071,37.845456],[-83.263227,37.845418],[-83.263566,37.845365],[-83.26373,37.84533],[-83.264036,37.845222],[-83.264187,37.845177],[-83.264358,37.845142],[-83.264497,37.845134],[-83.264806,37.845132],[-83.265251,37.84513],[-83.265699,37.845158],[-83.265869,37.845156],[-83.266018,37.84515],[-83.266304,37.845113],[-83.266453,37.845082],[-83.266671,37.845068],[-83.267247,37.84519],[-83.267349,37.845225],[-83.26763,37.845347],[-83.267728,37.845362],[-83.267821,37.845354],[-83.267844,37.845349],[-83.267937,37.845319],[-83.268811,37.844895],[-83.26909,37.844771],[-83.269517,37.844633],[-83.270089,37.844475],[-83.27022,37.844446],[-83.270453,37.844439],[-83.270559,37.844465],[-83.270656,37.844508],[-83.270732,37.84457],[-83.270898,37.844678],[-83.270969,37.844703],[-83.271046,37.844712],[-83.271203,37.84469],[-83.271452,37.844614],[-83.271913,37.844489],[-83.27265,37.844336],[-83.272808,37.844314],[-83.272973,37.844301],[-83.27365,37.844303],[-83.274161,37.844323],[-83.274465,37.844309],[-83.274584,37.844285],[-83.274605,37.844278],[-83.274711,37.844235],[-83.274986,37.844033],[-83.275085,37.843981],[-83.275195,37.843945],[-83.275572,37.843853],[-83.275918,37.843803],[-83.275957,37.843797],[-83.27607,37.843765],[-83.276185,37.843724],[-83.276489,37.843615]]}},{"type":"Feature","properties":{"osm_id":16320849,"highway":"residential","name":"Lacy Lane","alt_name":null,"official_name":null,"surface":null,"tracktype":null,"service":null,"access":null,"motor_vehicle":null,"foot":null,"tiger_reviewed":"no","rrgh_part":0,"rrgh_tile_part":0},"geometry":{"type":"LineString","coordinates":[[-83.256847,37.841359],[-83.257282,37.842734],[-83.25809,37.843633],[-83.259298,37.844058]]}},{"type":"Feature","properties":{"osm_id":16322308,"highway":"residential","name":"May Lane","alt_name":null,"official_name":null,"surface":null,"tracktype":null,"service":null,"access":null,"motor_vehicle":null,"foot":null,"tiger_reviewed":"no","rrgh_part":0,"rrgh_tile_part":0},"geometry":{"type":"LineString","coordinates":[[-83.262722,37.839327],[-83.262887,37.840371],[-83.262289,37.840605],[-83.26179,37.840919],[-83.262287,37.841704],[-83.263182,37.842174]]}},{"type":"Feature","properties":{"osm_id":16318249,"highway":"service","name":null,"alt_name":null,"official_name":null,"surface":null,"tracktype":null,"service":null,"access":"private","motor_vehicle":null,"foot":null,"tiger_reviewed":"no","rrgh_part":0,"rrgh_tile_part":0},"geometry":{"type":"LineString","coordinates":[[-83.300812,37.845317],[-83.3006823,37.8451265],[-83.3005893,37.845029],[-83.3004746,37.8449842],[-83.3003441,37.8449877],[-83.3002688,37.8450153],[-83.3001606,37.8451068],[-83.3000677,37.8451789],[-83.2999784,37.8452149],[-83.2998176,37.8451971],[-83.2996418,37.8451274]]}},{"type":"Feature","properties":{"osm_id":16320046,"highway":"residential","name":"Billy Gevedon Branch Road","alt_name":null,"official_name":null,"surface":null,"tracktype":null,"service":null,"access":null,"motor_vehicle":null,"foot":null,"tiger_reviewed":"no","rrgh_part":0,"rrgh_tile_part":0},"geometry":{"type":"LineString","coordinates":[[-83.289302,37.855714],[-83.28936,37.855801],[-83.289366,37.85584],[-83.289352,37.855882],[-83.289324,37.85592],[-83.28931,37.855935],[-83.289238,37.856006],[-83.289224,37.856091],[-83.289246,37.856137],[-83.289291,37.856175],[-83.289351,37.856204],[-83.289732,37.856331],[-83.290034,37.85646],[-83.29014,37.856513],[-83.290442,37.856699],[-83.290651,37.8568],[-83.290867,37.856883],[-83.291238,37.857094],[-83.291417,37.857221],[-83.291909,37.857615],[-83.292182,37.857916],[-83.292409,37.858129],[-83.292986,37.858523],[-83.293059,37.858578],[-83.293252,37.858755],[-83.293354,37.858832],[-83.293397,37.858865],[-83.293962,37.859243],[-83.29424,37.859393],[-83.294451,37.859522],[-83.294528,37.859558],[-83.294609,37.859584],[-83.294763,37.859603],[-83.294835,37.859589],[-83.294898,37.859558],[-83.295007,37.859474],[-83.295072,37.85944],[-83.295151,37.859423],[-83.29533,37.859427],[-83.295825,37.859477],[-83.295953,37.85947],[-83.296076,37.85945],[-83.296391,37.85935],[-83.296484,37.859329],[-83.296575,37.859328],[-83.296662,37.85935],[-83.296723,37.859381],[-83.296742,37.859391],[-83.296814,37.859445],[-83.296877,37.859508],[-83.297073,37.85976],[-83.29715,37.859843]]}},{"type":"Feature","properties":{"osm_id":16320092,"highway":"residential","name":"Chester Road","alt_name":null,"official_name":null,"surface":null,"tracktype":null,"service":null,"access":null,"motor_vehicle":null,"foot":null,"tiger_reviewed":"no","rrgh_part":0,"rrgh_tile_part":0},"geometry":{"type":"LineString","coordinates":[[-83.300361,37.854045],[-83.300928,37.854139],[-83.301143,37.854201],[-83.301676,37.854433],[-83.301937,37.854568],[-83.302379,37.854848],[-83.302484,37.854905],[-83.302764,37.855004],[-83.302919,37.855032],[-83.303337,37.855064],[-83.303497,37.855102],[-83.3037,37.855175],[-83.303844,37.855211],[-83.30427,37.855242],[-83.304424,37.855278],[-83.30451,37.855288]]}},{"type":"Feature","properties":{"osm_id":16320204,"highway":"residential","name":"Homer C Gevedon Road","alt_name":null,"official_name":null,"surface":null,"tracktype":null,"service":null,"access":null,"motor_vehicle":null,"foot":null,"tiger_reviewed":"no","rrgh_part":0,"rrgh_tile_part":0},"geometry":{"type":"LineString","coordinates":[[-83.30122,37.847617],[-83.301443,37.847518],[-83.301664,37.847445],[-83.301725,37.847406],[-83.301871,37.847264],[-83.301935,37.847228],[-83.302099,37.847138],[-83.302245,37.847076],[-83.302604,37.846926],[-83.302887,37.846825],[-83.302973,37.84678],[-83.303301,37.846566],[-83.303852,37.846273],[-83.304125,37.846157],[-83.304198,37.846126],[-83.304534,37.846024]]}},{"type":"Feature","properties":{"osm_id":16320761,"highway":"residential","name":"Smith Lane","alt_name":null,"official_name":null,"surface":null,"tracktype":null,"service":null,"access":null,"motor_vehicle":null,"foot":null,"tiger_reviewed":"no","rrgh_part":0,"rrgh_tile_part":0},"geometry":{"type":"LineString","coordinates":[[-83.303337,37.859292],[-83.302897,37.858368],[-83.300569,37.857356],[-83.29956,37.857033],[-83.299095,37.856745]]}},{"type":"Feature","properties":{"osm_id":16320144,"highway":"residential","name":"Austin Lane","alt_name":null,"official_name":null,"surface":null,"tracktype":null,"service":null,"access":null,"motor_vehicle":null,"foot":null,"tiger_reviewed":"no","rrgh_part":0,"rrgh_tile_part":0},"geometry":{"type":"LineString","coordinates":[[-83.300881,37.858711],[-83.298684,37.858095],[-83.2985,37.858026]]}},{"type":"Feature","properties":{"osm_id":16322785,"highway":"residential","name":"Revis Road","alt_name":null,"official_name":null,"surface":null,"tracktype":null,"service":null,"access":null,"motor_vehicle":null,"foot":null,"tiger_reviewed":"no","rrgh_part":0,"rrgh_tile_part":0},"geometry":{"type":"LineString","coordinates":[[-83.303831,37.869523],[-83.303691,37.869704],[-83.303568,37.869863],[-83.30332,37.870146],[-83.303093,37.87038],[-83.302841,37.870611],[-83.302797,37.870647],[-83.302624,37.870788],[-83.302583,37.870822],[-83.302317,37.871012],[-83.301921,37.871274],[-83.301421,37.871579],[-83.300657,37.872057],[-83.30018,37.872357]]}},{"type":"Feature","properties":{"osm_id":16317655,"highway":"residential","name":null,"alt_name":null,"official_name":null,"surface":null,"tracktype":null,"service":null,"access":null,"motor_vehicle":null,"foot":null,"tiger_reviewed":"no","rrgh_part":0,"rrgh_tile_part":0},"geometry":{"type":"LineString","coordinates":[[-83.307172,37.864734],[-83.306472,37.86459],[-83.306291,37.864758],[-83.30584,37.865283],[-83.304921,37.865563]]}},{"type":"Feature","properties":{"osm_id":16321995,"highway":"residential","name":"Benton Lane","alt_name":null,"official_name":null,"surface":null,"tracktype":null,"service":null,"access":null,"motor_vehicle":null,"foot":null,"tiger_reviewed":"no","rrgh_part":0,"rrgh_tile_part":0},"geometry":{"type":"LineString","coordinates":[[-83.296332,37.865721],[-83.297153,37.865798],[-83.298197,37.865875],[-83.29921,37.865795],[-83.300327,37.865741]]}},{"type":"Feature","properties":{"osm_id":16322149,"highway":"residential","name":"Day Branch Road","alt_name":null,"official_name":null,"surface":null,"tracktype":null,"service":null,"access":null,"motor_vehicle":null,"foot":null,"tiger_reviewed":"no","rrgh_part":0,"rrgh_tile_part":0},"geometry":{"type":"LineString","coordinates":[[-83.281882,37.86698],[-83.281923,37.866976],[-83.282017,37.866992],[-83.282116,37.866989],[-83.282272,37.866959],[-83.282455,37.86701],[-83.28259,37.867058],[-83.28279,37.867103],[-83.283093,37.867138],[-83.283311,37.867142],[-83.283643,37.867119],[-83.28381,37.86714],[-83.284271,37.867248],[-83.284444,37.867317],[-83.284478,37.867337],[-83.284584,37.867397],[-83.28464,37.867464],[-83.284696,37.867568],[-83.284737,37.867615],[-83.284813,37.867638],[-83.284904,37.867642],[-83.285088,37.867639],[-83.285433,37.867677],[-83.285859,37.86774],[-83.28596,37.867761],[-83.286145,37.867799],[-83.286428,37.867823],[-83.286876,37.867761],[-83.287088,37.867715],[-83.287132,37.867706],[-83.287501,37.867665],[-83.287569,37.867658],[-83.28784,37.86764],[-83.288708,37.86775],[-83.288841,37.867758],[-83.289196,37.867757],[-83.289322,37.867779],[-83.290029,37.867949],[-83.290521,37.868125],[-83.290643,37.868152],[-83.291013,37.868188],[-83.292048,37.868356],[-83.29225,37.868371],[-83.292358,37.868355],[-83.292645,37.868284],[-83.293148,37.868285],[-83.29409,37.868377],[-83.29419,37.868407],[-83.294475,37.868554],[-83.294763,37.868721],[-83.294986,37.868815],[-83.295208,37.868887],[-83.295313,37.868909],[-83.295511,37.868919],[-83.295564,37.868914],[-83.295688,37.868903],[-83.295992,37.868852]]}},{"type":"Feature","properties":{"osm_id":16317553,"highway":"residential","name":"Castle Branch Road","alt_name":null,"official_name":null,"surface":null,"tracktype":null,"service":null,"access":null,"motor_vehicle":null,"foot":null,"tiger_reviewed":"no","rrgh_part":0,"rrgh_tile_part":0},"geometry":{"type":"LineString","coordinates":[[-83.258717,37.852514],[-83.259308,37.852643],[-83.259585,37.852718],[-83.259803,37.852823],[-83.259931,37.852894],[-83.260054,37.852978],[-83.260613,37.853339],[-83.261188,37.853803],[-83.261251,37.853832],[-83.261685,37.853957],[-83.262025,37.854135],[-83.262291,37.85421],[-83.262425,37.85429],[-83.262627,37.854463],[-83.262694,37.854509],[-83.26283,37.854573],[-83.263153,37.854691],[-83.26326,37.854779],[-83.263348,37.854876],[-83.263403,37.854915],[-83.263682,37.855002],[-83.263751,37.855035],[-83.263869,37.855105],[-83.264058,37.855254],[-83.264341,37.855447],[-83.264502,37.85552],[-83.264773,37.855613],[-83.26522,37.855737],[-83.265624,37.855835],[-83.266205,37.855956],[-83.266277,37.855968],[-83.26649,37.855975],[-83.266788,37.855936],[-83.266852,37.855932],[-83.266914,37.855941],[-83.26697,37.855963],[-83.267059,37.856036],[-83.267251,37.856311],[-83.267378,37.856441],[-83.267492,37.856508],[-83.267622,37.856558],[-83.267923,37.856629],[-83.268288,37.856739],[-83.268534,37.856771],[-83.268789,37.856822],[-83.268851,37.856841],[-83.269072,37.856945],[-83.269413,37.857083],[-83.269656,37.857133],[-83.269906,37.857169],[-83.270298,37.857258],[-83.270734,37.8573],[-83.270936,37.85734],[-83.271108,37.857395],[-83.271428,37.857527],[-83.271775,37.857632],[-83.272016,37.857736],[-83.272137,37.857758]]}},{"type":"Feature","properties":{"osm_id":16318121,"highway":"residential","name":null,"alt_name":null,"official_name":null,"surface":null,"tracktype":null,"service":null,"access":null,"motor_vehicle":null,"foot":null,"tiger_reviewed":"no","rrgh_part":0,"rrgh_tile_part":0},"geometry":{"type":"LineString","coordinates":[[-83.260685,37.845602],[-83.260909,37.845995],[-83.261046,37.846411]]}},{"type":"Feature","properties":{"osm_id":16321769,"highway":"residential","name":"Prater Lane","alt_name":null,"official_name":null,"surface":null,"tracktype":null,"service":null,"access":null,"motor_vehicle":null,"foot":null,"tiger_reviewed":"no","rrgh_part":0,"rrgh_tile_part":0},"geometry":{"type":"LineString","coordinates":[[-83.258684,37.847403],[-83.257564,37.847519],[-83.256763,37.847556],[-83.25592,37.8474],[-83.255571,37.847284],[-83.254972,37.846973],[-83.254767,37.846934],[-83.254376,37.846933],[-83.254119,37.847049],[-83.253821,37.847204],[-83.253727,37.84732],[-83.253623,37.847436],[-83.253469,37.847514],[-83.253325,37.847514]]}},{"type":"Feature","properties":{"osm_id":16322140,"highway":"residential","name":"Jess King Road","alt_name":null,"official_name":null,"surface":null,"tracktype":null,"service":null,"access":null,"motor_vehicle":null,"foot":null,"tiger_reviewed":"no","rrgh_part":0,"rrgh_tile_part":0},"geometry":{"type":"LineString","coordinates":[[-83.257198,37.844429],[-83.256721,37.844853],[-83.256548,37.845163],[-83.256451,37.845749]]}},{"type":"Feature","properties":{"osm_id":16318406,"highway":"unclassified","name":null,"alt_name":null,"official_name":null,"surface":null,"tracktype":null,"service":null,"access":null,"motor_vehicle":null,"foot":null,"tiger_reviewed":"no","rrgh_part":0,"rrgh_tile_part":0},"geometry":{"type":"LineString","coordinates":[[-83.259701,37.850447],[-83.259652,37.850489],[-83.259602,37.850501],[-83.259442,37.850481]]}},{"type":"Feature","properties":{"osm_id":16322062,"highway":"residential","name":"Byrd Cemetery Road","alt_name":null,"official_name":null,"surface":null,"tracktype":null,"service":null,"access":null,"motor_vehicle":null,"foot":null,"tiger_reviewed":"no","rrgh_part":0,"rrgh_tile_part":0},"geometry":{"type":"LineString","coordinates":[[-83.259803,37.852823],[-83.259757,37.852976],[-83.259564,37.853366],[-83.25952,37.853488],[-83.259431,37.853644],[-83.259397,37.853681]]}},{"type":"Feature","properties":{"osm_id":16318311,"highway":"residential","name":null,"alt_name":null,"official_name":null,"surface":null,"tracktype":null,"service":null,"access":null,"motor_vehicle":null,"foot":null,"tiger_reviewed":"no","rrgh_part":0,"rrgh_tile_part":0},"geometry":{"type":"LineString","coordinates":[[-83.258114,37.863585],[-83.258119,37.863709],[-83.258096,37.863768],[-83.258048,37.86391],[-83.257656,37.864615],[-83.25671,37.865172]]}},{"type":"Feature","properties":{"osm_id":16319779,"highway":"residential","name":"Lykins Lane","alt_name":null,"official_name":null,"surface":null,"tracktype":null,"service":null,"access":null,"motor_vehicle":null,"foot":null,"tiger_reviewed":"no","rrgh_part":0,"rrgh_tile_part":0},"geometry":{"type":"LineString","coordinates":[[-83.256419,37.864042],[-83.256934,37.863911],[-83.258114,37.863585],[-83.258606,37.863511],[-83.258754,37.863489],[-83.259445,37.863401],[-83.260267,37.863321]]}},{"type":"Feature","properties":{"osm_id":16319903,"highway":"residential","name":"Lowell Allen Lane","alt_name":null,"official_name":null,"surface":null,"tracktype":null,"service":null,"access":null,"motor_vehicle":null,"foot":null,"tiger_reviewed":"no","rrgh_part":0,"rrgh_tile_part":0},"geometry":{"type":"LineString","coordinates":[[-83.256757,37.86958],[-83.257018,37.869257],[-83.257477,37.868858],[-83.257993,37.868633],[-83.258426,37.868662],[-83.258796,37.868739],[-83.259414,37.868847]]}},{"type":"Feature","properties":{"osm_id":16321610,"highway":"residential","name":"Holliday Lane","alt_name":null,"official_name":null,"surface":null,"tracktype":null,"service":null,"access":null,"motor_vehicle":null,"foot":null,"tiger_reviewed":"no","rrgh_part":0,"rrgh_tile_part":0},"geometry":{"type":"LineString","coordinates":[[-83.255599,37.861871],[-83.25742,37.861381]]}},{"type":"Feature","properties":{"osm_id":16322935,"highway":"residential","name":"Brown Lane","alt_name":null,"official_name":null,"surface":null,"tracktype":null,"service":null,"access":null,"motor_vehicle":null,"foot":null,"tiger_reviewed":"no","rrgh_part":0,"rrgh_tile_part":0},"geometry":{"type":"LineString","coordinates":[[-83.256032,37.863016],[-83.259434,37.861836]]}},{"type":"Feature","properties":{"osm_id":313840855,"highway":"residential","name":"Redbird Road","alt_name":null,"official_name":null,"surface":null,"tracktype":null,"service":null,"access":null,"motor_vehicle":null,"foot":null,"tiger_reviewed":null,"rrgh_part":0,"rrgh_tile_part":0},"geometry":{"type":"LineString","coordinates":[[-83.3145802,37.8728459],[-83.3143066,37.8727071],[-83.3143262,37.8724757],[-83.3144108,37.8715605],[-83.3144434,37.8709435],[-83.31428,37.870309]]}},{"type":"Feature","properties":{"osm_id":16319181,"highway":"residential","name":"Gose Branch Road","alt_name":null,"official_name":null,"surface":null,"tracktype":null,"service":null,"access":null,"motor_vehicle":null,"foot":null,"tiger_reviewed":"no","rrgh_part":0,"rrgh_tile_part":0},"geometry":{"type":"LineString","coordinates":[[-83.298026,37.877291],[-83.299024,37.877488],[-83.29954,37.877555],[-83.299663,37.877575],[-83.299771,37.877605],[-83.299862,37.877653],[-83.299934,37.877715],[-83.300061,37.877911],[-83.300123,37.87796],[-83.300197,37.877992],[-83.300633,37.878093],[-83.300751,37.878132],[-83.30097,37.878221],[-83.301088,37.878252],[-83.301208,37.878261],[-83.3017,37.878191],[-83.301835,37.878188],[-83.302111,37.878228],[-83.302481,37.878311],[-83.302702,37.87836],[-83.303003,37.878437],[-83.303284,37.878523],[-83.303417,37.878594],[-83.303432,37.878604],[-83.303634,37.878736],[-83.303756,37.878816],[-83.303858,37.878869],[-83.303966,37.878904],[-83.304083,37.878922],[-83.304398,37.878941],[-83.304801,37.878965],[-83.305313,37.878974],[-83.30584,37.878962],[-83.306006,37.878971],[-83.306308,37.879015],[-83.306432,37.87902],[-83.306557,37.879006],[-83.30668,37.878974],[-83.306748,37.878935],[-83.306777,37.878918],[-83.306959,37.878785],[-83.307147,37.878693],[-83.307326,37.878707],[-83.307441,37.878736],[-83.307549,37.878737],[-83.307915,37.878715],[-83.308183,37.878685],[-83.308315,37.878656],[-83.308439,37.878612],[-83.308487,37.878587],[-83.308662,37.878494],[-83.308777,37.878453],[-83.3089,37.878424],[-83.309277,37.87839],[-83.309474,37.878401],[-83.309564,37.878397],[-83.309655,37.878375],[-83.309745,37.878331],[-83.310148,37.878084],[-83.310377,37.877958],[-83.310441,37.877929],[-83.310614,37.877852],[-83.310676,37.877819],[-83.310852,37.877726]]}},{"type":"Feature","properties":{"osm_id":313840854,"highway":"service","name":null,"alt_name":null,"official_name":null,"surface":null,"tracktype":null,"service":null,"access":null,"motor_vehicle":null,"foot":null,"tiger_reviewed":null,"rrgh_part":0,"rrgh_tile_part":0},"geometry":{"type":"LineString","coordinates":[[-83.3156501,37.8705268],[-83.3157461,37.8706196],[-83.3159806,37.8708047],[-83.3160392,37.8710155],[-83.315922,37.8719101],[-83.3158698,37.8732058],[-83.3158112,37.8740902],[-83.3157591,37.8743318],[-83.3156223,37.8745632],[-83.315694,37.8747226],[-83.3158894,37.8747637],[-83.3159936,37.8746917]]}},{"type":"Feature","properties":{"osm_id":16319519,"highway":"residential","name":"Llewellin Road","alt_name":null,"official_name":null,"surface":null,"tracktype":null,"service":null,"access":null,"motor_vehicle":null,"foot":null,"tiger_reviewed":"no","rrgh_part":0,"rrgh_tile_part":0},"geometry":{"type":"LineString","coordinates":[[-83.317588,37.895498],[-83.317609,37.895392],[-83.317539,37.895185],[-83.317519,37.894956],[-83.317597,37.894711],[-83.317614,37.894656],[-83.317614,37.89458],[-83.317596,37.894507],[-83.317483,37.894255],[-83.317462,37.894155],[-83.317462,37.894014],[-83.317521,37.893759],[-83.317509,37.893541],[-83.317533,37.893465],[-83.317563,37.893432],[-83.317607,37.893408],[-83.317658,37.893392],[-83.317964,37.893332],[-83.318168,37.893275],[-83.318346,37.893185],[-83.318445,37.893112],[-83.318484,37.893064],[-83.318575,37.892869],[-83.318742,37.892305],[-83.318827,37.892126],[-83.31886,37.89203],[-83.318846,37.891731],[-83.318861,37.891543],[-83.318886,37.891428],[-83.319003,37.891139],[-83.319136,37.890628],[-83.319185,37.890328],[-83.319228,37.890209],[-83.319232,37.890078],[-83.319135,37.88954],[-83.319081,37.888963],[-83.31899,37.888645],[-83.318979,37.888574],[-83.318974,37.888408],[-83.318987,37.888312],[-83.319034,37.888166],[-83.319082,37.888073],[-83.319184,37.887809],[-83.319263,37.887571],[-83.319334,37.887436],[-83.319421,37.887305],[-83.319616,37.887055],[-83.319945,37.886553],[-83.320099,37.886384],[-83.320268,37.886159],[-83.320342,37.886016],[-83.320558,37.885188],[-83.320597,37.88498]]}},{"type":"Feature","properties":{"osm_id":16322553,"highway":"residential","name":"Straight Creek Canney Road","alt_name":null,"official_name":null,"surface":null,"tracktype":null,"service":null,"access":null,"motor_vehicle":null,"foot":null,"tiger_reviewed":"no","rrgh_part":0,"rrgh_tile_part":0},"geometry":{"type":"LineString","coordinates":[[-83.31891579840848,37.9],[-83.318788,37.899708],[-83.318553,37.899075],[-83.318239,37.898558],[-83.317946,37.897947],[-83.317888,37.897827],[-83.317858,37.897742],[-83.317798,37.897324],[-83.317599,37.896519],[-83.317436,37.896183],[-83.317423,37.896068],[-83.31745,37.895928],[-83.317498,37.895771],[-83.31757,37.895593],[-83.317588,37.895498]]}},{"type":"Feature","properties":{"osm_id":16320321,"highway":"residential","name":"Old Centerville Road","alt_name":null,"official_name":null,"surface":null,"tracktype":null,"service":null,"access":null,"motor_vehicle":null,"foot":null,"tiger_reviewed":"no","rrgh_part":0,"rrgh_tile_part":0},"geometry":{"type":"LineString","coordinates":[[-83.297949,37.873259],[-83.297165,37.872554],[-83.29691,37.872311],[-83.296815,37.872205],[-83.296752,37.872136],[-83.296691,37.872042],[-83.296646,37.871944],[-83.29662,37.871843],[-83.296609,37.871742],[-83.296616,37.871641],[-83.296673,37.87145],[-83.296828,37.871124],[-83.296926,37.871003],[-83.297029,37.870948],[-83.297158,37.870895]]}},{"type":"Feature","properties":{"osm_id":16322100,"highway":"residential","name":"Revis Lane","alt_name":null,"official_name":null,"surface":null,"tracktype":null,"service":null,"access":null,"motor_vehicle":null,"foot":null,"tiger_reviewed":"no","rrgh_part":0,"rrgh_tile_part":0},"geometry":{"type":"LineString","coordinates":[[-83.30084,37.871065],[-83.300989,37.871197],[-83.301421,37.871579]]}},{"type":"Feature","properties":{"osm_id":16317807,"highway":"service","name":null,"alt_name":null,"official_name":null,"surface":null,"tracktype":null,"service":null,"access":null,"motor_vehicle":null,"foot":null,"tiger_reviewed":"no","rrgh_part":0,"rrgh_tile_part":0},"geometry":{"type":"LineString","coordinates":[[-83.297943,37.877481],[-83.297787,37.877406],[-83.2973847,37.8772881],[-83.2972414,37.877103],[-83.2972284,37.8767483],[-83.297067,37.87645],[-83.2969678,37.8760182],[-83.2965249,37.8752007]]}},{"type":"Feature","properties":{"osm_id":16318097,"highway":"service","name":null,"alt_name":null,"official_name":null,"surface":null,"tracktype":null,"service":null,"access":"private","motor_vehicle":null,"foot":null,"tiger_reviewed":"no","rrgh_part":0,"rrgh_tile_part":0},"geometry":{"type":"LineString","coordinates":[[-83.3047644,37.8729796],[-83.3047644,37.8727534],[-83.3046732,37.8726608],[-83.3043801,37.8725631],[-83.3042433,37.8724706],[-83.3041587,37.8722752],[-83.3041456,37.871977],[-83.3042759,37.8716428],[-83.304616,37.871324],[-83.304709,37.871114],[-83.3046928,37.8709589],[-83.3046472,37.8707893],[-83.3046146,37.870635],[-83.3044778,37.8704551],[-83.3042238,37.8703317],[-83.3039633,37.8703317],[-83.30374,37.87037],[-83.303128,37.870605],[-83.302624,37.870788]]}},{"type":"Feature","properties":{"osm_id":16318847,"highway":"residential","name":"Osborne Lane","alt_name":null,"official_name":null,"surface":null,"tracktype":null,"service":null,"access":"private","motor_vehicle":null,"foot":null,"tiger_reviewed":"no","rrgh_part":0,"rrgh_tile_part":0},"geometry":{"type":"LineString","coordinates":[[-83.300657,37.872057],[-83.300817,37.872202],[-83.301142,37.872447],[-83.301281,37.872585],[-83.301691,37.87317],[-83.301828,37.873377],[-83.301987,37.873651],[-83.302048,37.873736],[-83.302122,37.873813],[-83.302304,37.873972],[-83.302821,37.874357],[-83.302982,37.874496],[-83.303173,37.874622]]}},{"type":"Feature","properties":{"osm_id":16320753,"highway":"service","name":"Church Lane","alt_name":null,"official_name":null,"surface":null,"tracktype":null,"service":null,"access":"private","motor_vehicle":null,"foot":null,"tiger_reviewed":"no","rrgh_part":0,"rrgh_tile_part":0},"geometry":{"type":"LineString","coordinates":[[-83.296959,37.8705567],[-83.2958666,37.8707472]]}},{"type":"Feature","properties":{"osm_id":16319011,"highway":"residential","name":"Elmore Lewis Lane","alt_name":null,"official_name":null,"surface":null,"tracktype":null,"service":null,"access":null,"motor_vehicle":null,"foot":null,"tiger_reviewed":"no","rrgh_part":0,"rrgh_tile_part":0},"geometry":{"type":"LineString","coordinates":[[-83.3049707,37.8825695],[-83.3047884,37.8816465],[-83.3042305,37.8802577],[-83.3039837,37.8792331],[-83.303634,37.878736]]}},{"type":"Feature","properties":{"osm_id":16318206,"highway":"service","name":null,"alt_name":null,"official_name":null,"surface":null,"tracktype":null,"service":null,"access":"private","motor_vehicle":null,"foot":null,"tiger_reviewed":"no","rrgh_part":0,"rrgh_tile_part":0},"geometry":{"type":"LineString","coordinates":[[-83.29749,37.878303],[-83.2977717,37.8783862],[-83.2982545,37.8786826],[-83.29863,37.8788351],[-83.299027,37.8789113]]}},{"type":"Feature","properties":{"osm_id":1248315163,"highway":"service","name":null,"alt_name":null,"official_name":null,"surface":null,"tracktype":null,"service":null,"access":null,"motor_vehicle":null,"foot":null,"tiger_reviewed":null,"rrgh_part":0,"rrgh_tile_part":0},"geometry":{"type":"LineString","coordinates":[[-83.2976944,37.8779737],[-83.2980605,37.8780753],[-83.298308,37.8775197],[-83.2979674,37.8774251]]}},{"type":"Feature","properties":{"osm_id":16317849,"highway":"residential","name":null,"alt_name":null,"official_name":null,"surface":null,"tracktype":null,"service":null,"access":null,"motor_vehicle":null,"foot":null,"tiger_reviewed":"no","rrgh_part":0,"rrgh_tile_part":0},"geometry":{"type":"LineString","coordinates":[[-83.293228,37.882302],[-83.293177,37.882328],[-83.293078,37.882418],[-83.292545,37.883009],[-83.29185,37.883714],[-83.291801,37.883752],[-83.291742,37.88377],[-83.291684,37.883756]]}},{"type":"Feature","properties":{"osm_id":16319435,"highway":"residential","name":"Elam Lane","alt_name":null,"official_name":null,"surface":null,"tracktype":null,"service":null,"access":null,"motor_vehicle":null,"foot":null,"tiger_reviewed":"no","rrgh_part":0,"rrgh_tile_part":0},"geometry":{"type":"LineString","coordinates":[[-83.29354,37.882451],[-83.293443,37.882391],[-83.293358,37.882338],[-83.293312,37.88231],[-83.293275,37.882298],[-83.293228,37.882302]]}},{"type":"Feature","properties":{"osm_id":314742678,"highway":"service","name":null,"alt_name":null,"official_name":null,"surface":null,"tracktype":null,"service":null,"access":null,"motor_vehicle":null,"foot":null,"tiger_reviewed":null,"rrgh_part":0,"rrgh_tile_part":0},"geometry":{"type":"LineString","coordinates":[[-83.2954925,37.8804801],[-83.2948098,37.8800387],[-83.294686,37.8799153],[-83.2946144,37.8798845],[-83.29455,37.8798718],[-83.2943799,37.8798382]]}},{"type":"Feature","properties":{"osm_id":314742678,"highway":"service","name":null,"alt_name":null,"official_name":null,"surface":null,"tracktype":null,"service":null,"access":null,"motor_vehicle":null,"foot":null,"tiger_reviewed":null,"rrgh_part":1,"rrgh_tile_part":0},"geometry":{"type":"LineString","coordinates":[[-83.2943799,37.8798382],[-83.2935201,37.8796686],[-83.2933638,37.879684],[-83.2931684,37.8799205],[-83.2931879,37.8800285],[-83.2932466,37.880085],[-83.2937286,37.8803009],[-83.2938458,37.8803061],[-83.2939305,37.8802598],[-83.2943799,37.8798382]]}},{"type":"Feature","properties":{"osm_id":314742679,"highway":"service","name":null,"alt_name":null,"official_name":null,"surface":null,"tracktype":null,"service":null,"access":null,"motor_vehicle":null,"foot":null,"tiger_reviewed":null,"rrgh_part":0,"rrgh_tile_part":0},"geometry":{"type":"LineString","coordinates":[[-83.2948098,37.8800387],[-83.2942561,37.880486],[-83.2939891,37.8807071],[-83.2937676,37.8810258],[-83.2936699,37.8811543],[-83.2935397,37.88118],[-83.2934354,37.8811492],[-83.2934159,37.8810721],[-83.293709,37.8806402],[-83.2937741,37.8805528],[-83.2944581,37.8799513],[-83.29455,37.8798718]]}},{"type":"Feature","properties":{"osm_id":1248315164,"highway":"service","name":null,"alt_name":null,"official_name":null,"surface":null,"tracktype":null,"service":null,"access":null,"motor_vehicle":null,"foot":null,"tiger_reviewed":null,"rrgh_part":0,"rrgh_tile_part":0},"geometry":{"type":"LineString","coordinates":[[-83.293275,37.882298],[-83.2933019,37.8821759],[-83.2933125,37.8820865],[-83.2932848,37.8820173],[-83.29321,37.8819667],[-83.2930412,37.8819161],[-83.292789,37.8818504]]}},{"type":"Feature","properties":{"osm_id":16319229,"highway":"residential","name":"Index Road","alt_name":null,"official_name":null,"surface":null,"tracktype":null,"service":null,"access":null,"motor_vehicle":null,"foot":null,"tiger_reviewed":"no","rrgh_part":0,"rrgh_tile_part":0},"geometry":{"type":"LineString","coordinates":[[-83.289643,37.891952],[-83.289801,37.891952],[-83.289954,37.89197],[-83.290092,37.892015],[-83.290174,37.892057],[-83.290256,37.892117],[-83.29041,37.892279],[-83.290647,37.89257],[-83.291033,37.893044],[-83.291448,37.893449],[-83.291581,37.893576],[-83.291706,37.893695],[-83.292018,37.893972],[-83.292213,37.894166],[-83.292286,37.894358],[-83.292321,37.894557],[-83.292364,37.894654],[-83.292428,37.894749],[-83.292508,37.894838],[-83.292604,37.894923],[-83.292833,37.895088],[-83.292951,37.895158],[-83.293461,37.895395],[-83.293798,37.895593],[-83.293891,37.895664],[-83.293973,37.895746],[-83.294041,37.895843],[-83.294285,37.896393],[-83.294354,37.896647],[-83.294468,37.89719],[-83.294546,37.897463],[-83.294669,37.897719],[-83.294749,37.897834],[-83.294843,37.897942],[-83.295289,37.898362],[-83.295455,37.898607],[-83.295646,37.898849],[-83.295736,37.898981],[-83.295887,37.899265],[-83.29623121700695,37.9]]}},{"type":"Feature","properties":{"osm_id":16320222,"highway":"residential","name":"Elam Branch Road","alt_name":null,"official_name":null,"surface":null,"tracktype":null,"service":null,"access":null,"motor_vehicle":null,"foot":null,"tiger_reviewed":"no","rrgh_part":0,"rrgh_tile_part":0},"geometry":{"type":"LineString","coordinates":[[-83.291448,37.893449],[-83.29156,37.893432],[-83.291828,37.893421],[-83.291917,37.893413],[-83.292173,37.893389],[-83.292379,37.893359],[-83.293052,37.893182],[-83.293334,37.893069],[-83.293465,37.893042],[-83.29376,37.893013],[-83.294381,37.892989],[-83.294556,37.892973],[-83.294847,37.89292],[-83.294994,37.892861],[-83.296211,37.893039],[-83.296989,37.893219],[-83.298885,37.893055],[-83.299088,37.893047],[-83.299707,37.892914],[-83.300289,37.892823],[-83.300632,37.892785],[-83.301371,37.892684],[-83.302016,37.892664],[-83.302607,37.892445],[-83.303161,37.892219],[-83.303899,37.891838],[-83.304645,37.891465],[-83.30505,37.891157],[-83.305425,37.89078],[-83.305748,37.890403],[-83.305994,37.889949]]}},{"type":"Feature","properties":{"osm_id":16318400,"highway":"service","name":null,"alt_name":null,"official_name":null,"surface":null,"tracktype":null,"service":null,"access":"private","motor_vehicle":null,"foot":null,"tiger_reviewed":"no","rrgh_part":0,"rrgh_tile_part":0},"geometry":{"type":"LineString","coordinates":[[-83.2927399,37.8833316],[-83.2931046,37.8835603],[-83.2936196,37.8836365],[-83.2941239,37.8838143],[-83.2946067,37.8841191],[-83.295068,37.8843901]]}},{"type":"Feature","properties":{"osm_id":1248315165,"highway":"service","name":null,"alt_name":null,"official_name":null,"surface":null,"tracktype":null,"service":null,"access":null,"motor_vehicle":null,"foot":null,"tiger_reviewed":"no","rrgh_part":0,"rrgh_tile_part":0},"geometry":{"type":"LineString","coordinates":[[-83.291684,37.883756],[-83.29163,37.883727],[-83.29151,37.883644],[-83.291338,37.883502]]}},{"type":"Feature","properties":{"osm_id":1248315166,"highway":"service","name":null,"alt_name":null,"official_name":null,"surface":null,"tracktype":null,"service":null,"access":null,"motor_vehicle":null,"foot":null,"tiger_reviewed":null,"rrgh_part":0,"rrgh_tile_part":0},"geometry":{"type":"LineString","coordinates":[[-83.2912624,37.884925],[-83.2914688,37.8850562],[-83.2910196,37.8855791],[-83.2909659,37.8856773]]}},{"type":"Feature","properties":{"osm_id":16317614,"highway":"residential","name":null,"alt_name":null,"official_name":null,"surface":null,"tracktype":null,"service":null,"access":null,"motor_vehicle":null,"foot":null,"tiger_reviewed":"no","rrgh_part":0,"rrgh_tile_part":0},"geometry":{"type":"LineString","coordinates":[[-83.2813502,37.8971788],[-83.2813669,37.8968716],[-83.2813665,37.8966884],[-83.2813619,37.896567],[-83.2813089,37.8963801],[-83.2812566,37.8962744],[-83.2812233,37.8962071],[-83.2811333,37.8960531]]}},{"type":"Feature","properties":{"osm_id":16317614,"highway":"residential","name":null,"alt_name":null,"official_name":null,"surface":null,"tracktype":null,"service":null,"access":null,"motor_vehicle":null,"foot":null,"tiger_reviewed":"no","rrgh_part":1,"rrgh_tile_part":0},"geometry":{"type":"LineString","coordinates":[[-83.2811333,37.8960531],[-83.2810923,37.895983],[-83.2810636,37.895934],[-83.2809917,37.8957329],[-83.2809459,37.89553],[-83.2809453,37.8954849],[-83.2809429,37.8953217],[-83.2809536,37.8952207],[-83.2809787,37.8950599],[-83.2810128,37.8949655],[-83.281264,37.89447],[-83.2814746,37.894087],[-83.2815647,37.8939031],[-83.2817499,37.8933816],[-83.281796,37.893252],[-83.2818146,37.893215],[-83.281881,37.893083],[-83.281946,37.893017],[-83.282029,37.892977],[-83.282117,37.892957],[-83.2821969,37.8929542],[-83.28241,37.89293],[-83.282585,37.892894],[-83.282755,37.892837],[-83.2828582,37.8927962],[-83.2830575,37.8927175],[-83.2832675,37.8926346],[-83.283345,37.892604],[-83.283525,37.892544],[-83.283606,37.892548],[-83.283712,37.892592],[-83.283877,37.89274],[-83.2838898,37.8927566],[-83.284103,37.893033],[-83.284386,37.893489],[-83.284419,37.893572],[-83.284436,37.89366],[-83.284427,37.89375],[-83.284408,37.893836],[-83.284366,37.893917],[-83.284311,37.893988],[-83.284249,37.894048],[-83.28418,37.894096],[-83.284096,37.894126],[-83.284,37.894137],[-83.283897,37.894132],[-83.2833123,37.8940166],[-83.2831889,37.8939935],[-83.283077,37.8939707],[-83.2830684,37.8939733],[-83.2830058,37.8939922],[-83.2829495,37.8940812],[-83.2826106,37.8946329],[-83.282547,37.8947365],[-83.282469,37.8948634],[-83.2823801,37.8950082],[-83.2823109,37.8951208],[-83.282056,37.8955379],[-83.2819755,37.8956205],[-83.2818736,37.8956819],[-83.2816644,37.8957907],[-83.2814572,37.8958985],[-83.2812591,37.8960016],[-83.2811333,37.8960531]]}},{"type":"Feature","properties":{"osm_id":16319443,"highway":"residential","name":"Cs-1015","alt_name":null,"official_name":null,"surface":null,"tracktype":null,"service":null,"access":null,"motor_vehicle":null,"foot":null,"tiger_reviewed":"no","rrgh_part":0,"rrgh_tile_part":0},"geometry":{"type":"LineString","coordinates":[[-83.2821969,37.8929542],[-83.2824173,37.8930116],[-83.2825474,37.8930381],[-83.2829154,37.8931132],[-83.282972,37.8931142],[-83.283058,37.8930751],[-83.2832495,37.892988],[-83.2834492,37.8928972],[-83.2836117,37.8928234],[-83.2836311,37.8927807],[-83.283591,37.892719],[-83.283538,37.892642],[-83.283507,37.892616],[-83.283462,37.892599],[-83.283416,37.892595],[-83.283345,37.892604]]}},{"type":"Feature","properties":{"osm_id":16319566,"highway":"residential","name":"Keatons Cemetery Road","alt_name":null,"official_name":null,"surface":null,"tracktype":null,"service":null,"access":null,"motor_vehicle":null,"foot":null,"tiger_reviewed":"no","rrgh_part":0,"rrgh_tile_part":0},"geometry":{"type":"LineString","coordinates":[[-83.289588,37.890727],[-83.289817,37.890713],[-83.290406,37.890678],[-83.29063,37.890654],[-83.290836,37.890613],[-83.291133,37.890527],[-83.291247,37.890507],[-83.291271,37.890512],[-83.291307,37.890545],[-83.291343,37.89073]]}},{"type":"Feature","properties":{"osm_id":314744046,"highway":"service","name":"Joe Holbrook Road","alt_name":null,"official_name":null,"surface":null,"tracktype":null,"service":null,"access":null,"motor_vehicle":null,"foot":null,"tiger_reviewed":null,"rrgh_part":0,"rrgh_tile_part":0},"geometry":{"type":"LineString","coordinates":[[-83.2921784,37.8879915],[-83.2920872,37.8878938],[-83.2919308,37.8878733],[-83.2918331,37.8878938],[-83.2917485,37.8880326],[-83.2915335,37.8884747],[-83.291501,37.8886135],[-83.2914033,37.8892149],[-83.2913772,37.8893589],[-83.291286,37.8895285],[-83.2911623,37.8897084],[-83.2910711,37.889914],[-83.2909278,37.8901094],[-83.2908757,37.8902379],[-83.290836,37.890613]]}},{"type":"Feature","properties":{"osm_id":1112084261,"highway":"service","name":null,"alt_name":null,"official_name":null,"surface":null,"tracktype":null,"service":null,"access":null,"motor_vehicle":null,"foot":null,"tiger_reviewed":null,"rrgh_part":0,"rrgh_tile_part":0},"geometry":{"type":"LineString","coordinates":[[-83.2829085,37.8935589],[-83.2830224,37.8936037],[-83.2830694,37.8936693],[-83.283115,37.8937836],[-83.2831619,37.8939286],[-83.2831889,37.8939935]]}},{"type":"Feature","properties":{"osm_id":314744047,"highway":"service","name":null,"alt_name":null,"official_name":null,"surface":null,"tracktype":null,"service":null,"access":null,"motor_vehicle":null,"foot":null,"tiger_reviewed":null,"rrgh_part":0,"rrgh_tile_part":0},"geometry":{"type":"LineString","coordinates":[[-83.2876221,37.895743],[-83.2874496,37.8956299],[-83.2874561,37.8955682],[-83.2878078,37.8948589],[-83.2879772,37.8946533],[-83.288153,37.894422],[-83.2881596,37.8943295],[-83.2880228,37.8942524],[-83.2877232,37.8941136],[-83.287391,37.8936099],[-83.2873975,37.8934402],[-83.2874952,37.8933117],[-83.2879055,37.8931267],[-83.28814,37.8930393],[-83.2881856,37.8929776],[-83.2881205,37.8929571],[-83.2879511,37.8929622],[-83.2876776,37.8929159],[-83.2873845,37.8929108],[-83.2872086,37.8929776],[-83.2869155,37.8932038],[-83.2867331,37.8933888],[-83.2866159,37.8934351],[-83.2864856,37.8933888],[-83.2864009,37.8932038],[-83.2863423,37.8929879]]}},{"type":"Feature","properties":{"osm_id":16322410,"highway":"residential","name":"Barker Branch Road","alt_name":null,"official_name":null,"surface":null,"tracktype":null,"service":null,"access":null,"motor_vehicle":null,"foot":null,"tiger_reviewed":"no","rrgh_part":0,"rrgh_tile_part":0},"geometry":{"type":"LineString","coordinates":[[-83.276365,37.87418],[-83.276228,37.874198],[-83.276115,37.874202],[-83.275957,37.8742],[-83.275871,37.87419],[-83.27556,37.874205],[-83.275352,37.874191],[-83.275238,37.874195],[-83.275144,37.874181],[-83.274942,37.874172],[-83.274656,37.8742],[-83.274207,37.87428],[-83.273512,37.874348],[-83.273333,37.874301],[-83.273166,37.874221],[-83.273078,37.874188],[-83.272808,37.874131],[-83.272644,37.874118],[-83.272263,37.874151],[-83.272137,37.874176],[-83.27176,37.874342],[-83.271654,37.874377],[-83.271302,37.874433],[-83.270521,37.87464],[-83.269696,37.874825],[-83.269417,37.874896],[-83.26915,37.874977],[-83.269014,37.875007],[-83.268874,37.875016],[-83.268677,37.875013],[-83.268575,37.875012],[-83.268417,37.875035],[-83.268107,37.875114],[-83.267947,37.875147],[-83.267791,37.875157],[-83.267352,37.875154],[-83.267216,37.875127],[-83.267096,37.875079],[-83.26703,37.875044],[-83.26686,37.874954],[-83.266732,37.87491],[-83.266592,37.874875],[-83.26629,37.87483],[-83.266133,37.874825],[-83.265793,37.874843],[-83.265426,37.874882],[-83.265265,37.874911],[-83.264869,37.874982],[-83.264524,37.87508],[-83.264195,37.875199],[-83.26362,37.875368],[-83.263212,37.875476],[-83.262478,37.875691],[-83.262338,37.875744],[-83.261497,37.876061]]}},{"type":"Feature","properties":{"osm_id":16322421,"highway":"residential","name":"Old Fairground Road","alt_name":null,"official_name":null,"surface":null,"tracktype":null,"service":null,"access":null,"motor_vehicle":null,"foot":null,"tiger_reviewed":"no","rrgh_part":0,"rrgh_tile_part":0},"geometry":{"type":"LineString","coordinates":[[-83.262422,37.878648],[-83.262807,37.878548],[-83.263052,37.8785],[-83.263139,37.878498],[-83.26322,37.878519],[-83.263283,37.878568],[-83.263776,37.879405],[-83.26422,37.880122],[-83.265014,37.88144],[-83.265488,37.882289],[-83.26572,37.882621],[-83.265986,37.882941],[-83.266908,37.883881],[-83.267415,37.884413],[-83.2676827,37.8846939],[-83.268208,37.885245],[-83.268484,37.885511],[-83.268793,37.885746],[-83.26896,37.885846],[-83.269135,37.885931],[-83.269672,37.886149],[-83.269993,37.88627],[-83.270143,37.886326],[-83.270266,37.886381],[-83.270501,37.886482],[-83.270601,37.886494],[-83.270705,37.886464],[-83.270748,37.88643],[-83.270857,37.886284],[-83.270958,37.886286],[-83.271075,37.886289],[-83.271125,37.88622],[-83.27179,37.885291],[-83.272138,37.884807],[-83.272168,37.884701],[-83.27221,37.884554],[-83.27225,37.884412],[-83.27219,37.884017],[-83.272515,37.883686],[-83.272891,37.883203],[-83.273318,37.882929],[-83.273938,37.882767]]}},{"type":"Feature","properties":{"osm_id":16321085,"highway":"service","name":"Smiths Road","alt_name":null,"official_name":null,"surface":null,"tracktype":null,"service":null,"access":"private","motor_vehicle":null,"foot":null,"tiger_reviewed":"no","rrgh_part":0,"rrgh_tile_part":0},"geometry":{"type":"LineString","coordinates":[[-83.26362,37.875368],[-83.263713,37.87555],[-83.263944,37.876004],[-83.264003,37.876158],[-83.263997,37.876258],[-83.263968,37.876327],[-83.263883,37.876452]]}},{"type":"Feature","properties":{"osm_id":16318402,"highway":"residential","name":null,"alt_name":null,"official_name":null,"surface":null,"tracktype":null,"service":null,"access":null,"motor_vehicle":null,"foot":null,"tiger_reviewed":"no","rrgh_part":0,"rrgh_tile_part":0},"geometry":{"type":"LineString","coordinates":[[-83.262338,37.875744],[-83.262536,37.87535],[-83.262768,37.875087]]}},{"type":"Feature","properties":{"osm_id":16321097,"highway":"residential","name":"Webb Road","alt_name":null,"official_name":null,"surface":null,"tracktype":null,"service":null,"access":null,"motor_vehicle":null,"foot":null,"tiger_reviewed":"no","rrgh_part":0,"rrgh_tile_part":0},"geometry":{"type":"LineString","coordinates":[[-83.261802,37.870214],[-83.261807,37.870229],[-83.261813,37.870246],[-83.261803,37.870273],[-83.261775,37.870295],[-83.261704,37.870323],[-83.261515,37.870367],[-83.261399,37.870414],[-83.261237,37.870511],[-83.261168,37.870541],[-83.260857,37.870611],[-83.260384,37.870736],[-83.25955,37.870974],[-83.259402,37.871026],[-83.259079,37.871177],[-83.258952,37.871254],[-83.258889,37.871309],[-83.258786,37.871516],[-83.258721,37.871603],[-83.258678,37.871639],[-83.258429,37.871767],[-83.25808,37.871861]]}},{"type":"Feature","properties":{"osm_id":16321880,"highway":"residential","name":"Nichols Cemetery Road","alt_name":null,"official_name":null,"surface":null,"tracktype":null,"service":null,"access":null,"motor_vehicle":null,"foot":null,"tiger_reviewed":"no","rrgh_part":0,"rrgh_tile_part":0},"geometry":{"type":"LineString","coordinates":[[-83.259079,37.871177],[-83.259573,37.871644],[-83.259748,37.87173],[-83.259957,37.871806],[-83.260216,37.871861],[-83.260313,37.871867],[-83.260345,37.871851],[-83.260377,37.87181]]}},{"type":"Feature","properties":{"osm_id":16318074,"highway":"residential","name":null,"alt_name":null,"official_name":null,"surface":null,"tracktype":null,"service":null,"access":null,"motor_vehicle":null,"foot":null,"tiger_reviewed":"no","rrgh_part":0,"rrgh_tile_part":0},"geometry":{"type":"LineString","coordinates":[[-83.260119,37.874175],[-83.259882,37.874286],[-83.259847,37.874292],[-83.258085,37.874594],[-83.257087,37.875068],[-83.256425,37.875469]]}},{"type":"Feature","properties":{"osm_id":16320768,"highway":"residential","name":"Havens Bridge","alt_name":null,"official_name":null,"surface":null,"tracktype":null,"service":null,"access":null,"motor_vehicle":null,"foot":null,"tiger_reviewed":"no","rrgh_part":0,"rrgh_tile_part":0},"geometry":{"type":"LineString","coordinates":[[-83.262271,37.8803169],[-83.2622368,37.880314],[-83.2621018,37.8803079],[-83.2617783,37.8803416],[-83.261461,37.8803827],[-83.2605259,37.8804977],[-83.260226,37.8805291],[-83.2600288,37.8805321],[-83.259543,37.880544],[-83.259453,37.880545],[-83.259143,37.880563],[-83.25896,37.880558],[-83.258849,37.880555],[-83.258584,37.880529],[-83.258268,37.880503],[-83.258232,37.8805],[-83.258116,37.880478],[-83.258021,37.880438],[-83.2579,37.880319],[-83.257832,37.880267],[-83.257748,37.880228],[-83.257549,37.880186],[-83.257345,37.880174],[-83.257249,37.880178],[-83.257154,37.880197],[-83.256997,37.880255],[-83.256939,37.880298],[-83.256774,37.880579]]}},{"type":"Feature","properties":{"osm_id":16319914,"highway":"service","name":"Havens Fork Road","alt_name":null,"official_name":null,"surface":null,"tracktype":null,"service":null,"access":"private","motor_vehicle":null,"foot":null,"tiger_reviewed":"no","rrgh_part":0,"rrgh_tile_part":0},"geometry":{"type":"LineString","coordinates":[[-83.258584,37.880529],[-83.258585,37.880509],[-83.258586,37.880489],[-83.258604,37.880446]]}},{"type":"Feature","properties":{"osm_id":16319916,"highway":"service","name":"Havens Fork Road","alt_name":null,"official_name":null,"surface":null,"tracktype":null,"service":null,"access":"private","motor_vehicle":null,"foot":null,"tiger_reviewed":"no","rrgh_part":0,"rrgh_tile_part":0},"geometry":{"type":"LineString","coordinates":[[-83.258604,37.880446],[-83.258446,37.880412],[-83.258274,37.880398],[-83.258208,37.880384],[-83.258125,37.880342],[-83.258085,37.880309],[-83.258022,37.880223],[-83.258011,37.880176],[-83.258041,37.880094],[-83.258118,37.880026]]}},{"type":"Feature","properties":{"osm_id":16320197,"highway":"service","name":"Havens Fork Spur Road","alt_name":null,"official_name":null,"surface":null,"tracktype":null,"service":null,"access":"private","motor_vehicle":null,"foot":null,"tiger_reviewed":"no","rrgh_part":0,"rrgh_tile_part":0},"geometry":{"type":"LineString","coordinates":[[-83.258604,37.880446],[-83.258619,37.880406],[-83.258686,37.880283],[-83.258748,37.880217],[-83.258906,37.880125],[-83.259231,37.879984]]}},{"type":"Feature","properties":{"osm_id":16321180,"highway":"service","name":"Havens Drive","alt_name":null,"official_name":null,"surface":null,"tracktype":null,"service":null,"access":"private","motor_vehicle":null,"foot":null,"tiger_reviewed":"no","rrgh_part":0,"rrgh_tile_part":0},"geometry":{"type":"LineString","coordinates":[[-83.261461,37.8803827],[-83.261167,37.880237],[-83.2609029,37.8800923],[-83.2608517,37.8800607],[-83.2607894,37.8800193]]}},{"type":"Feature","properties":{"osm_id":16322204,"highway":"service","name":"Evans Lane","alt_name":null,"official_name":null,"surface":null,"tracktype":null,"service":null,"access":"private","motor_vehicle":null,"foot":null,"tiger_reviewed":"no","rrgh_part":0,"rrgh_tile_part":0},"geometry":{"type":"LineString","coordinates":[[-83.2622307,37.8808033],[-83.261554,37.8809103],[-83.260939,37.880986],[-83.260786,37.881014],[-83.260722,37.881037],[-83.260681,37.881074],[-83.260663,37.88112],[-83.260659,37.881169],[-83.2606722,37.8813419]]}},{"type":"Feature","properties":{"osm_id":16322418,"highway":"service","name":"Havens Lane","alt_name":null,"official_name":null,"surface":null,"tracktype":null,"service":null,"access":"private","motor_vehicle":null,"foot":null,"tiger_reviewed":"no","rrgh_part":0,"rrgh_tile_part":0},"geometry":{"type":"LineString","coordinates":[[-83.2605259,37.8804977],[-83.260297,37.880292],[-83.2602391,37.880233],[-83.2601887,37.880171]]}},{"type":"Feature","properties":{"osm_id":16322422,"highway":"residential","name":"Old Fairground Road","alt_name":null,"official_name":null,"surface":null,"tracktype":null,"service":null,"access":null,"motor_vehicle":null,"foot":null,"tiger_reviewed":"no","rrgh_part":0,"rrgh_tile_part":0},"geometry":{"type":"LineString","coordinates":[[-83.271075,37.886289],[-83.271427,37.886297],[-83.271582,37.886326],[-83.27197,37.886458],[-83.272324,37.886613],[-83.272541,37.886694],[-83.272808,37.886824],[-83.272884,37.886869],[-83.27302,37.88697],[-83.273214,37.887143],[-83.273399,37.887335],[-83.27351,37.887468],[-83.273682,37.887735],[-83.273912,37.888003],[-83.273965,37.888029],[-83.274015,37.888029],[-83.274042,37.888019]]}},{"type":"Feature","properties":{"osm_id":16317588,"highway":"service","name":null,"alt_name":null,"official_name":null,"surface":null,"tracktype":null,"service":null,"access":"private","motor_vehicle":null,"foot":null,"tiger_reviewed":"no","rrgh_part":0,"rrgh_tile_part":0},"geometry":{"type":"LineString","coordinates":[[-83.27621,37.894149],[-83.275565,37.894215],[-83.275354,37.894199],[-83.274883,37.894328],[-83.274377,37.89442],[-83.274077,37.894702],[-83.273796,37.894941],[-83.273482,37.89508],[-83.272997,37.895171],[-83.272638,37.895397],[-83.272625,37.895405],[-83.272323,37.895627],[-83.271839,37.895909],[-83.271384,37.896022],[-83.27081,37.896226],[-83.270213,37.896445],[-83.26991,37.896535]]}},{"type":"Feature","properties":{"osm_id":1248315179,"highway":"service","name":null,"alt_name":null,"official_name":null,"surface":null,"tracktype":null,"service":null,"access":null,"motor_vehicle":null,"foot":null,"tiger_reviewed":null,"rrgh_part":0,"rrgh_tile_part":0},"geometry":{"type":"LineString","coordinates":[[-83.2676827,37.8846939],[-83.2683687,37.8839865],[-83.2685813,37.8839296],[-83.2688161,37.883924],[-83.2689442,37.8839639],[-83.2696302,37.8845006],[-83.2697668,37.8845937],[-83.2702364,37.884827],[-83.270723,37.8850536]]}},{"type":"Feature","properties":{"osm_id":16321197,"highway":"residential","name":"Bishop Benton Road","alt_name":null,"official_name":null,"surface":null,"tracktype":null,"service":null,"access":null,"motor_vehicle":null,"foot":null,"tiger_reviewed":"no","rrgh_part":0,"rrgh_tile_part":0},"geometry":{"type":"LineString","coordinates":[[-83.281264,37.89447],[-83.281193,37.894427],[-83.281173,37.894371],[-83.281232,37.894236],[-83.281284,37.894055],[-83.281249,37.89401],[-83.28105,37.893969],[-83.28073,37.893932],[-83.280573,37.893903],[-83.280467,37.893857],[-83.280411,37.893811],[-83.280383,37.893749],[-83.280384,37.893692],[-83.280407,37.893579],[-83.280489,37.893315],[-83.280671,37.892966],[-83.280744,37.892877],[-83.280908,37.892838],[-83.281016,37.892788],[-83.28111,37.892642],[-83.281147,37.892558],[-83.281164,37.892538],[-83.281205,37.892491],[-83.281327,37.892407],[-83.281377,37.892402]]}},{"type":"Feature","properties":{"osm_id":1112084218,"highway":"service","name":null,"alt_name":null,"official_name":null,"surface":null,"tracktype":null,"service":null,"access":null,"motor_vehicle":null,"foot":null,"tiger_reviewed":null,"rrgh_part":0,"rrgh_tile_part":0},"geometry":{"type":"LineString","coordinates":[[-83.2810636,37.895934],[-83.2811478,37.8957914],[-83.281236,37.8956418],[-83.2813243,37.8954923],[-83.2814657,37.8952526],[-83.2815704,37.8950751],[-83.2816929,37.8948676],[-83.2817819,37.8947167],[-83.2818883,37.8945365],[-83.2819758,37.894388]]}},{"type":"Feature","properties":{"osm_id":1112084228,"highway":"service","name":null,"alt_name":null,"official_name":null,"surface":null,"tracktype":null,"service":null,"access":null,"motor_vehicle":null,"foot":null,"tiger_reviewed":null,"rrgh_part":0,"rrgh_tile_part":0},"geometry":{"type":"LineString","coordinates":[[-83.2820151,37.8944024],[-83.2820453,37.8943475],[-83.2820535,37.8943081],[-83.2820413,37.8942768],[-83.2820138,37.8942536],[-83.2819895,37.8942452],[-83.281967,37.8942375],[-83.2819213,37.8942391],[-83.2818827,37.8942568],[-83.2818562,37.8942825],[-83.2818267,37.894336]]}},{"type":"Feature","properties":{"osm_id":1112084246,"highway":"service","name":null,"alt_name":null,"official_name":null,"surface":null,"tracktype":null,"service":null,"access":null,"motor_vehicle":null,"foot":null,"tiger_reviewed":null,"rrgh_part":0,"rrgh_tile_part":0},"geometry":{"type":"LineString","coordinates":[[-83.2823498,37.8945532],[-83.2824233,37.8945786],[-83.2824864,37.894605],[-83.282526,37.8946395],[-83.2825413,37.8946735],[-83.2825474,37.8946869],[-83.282547,37.8947365]]}},{"type":"Feature","properties":{"osm_id":1112084262,"highway":"service","name":null,"alt_name":null,"official_name":null,"surface":null,"tracktype":null,"service":null,"access":null,"motor_vehicle":null,"foot":null,"tiger_reviewed":null,"rrgh_part":0,"rrgh_tile_part":0},"geometry":{"type":"LineString","coordinates":[[-83.2830684,37.8939733],[-83.2829634,37.893972],[-83.2828682,37.8940059],[-83.2827824,37.8940673],[-83.2825987,37.8943403],[-83.2825866,37.894388],[-83.2825946,37.8944451],[-83.2826121,37.8945795],[-83.2826106,37.8946329]]}},{"type":"Feature","properties":{"osm_id":1287677476,"highway":"service","name":null,"alt_name":null,"official_name":null,"surface":null,"tracktype":null,"service":null,"access":null,"motor_vehicle":null,"foot":null,"tiger_reviewed":null,"rrgh_part":0,"rrgh_tile_part":0},"geometry":{"type":"LineString","coordinates":[[-83.2818544,37.8943456],[-83.2817668,37.8944933],[-83.2816605,37.8946727],[-83.2815706,37.8948243],[-83.281447,37.8950327],[-83.2813442,37.8952061],[-83.281191,37.8954645],[-83.2809453,37.8954849]]}},{"type":"Feature","properties":{"osm_id":16318401,"highway":"residential","name":null,"alt_name":null,"official_name":null,"surface":null,"tracktype":null,"service":null,"access":null,"motor_vehicle":null,"foot":null,"tiger_reviewed":"no","rrgh_part":0,"rrgh_tile_part":0},"geometry":{"type":"LineString","coordinates":[[-83.256953,37.891076],[-83.256569,37.89126],[-83.256334,37.891525],[-83.256069,37.891767],[-83.255631,37.891993],[-83.255468,37.892138],[-83.255304,37.892323],[-83.255284,37.8925],[-83.255273,37.892734]]}},{"type":"Feature","properties":{"osm_id":16322862,"highway":"residential","name":"Gordon Ford Road","alt_name":null,"official_name":null,"surface":null,"tracktype":null,"service":null,"access":null,"motor_vehicle":null,"foot":null,"tiger_reviewed":"no","rrgh_part":0,"rrgh_tile_part":0},"geometry":{"type":"LineString","coordinates":[[-83.263161,37.883161],[-83.262666,37.883304],[-83.262528,37.883356],[-83.262481,37.883398],[-83.262454,37.883451],[-83.262425,37.883643],[-83.262392,37.883709],[-83.262287,37.883823],[-83.261974,37.88402],[-83.261787,37.884115],[-83.261592,37.884193],[-83.261186,37.884355],[-83.261028,37.884427],[-83.260855,37.884533],[-83.260621,37.884723],[-83.260219,37.885063],[-83.260149,37.885098],[-83.259928,37.885195],[-83.259732,37.885363],[-83.259666,37.885407],[-83.259501,37.88548],[-83.259046,37.885631],[-83.258967,37.885667],[-83.258898,37.885715],[-83.258848,37.885776],[-83.258772,37.885916],[-83.25873,37.886079],[-83.258725,37.886257],[-83.25875,37.886661],[-83.258759,37.886797],[-83.258757,37.887106],[-83.258701,37.88743],[-83.258669,37.887504],[-83.258544,37.887791],[-83.258361,37.888083],[-83.258294,37.888359],[-83.258233,37.888855],[-83.258195,37.889685],[-83.258154,37.889833],[-83.258086,37.889944],[-83.25799,37.890057],[-83.257665,37.890287],[-83.257322,37.890514],[-83.257225,37.890598],[-83.25714,37.89069],[-83.257105,37.890741],[-83.256956,37.891033],[-83.256953,37.891076],[-83.256924,37.891439],[-83.256888,37.891797],[-83.256841,37.892092],[-83.256636,37.892486],[-83.256593,37.892653],[-83.256669,37.893066],[-83.256632,37.89321],[-83.256626,37.893307],[-83.256797,37.893991],[-83.256822,37.894229],[-83.256785,37.894531],[-83.25667,37.894973],[-83.256589,37.895194],[-83.256452,37.895448],[-83.256408,37.895511],[-83.256302,37.895765],[-83.256036,37.896128],[-83.255734,37.896471],[-83.255666,37.896522],[-83.255567,37.896583],[-83.255472,37.896627],[-83.255228,37.896716],[-83.255046,37.896818]]}},{"type":"Feature","properties":{"osm_id":16322333,"highway":"residential","name":"Vest Court","alt_name":null,"official_name":null,"surface":null,"tracktype":null,"service":null,"access":null,"motor_vehicle":null,"foot":null,"tiger_reviewed":"no","rrgh_part":0,"rrgh_tile_part":0},"geometry":{"type":"LineString","coordinates":[[-83.287344,37.897821],[-83.287322,37.898241],[-83.287309,37.898304],[-83.2873025,37.8983149],[-83.287276,37.898359],[-83.28722,37.898402],[-83.28718,37.898415],[-83.287141,37.898427],[-83.286745,37.898484],[-83.286637,37.89857],[-83.286415,37.898847],[-83.28632,37.89894],[-83.285939,37.89927],[-83.285795,37.899371],[-83.285715,37.899406],[-83.285467,37.89948],[-83.285321,37.899538],[-83.28526,37.899572],[-83.285091,37.899696],[-83.285024,37.899755],[-83.284839,37.899953],[-83.28481087121213,37.9]]}},{"type":"Feature","properties":{"osm_id":1248315167,"highway":"service","name":null,"alt_name":null,"official_name":null,"surface":null,"tracktype":null,"service":null,"access":null,"motor_vehicle":null,"foot":null,"tiger_reviewed":null,"rrgh_part":0,"rrgh_tile_part":0},"geometry":{"type":"LineString","coordinates":[[-83.2858876,37.896924],[-83.2852762,37.8966906],[-83.2851368,37.8964832],[-83.2844974,37.8962987],[-83.2839818,37.8974107]]}},{"type":"Feature","properties":{"osm_id":1248315168,"highway":"service","name":null,"alt_name":null,"official_name":null,"surface":null,"tracktype":null,"service":null,"access":null,"motor_vehicle":null,"foot":null,"tiger_reviewed":null,"rrgh_part":0,"rrgh_tile_part":0},"geometry":{"type":"LineString","coordinates":[[-83.287182,37.8977992],[-83.2871303,37.8980066],[-83.2858162,37.8978027],[-83.285862,37.8976187]]}},{"type":"Feature","properties":{"osm_id":1248315169,"highway":"service","name":null,"alt_name":null,"official_name":null,"surface":null,"tracktype":null,"service":null,"access":null,"motor_vehicle":null,"foot":null,"tiger_reviewed":null,"rrgh_part":0,"rrgh_tile_part":0},"geometry":{"type":"LineString","coordinates":[[-83.2880727,37.8983358],[-83.2873025,37.8983149]]}},{"type":"Feature","properties":{"osm_id":1248315172,"highway":"service","name":null,"alt_name":null,"official_name":null,"surface":null,"tracktype":null,"service":null,"access":null,"motor_vehicle":null,"foot":null,"tiger_reviewed":null,"rrgh_part":0,"rrgh_tile_part":0},"geometry":{"type":"LineString","coordinates":[[-83.28479,37.89824],[-83.2844174,37.8981023],[-83.2842939,37.8979571],[-83.2845919,37.8974591]]}},{"type":"Feature","properties":{"osm_id":16322508,"highway":"residential","name":"University Drive","alt_name":null,"official_name":null,"surface":null,"tracktype":null,"service":null,"access":null,"motor_vehicle":null,"foot":null,"tiger_reviewed":"no","rrgh_part":0,"rrgh_tile_part":0},"geometry":{"type":"LineString","coordinates":[[-83.288121,37.897936],[-83.28808,37.898225],[-83.2880727,37.8983358],[-83.288045,37.898755],[-83.288044,37.898939],[-83.288076,37.899107],[-83.288106,37.899184],[-83.28815,37.899256],[-83.28826,37.899385],[-83.288326,37.899437],[-83.288396,37.899482],[-83.288549,37.899544],[-83.288715,37.899582],[-83.288889,37.899601],[-83.289408,37.899599],[-83.289494,37.899611],[-83.289574,37.899637],[-83.289642,37.899678],[-83.289696,37.899732],[-83.289731,37.899799],[-83.289752,37.899873],[-83.289774352,37.9]]}},{"type":"Feature","properties":{"osm_id":1248315173,"highway":"service","name":null,"alt_name":null,"official_name":null,"surface":null,"tracktype":null,"service":null,"access":null,"motor_vehicle":null,"foot":null,"tiger_reviewed":null,"rrgh_part":0,"rrgh_tile_part":0},"geometry":{"type":"LineString","coordinates":[[-83.2843622,37.8988469],[-83.2839315,37.8985224],[-83.2838296,37.8984717],[-83.2837139,37.8984499],[-83.283594,37.8984436],[-83.2834864,37.898459],[-83.283305,37.8985087],[-83.283135,37.898603],[-83.2829818,37.8987191],[-83.2829098,37.8988001]]}},{"type":"Feature","properties":{"osm_id":1112084274,"highway":"service","name":null,"alt_name":null,"official_name":null,"surface":null,"tracktype":null,"service":null,"access":null,"motor_vehicle":null,"foot":null,"tiger_reviewed":null,"rrgh_part":0,"rrgh_tile_part":0},"geometry":{"type":"LineString","coordinates":[[-83.2812566,37.8962744],[-83.2808673,37.8962565],[-83.2806023,37.8962297]]}},{"type":"Feature","properties":{"osm_id":16317589,"highway":"service","name":null,"alt_name":null,"official_name":null,"surface":null,"tracktype":null,"service":null,"access":"private","motor_vehicle":null,"foot":null,"tiger_reviewed":"no","rrgh_part":0,"rrgh_tile_part":0},"geometry":{"type":"LineString","coordinates":[[-83.254839,37.897012],[-83.254891,37.897028],[-83.255202,37.897123],[-83.255708,37.897181],[-83.256273,37.897152],[-83.256888,37.897262],[-83.257256,37.897422]]}},{"type":"Feature","properties":{"osm_id":16322784,"highway":"residential","name":"Hatton Road","alt_name":null,"official_name":null,"surface":null,"tracktype":null,"service":null,"access":null,"motor_vehicle":null,"foot":null,"tiger_reviewed":"no","rrgh_part":0,"rrgh_tile_part":0},"geometry":{"type":"LineString","coordinates":[[-83.25300985714286,37.825],[-83.252967,37.825184],[-83.252862,37.825476],[-83.252799,37.825764],[-83.252769,37.826047],[-83.252757,37.826102],[-83.252709,37.826331],[-83.252532,37.826976],[-83.252496,37.827157],[-83.252459,37.82753],[-83.252417,37.827701],[-83.252338,37.828418],[-83.252197,37.829266],[-83.252168,37.829916],[-83.25226,37.830897],[-83.252337,37.831373],[-83.252412,37.831672],[-83.252502,37.831974],[-83.252728,37.832755],[-83.25289,37.833436],[-83.25298,37.83377],[-83.253226,37.834567],[-83.253434,37.8353],[-83.253638,37.836108]]}},{"type":"Feature","properties":{"osm_id":16321838,"highway":"residential","name":"Jones Creek Road","alt_name":null,"official_name":null,"surface":null,"tracktype":null,"service":null,"access":null,"motor_vehicle":null,"foot":null,"tiger_reviewed":"no","rrgh_part":0,"rrgh_tile_part":0},"geometry":{"type":"LineString","coordinates":[[-83.25671,37.865172],[-83.256596,37.865194],[-83.256475,37.865238],[-83.255949,37.865485],[-83.255739,37.86557],[-83.255645,37.865593],[-83.255553,37.8656],[-83.255375,37.865582],[-83.25525,37.86556],[-83.25458,37.86542],[-83.254539,37.865412],[-83.254313,37.865387],[-83.253383,37.865336],[-83.25269,37.865283],[-83.252352,37.865272],[-83.252182,37.865281],[-83.251833,37.865324],[-83.251557,37.865377],[-83.251187,37.865464],[-83.251034,37.865473],[-83.250877,37.865467],[-83.250559,37.865418],[-83.250058,37.865285],[-83.25,37.86527456]]}},{"type":"Feature","properties":{"osm_id":16320354,"highway":"residential","name":"Hatton Spur Road","alt_name":null,"official_name":null,"surface":null,"tracktype":null,"service":null,"access":null,"motor_vehicle":null,"foot":null,"tiger_reviewed":"no","rrgh_part":0,"rrgh_tile_part":0},"geometry":{"type":"LineString","coordinates":[[-83.252502,37.831974],[-83.252369,37.832015],[-83.252204,37.832082],[-83.251186,37.83258],[-83.251143,37.832601],[-83.250946,37.832671]]}},{"type":"Feature","properties":{"osm_id":16317787,"highway":"residential","name":null,"alt_name":null,"official_name":null,"surface":null,"tracktype":null,"service":null,"access":null,"motor_vehicle":null,"foot":null,"tiger_reviewed":"no","rrgh_part":0,"rrgh_tile_part":0},"geometry":{"type":"LineString","coordinates":[[-83.251533,37.835661],[-83.2514,37.835729],[-83.250028,37.835794],[-83.25,37.83579162510602]]}},{"type":"Feature","properties":{"osm_id":16318606,"highway":"residential","name":"Wells Branch Road","alt_name":null,"official_name":null,"surface":null,"tracktype":null,"service":null,"access":null,"motor_vehicle":null,"foot":null,"tiger_reviewed":"no","rrgh_part":0,"rrgh_tile_part":0},"geometry":{"type":"LineString","coordinates":[[-83.25,37.85526878764479],[-83.250019,37.855266],[-83.250378,37.855165]]}},{"type":"Feature","properties":{"osm_id":16318929,"highway":"residential","name":"Whitt Lane","alt_name":null,"official_name":null,"surface":null,"tracktype":null,"service":null,"access":null,"motor_vehicle":null,"foot":null,"tiger_reviewed":"no","rrgh_part":0,"rrgh_tile_part":0},"geometry":{"type":"LineString","coordinates":[[-83.254797,37.859771],[-83.254925,37.859746],[-83.255521,37.859578],[-83.255734,37.859476],[-83.255803,37.859428]]}},{"type":"Feature","properties":{"osm_id":16317654,"highway":"residential","name":null,"alt_name":null,"official_name":null,"surface":null,"tracktype":null,"service":null,"access":null,"motor_vehicle":null,"foot":null,"tiger_reviewed":"no","rrgh_part":0,"rrgh_tile_part":0},"geometry":{"type":"LineString","coordinates":[[-83.25691,37.869933],[-83.25604,37.870276],[-83.255342,37.870755],[-83.255157,37.870759],[-83.254968,37.870756],[-83.253668,37.87037],[-83.2524,37.870351],[-83.252075,37.870438]]}},{"type":"Feature","properties":{"osm_id":16320873,"highway":"residential","name":"Johnny Davis Road","alt_name":null,"official_name":null,"surface":null,"tracktype":null,"service":null,"access":null,"motor_vehicle":null,"foot":null,"tiger_reviewed":"no","rrgh_part":0,"rrgh_tile_part":0},"geometry":{"type":"LineString","coordinates":[[-83.251557,37.865377],[-83.251591,37.865508],[-83.251617,37.865558],[-83.251792,37.865782],[-83.251866,37.865911],[-83.251961,37.866191],[-83.25198,37.866412],[-83.25197,37.866627],[-83.251933,37.86676],[-83.251903,37.866813],[-83.251781,37.866943],[-83.251609,37.867051],[-83.251569,37.867106],[-83.251567,37.867133],[-83.251581,37.867159],[-83.251614,37.867179],[-83.251907,37.867245],[-83.251971,37.86727],[-83.251996,37.867293]]}},{"type":"Feature","properties":{"osm_id":16322171,"highway":"unclassified","name":"Steel Road","alt_name":null,"official_name":null,"surface":null,"tracktype":null,"service":null,"access":null,"motor_vehicle":null,"foot":null,"tiger_reviewed":"no","rrgh_part":0,"rrgh_tile_part":0},"geometry":{"type":"LineString","coordinates":[[-83.255046,37.896818],[-83.254823,37.896938],[-83.254603,37.897012],[-83.254527,37.897023],[-83.254375,37.897043],[-83.253989,37.897113],[-83.25348,37.897219],[-83.253387,37.89723],[-83.253243,37.897214],[-83.253108,37.897178],[-83.252922,37.897114],[-83.252307,37.896766],[-83.251972,37.896561],[-83.251007,37.896024],[-83.250731,37.895855],[-83.250512,37.89567],[-83.250432,37.895571],[-83.250366,37.895463],[-83.250024,37.894826],[-83.25,37.89478468354431]]}},{"type":"Feature","properties":{"osm_id":16320026,"highway":"residential","name":"Jimmy Adkins Road","alt_name":null,"official_name":null,"surface":null,"tracktype":null,"service":null,"access":null,"motor_vehicle":null,"foot":null,"tiger_reviewed":"no","rrgh_part":0,"rrgh_tile_part":0},"geometry":{"type":"LineString","coordinates":[[-83.254527,37.897023],[-83.254578,37.897056],[-83.254597,37.897098],[-83.254575,37.897185],[-83.254544,37.897237],[-83.254484,37.897309],[-83.254446,37.897355],[-83.254271,37.897462],[-83.254064,37.897629],[-83.254001,37.897729],[-83.253963,37.897847],[-83.253952,37.897977],[-83.253971,37.898588],[-83.254021,37.898802],[-83.254261,37.899451],[-83.254447,37.899824],[-83.254505,37.899996],[-83.25450557142857,37.9]]}},{"type":"Feature","properties":{"osm_id":16322302,"highway":"residential","name":"West Liberty-River Road","alt_name":null,"official_name":null,"surface":null,"tracktype":null,"service":null,"access":null,"motor_vehicle":null,"foot":null,"tiger_reviewed":"no","rrgh_part":0,"rrgh_tile_part":0},"geometry":{"type":"LineString","coordinates":[[-83.255046,37.896818],[-83.254948,37.896931],[-83.254839,37.897012],[-83.254803,37.897039],[-83.254722,37.897115],[-83.254544,37.897237],[-83.25351,37.897395],[-83.252948,37.897801],[-83.252617,37.898303],[-83.252435,37.898824],[-83.252458,37.899014],[-83.252466,37.899242],[-83.252466,37.899922],[-83.252485,37.899988]]}}],"rrgh_tile":{"id":"r6c8","bounds":[37.825,-83.33500000000001,37.9,-83.25]}}
