{"type":"FeatureCollection","features":[{"type":"Feature","properties":{"osm_id":938772995,"highway":"service","name":null,"alt_name":null,"official_name":null,"surface":null,"tracktype":null,"service":null,"access":null,"motor_vehicle":null,"foot":null,"tiger_reviewed":null,"rrgh_part":0,"rrgh_tile_part":0},"geometry":{"type":"LineString","coordinates":[[-83.92602481626865,37.9],[-83.9260453,37.9000621],[-83.9261132,37.9001533],[-83.9263374,37.9003222],[-83.9264529,37.9004455],[-83.9264631,37.9005125]]}},{"type":"Feature","properties":{"osm_id":16335423,"highway":"track","name":null,"alt_name":null,"official_name":null,"surface":null,"tracktype":null,"service":null,"access":null,"motor_vehicle":null,"foot":null,"tiger_reviewed":"no","rrgh_part":0,"rrgh_tile_part":0},"geometry":{"type":"LineString","coordinates":[[-83.9254393,37.9005087],[-83.9256365,37.9006487],[-83.9254126,37.901502],[-83.9254161,37.9017703],[-83.9253405,37.9018439],[-83.9252799,37.902147],[-83.9252722,37.9028949],[-83.9253657,37.902994],[-83.9255452,37.9030751],[-83.925664,37.9030537]]}},{"type":"Feature","properties":{"osm_id":902339134,"highway":"service","name":null,"alt_name":null,"official_name":null,"surface":"gravel","tracktype":null,"service":null,"access":null,"motor_vehicle":null,"foot":null,"tiger_reviewed":null,"rrgh_part":0,"rrgh_tile_part":0},"geometry":{"type":"LineString","coordinates":[[-83.9252111,37.9093567],[-83.925503,37.9091563],[-83.9257502,37.9089762],[-83.9258056,37.9088738],[-83.9258514,37.9088071],[-83.9259024,37.9087456],[-83.9259475,37.9087096],[-83.9260217,37.9086874],[-83.9260919,37.9086796],[-83.9261919,37.9086931],[-83.9263352,37.9087153],[-83.9263949,37.9087326],[-83.926451,37.908771],[-83.9265008,37.9088284],[-83.9265515,37.9089186],[-83.9265916,37.9089923],[-83.9266786,37.9090579],[-83.926773,37.9091144],[-83.9269311,37.9091919],[-83.9270421,37.909218],[-83.9271579,37.9092194],[-83.9272447,37.9091994],[-83.9273172,37.9091497],[-83.9273597,37.9090947],[-83.9273713,37.909024],[-83.927379,37.9089528],[-83.9273541,37.9088956],[-83.9272581,37.9087824],[-83.9271591,37.9086717],[-83.9271208,37.9085928],[-83.9271321,37.9085205],[-83.9271901,37.908452],[-83.9272432,37.9084312],[-83.9273138,37.9084286],[-83.92736,37.9084559],[-83.9274113,37.9085151],[-83.9274521,37.9085643],[-83.9275393,37.9086171],[-83.9276691,37.908709],[-83.9277902,37.9087885],[-83.9279226,37.9088738],[-83.9279895,37.9089307],[-83.9280153,37.9089793],[-83.928053,37.9090407],[-83.9280877,37.9090525],[-83.9281357,37.9090453],[-83.9281531,37.9090174],[-83.9281462,37.9089802],[-83.9280688,37.9088517],[-83.9280082,37.9087413],[-83.9279511,37.9086341],[-83.9279314,37.908558],[-83.9279581,37.9084734],[-83.9280117,37.9084056],[-83.9280957,37.9083466],[-83.9282198,37.9083008],[-83.9283257,37.9082562],[-83.9284651,37.9081928],[-83.9285969,37.9081146],[-83.928726,37.908019],[-83.9288996,37.9078782],[-83.9291303,37.9076644],[-83.9292521,37.9075497],[-83.9293186,37.9074363],[-83.9293552,37.9073953],[-83.9294484,37.907309],[-83.9295132,37.9071965],[-83.9295788,37.9070317],[-83.9296407,37.9069142],[-83.9297096,37.9067388],[-83.9297536,37.9066327],[-83.9297509,37.9065848],[-83.9297101,37.9064618],[-83.929653,37.9063289],[-83.9296296,37.9062313],[-83.9296376,37.906197],[-83.9296513,37.9061644],[-83.9297062,37.9061135],[-83.9297716,37.9060394],[-83.9298224,37.9059425],[-83.929859,37.9057913],[-83.9298839,37.9056849],[-83.9299571,37.9055694],[-83.93,37.90550210232556]]}},{"type":"Feature","properties":{"osm_id":902339134,"highway":"service","name":null,"alt_name":null,"official_name":null,"surface":"gravel","tracktype":null,"service":null,"access":null,"motor_vehicle":null,"foot":null,"tiger_reviewed":null,"rrgh_part":1,"rrgh_tile_part":0},"geometry":{"type":"LineString","coordinates":[[-83.93,37.90114073014587],[-83.9299252,37.9010669],[-83.9298302,37.9009373],[-83.9296841,37.900725],[-83.9296183,37.9006252],[-83.929504,37.9005092],[-83.9292981,37.9003505],[-83.929121,37.9002185],[-83.9290361,37.9001892],[-83.9289495,37.9001903],[-83.9288577,37.9002103],[-83.9287053,37.9002506],[-83.9286156,37.9002579],[-83.9285008,37.9002305],[-83.9284287,37.9001528],[-83.9284111,37.9000628],[-83.92841053372408,37.9]]}},{"type":"Feature","properties":{"osm_id":16335489,"highway":"service","name":null,"alt_name":null,"official_name":null,"surface":null,"tracktype":null,"service":null,"access":"private","motor_vehicle":null,"foot":null,"tiger_reviewed":"no","rrgh_part":0,"rrgh_tile_part":0},"geometry":{"type":"LineString","coordinates":[[-83.919855,37.905481],[-83.919783,37.905417]]}},{"type":"Feature","properties":{"osm_id":16335679,"highway":"track","name":null,"alt_name":null,"official_name":null,"surface":null,"tracktype":null,"service":null,"access":null,"motor_vehicle":null,"foot":null,"tiger_reviewed":"no","rrgh_part":0,"rrgh_tile_part":0},"geometry":{"type":"LineString","coordinates":[[-83.918929,37.907229],[-83.919365,37.907376],[-83.919579,37.907401],[-83.919826,37.907389],[-83.919999,37.907311],[-83.920139,37.907278],[-83.920287,37.907239],[-83.920386,37.907246],[-83.920451,37.907337]]}},{"type":"Feature","properties":{"osm_id":16335371,"highway":"service","name":null,"alt_name":null,"official_name":null,"surface":null,"tracktype":null,"service":null,"access":"private","motor_vehicle":null,"foot":null,"tiger_reviewed":"no","rrgh_part":0,"rrgh_tile_part":0},"geometry":{"type":"LineString","coordinates":[[-83.918308,37.910575],[-83.918442,37.910202]]}},{"type":"Feature","properties":{"osm_id":16335372,"highway":"service","name":null,"alt_name":null,"official_name":null,"surface":null,"tracktype":null,"service":null,"access":"private","motor_vehicle":null,"foot":null,"tiger_reviewed":"no","rrgh_part":0,"rrgh_tile_part":0},"geometry":{"type":"LineString","coordinates":[[-83.915036,37.913132],[-83.917598,37.913841]]}},{"type":"Feature","properties":{"osm_id":16335390,"highway":"service","name":null,"alt_name":null,"official_name":null,"surface":null,"tracktype":null,"service":null,"access":"private","motor_vehicle":null,"foot":null,"tiger_reviewed":"no","rrgh_part":0,"rrgh_tile_part":0},"geometry":{"type":"LineString","coordinates":[[-83.915763,37.911116],[-83.91566,37.911081],[-83.91557,37.911037],[-83.915497,37.910976],[-83.915456,37.910913]]}},{"type":"Feature","properties":{"osm_id":16316707,"highway":"service","name":null,"alt_name":null,"official_name":null,"surface":null,"tracktype":null,"service":null,"access":"private","motor_vehicle":null,"foot":null,"tiger_reviewed":"no","rrgh_part":0,"rrgh_tile_part":0},"geometry":{"type":"LineString","coordinates":[[-83.913877,37.920781],[-83.913278,37.920446],[-83.913111,37.920474],[-83.912041,37.921923],[-83.911561,37.922144]]}},{"type":"Feature","properties":{"osm_id":16335368,"highway":"service","name":null,"alt_name":null,"official_name":null,"surface":null,"tracktype":null,"service":null,"access":"private","motor_vehicle":null,"foot":null,"tiger_reviewed":"no","rrgh_part":0,"rrgh_tile_part":0},"geometry":{"type":"LineString","coordinates":[[-83.916691,37.909655],[-83.918308,37.910575],[-83.919171,37.911066]]}},{"type":"Feature","properties":{"osm_id":16318144,"highway":"residential","name":"Hog Creek Road","alt_name":null,"official_name":null,"surface":null,"tracktype":null,"service":null,"access":null,"motor_vehicle":null,"foot":null,"tiger_reviewed":"no","rrgh_part":0,"rrgh_tile_part":0},"geometry":{"type":"LineString","coordinates":[[-83.890307,37.919908],[-83.890457,37.919983],[-83.890619,37.920021],[-83.89099,37.920016],[-83.891627,37.920093],[-83.891775,37.920102],[-83.891892,37.92009],[-83.891964,37.920072],[-83.892031,37.920045],[-83.892148,37.91998],[-83.892492,37.919859],[-83.892622,37.919823],[-83.892685,37.919817],[-83.892889,37.919832],[-83.892952,37.919823],[-83.893012,37.919803],[-83.893111,37.91975],[-83.893477,37.919555],[-83.893805,37.919354],[-83.893898,37.919314],[-83.894004,37.919286],[-83.89412,37.919269],[-83.894475,37.919238],[-83.894707,37.919206],[-83.89492,37.919144],[-83.895108,37.919055],[-83.895286,37.918945],[-83.895369,37.918882],[-83.895521,37.918742],[-83.895859,37.918376],[-83.896027,37.918149],[-83.896253,37.917893],[-83.896407,37.917749],[-83.896595,37.917611],[-83.896914,37.917423],[-83.897361,37.917203],[-83.898138,37.916923],[-83.898203,37.916907],[-83.898239,37.916903],[-83.898275,37.916908],[-83.898335,37.916916],[-83.89845,37.916979],[-83.898737,37.917203],[-83.898894,37.917349],[-83.899105,37.917577],[-83.899416,37.917962],[-83.899534,37.918126],[-83.899601,37.918203],[-83.89976,37.918357],[-83.899785,37.918381],[-83.899782,37.918398],[-83.899752,37.918605],[-83.89975,37.918725],[-83.899768,37.918819],[-83.899795,37.91887],[-83.899835,37.918916],[-83.899896,37.91896],[-83.899979,37.919],[-83.90008,37.919033],[-83.900271,37.919111],[-83.900425,37.91915],[-83.900523,37.919196],[-83.900763,37.919344],[-83.901073,37.919565],[-83.901415,37.919875],[-83.901456,37.919923],[-83.901531,37.920011],[-83.901657,37.920188],[-83.901675,37.920214],[-83.901734,37.920269],[-83.901799,37.920317],[-83.902099,37.920491],[-83.902239,37.920597],[-83.9023,37.920657],[-83.902398,37.920781],[-83.902435,37.920844],[-83.902478,37.920945],[-83.902524,37.921054],[-83.902567,37.921118],[-83.902687,37.921227],[-83.902934,37.921378],[-83.903016,37.921438],[-83.903087,37.921507],[-83.903265,37.921741],[-83.903331,37.921808],[-83.903404,37.921864],[-83.903575,37.921947],[-83.903936,37.922059],[-83.904113,37.922143],[-83.904198,37.922199],[-83.904273,37.922264],[-83.904467,37.922459],[-83.904527,37.922509],[-83.904597,37.922544],[-83.904676,37.922566],[-83.904757,37.922574],[-83.904828,37.922568],[-83.905006,37.922522],[-83.905069,37.922514],[-83.905131,37.92252],[-83.905188,37.92254],[-83.905236,37.922573],[-83.905665,37.923057],[-83.905765,37.923184],[-83.905847,37.923321],[-83.905937,37.923612],[-83.90602,37.923752],[-83.906426,37.924179],[-83.9068,37.924603],[-83.906815,37.92462],[-83.90689,37.92469],[-83.907061,37.924808],[-83.907567,37.925061],[-83.907761,37.925169],[-83.908059,37.92539],[-83.908171,37.9255],[-83.908236,37.925645],[-83.908316,37.926174],[-83.908329,37.926257],[-83.908379,37.926384],[-83.908425,37.926441],[-83.908554,37.92654],[-83.909113,37.926873],[-83.909505,37.927072],[-83.909693,37.927148]]}},{"type":"Feature","properties":{"osm_id":16316609,"highway":"service","name":null,"alt_name":null,"official_name":null,"surface":null,"tracktype":null,"service":null,"access":"private","motor_vehicle":null,"foot":null,"tiger_reviewed":"no","rrgh_part":0,"rrgh_tile_part":0},"geometry":{"type":"LineString","coordinates":[[-83.902478,37.920945],[-83.902298,37.921049],[-83.902112,37.921197],[-83.901784,37.92148],[-83.90133,37.921724],[-83.901098,37.921915],[-83.900831,37.922048]]}},{"type":"Feature","properties":{"osm_id":16317152,"highway":"residential","name":null,"alt_name":null,"official_name":null,"surface":null,"tracktype":null,"service":null,"access":null,"motor_vehicle":null,"foot":null,"tiger_reviewed":"no","rrgh_part":0,"rrgh_tile_part":0},"geometry":{"type":"LineString","coordinates":[[-83.901456,37.919923],[-83.901476,37.919906],[-83.901951,37.919507],[-83.902159,37.919439],[-83.903006,37.919444],[-83.903387,37.91919],[-83.903806,37.91892],[-83.903952,37.918861],[-83.904188,37.918883],[-83.90453,37.919135],[-83.90484,37.919395]]}},{"type":"Feature","properties":{"osm_id":16338278,"highway":"residential","name":"Hog Creek Road","alt_name":null,"official_name":null,"surface":null,"tracktype":null,"service":null,"access":null,"motor_vehicle":null,"foot":null,"tiger_reviewed":"no","rrgh_part":0,"rrgh_tile_part":0},"geometry":{"type":"LineString","coordinates":[[-83.897059,37.912265],[-83.896869,37.912358],[-83.896814,37.912396],[-83.89674,37.912473],[-83.896713,37.912524],[-83.896702,37.912585],[-83.896734,37.913042],[-83.896767,37.913113],[-83.89686,37.913215],[-83.896947,37.913352],[-83.897046,37.913739],[-83.89708,37.913829],[-83.897325,37.914241],[-83.897684,37.915127],[-83.897909,37.915612],[-83.89798,37.915794],[-83.898064,37.916132],[-83.898075,37.916246],[-83.89811,37.91659],[-83.898161,37.916717],[-83.898212,37.916788],[-83.898225,37.916808]]}},{"type":"Feature","properties":{"osm_id":16317279,"highway":"residential","name":"Right Fork Road","alt_name":null,"official_name":null,"surface":null,"tracktype":null,"service":null,"access":null,"motor_vehicle":null,"foot":null,"tiger_reviewed":"no","rrgh_part":0,"rrgh_tile_part":0},"geometry":{"type":"LineString","coordinates":[[-83.898225,37.916808],[-83.898275,37.916908]]}},{"type":"Feature","properties":{"osm_id":16317513,"highway":"residential","name":"Camp McKee Road","alt_name":null,"official_name":null,"surface":"gravel","tracktype":null,"service":null,"access":null,"motor_vehicle":null,"foot":null,"tiger_reviewed":"no","rrgh_part":0,"rrgh_tile_part":0},"geometry":{"type":"LineString","coordinates":[[-83.928269,37.939296],[-83.928437,37.939224],[-83.92866,37.939089],[-83.928749,37.939017],[-83.928853,37.938885],[-83.928899,37.938792],[-83.928947,37.938504],[-83.928971,37.938271],[-83.929017,37.938103],[-83.929059,37.938005],[-83.929118,37.937904],[-83.9292601,37.9377218],[-83.929406,37.937551],[-83.929549,37.937408],[-83.929616,37.93736],[-83.929726,37.937319],[-83.929803,37.937299],[-83.93,37.93726909821429]]}},{"type":"Feature","properties":{"osm_id":16317514,"highway":"residential","name":"Camp McKee Road","alt_name":null,"official_name":null,"surface":"gravel","tracktype":null,"service":null,"access":null,"motor_vehicle":null,"foot":null,"tiger_reviewed":"no","rrgh_part":0,"rrgh_tile_part":0},"geometry":{"type":"LineString","coordinates":[[-83.929549,37.937408],[-83.93,37.93690146414072]]}},{"type":"Feature","properties":{"osm_id":16317314,"highway":"residential","name":"Russ Willoughby Road","alt_name":null,"official_name":null,"surface":null,"tracktype":null,"service":null,"access":null,"motor_vehicle":null,"foot":null,"tiger_reviewed":"no","rrgh_part":0,"rrgh_tile_part":0},"geometry":{"type":"LineString","coordinates":[[-83.9294675,37.9591697],[-83.929515,37.9593237],[-83.929635,37.9593728],[-83.929731,37.9593456],[-83.9299214,37.9592096],[-83.93,37.959199943202414]]}},{"type":"Feature","properties":{"osm_id":16317489,"highway":"residential","name":"Pilot Knob Road","alt_name":null,"official_name":null,"surface":null,"tracktype":null,"service":null,"access":null,"motor_vehicle":null,"foot":null,"tiger_reviewed":"no","rrgh_part":0,"rrgh_tile_part":0},"geometry":{"type":"LineString","coordinates":[[-83.9261078,37.931881],[-83.92625,37.931628],[-83.926274,37.931569],[-83.926282,37.931505],[-83.926273,37.931439],[-83.926219,37.931304],[-83.926105,37.9311],[-83.926028,37.930894],[-83.926004,37.930753],[-83.925977,37.930463],[-83.925974,37.930334],[-83.925985,37.930276],[-83.926212,37.929853],[-83.926359,37.92949],[-83.926503,37.928994],[-83.926651,37.928287],[-83.926693,37.928149],[-83.926843,37.927899],[-83.926935,37.927687],[-83.927045,37.927487],[-83.927297,37.927171],[-83.927432,37.926977],[-83.927538,37.926791],[-83.927614,37.926696],[-83.927785,37.926429]]}},{"type":"Feature","properties":{"osm_id":480870375,"highway":"service","name":"Cope Road","alt_name":null,"official_name":null,"surface":null,"tracktype":null,"service":null,"access":null,"motor_vehicle":null,"foot":null,"tiger_reviewed":null,"rrgh_part":0,"rrgh_tile_part":0},"geometry":{"type":"LineString","coordinates":[[-83.93,37.935884421663104],[-83.9297767,37.9357758],[-83.9294872,37.9356027],[-83.9293097,37.9354112],[-83.9292957,37.9351239],[-83.9294078,37.9349581],[-83.9296413,37.9347224],[-83.9298001,37.9345788],[-83.93,37.93436646799835]]}},{"type":"Feature","properties":{"osm_id":630768546,"highway":"residential","name":"Pilot Knob Drive","alt_name":null,"official_name":null,"surface":null,"tracktype":null,"service":null,"access":null,"motor_vehicle":null,"foot":null,"tiger_reviewed":"no","rrgh_part":0,"rrgh_tile_part":0},"geometry":{"type":"LineString","coordinates":[[-83.9261078,37.931881],[-83.926082,37.93193],[-83.926018,37.932124],[-83.925974,37.932411],[-83.925984,37.932797],[-83.925918,37.933083],[-83.925833,37.933246],[-83.925721,37.933392],[-83.925035,37.934132],[-83.924549,37.934617],[-83.92433,37.93476],[-83.924095,37.93501],[-83.923716,37.935368]]}},{"type":"Feature","properties":{"osm_id":16317291,"highway":"residential","name":"Camargo Levee Road","alt_name":null,"official_name":null,"surface":null,"tracktype":null,"service":null,"access":null,"motor_vehicle":null,"foot":null,"tiger_reviewed":"no","rrgh_part":0,"rrgh_tile_part":0},"geometry":{"type":"LineString","coordinates":[[-83.897591,37.956503],[-83.897529,37.956568],[-83.897332,37.956828],[-83.896603,37.957842],[-83.896369,37.958186],[-83.895947,37.958857],[-83.89579,37.959047],[-83.895699,37.959127],[-83.895599,37.959192],[-83.895375,37.959287],[-83.895253,37.959324],[-83.894991,37.959386],[-83.892849,37.959805],[-83.891511,37.960078],[-83.891078,37.960156],[-83.890799,37.960219],[-83.890665,37.96026],[-83.890537,37.96031],[-83.890295,37.960438],[-83.889589,37.960902],[-83.888688,37.961475],[-83.887656,37.962163],[-83.887483,37.962311],[-83.887416,37.96239],[-83.887368,37.962467],[-83.887332,37.962552],[-83.887248,37.962936],[-83.887124,37.963673],[-83.886939,37.964927],[-83.88651,37.967527],[-83.886476,37.96763],[-83.886422,37.967728],[-83.886345,37.967816],[-83.886247,37.967897],[-83.884719,37.969009],[-83.884629,37.96909],[-83.884555,37.969177],[-83.884496,37.969271],[-83.884452,37.969374],[-83.884424,37.969482],[-83.884391,37.96972],[-83.884064,37.972953],[-83.883965,37.973809],[-83.88385770941508,37.974999999999994]]}},{"type":"Feature","properties":{"osm_id":16317356,"highway":"residential","name":"Fox Road","alt_name":null,"official_name":null,"surface":null,"tracktype":null,"service":null,"access":null,"motor_vehicle":null,"foot":null,"tiger_reviewed":"no","rrgh_part":0,"rrgh_tile_part":0},"geometry":{"type":"LineString","coordinates":[[-83.918067,37.966537],[-83.91784,37.966871],[-83.916506,37.968973],[-83.916491,37.969024],[-83.916497,37.969075],[-83.916528,37.969132],[-83.916582,37.969198],[-83.917105,37.969715],[-83.917265,37.969887],[-83.917324,37.969974],[-83.917362,37.970064],[-83.91738,37.97016],[-83.917366,37.970368],[-83.91718,37.971226],[-83.917151,37.971466],[-83.917112,37.972144],[-83.917095,37.972239],[-83.917059,37.972332],[-83.917002,37.972418],[-83.916927,37.9725],[-83.91633,37.97305],[-83.915136,37.974152],[-83.915048,37.974253],[-83.914898,37.974467],[-83.914669,37.974815],[-83.91455629885058,37.974999999999994]]}},{"type":"Feature","properties":{"osm_id":16317736,"highway":"residential","name":"Welch Road","alt_name":null,"official_name":null,"surface":null,"tracktype":null,"service":null,"access":null,"motor_vehicle":null,"foot":null,"tiger_reviewed":"no","rrgh_part":0,"rrgh_tile_part":0},"geometry":{"type":"LineString","coordinates":[[-83.887416,37.96239],[-83.887284,37.962301],[-83.887215,37.962242],[-83.886513,37.961538],[-83.885922,37.960999],[-83.885737,37.960862],[-83.885636,37.96081],[-83.885525,37.960771],[-83.885403,37.960744],[-83.885129,37.960719],[-83.882189,37.96056],[-83.8807279,37.9604717],[-83.879923,37.960423],[-83.879015,37.96036],[-83.877155,37.960206],[-83.875623,37.960105],[-83.875241,37.960094],[-83.873561,37.960013],[-83.87319,37.960006],[-83.873005,37.960014],[-83.872822,37.960035],[-83.872639,37.960068],[-83.871159,37.960421],[-83.87082,37.960531],[-83.870337,37.960718],[-83.87005,37.960843],[-83.869936,37.96091],[-83.869845,37.960992],[-83.869785,37.961079],[-83.869536,37.961784],[-83.86948,37.961904],[-83.869409,37.962023],[-83.869232,37.962251],[-83.868827,37.962716],[-83.868608,37.96301],[-83.8685252,37.9631559],[-83.868038,37.963862],[-83.867951,37.96398],[-83.867848,37.964093],[-83.867602,37.964307],[-83.867171,37.964651],[-83.86642,37.965223],[-83.866265,37.965327],[-83.866099,37.965422],[-83.865923,37.965508],[-83.864509,37.966113],[-83.863339,37.966632],[-83.862843,37.966837],[-83.862004,37.967161],[-83.861572,37.96735],[-83.86145,37.967418],[-83.86134,37.967491],[-83.861152,37.967646],[-83.86072,37.968037],[-83.860049,37.968622],[-83.859649,37.968991],[-83.859467,37.969146],[-83.859404,37.969185],[-83.859337,37.969209],[-83.85927,37.969213],[-83.859206,37.969198],[-83.859148,37.969166],[-83.858774,37.968823],[-83.858342,37.968375],[-83.858261,37.968314],[-83.858118,37.968271]]}},{"type":"Feature","properties":{"osm_id":630768545,"highway":"residential","name":null,"alt_name":null,"official_name":null,"surface":null,"tracktype":null,"service":null,"access":null,"motor_vehicle":null,"foot":null,"tiger_reviewed":null,"rrgh_part":0,"rrgh_tile_part":0},"geometry":{"type":"LineString","coordinates":[[-83.924974,37.9363876],[-83.9253076,37.9356586],[-83.9253384,37.9354594]]}},{"type":"Feature","properties":{"osm_id":630764166,"highway":"residential","name":"Old Kentucky Highway 11","alt_name":null,"official_name":null,"surface":null,"tracktype":null,"service":null,"access":null,"motor_vehicle":null,"foot":null,"tiger_reviewed":"no","rrgh_part":0,"rrgh_tile_part":0},"geometry":{"type":"LineString","coordinates":[[-83.925993,37.942704],[-83.926077,37.942848],[-83.926421,37.943571],[-83.926486,37.943729],[-83.9265,37.943798],[-83.926501,37.943862],[-83.926468,37.943987],[-83.926294,37.944351],[-83.926269,37.944498],[-83.926287,37.944647],[-83.926438,37.945051],[-83.926547,37.945294],[-83.926815,37.945843],[-83.926926,37.946027],[-83.926997,37.946117],[-83.927077,37.9462],[-83.92715,37.946256],[-83.927202,37.946263],[-83.927282,37.946304],[-83.927376,37.946376],[-83.927548,37.946518],[-83.927788,37.946745],[-83.928602,37.94768],[-83.928864,37.948045],[-83.928925,37.948112],[-83.929069,37.948237],[-83.929224,37.948349],[-83.929312,37.948399],[-83.929407,37.948437],[-83.929793,37.948562],[-83.929887,37.94861],[-83.93,37.948685030546635]]}},{"type":"Feature","properties":{"osm_id":630764171,"highway":"residential","name":null,"alt_name":null,"official_name":null,"surface":null,"tracktype":null,"service":null,"access":null,"motor_vehicle":null,"foot":null,"tiger_reviewed":null,"rrgh_part":0,"rrgh_tile_part":0},"geometry":{"type":"LineString","coordinates":[[-83.9289151,37.942009],[-83.928823,37.9420221],[-83.9286258,37.9422359],[-83.9284409,37.9422991],[-83.9281883,37.9423234],[-83.9279911,37.9423234],[-83.9274981,37.9425518],[-83.9270483,37.9426927],[-83.9267648,37.9427462],[-83.9265923,37.9427316],[-83.9264382,37.9426441],[-83.9263889,37.9424886],[-83.9262349,37.9423526],[-83.9260377,37.9422408],[-83.9254092,37.9418472],[-83.9248607,37.9413515]]}},{"type":"Feature","properties":{"osm_id":16317204,"highway":"residential","name":"Jon-Tori Lane","alt_name":null,"official_name":null,"surface":null,"tracktype":null,"service":null,"access":null,"motor_vehicle":null,"foot":null,"tiger_reviewed":"no","rrgh_part":0,"rrgh_tile_part":0},"geometry":{"type":"LineString","coordinates":[[-83.90982,37.928344],[-83.91085,37.927993],[-83.911228,37.927874]]}},{"type":"Feature","properties":{"osm_id":630764181,"highway":"residential","name":null,"alt_name":null,"official_name":null,"surface":null,"tracktype":null,"service":null,"access":null,"motor_vehicle":null,"foot":null,"tiger_reviewed":null,"rrgh_part":0,"rrgh_tile_part":0},"geometry":{"type":"LineString","coordinates":[[-83.909474,37.927759],[-83.9092359,37.9280564],[-83.9088605,37.9283051],[-83.9084701,37.9283723],[-83.9081197,37.9283723],[-83.9075592,37.9282459],[-83.9072989,37.9281985],[-83.9069986,37.9282301],[-83.9064981,37.9283644]]}},{"type":"Feature","properties":{"osm_id":630764182,"highway":"residential","name":"Norman Road","alt_name":null,"official_name":null,"surface":null,"tracktype":null,"service":null,"access":null,"motor_vehicle":null,"foot":null,"tiger_reviewed":"no","rrgh_part":0,"rrgh_tile_part":0},"geometry":{"type":"LineString","coordinates":[[-83.90891,37.930599],[-83.908753,37.930599],[-83.908674,37.930611],[-83.908096,37.930849],[-83.907796,37.930956],[-83.907615,37.931048],[-83.907373,37.931195],[-83.907214,37.931272],[-83.906894,37.931408],[-83.906545,37.93157],[-83.906377,37.931623],[-83.906291,37.931631],[-83.906111,37.931607],[-83.904643,37.931229],[-83.904441,37.931183],[-83.904324,37.931168],[-83.9038338,37.9312138],[-83.9035986,37.9312257],[-83.9031359,37.9313753],[-83.9027262,37.9314771],[-83.902271,37.931513]]}},{"type":"Feature","properties":{"osm_id":16317781,"highway":"residential","name":"South Ware Chapel Road","alt_name":null,"official_name":null,"surface":null,"tracktype":null,"service":null,"access":null,"motor_vehicle":null,"foot":null,"tiger_reviewed":"no","rrgh_part":0,"rrgh_tile_part":0},"geometry":{"type":"LineString","coordinates":[[-83.891122,37.935519],[-83.891006,37.935744],[-83.890889,37.936016],[-83.89084,37.936084],[-83.890775,37.936151],[-83.890714,37.936214],[-83.890206,37.936684],[-83.890101,37.936814],[-83.890061,37.936887],[-83.890034,37.936966],[-83.889967,37.937319],[-83.889906,37.937498],[-83.889799,37.937732],[-83.889663,37.93793],[-83.889602,37.937993],[-83.889526,37.938048],[-83.889284,37.938198],[-83.889051,37.938369],[-83.88891,37.938493],[-83.888659,37.938734],[-83.888476,37.939],[-83.888378,37.939125],[-83.888319,37.939181],[-83.888247,37.939229],[-83.886997,37.939786],[-83.886679,37.939905],[-83.886361,37.940037],[-83.886261,37.940086],[-83.886071,37.940199],[-83.885359,37.940516],[-83.884921,37.940741],[-83.884717,37.940835],[-83.884376,37.94095],[-83.883791,37.941121],[-83.883587,37.941194],[-83.883497,37.941244],[-83.883415,37.941303],[-83.882926,37.94176],[-83.882775,37.941921],[-83.88243,37.942352],[-83.882348,37.942429],[-83.882255,37.942495],[-83.882154,37.942549],[-83.881928,37.942628],[-83.881808,37.942653],[-83.881415,37.942693],[-83.880701,37.942781],[-83.880156,37.942865],[-83.879806,37.942945],[-83.879513,37.94303],[-83.879349,37.943114],[-83.879273,37.943168],[-83.879011,37.943445],[-83.878934,37.943507],[-83.878846,37.943559],[-83.878647,37.943638],[-83.878198,37.943722],[-83.877983,37.943775],[-83.87775,37.94385],[-83.877552,37.943938],[-83.877388,37.944049],[-83.877261,37.944175],[-83.877102,37.944365],[-83.877015,37.944505]]}},{"type":"Feature","properties":{"osm_id":16318481,"highway":"residential","name":"Asa Means Road","alt_name":null,"official_name":null,"surface":null,"tracktype":null,"service":null,"access":null,"motor_vehicle":null,"foot":null,"tiger_reviewed":"no","rrgh_part":0,"rrgh_tile_part":0},"geometry":{"type":"LineString","coordinates":[[-83.90399,37.941474],[-83.903833,37.941395],[-83.903592,37.941244],[-83.903346,37.941032],[-83.903275,37.940997],[-83.903196,37.940982],[-83.903115,37.940986],[-83.902784,37.941049],[-83.90263,37.941059],[-83.902477,37.941039],[-83.902319,37.941005],[-83.902243,37.940982],[-83.902175,37.940947],[-83.90212,37.940902],[-83.902079,37.940849],[-83.901979,37.940557],[-83.901915,37.940404],[-83.9017,37.940037],[-83.901557,37.939697],[-83.901502,37.939621],[-83.901463,37.939596],[-83.901417,37.939584],[-83.901327,37.939589],[-83.901242,37.939623],[-83.901161,37.939684],[-83.901087,37.939766],[-83.900913,37.940014],[-83.900862,37.940116],[-83.900832,37.940224]]}},{"type":"Feature","properties":{"osm_id":16317451,"highway":"residential","name":"Foy Highley Road","alt_name":null,"official_name":null,"surface":null,"tracktype":null,"service":null,"access":null,"motor_vehicle":null,"foot":null,"tiger_reviewed":"no","rrgh_part":0,"rrgh_tile_part":0},"geometry":{"type":"LineString","coordinates":[[-83.903207,37.945992],[-83.903517,37.945797],[-83.9038817,37.9455582],[-83.9039673,37.9455022],[-83.9039957,37.9454836],[-83.9040634,37.9454393],[-83.9041465,37.9454446],[-83.904634,37.945492],[-83.904727,37.945497],[-83.904814,37.945487],[-83.904894,37.945463],[-83.904967,37.945429],[-83.905028,37.945386],[-83.905077,37.945335],[-83.905343,37.944926],[-83.905424,37.944847],[-83.905523,37.944784]]}},{"type":"Feature","properties":{"osm_id":16318103,"highway":"residential","name":"Tyra Lane","alt_name":null,"official_name":null,"surface":null,"tracktype":null,"service":null,"access":null,"motor_vehicle":null,"foot":null,"tiger_reviewed":"no","rrgh_part":0,"rrgh_tile_part":0},"geometry":{"type":"LineString","coordinates":[[-83.9040634,37.9454393],[-83.9042299,37.9451861],[-83.904291,37.9450423],[-83.9043208,37.9446982],[-83.9044593,37.9442125]]}},{"type":"Feature","properties":{"osm_id":630768548,"highway":"service","name":null,"alt_name":null,"official_name":null,"surface":null,"tracktype":null,"service":null,"access":null,"motor_vehicle":null,"foot":null,"tiger_reviewed":null,"rrgh_part":0,"rrgh_tile_part":0},"geometry":{"type":"LineString","coordinates":[[-83.9038477,37.9446149],[-83.9034999,37.9445678],[-83.903245,37.944629]]}},{"type":"Feature","properties":{"osm_id":16316381,"highway":"residential","name":"East Patton Lane","alt_name":null,"official_name":null,"surface":null,"tracktype":null,"service":null,"access":null,"motor_vehicle":null,"foot":null,"tiger_reviewed":"no","rrgh_part":0,"rrgh_tile_part":0},"geometry":{"type":"LineString","coordinates":[[-83.885208,37.948996],[-83.885659,37.948863],[-83.886434,37.948553],[-83.88791,37.948009],[-83.887979,37.947992],[-83.888114,37.947981],[-83.888585,37.948032]]}},{"type":"Feature","properties":{"osm_id":16316453,"highway":"service","name":null,"alt_name":null,"official_name":null,"surface":null,"tracktype":null,"service":null,"access":"private","motor_vehicle":null,"foot":null,"tiger_reviewed":"no","rrgh_part":0,"rrgh_tile_part":0},"geometry":{"type":"LineString","coordinates":[[-83.884266,37.947014],[-83.88449,37.947008],[-83.884802,37.946994],[-83.885037,37.947025],[-83.885952,37.946629],[-83.886478,37.946193]]}},{"type":"Feature","properties":{"osm_id":16317407,"highway":"residential","name":"Bell Farm Road","alt_name":null,"official_name":null,"surface":null,"tracktype":null,"service":null,"access":null,"motor_vehicle":null,"foot":null,"tiger_reviewed":"no","rrgh_part":0,"rrgh_tile_part":0},"geometry":{"type":"LineString","coordinates":[[-83.89204,37.939684],[-83.891936,37.939634],[-83.891817,37.939596],[-83.891678,37.93959],[-83.891531,37.939611],[-83.891459,37.939632],[-83.891313,37.939702],[-83.891072,37.939853],[-83.890813,37.939991],[-83.89075,37.940039],[-83.890702,37.940095],[-83.890603,37.940295],[-83.890556,37.940361],[-83.890271,37.94061],[-83.890202,37.940687],[-83.889956,37.941022],[-83.889801,37.941167],[-83.889709,37.941225],[-83.889504,37.941323],[-83.889411,37.941377],[-83.889334,37.941439],[-83.889124,37.941643],[-83.889037,37.941706],[-83.88863,37.941926],[-83.888438,37.942049],[-83.888256,37.942203],[-83.887686,37.942758],[-83.887383,37.943013],[-83.88672,37.943528],[-83.886507,37.943717],[-83.886111,37.944106],[-83.885909,37.944285],[-83.884265,37.945497],[-83.883769,37.945844],[-83.883556,37.945981],[-83.883178,37.946223],[-83.883021,37.946353]]}},{"type":"Feature","properties":{"osm_id":630764164,"highway":"residential","name":null,"alt_name":null,"official_name":null,"surface":null,"tracktype":null,"service":null,"access":null,"motor_vehicle":null,"foot":null,"tiger_reviewed":null,"rrgh_part":0,"rrgh_tile_part":0},"geometry":{"type":"LineString","coordinates":[[-83.9106212,37.962972],[-83.9109549,37.9625046],[-83.9112322,37.9623977],[-83.9120764,37.9619896],[-83.9122983,37.9618439],[-83.9123476,37.9616398],[-83.912249,37.9615086],[-83.9120518,37.9613289],[-83.9118669,37.96112],[-83.9118053,37.9609402]]}},{"type":"Feature","properties":{"osm_id":630764159,"highway":"residential","name":"Maloney Road","alt_name":null,"official_name":null,"surface":null,"tracktype":null,"service":null,"access":null,"motor_vehicle":null,"foot":null,"tiger_reviewed":null,"rrgh_part":0,"rrgh_tile_part":0},"geometry":{"type":"LineString","coordinates":[[-83.9187861,37.9668969],[-83.9193838,37.9659617],[-83.919608,37.9657261],[-83.920075,37.9654463],[-83.922989,37.963841],[-83.9232786,37.9637821],[-83.9237643,37.9638852],[-83.9244741,37.9640914],[-83.9249131,37.9641061],[-83.9254361,37.9639809],[-83.9257163,37.9638705],[-83.9261273,37.9633403],[-83.9265009,37.9631047],[-83.9268651,37.9630531],[-83.9274069,37.9632887],[-83.9278458,37.9634066],[-83.9281074,37.9632372],[-83.9282194,37.9630752],[-83.9283222,37.962788]]}},{"type":"Feature","properties":{"osm_id":1067061113,"highway":"service","name":null,"alt_name":null,"official_name":null,"surface":null,"tracktype":null,"service":null,"access":null,"motor_vehicle":null,"foot":null,"tiger_reviewed":null,"rrgh_part":0,"rrgh_tile_part":0},"geometry":{"type":"LineString","coordinates":[[-83.9195095,37.9672638],[-83.9189587,37.9678946]]}},{"type":"Feature","properties":{"osm_id":16316462,"highway":"service","name":null,"alt_name":null,"official_name":null,"surface":null,"tracktype":null,"service":null,"access":"private","motor_vehicle":null,"foot":null,"tiger_reviewed":"no","rrgh_part":0,"rrgh_tile_part":0},"geometry":{"type":"LineString","coordinates":[[-83.91353344986072,37.974999999999994],[-83.913241,37.974293],[-83.912964,37.974146],[-83.912579,37.974017],[-83.912398,37.973908],[-83.912082,37.973754]]}},{"type":"Feature","properties":{"osm_id":16316465,"highway":"service","name":null,"alt_name":null,"official_name":null,"surface":null,"tracktype":null,"service":null,"access":"private","motor_vehicle":null,"foot":null,"tiger_reviewed":"no","rrgh_part":0,"rrgh_tile_part":0},"geometry":{"type":"LineString","coordinates":[[-83.91798272262774,37.974999999999994],[-83.917781,37.974664],[-83.917192,37.974241],[-83.916684,37.973401],[-83.91633,37.97305],[-83.914965,37.971755]]}},{"type":"Feature","properties":{"osm_id":16318613,"highway":"residential","name":"Fox Lane Drive","alt_name":null,"official_name":null,"surface":null,"tracktype":null,"service":null,"access":null,"motor_vehicle":null,"foot":null,"tiger_reviewed":"no","rrgh_part":0,"rrgh_tile_part":0},"geometry":{"type":"LineString","coordinates":[[-83.91041487087801,37.974999999999994],[-83.90866,37.973414],[-83.9084,37.973167]]}},{"type":"Feature","properties":{"osm_id":630764161,"highway":"residential","name":null,"alt_name":null,"official_name":null,"surface":null,"tracktype":null,"service":null,"access":null,"motor_vehicle":null,"foot":null,"tiger_reviewed":null,"rrgh_part":0,"rrgh_tile_part":0},"geometry":{"type":"LineString","coordinates":[[-83.9164225,37.9657949],[-83.9166833,37.9655598],[-83.9168034,37.9653744],[-83.9168535,37.9652086],[-83.9169386,37.9650745],[-83.917379,37.9649758],[-83.9177444,37.9647706],[-83.91832,37.9644115],[-83.9188956,37.9640643],[-83.9195012,37.9639143],[-83.9199817,37.9637604],[-83.9200618,37.96365],[-83.9200017,37.9635276],[-83.9197515,37.963133]]}},{"type":"Feature","properties":{"osm_id":16316627,"highway":"residential","name":null,"alt_name":null,"official_name":null,"surface":null,"tracktype":null,"service":null,"access":null,"motor_vehicle":null,"foot":null,"tiger_reviewed":"no","rrgh_part":0,"rrgh_tile_part":0},"geometry":{"type":"LineString","coordinates":[[-83.924876,37.969037],[-83.924637,37.969544],[-83.9247,37.969745],[-83.924944,37.970067],[-83.925157,37.970414],[-83.925309,37.971188]]}},{"type":"Feature","properties":{"osm_id":16316629,"highway":"residential","name":null,"alt_name":null,"official_name":null,"surface":null,"tracktype":null,"service":null,"access":null,"motor_vehicle":null,"foot":null,"tiger_reviewed":"no","rrgh_part":0,"rrgh_tile_part":0},"geometry":{"type":"LineString","coordinates":[[-83.9247,37.969745],[-83.925114,37.969399],[-83.925331,37.969203]]}},{"type":"Feature","properties":{"osm_id":630768547,"highway":"residential","name":null,"alt_name":null,"official_name":null,"surface":null,"tracktype":null,"service":null,"access":null,"motor_vehicle":null,"foot":null,"tiger_reviewed":null,"rrgh_part":0,"rrgh_tile_part":0},"geometry":{"type":"LineString","coordinates":[[-83.9016499,37.9510357],[-83.9018705,37.9509332],[-83.9022509,37.950649],[-83.9023059,37.950649],[-83.9028915,37.9509924],[-83.9030617,37.9510556],[-83.9034271,37.9510595],[-83.9038726,37.9510003],[-83.9046834,37.9507556]]}},{"type":"Feature","properties":{"osm_id":630764149,"highway":"residential","name":"Cream Alley Road","alt_name":null,"official_name":null,"surface":null,"tracktype":null,"service":null,"access":null,"motor_vehicle":null,"foot":null,"tiger_reviewed":null,"rrgh_part":0,"rrgh_tile_part":0},"geometry":{"type":"LineString","coordinates":[[-83.9001651,37.9572426],[-83.9001462,37.9576345],[-83.9001666,37.9584198],[-83.9003251,37.9586538]]}},{"type":"Feature","properties":{"osm_id":16316664,"highway":"residential","name":null,"alt_name":null,"official_name":null,"surface":null,"tracktype":null,"service":null,"access":null,"motor_vehicle":null,"foot":null,"tiger_reviewed":"no","rrgh_part":0,"rrgh_tile_part":0},"geometry":{"type":"LineString","coordinates":[[-83.887144,37.950728],[-83.886421,37.951529],[-83.886371,37.951709],[-83.886724,37.953331],[-83.886913,37.954815]]}},{"type":"Feature","properties":{"osm_id":16318497,"highway":"residential","name":"Willoughby Town Road","alt_name":null,"official_name":null,"surface":null,"tracktype":null,"service":null,"access":null,"motor_vehicle":null,"foot":null,"tiger_reviewed":"no","rrgh_part":0,"rrgh_tile_part":0},"geometry":{"type":"LineString","coordinates":[[-83.887144,37.950728],[-83.88679,37.950911],[-83.886526,37.950842],[-83.886026,37.950544]]}},{"type":"Feature","properties":{"osm_id":16318377,"highway":"service","name":"Corner Acres Road","alt_name":null,"official_name":null,"surface":null,"tracktype":null,"service":null,"access":"private","motor_vehicle":null,"foot":null,"tiger_reviewed":"no","rrgh_part":0,"rrgh_tile_part":0},"geometry":{"type":"LineString","coordinates":[[-83.896603,37.957842],[-83.896827,37.957929],[-83.897303,37.95818],[-83.897451,37.958279],[-83.897707,37.958478],[-83.897781,37.958545],[-83.897803,37.958582],[-83.89781,37.95866],[-83.897778,37.958729],[-83.897462,37.959073],[-83.897331,37.959232]]}},{"type":"Feature","properties":{"osm_id":630764150,"highway":"residential","name":null,"alt_name":null,"official_name":null,"surface":null,"tracktype":null,"service":null,"access":null,"motor_vehicle":null,"foot":null,"tiger_reviewed":null,"rrgh_part":0,"rrgh_tile_part":0},"geometry":{"type":"LineString","coordinates":[[-83.8983829,37.9567176],[-83.8983412,37.9568556],[-83.8984103,37.9571537],[-83.8984672,37.9573172],[-83.898604,37.9573671],[-83.8991258,37.9575576]]}},{"type":"Feature","properties":{"osm_id":630764152,"highway":"residential","name":null,"alt_name":null,"official_name":null,"surface":null,"tracktype":null,"service":null,"access":null,"motor_vehicle":null,"foot":null,"tiger_reviewed":null,"rrgh_part":0,"rrgh_tile_part":0},"geometry":{"type":"LineString","coordinates":[[-83.898604,37.9573671],[-83.8986786,37.9574838],[-83.8984347,37.9579038],[-83.8983371,37.9579551],[-83.8981501,37.9579454],[-83.8974183,37.9576121]]}},{"type":"Feature","properties":{"osm_id":630764153,"highway":"residential","name":"Mohican Trail","alt_name":null,"official_name":null,"surface":null,"tracktype":null,"service":null,"access":null,"motor_vehicle":null,"foot":null,"tiger_reviewed":null,"rrgh_part":0,"rrgh_tile_part":0},"geometry":{"type":"LineString","coordinates":[[-83.888688,37.961475],[-83.886286,37.9591833]]}},{"type":"Feature","properties":{"osm_id":16316468,"highway":"service","name":null,"alt_name":null,"official_name":null,"surface":null,"tracktype":null,"service":null,"access":"private","motor_vehicle":null,"foot":null,"tiger_reviewed":"no","rrgh_part":0,"rrgh_tile_part":0},"geometry":{"type":"LineString","coordinates":[[-83.905666,37.972158],[-83.906273,37.972593],[-83.906879,37.972936],[-83.908179,37.97392],[-83.90927001238164,37.974999999999994]]}},{"type":"Feature","properties":{"osm_id":16317171,"highway":"service","name":null,"alt_name":null,"official_name":null,"surface":null,"tracktype":null,"service":null,"access":"private","motor_vehicle":null,"foot":null,"tiger_reviewed":"no","rrgh_part":0,"rrgh_tile_part":0},"geometry":{"type":"LineString","coordinates":[[-83.908872,37.961991],[-83.907387,37.963905],[-83.906775,37.964643],[-83.905726,37.966073]]}},{"type":"Feature","properties":{"osm_id":16339475,"highway":"residential","name":"Timberline Road","alt_name":null,"official_name":null,"surface":null,"tracktype":null,"service":null,"access":null,"motor_vehicle":null,"foot":null,"tiger_reviewed":"no","rrgh_part":0,"rrgh_tile_part":0},"geometry":{"type":"LineString","coordinates":[[-83.8614859882353,37.9],[-83.861281,37.900192],[-83.861233,37.900258],[-83.861197,37.900325],[-83.861079,37.900746]]}},{"type":"Feature","properties":{"osm_id":16338508,"highway":"residential","name":"Dunaway Road","alt_name":null,"official_name":null,"surface":null,"tracktype":null,"service":null,"access":null,"motor_vehicle":null,"foot":null,"tiger_reviewed":"no","rrgh_part":0,"rrgh_tile_part":0},"geometry":{"type":"LineString","coordinates":[[-83.86594735820896,37.9],[-83.866052,37.900123],[-83.866416,37.900513],[-83.86652,37.900644],[-83.866574,37.900739],[-83.86662,37.900892],[-83.86664,37.901141],[-83.866686,37.901341],[-83.866694,37.901442],[-83.866677,37.901586],[-83.866627,37.901775]]}},{"type":"Feature","properties":{"osm_id":16318196,"highway":"residential","name":"Strange Road","alt_name":null,"official_name":null,"surface":null,"tracktype":null,"service":null,"access":null,"motor_vehicle":null,"foot":null,"tiger_reviewed":"no","rrgh_part":0,"rrgh_tile_part":0},"geometry":{"type":"LineString","coordinates":[[-83.87479,37.910085],[-83.874836,37.910141],[-83.874863,37.91019],[-83.874873,37.91021],[-83.874862,37.910276],[-83.87483,37.910303],[-83.874468,37.910461],[-83.87433,37.910538],[-83.87424,37.910603],[-83.874088,37.910769],[-83.873961,37.910964],[-83.873772,37.911382],[-83.87314,37.913018],[-83.873073,37.913161],[-83.872986,37.91329],[-83.872909,37.913368],[-83.872863,37.913401],[-83.872338,37.913556],[-83.872115,37.913591],[-83.872013,37.913583],[-83.871946,37.913561],[-83.871886,37.913515],[-83.87177,37.913378],[-83.871661,37.913315],[-83.871248,37.913267]]}},{"type":"Feature","properties":{"osm_id":16317235,"highway":"residential","name":"Cr-1157","alt_name":null,"official_name":null,"surface":null,"tracktype":null,"service":null,"access":null,"motor_vehicle":null,"foot":null,"tiger_reviewed":"no","rrgh_part":0,"rrgh_tile_part":0},"geometry":{"type":"LineString","coordinates":[[-83.869694,37.915904],[-83.869775,37.915774],[-83.870188,37.915232],[-83.870199,37.915216],[-83.870262,37.91511],[-83.870314,37.915004],[-83.870524,37.914414],[-83.870593,37.914263],[-83.871248,37.913267],[-83.872183,37.911871]]}},{"type":"Feature","properties":{"osm_id":16317316,"highway":"service","name":"Martin Road","alt_name":null,"official_name":null,"surface":null,"tracktype":null,"service":null,"access":"private","motor_vehicle":null,"foot":null,"tiger_reviewed":"no","rrgh_part":0,"rrgh_tile_part":0},"geometry":{"type":"LineString","coordinates":[[-83.870259,37.916192],[-83.870219,37.915976],[-83.870208,37.915789],[-83.870233,37.915685],[-83.870287,37.91559]]}},{"type":"Feature","properties":{"osm_id":16318384,"highway":"residential","name":"North Martin Road","alt_name":null,"official_name":null,"surface":null,"tracktype":null,"service":null,"access":null,"motor_vehicle":null,"foot":null,"tiger_reviewed":"no","rrgh_part":0,"rrgh_tile_part":0},"geometry":{"type":"LineString","coordinates":[[-83.869484,37.915839],[-83.869694,37.915904],[-83.870075,37.916042],[-83.870149,37.916069],[-83.870195,37.916102],[-83.870259,37.916192],[-83.8702716,37.9162594],[-83.870296,37.91639],[-83.870293,37.916545],[-83.870278,37.916626],[-83.870159,37.916961],[-83.870082,37.917125],[-83.870033,37.917202],[-83.869788,37.917556],[-83.869502,37.917916],[-83.869284,37.918172],[-83.86906,37.918414],[-83.868632,37.918848],[-83.868101,37.919362],[-83.867992,37.919447],[-83.867972,37.919463],[-83.867901,37.919503],[-83.867866,37.919519],[-83.867257,37.919801],[-83.866205,37.920221],[-83.865992,37.920298],[-83.865866,37.920334],[-83.865755,37.920337],[-83.865622,37.920292]]}},{"type":"Feature","properties":{"osm_id":16318432,"highway":"residential","name":"Amanda Lane","alt_name":null,"official_name":null,"surface":null,"tracktype":null,"service":null,"access":null,"motor_vehicle":null,"foot":null,"tiger_reviewed":"no","rrgh_part":0,"rrgh_tile_part":0},"geometry":{"type":"LineString","coordinates":[[-83.86906,37.918414],[-83.869691,37.918788],[-83.869761,37.918948],[-83.86984,37.91927],[-83.870021,37.919502],[-83.870655,37.91987],[-83.871069,37.920143],[-83.871492,37.920446]]}},{"type":"Feature","properties":{"osm_id":16317184,"highway":"residential","name":"Maxey Lane","alt_name":null,"official_name":null,"surface":null,"tracktype":null,"service":null,"access":null,"motor_vehicle":null,"foot":null,"tiger_reviewed":"no","rrgh_part":0,"rrgh_tile_part":0},"geometry":{"type":"LineString","coordinates":[[-83.84842,37.910026],[-83.847982,37.910501],[-83.847658,37.911362],[-83.847799,37.911929],[-83.848027,37.912292],[-83.848742,37.91288],[-83.850206,37.91344],[-83.850348,37.913598]]}},{"type":"Feature","properties":{"osm_id":1107387699,"highway":"residential","name":null,"alt_name":null,"official_name":null,"surface":null,"tracktype":null,"service":null,"access":null,"motor_vehicle":null,"foot":null,"tiger_reviewed":null,"rrgh_part":0,"rrgh_tile_part":0},"geometry":{"type":"LineString","coordinates":[[-83.8473216,37.9293175],[-83.8470649,37.9289138],[-83.8467071,37.9284808],[-83.8464469,37.9283718],[-83.8462193,37.9283462],[-83.8458005,37.9283654],[-83.8455891,37.9283686],[-83.845398,37.9283526],[-83.8452761,37.9282949],[-83.8451988,37.9282243],[-83.845146,37.9281473],[-83.8451053,37.9280319],[-83.845,37.92770480842932]]}},{"type":"Feature","properties":{"osm_id":110131245,"highway":"service","name":"Calk Lake Road","alt_name":null,"official_name":null,"surface":null,"tracktype":null,"service":null,"access":"private","motor_vehicle":null,"foot":null,"tiger_reviewed":"no","rrgh_part":0,"rrgh_tile_part":0},"geometry":{"type":"LineString","coordinates":[[-83.845592,37.917853],[-83.845557,37.917864],[-83.845499,37.917881],[-83.845431,37.917902],[-83.845403,37.917907],[-83.845317,37.917924],[-83.845164,37.917926],[-83.845,37.91790743396226]]}},{"type":"Feature","properties":{"osm_id":16317751,"highway":"residential","name":"Spruce Valley Road","alt_name":null,"official_name":null,"surface":null,"tracktype":null,"service":null,"access":null,"motor_vehicle":null,"foot":null,"tiger_reviewed":"no","rrgh_part":0,"rrgh_tile_part":0},"geometry":{"type":"LineString","coordinates":[[-83.861918,37.925539],[-83.861799,37.925609],[-83.86171,37.92565],[-83.861555,37.925703],[-83.861403,37.925743],[-83.86107,37.925808],[-83.860714,37.925851],[-83.860201,37.925957],[-83.859949,37.926025],[-83.859837,37.926082],[-83.859741,37.926151],[-83.859608,37.926221],[-83.859359,37.92639],[-83.859223,37.926465],[-83.859147,37.926525],[-83.858852,37.926664],[-83.858649,37.926771],[-83.858462,37.926837],[-83.858342,37.926811],[-83.858272,37.92678],[-83.857961,37.926552],[-83.857442,37.926314],[-83.857355,37.926281],[-83.857271,37.926261],[-83.857186,37.92626],[-83.857145,37.926269],[-83.857107,37.926286],[-83.857011,37.926363],[-83.856796,37.926575],[-83.856449,37.926817],[-83.856146,37.926999],[-83.855906,37.927104],[-83.855604,37.927194],[-83.85496,37.927288],[-83.854623,37.927362],[-83.85413,37.92749],[-83.8538691,37.9275654],[-83.853002,37.927816],[-83.852704,37.927919],[-83.852422,37.928032],[-83.852168,37.928173],[-83.852003,37.928306],[-83.851771,37.928543],[-83.851338,37.929048],[-83.851281,37.92914],[-83.851244,37.929239],[-83.851219,37.929391],[-83.851221,37.929582],[-83.851197,37.92966],[-83.851175,37.929693],[-83.850597,37.930159],[-83.8504645,37.9302826],[-83.850343,37.930396],[-83.8500521,37.930697],[-83.8500188,37.9308084],[-83.850059,37.931075],[-83.850046,37.931285],[-83.85002,37.93144],[-83.84997,37.931583],[-83.849894,37.931712],[-83.84983,37.931787],[-83.849366,37.932233],[-83.849259,37.932322],[-83.849125,37.932391],[-83.84895,37.932447],[-83.84853,37.932529],[-83.848128,37.932584],[-83.847707,37.932662],[-83.847543,37.932667],[-83.847041,37.932643],[-83.846824,37.932649],[-83.84574,37.932775],[-83.845514,37.93284],[-83.845,37.93308154135338]]}},{"type":"Feature","properties":{"osm_id":16317751,"highway":"residential","name":"Spruce Valley Road","alt_name":null,"official_name":null,"surface":null,"tracktype":null,"service":null,"access":null,"motor_vehicle":null,"foot":null,"tiger_reviewed":"no","rrgh_part":0,"rrgh_tile_part":1},"geometry":{"type":"LineString","coordinates":[[-83.845,37.93833682517482],[-83.845109,37.938519],[-83.84518,37.938714],[-83.845259,37.939013],[-83.845337,37.939214],[-83.845383,37.939376],[-83.8454,37.939541],[-83.845386,37.939661],[-83.845345,37.939826],[-83.84532,37.939885],[-83.845296,37.940063],[-83.845269,37.940166],[-83.845202,37.940338],[-83.845107,37.940463],[-83.845,37.940542586776864]]}},{"type":"Feature","properties":{"osm_id":16316587,"highway":"residential","name":null,"alt_name":null,"official_name":null,"surface":null,"tracktype":null,"service":null,"access":null,"motor_vehicle":null,"foot":null,"tiger_reviewed":"no","rrgh_part":0,"rrgh_tile_part":0},"geometry":{"type":"LineString","coordinates":[[-83.8701399,37.9299925],[-83.8687379,37.9296125],[-83.8684249,37.9294555],[-83.8683609,37.9294105],[-83.8677669,37.9290715],[-83.8670229,37.9287735],[-83.8658119,37.9286215],[-83.8654929,37.9283195],[-83.8651249,37.9280745],[-83.8644529,37.9278025],[-83.8643329,37.9277165],[-83.8642239,37.9274985],[-83.8640819,37.9273195],[-83.8638366,37.9273065]]}},{"type":"Feature","properties":{"osm_id":630768578,"highway":"residential","name":"Caitlyn Court","alt_name":null,"official_name":null,"surface":null,"tracktype":null,"service":null,"access":null,"motor_vehicle":null,"foot":null,"tiger_reviewed":null,"rrgh_part":0,"rrgh_tile_part":0},"geometry":{"type":"LineString","coordinates":[[-83.8647132,37.929302],[-83.8643991,37.9291794],[-83.8641108,37.9288204],[-83.8637315,37.9284254],[-83.8635949,37.9282699],[-83.8630487,37.9275996],[-83.8628776,37.92745],[-83.8627377,37.9274441],[-83.862586,37.9275278],[-83.8620018,37.9285391]]}},{"type":"Feature","properties":{"osm_id":630768579,"highway":"residential","name":"Azeberrye Lane","alt_name":null,"official_name":null,"surface":null,"tracktype":null,"service":null,"access":null,"motor_vehicle":null,"foot":null,"tiger_reviewed":null,"rrgh_part":0,"rrgh_tile_part":0},"geometry":{"type":"LineString","coordinates":[[-83.8647132,37.929302],[-83.8650591,37.9291794],[-83.8653702,37.9292153],[-83.8655219,37.929341],[-83.8661364,37.9305378],[-83.8664323,37.9308669],[-83.8667357,37.9310763],[-83.8669861,37.9314054],[-83.8672213,37.9316388],[-83.8675171,37.9318901]]}},{"type":"Feature","properties":{"osm_id":16316665,"highway":"residential","name":null,"alt_name":null,"official_name":null,"surface":null,"tracktype":null,"service":null,"access":null,"motor_vehicle":null,"foot":null,"tiger_reviewed":"no","rrgh_part":0,"rrgh_tile_part":0},"geometry":{"type":"LineString","coordinates":[[-83.884175,37.946894],[-83.884002,37.947108],[-83.883939,37.9474],[-83.883936,37.947758],[-83.883812,37.948082],[-83.883443,37.94841],[-83.882858,37.948809],[-83.882519,37.949175],[-83.882351,37.949735]]}},{"type":"Feature","properties":{"osm_id":16316823,"highway":"residential","name":null,"alt_name":null,"official_name":null,"surface":null,"tracktype":null,"service":null,"access":null,"motor_vehicle":null,"foot":null,"tiger_reviewed":"no","rrgh_part":0,"rrgh_tile_part":0},"geometry":{"type":"LineString","coordinates":[[-83.872739,37.943339],[-83.872994,37.94301],[-83.873127,37.942842],[-83.873248,37.942674],[-83.873473,37.942578]]}},{"type":"Feature","properties":{"osm_id":16318676,"highway":"residential","name":"Leach Hollow Road","alt_name":null,"official_name":null,"surface":null,"tracktype":null,"service":null,"access":null,"motor_vehicle":null,"foot":null,"tiger_reviewed":"no","rrgh_part":0,"rrgh_tile_part":0},"geometry":{"type":"LineString","coordinates":[[-83.872038,37.939141],[-83.872066,37.93912],[-83.8724777,37.9389142],[-83.873727,37.938232],[-83.8750859,37.9375459],[-83.8752079,37.937474],[-83.8753058,37.9373957]]}},{"type":"Feature","properties":{"osm_id":16316617,"highway":"residential","name":null,"alt_name":null,"official_name":null,"surface":null,"tracktype":null,"service":null,"access":null,"motor_vehicle":null,"foot":null,"tiger_reviewed":"no","rrgh_part":0,"rrgh_tile_part":0},"geometry":{"type":"LineString","coordinates":[[-83.883556,37.945981],[-83.883679,37.946563]]}},{"type":"Feature","properties":{"osm_id":16317043,"highway":"residential","name":null,"alt_name":null,"official_name":null,"surface":null,"tracktype":null,"service":null,"access":null,"motor_vehicle":null,"foot":null,"tiger_reviewed":"no","rrgh_part":0,"rrgh_tile_part":0},"geometry":{"type":"LineString","coordinates":[[-83.883021,37.946353],[-83.880417,37.94785]]}},{"type":"Feature","properties":{"osm_id":16318703,"highway":"residential","name":"North Ware Chapel Road","alt_name":null,"official_name":null,"surface":null,"tracktype":null,"service":null,"access":null,"motor_vehicle":null,"foot":null,"tiger_reviewed":"no","rrgh_part":0,"rrgh_tile_part":0},"geometry":{"type":"LineString","coordinates":[[-83.877015,37.944505],[-83.876948,37.944632],[-83.876636,37.944985],[-83.876439,37.945191],[-83.876142,37.945546],[-83.876009,37.945668],[-83.875865,37.945779],[-83.875641,37.945909],[-83.875515,37.946002],[-83.875311,37.946198],[-83.875217,37.946311],[-83.875181,37.946379],[-83.875116,37.946599],[-83.8751,37.94675],[-83.874932,37.947443],[-83.874881,37.947585],[-83.874701,37.948002],[-83.8746337,37.9480927]]}},{"type":"Feature","properties":{"osm_id":16316819,"highway":"service","name":null,"alt_name":null,"official_name":null,"surface":null,"tracktype":null,"service":null,"access":null,"motor_vehicle":null,"foot":null,"tiger_reviewed":null,"rrgh_part":0,"rrgh_tile_part":0},"geometry":{"type":"LineString","coordinates":[[-83.8724777,37.9389142],[-83.8721864,37.9384418],[-83.8719772,37.938043],[-83.8719128,37.9379267],[-83.8718954,37.9378516],[-83.8719222,37.9374285]]}},{"type":"Feature","properties":{"osm_id":16317418,"highway":"residential","name":"Martin Cemetary Road","alt_name":null,"official_name":null,"surface":null,"tracktype":null,"service":null,"access":null,"motor_vehicle":null,"foot":null,"tiger_reviewed":"no","rrgh_part":0,"rrgh_tile_part":0},"geometry":{"type":"LineString","coordinates":[[-83.861859,37.940838],[-83.861794,37.940795],[-83.861787,37.940737],[-83.861796,37.940691],[-83.861796,37.940632],[-83.861768,37.940579],[-83.8608766,37.939154]]}},{"type":"Feature","properties":{"osm_id":16317506,"highway":"service","name":"Fuller Road","alt_name":null,"official_name":null,"surface":null,"tracktype":null,"service":null,"access":"private","motor_vehicle":null,"foot":null,"tiger_reviewed":"no","rrgh_part":0,"rrgh_tile_part":0},"geometry":{"type":"LineString","coordinates":[[-83.863614,37.937781],[-83.863253,37.937676],[-83.86322,37.937648],[-83.863202,37.937613],[-83.863199,37.937574],[-83.86322,37.937497],[-83.863341,37.937293],[-83.863462,37.93698],[-83.863594,37.936726],[-83.863638,37.936608]]}},{"type":"Feature","properties":{"osm_id":16317412,"highway":"residential","name":"Leach Road","alt_name":null,"official_name":null,"surface":null,"tracktype":null,"service":null,"access":null,"motor_vehicle":null,"foot":null,"tiger_reviewed":"no","rrgh_part":0,"rrgh_tile_part":0},"geometry":{"type":"LineString","coordinates":[[-83.872038,37.939141],[-83.871947,37.939211],[-83.871906,37.939264],[-83.871883,37.939317],[-83.871825,37.939773],[-83.871724,37.940173],[-83.870956,37.942379],[-83.870768,37.942997]]}},{"type":"Feature","properties":{"osm_id":16317420,"highway":"residential","name":"Martin Cemetary Road","alt_name":null,"official_name":null,"surface":null,"tracktype":null,"service":null,"access":null,"motor_vehicle":null,"foot":null,"tiger_reviewed":"no","rrgh_part":0,"rrgh_tile_part":0},"geometry":{"type":"LineString","coordinates":[[-83.861835,37.940958],[-83.861748,37.940996],[-83.861713,37.941041],[-83.861693,37.941137],[-83.861676,37.941377],[-83.861663,37.941418],[-83.861636,37.941456],[-83.861597,37.941485],[-83.861361,37.941585],[-83.861238,37.941649],[-83.860781,37.941984],[-83.860678,37.94209],[-83.860474,37.942364],[-83.860289,37.94257],[-83.860124,37.942716],[-83.859886,37.942891],[-83.859778,37.942988],[-83.859487,37.943284],[-83.85919,37.943517],[-83.85906,37.943631],[-83.858814,37.943807],[-83.858259,37.94413],[-83.858125,37.944179],[-83.858066,37.944182]]}},{"type":"Feature","properties":{"osm_id":16318022,"highway":"residential","name":"Shelby Lane","alt_name":null,"official_name":null,"surface":null,"tracktype":null,"service":null,"access":null,"motor_vehicle":null,"foot":null,"tiger_reviewed":"no","rrgh_part":0,"rrgh_tile_part":0},"geometry":{"type":"LineString","coordinates":[[-83.863836,37.942865],[-83.863784,37.942856],[-83.86371,37.94283],[-83.863646,37.94278],[-83.863475,37.942611],[-83.863402,37.942554],[-83.862959,37.942252],[-83.862581,37.941973],[-83.862121,37.941696],[-83.861985,37.941579],[-83.861888,37.941456],[-83.861835,37.941327],[-83.86182,37.941194],[-83.861835,37.940958],[-83.861859,37.940838],[-83.861879,37.940742],[-83.861943,37.940568],[-83.862046,37.940336],[-83.862349,37.939809],[-83.86259,37.939359],[-83.862646,37.93928],[-83.862681,37.939255],[-83.862725,37.939241],[-83.862858,37.939231]]}},{"type":"Feature","properties":{"osm_id":16316824,"highway":"residential","name":null,"alt_name":null,"official_name":null,"surface":null,"tracktype":null,"service":null,"access":null,"motor_vehicle":null,"foot":null,"tiger_reviewed":"no","rrgh_part":0,"rrgh_tile_part":0},"geometry":{"type":"LineString","coordinates":[[-83.866801,37.943416],[-83.8667,37.944894]]}},{"type":"Feature","properties":{"osm_id":16316779,"highway":"residential","name":null,"alt_name":null,"official_name":null,"surface":null,"tracktype":null,"service":null,"access":null,"motor_vehicle":null,"foot":null,"tiger_reviewed":"no","rrgh_part":0,"rrgh_tile_part":0},"geometry":{"type":"LineString","coordinates":[[-83.863575,37.948125],[-83.863788,37.948083],[-83.863937,37.947848],[-83.864171,37.94746],[-83.864361,37.947216],[-83.864561,37.946949]]}},{"type":"Feature","properties":{"osm_id":630769826,"highway":"residential","name":"Cameron Drive","alt_name":null,"official_name":null,"surface":null,"tracktype":null,"service":null,"access":null,"motor_vehicle":null,"foot":null,"tiger_reviewed":null,"rrgh_part":0,"rrgh_tile_part":0},"geometry":{"type":"LineString","coordinates":[[-83.852003,37.928306],[-83.8515993,37.9282935],[-83.8513308,37.9282052],[-83.851151,37.9281461],[-83.8507868,37.9279619],[-83.8505626,37.9279619],[-83.8473216,37.9293175]]}},{"type":"Feature","properties":{"osm_id":1056135324,"highway":"service","name":null,"alt_name":null,"official_name":null,"surface":null,"tracktype":null,"service":null,"access":null,"motor_vehicle":null,"foot":null,"tiger_reviewed":null,"rrgh_part":0,"rrgh_tile_part":0},"geometry":{"type":"LineString","coordinates":[[-83.851221,37.929582],[-83.8513069,37.9296501],[-83.8516387,37.9297909],[-83.8520514,37.9298942],[-83.8525003,37.9299668],[-83.8529437,37.930112],[-83.8531556,37.9302527],[-83.8537383,37.9307762],[-83.8541454,37.9310775],[-83.8549067,37.9315899],[-83.8555883,37.9320027],[-83.8556149,37.9320188],[-83.8566856,37.9326302],[-83.857168,37.9329117],[-83.8575082,37.9332834],[-83.8578149,37.9336463],[-83.8578902,37.9339915],[-83.8579404,37.934361],[-83.8580798,37.9346425]]}},{"type":"Feature","properties":{"osm_id":1056135325,"highway":"service","name":null,"alt_name":null,"official_name":null,"surface":null,"tracktype":null,"service":null,"access":null,"motor_vehicle":null,"foot":null,"tiger_reviewed":null,"rrgh_part":0,"rrgh_tile_part":0},"geometry":{"type":"LineString","coordinates":[[-83.8555883,37.9320027],[-83.8563845,37.931999],[-83.8567637,37.9320738],[-83.8571067,37.9321354],[-83.857511,37.9321507],[-83.8577815,37.9321705]]}},{"type":"Feature","properties":{"osm_id":1056135323,"highway":"residential","name":null,"alt_name":null,"official_name":null,"surface":null,"tracktype":null,"service":null,"access":null,"motor_vehicle":null,"foot":null,"tiger_reviewed":null,"rrgh_part":0,"rrgh_tile_part":0},"geometry":{"type":"LineString","coordinates":[[-83.8504645,37.9302826],[-83.8497686,37.9297222],[-83.8496403,37.9295682],[-83.8494591,37.9294913],[-83.8477303,37.9296408],[-83.8475379,37.9295792],[-83.8474208,37.9294627],[-83.8473216,37.9293175]]}},{"type":"Feature","properties":{"osm_id":1059163857,"highway":"service","name":null,"alt_name":null,"official_name":null,"surface":null,"tracktype":null,"service":null,"access":null,"motor_vehicle":null,"foot":null,"tiger_reviewed":null,"rrgh_part":0,"rrgh_tile_part":0},"geometry":{"type":"LineString","coordinates":[[-83.8807279,37.9604717],[-83.880666,37.9605828],[-83.8806081,37.9606506],[-83.880473,37.9606907],[-83.8803168,37.9607239],[-83.8801817,37.9607696],[-83.880022,37.9608678],[-83.8799026,37.9609716],[-83.8796921,37.9612193],[-83.8795113,37.9613992],[-83.879466,37.961447]]}},{"type":"Feature","properties":{"osm_id":1059163858,"highway":"service","name":null,"alt_name":null,"official_name":null,"surface":null,"tracktype":null,"service":null,"access":null,"motor_vehicle":null,"foot":null,"tiger_reviewed":null,"rrgh_part":0,"rrgh_tile_part":0},"geometry":{"type":"LineString","coordinates":[[-83.8794177,37.9615008],[-83.8794087,37.9615596]]}},{"type":"Feature","properties":{"osm_id":1059163858,"highway":"service","name":null,"alt_name":null,"official_name":null,"surface":null,"tracktype":null,"service":null,"access":null,"motor_vehicle":null,"foot":null,"tiger_reviewed":null,"rrgh_part":1,"rrgh_tile_part":0},"geometry":{"type":"LineString","coordinates":[[-83.8794087,37.9615596],[-83.879413,37.961597],[-83.8794218,37.9617575],[-83.879392,37.9618738],[-83.8793463,37.9619582],[-83.8792831,37.9619969],[-83.879155,37.962001],[-83.8789216,37.9619665],[-83.8788107,37.9619379],[-83.8787681,37.9619057],[-83.8787497,37.9618637],[-83.8787558,37.9617958],[-83.8787804,37.9617344],[-83.8787927,37.9616746],[-83.8788009,37.9615906],[-83.8788501,37.9615211],[-83.8789505,37.961471],[-83.8790387,37.9614629],[-83.8791781,37.9615066],[-83.8793215,37.961555],[-83.8793646,37.9615631],[-83.8794087,37.9615596]]}},{"type":"Feature","properties":{"osm_id":1059163858,"highway":"service","name":null,"alt_name":null,"official_name":null,"surface":null,"tracktype":null,"service":null,"access":null,"motor_vehicle":null,"foot":null,"tiger_reviewed":null,"rrgh_part":2,"rrgh_tile_part":0},"geometry":{"type":"LineString","coordinates":[[-83.8794087,37.9615596],[-83.8794975,37.9615533],[-83.8795995,37.9615628],[-83.8796798,37.9615649],[-83.8798074,37.9615315],[-83.8800577,37.9614774],[-83.8802859,37.961415],[-83.8804198,37.9613828],[-83.8805211,37.9613663],[-83.8806038,37.9613617],[-83.8807447,37.9613617],[-83.8807726,37.9613617]]}},{"type":"Feature","properties":{"osm_id":1059163859,"highway":"service","name":null,"alt_name":null,"official_name":null,"surface":null,"tracktype":null,"service":null,"access":null,"motor_vehicle":null,"foot":null,"tiger_reviewed":null,"rrgh_part":0,"rrgh_tile_part":0},"geometry":{"type":"LineString","coordinates":[[-83.879466,37.961447],[-83.8794177,37.9615008]]}},{"type":"Feature","properties":{"osm_id":16316724,"highway":"residential","name":null,"alt_name":null,"official_name":null,"surface":null,"tracktype":null,"service":null,"access":null,"motor_vehicle":null,"foot":null,"tiger_reviewed":"no","rrgh_part":0,"rrgh_tile_part":0},"geometry":{"type":"LineString","coordinates":[[-83.862115,37.953081],[-83.8627723,37.9530619],[-83.863171,37.953013],[-83.863357,37.952955],[-83.863737,37.952907],[-83.864368,37.952904],[-83.8646907,37.9529136]]}},{"type":"Feature","properties":{"osm_id":1380864456,"highway":"residential","name":null,"alt_name":null,"official_name":null,"surface":null,"tracktype":null,"service":null,"access":null,"motor_vehicle":null,"foot":null,"tiger_reviewed":"no","rrgh_part":0,"rrgh_tile_part":0},"geometry":{"type":"LineString","coordinates":[[-83.8647879,37.9529011],[-83.8651215,37.9528584],[-83.8654818,37.9528137],[-83.8655806,37.9527236],[-83.8657208,37.9524592],[-83.8658058,37.9522698],[-83.8657608,37.9521277],[-83.8656407,37.9520803],[-83.8654805,37.9520803],[-83.8652403,37.9520606],[-83.8650701,37.9519975]]}},{"type":"Feature","properties":{"osm_id":1380864457,"highway":"residential","name":null,"alt_name":null,"official_name":null,"surface":null,"tracktype":null,"service":null,"access":null,"motor_vehicle":null,"foot":null,"tiger_reviewed":"no","rrgh_part":0,"rrgh_tile_part":0},"geometry":{"type":"LineString","coordinates":[[-83.8646907,37.9529136],[-83.8647879,37.9529011]]}},{"type":"Feature","properties":{"osm_id":16316780,"highway":"service","name":null,"alt_name":null,"official_name":null,"surface":null,"tracktype":null,"service":null,"access":null,"motor_vehicle":null,"foot":null,"tiger_reviewed":"no","rrgh_part":0,"rrgh_tile_part":0},"geometry":{"type":"LineString","coordinates":[[-83.869845,37.960992],[-83.869318,37.960907],[-83.868596,37.960787],[-83.867976,37.960782],[-83.867524,37.960751],[-83.866764,37.960744]]}},{"type":"Feature","properties":{"osm_id":16316723,"highway":"residential","name":null,"alt_name":null,"official_name":null,"surface":null,"tracktype":null,"service":null,"access":null,"motor_vehicle":null,"foot":null,"tiger_reviewed":"no","rrgh_part":0,"rrgh_tile_part":0},"geometry":{"type":"LineString","coordinates":[[-83.861204,37.955287],[-83.862321,37.955286],[-83.862505,37.9552965],[-83.8628802,37.9553568],[-83.8630262,37.955454],[-83.8631722,37.9554626],[-83.8647044,37.9554173]]}},{"type":"Feature","properties":{"osm_id":16316676,"highway":"service","name":null,"alt_name":null,"official_name":null,"surface":null,"tracktype":null,"service":null,"access":null,"motor_vehicle":null,"foot":null,"tiger_reviewed":null,"rrgh_part":0,"rrgh_tile_part":0},"geometry":{"type":"LineString","coordinates":[[-83.8685252,37.9631559],[-83.8686566,37.9632288],[-83.8690375,37.9636327],[-83.8693205,37.9639372],[-83.8695498,37.9641709],[-83.8696463,37.9642893],[-83.8697751,37.9645061],[-83.8698877,37.9646033],[-83.8702351,37.9648254],[-83.8703504,37.9648761],[-83.8705489,37.9648962],[-83.8706911,37.9648856],[-83.8708882,37.9648666],[-83.8709915,37.9648666],[-83.8711175,37.9649036],[-83.8715346,37.9651701],[-83.8716003,37.9652303],[-83.8716245,37.9652758],[-83.8716137,37.9653403],[-83.8715172,37.9655359],[-83.8714542,37.9657209],[-83.8714729,37.9657569],[-83.8715091,37.9657727],[-83.8715775,37.9657717],[-83.8718458,37.9656839]]}},{"type":"Feature","properties":{"osm_id":16316673,"highway":"service","name":null,"alt_name":null,"official_name":null,"surface":null,"tracktype":null,"service":null,"access":null,"motor_vehicle":null,"foot":null,"tiger_reviewed":"no","rrgh_part":0,"rrgh_tile_part":0},"geometry":{"type":"LineString","coordinates":[[-83.859206,37.969198],[-83.859614,37.969509],[-83.860142,37.969793],[-83.8604741,37.9700595],[-83.8617265,37.9712328]]}},{"type":"Feature","properties":{"osm_id":16317772,"highway":"residential","name":"Silver Ridge Road","alt_name":null,"official_name":null,"surface":null,"tracktype":null,"service":null,"access":null,"motor_vehicle":null,"foot":null,"tiger_reviewed":"no","rrgh_part":0,"rrgh_tile_part":0},"geometry":{"type":"LineString","coordinates":[[-83.858892,37.961947],[-83.858784,37.96186],[-83.858618,37.961506],[-83.858565,37.961431],[-83.858432,37.961292],[-83.857882,37.96082],[-83.85724,37.960305],[-83.856668,37.959823],[-83.856429,37.959622],[-83.854607,37.95786],[-83.854552,37.95782],[-83.854491,37.957795],[-83.854435,37.957787],[-83.85436,37.957788],[-83.85422,37.957829],[-83.854081,37.957895],[-83.853785,37.958075],[-83.853618,37.958163],[-83.853527,37.9582],[-83.853325,37.958254],[-83.852865,37.95832],[-83.852284,37.958384],[-83.851575,37.958429],[-83.851473,37.958429],[-83.851272,37.958409],[-83.851174,37.95839],[-83.850759,37.958271],[-83.850589,37.95825],[-83.850079,37.95814],[-83.849215,37.958006],[-83.84878,37.957924],[-83.847853,37.957813],[-83.847129,37.957691],[-83.846471,37.957566],[-83.846389,37.957543],[-83.846241,37.957491],[-83.846092,37.957422],[-83.845865,37.957287],[-83.845064,37.95665],[-83.845,37.95660345454546]]}},{"type":"Feature","properties":{"osm_id":630768551,"highway":"residential","name":"Honeycutt Lane","alt_name":null,"official_name":null,"surface":null,"tracktype":null,"service":null,"access":null,"motor_vehicle":null,"foot":null,"tiger_reviewed":null,"rrgh_part":0,"rrgh_tile_part":0},"geometry":{"type":"LineString","coordinates":[[-83.8565208,37.956282],[-83.8562186,37.9559037],[-83.8559844,37.9557288],[-83.8527616,37.952726]]}},{"type":"Feature","properties":{"osm_id":16316775,"highway":"residential","name":null,"alt_name":null,"official_name":null,"surface":null,"tracktype":null,"service":null,"access":null,"motor_vehicle":null,"foot":null,"tiger_reviewed":"no","rrgh_part":0,"rrgh_tile_part":0},"geometry":{"type":"LineString","coordinates":[[-83.856668,37.959823],[-83.856074,37.960293],[-83.855436,37.960759],[-83.854513,37.961275]]}},{"type":"Feature","properties":{"osm_id":16317861,"highway":"residential","name":"Maloney Road","alt_name":null,"official_name":null,"surface":null,"tracktype":null,"service":null,"access":null,"motor_vehicle":null,"foot":null,"tiger_reviewed":"no","rrgh_part":0,"rrgh_tile_part":0},"geometry":{"type":"LineString","coordinates":[[-83.857672,37.955353],[-83.857263,37.955737],[-83.857142,37.955881],[-83.857092,37.955924],[-83.8565208,37.956282],[-83.856043,37.956596],[-83.8556,37.956926],[-83.854637,37.957532],[-83.854537,37.957604],[-83.854472,37.957663],[-83.854457,37.957689],[-83.854435,37.957787]]}},{"type":"Feature","properties":{"osm_id":16317987,"highway":"residential","name":"Dehart Road","alt_name":null,"official_name":null,"surface":null,"tracktype":null,"service":null,"access":null,"motor_vehicle":null,"foot":null,"tiger_reviewed":"no","rrgh_part":0,"rrgh_tile_part":0},"geometry":{"type":"LineString","coordinates":[[-83.845,37.95497652739726],[-83.845103,37.954767],[-83.84519,37.954618],[-83.845262,37.954562],[-83.845359,37.954535]]}},{"type":"Feature","properties":{"osm_id":16316632,"highway":"residential","name":null,"alt_name":null,"official_name":null,"surface":"paved","tracktype":null,"service":null,"access":null,"motor_vehicle":null,"foot":null,"tiger_reviewed":"no","rrgh_part":0,"rrgh_tile_part":0},"geometry":{"type":"LineString","coordinates":[[-83.858279,37.9658783],[-83.8580658,37.9658948],[-83.8577119,37.9660692],[-83.8574929,37.9662544],[-83.8573576,37.9664431],[-83.8572192,37.9666826],[-83.8571257,37.9668791],[-83.8570109,37.9670418],[-83.856824,37.9671264],[-83.8567957,37.9671392],[-83.8566455,37.9671652],[-83.8565356,37.9671578],[-83.8565103,37.9671268],[-83.8565176,37.9669962],[-83.8565076,37.9668587]]}},{"type":"Feature","properties":{"osm_id":1374087715,"highway":"service","name":null,"alt_name":null,"official_name":null,"surface":"unpaved","tracktype":null,"service":null,"access":null,"motor_vehicle":null,"foot":null,"tiger_reviewed":null,"rrgh_part":0,"rrgh_tile_part":0},"geometry":{"type":"LineString","coordinates":[[-83.85831,37.964487],[-83.8581912,37.9644862],[-83.8580815,37.9644755],[-83.8577021,37.9643779],[-83.8574721,37.9643363],[-83.8568613,37.9642522],[-83.8566801,37.9642511],[-83.8564936,37.9642746],[-83.8563613,37.9643208],[-83.8561832,37.964413],[-83.8560358,37.9645001]]}},{"type":"Feature","properties":{"osm_id":1374087715,"highway":"service","name":null,"alt_name":null,"official_name":null,"surface":"unpaved","tracktype":null,"service":null,"access":null,"motor_vehicle":null,"foot":null,"tiger_reviewed":null,"rrgh_part":1,"rrgh_tile_part":0},"geometry":{"type":"LineString","coordinates":[[-83.8560358,37.9645001],[-83.8557154,37.9644097],[-83.8555223,37.9643546],[-83.8553654,37.9644851],[-83.8552902,37.9645809],[-83.8552642,37.9646502],[-83.8552958,37.9646887],[-83.8553288,37.9647116],[-83.8562597,37.9649584],[-83.856344,37.964968],[-83.8563887,37.9649613],[-83.8564404,37.9649365],[-83.8564733,37.9649041],[-83.8564861,37.9648747],[-83.8564886,37.9648354],[-83.8564756,37.9647943],[-83.856409,37.9647392],[-83.8562023,37.9646409],[-83.8561162,37.9645951],[-83.8560358,37.9645001]]}},{"type":"Feature","properties":{"osm_id":1374087716,"highway":"service","name":null,"alt_name":null,"official_name":null,"surface":"unpaved","tracktype":null,"service":null,"access":null,"motor_vehicle":null,"foot":null,"tiger_reviewed":null,"rrgh_part":0,"rrgh_tile_part":0},"geometry":{"type":"LineString","coordinates":[[-83.8555223,37.9643546],[-83.8554643,37.9643339],[-83.8553085,37.964303],[-83.8547171,37.9642359],[-83.8546219,37.9642369],[-83.854525,37.964266],[-83.8544521,37.9643022],[-83.8544369,37.9643403],[-83.854441,37.9644258],[-83.8544548,37.9644407],[-83.8546177,37.9645128],[-83.8551168,37.9646451],[-83.8552642,37.9646502]]}},{"type":"Feature","properties":{"osm_id":1374087717,"highway":"service","name":null,"alt_name":null,"official_name":null,"surface":"unpaved","tracktype":null,"service":null,"access":null,"motor_vehicle":null,"foot":null,"tiger_reviewed":null,"rrgh_part":0,"rrgh_tile_part":0},"geometry":{"type":"LineString","coordinates":[[-83.856824,37.9671264],[-83.8567844,37.9671062],[-83.8567599,37.9670826],[-83.8567525,37.9670462],[-83.8567324,37.9669585],[-83.8567499,37.9667926],[-83.8567576,37.9665539],[-83.856738,37.9660845],[-83.8567189,37.9659562],[-83.8566763,37.9658988],[-83.8566429,37.9658708],[-83.8565824,37.9658446],[-83.8565308,37.9658369],[-83.8564655,37.9658413],[-83.8561752,37.9659157]]}},{"type":"Feature","properties":{"osm_id":16316634,"highway":"residential","name":"Representatative Drive","alt_name":null,"official_name":null,"surface":null,"tracktype":null,"service":null,"access":null,"motor_vehicle":null,"foot":null,"tiger_reviewed":null,"rrgh_part":0,"rrgh_tile_part":0},"geometry":{"type":"LineString","coordinates":[[-83.845,37.97356650114943],[-83.8450244,37.9735372],[-83.8452664,37.9732701],[-83.8454975,37.973055],[-83.8457228,37.9728738],[-83.8458484,37.9728236],[-83.8459949,37.9728115],[-83.8461515,37.9728544],[-83.8464417,37.9729668],[-83.8466241,37.9729668],[-83.8467635,37.9729245],[-83.8469137,37.9727977],[-83.8484687,37.9708868]]}},{"type":"Feature","properties":{"osm_id":16318106,"highway":"residential","name":"Park Avenue","alt_name":null,"official_name":null,"surface":null,"tracktype":null,"service":null,"access":null,"motor_vehicle":null,"foot":null,"tiger_reviewed":"no","rrgh_part":0,"rrgh_tile_part":0},"geometry":{"type":"LineString","coordinates":[[-83.84986752583586,37.974999999999994],[-83.850154,37.974675],[-83.850254,37.974543],[-83.850449,37.974248],[-83.850997,37.973303],[-83.851027,37.973221],[-83.85102,37.973183],[-83.850974,37.973131]]}},{"type":"Feature","properties":{"osm_id":16318107,"highway":"residential","name":"Park Avenue","alt_name":null,"official_name":null,"surface":null,"tracktype":null,"service":null,"access":null,"motor_vehicle":null,"foot":null,"tiger_reviewed":"no","rrgh_part":0,"rrgh_tile_part":0},"geometry":{"type":"LineString","coordinates":[[-83.84836644444445,37.974999999999994],[-83.848412,37.974918],[-83.848554,37.974693]]}},{"type":"Feature","properties":{"osm_id":16318452,"highway":"residential","name":"Winniford Street","alt_name":null,"official_name":null,"surface":null,"tracktype":null,"service":null,"access":null,"motor_vehicle":null,"foot":null,"tiger_reviewed":"no","rrgh_part":0,"rrgh_tile_part":0},"geometry":{"type":"LineString","coordinates":[[-83.849384595092,37.974999999999994],[-83.848554,37.974693]]}},{"type":"Feature","properties":{"osm_id":1559985421,"highway":"service","name":null,"alt_name":null,"official_name":null,"surface":null,"tracktype":null,"service":null,"access":null,"motor_vehicle":null,"foot":null,"tiger_reviewed":null,"rrgh_part":0,"rrgh_tile_part":0},"geometry":{"type":"LineString","coordinates":[[-83.8547645,37.9749399],[-83.8547747,37.974818],[-83.8547066,37.974696]]}},{"type":"Feature","properties":{"osm_id":1441543552,"highway":"service","name":null,"alt_name":null,"official_name":null,"surface":null,"tracktype":null,"service":null,"access":null,"motor_vehicle":null,"foot":null,"tiger_reviewed":null,"rrgh_part":0,"rrgh_tile_part":0},"geometry":{"type":"LineString","coordinates":[[-83.8534169,37.9737227],[-83.8535279,37.973774],[-83.8539465,37.9740688],[-83.8545458,37.9745004],[-83.854652,37.9745881],[-83.8547066,37.974696]]}},{"type":"Feature","properties":{"osm_id":1441543555,"highway":"service","name":null,"alt_name":null,"official_name":null,"surface":null,"tracktype":null,"service":null,"access":null,"motor_vehicle":null,"foot":null,"tiger_reviewed":null,"rrgh_part":0,"rrgh_tile_part":0},"geometry":{"type":"LineString","coordinates":[[-83.8539465,37.9740688],[-83.8543743,37.9737188],[-83.8543951,37.9736469]]}},{"type":"Feature","properties":{"osm_id":1559985424,"highway":"service","name":null,"alt_name":null,"official_name":null,"surface":null,"tracktype":null,"service":null,"access":null,"motor_vehicle":null,"foot":null,"tiger_reviewed":null,"rrgh_part":0,"rrgh_tile_part":0},"geometry":{"type":"LineString","coordinates":[[-83.8540813,37.9739528],[-83.8537678,37.9737326],[-83.8537494,37.9736954],[-83.8537511,37.9736545],[-83.8537733,37.9736164],[-83.8538463,37.9735549],[-83.8539182,37.9734942],[-83.8539698,37.973446],[-83.8540396,37.9734311],[-83.8541045,37.9734342],[-83.8541672,37.9734647],[-83.8543951,37.9736469]]}},{"type":"Feature","properties":{"osm_id":16317912,"highway":"residential","name":"Hubert Street","alt_name":null,"official_name":null,"surface":null,"tracktype":null,"service":null,"access":null,"motor_vehicle":null,"foot":null,"tiger_reviewed":"no","rrgh_part":0,"rrgh_tile_part":0},"geometry":{"type":"LineString","coordinates":[[-83.850254,37.974543],[-83.849101,37.974126]]}},{"type":"Feature","properties":{"osm_id":16318165,"highway":"residential","name":"Park Avenue Lane","alt_name":null,"official_name":null,"surface":null,"tracktype":null,"service":null,"access":null,"motor_vehicle":null,"foot":null,"tiger_reviewed":"no","rrgh_part":0,"rrgh_tile_part":0},"geometry":{"type":"LineString","coordinates":[[-83.848554,37.974693],[-83.8488,37.974396],[-83.849101,37.974126],[-83.849252,37.973995]]}},{"type":"Feature","properties":{"osm_id":16317485,"highway":"residential","name":"Travis Lane","alt_name":null,"official_name":null,"surface":null,"tracktype":null,"service":null,"access":null,"motor_vehicle":null,"foot":null,"tiger_reviewed":"no","rrgh_part":0,"rrgh_tile_part":0},"geometry":{"type":"LineString","coordinates":[[-83.8463252,37.9749037],[-83.84627233085757,37.974999999999994]]}}],"rrgh_tile":{"id":"r7c1","bounds":[37.9,-83.93,37.974999999999994,-83.845]}}
