{"type":"FeatureCollection","features":[{"type":"Feature","properties":{"osm_id":1107387699,"highway":"residential","name":null,"alt_name":null,"official_name":null,"surface":null,"tracktype":null,"service":null,"access":null,"motor_vehicle":null,"foot":null,"tiger_reviewed":null,"rrgh_part":0,"rrgh_tile_part":0},"geometry":{"type":"LineString","coordinates":[[-83.845,37.92770480842932],[-83.8449143,37.9274386],[-83.8448167,37.9272494],[-83.8446744,37.9270795],[-83.844528,37.9269704],[-83.8444833,37.926964],[-83.8442678,37.9269352],[-83.8440808,37.926871],[-83.8439182,37.9267909],[-83.8437515,37.9266979],[-83.8435848,37.9265183],[-83.8433856,37.9261816],[-83.8430929,37.9255819],[-83.8428612,37.9252708],[-83.8425522,37.9248411],[-83.8423327,37.9246358],[-83.8420969,37.9244627],[-83.8418936,37.9243857],[-83.8416131,37.9243665],[-83.8412838,37.92436],[-83.8412269,37.9243568],[-83.8411008,37.9243119],[-83.8409707,37.9242414],[-83.8408569,37.9240939],[-83.8408527,37.9240629],[-83.8408325,37.9239143],[-83.8408163,37.9236449],[-83.8408447,37.9230035],[-83.8408935,37.9228399],[-83.8409382,37.9227213],[-83.8409545,37.9226122],[-83.8409342,37.9225257],[-83.8408813,37.9224391],[-83.8407309,37.9223525],[-83.8405683,37.9223076],[-83.8397633,37.9220863],[-83.8396413,37.9221152],[-83.8394706,37.9221921],[-83.8391779,37.922407],[-83.8388852,37.9227534],[-83.8379501,37.9239848]]}},{"type":"Feature","properties":{"osm_id":110131245,"highway":"service","name":"Calk Lake Road","alt_name":null,"official_name":null,"surface":null,"tracktype":null,"service":null,"access":"private","motor_vehicle":null,"foot":null,"tiger_reviewed":"no","rrgh_part":0,"rrgh_tile_part":0},"geometry":{"type":"LineString","coordinates":[[-83.845,37.91790743396226],[-83.844899,37.917896],[-83.844712,37.917855],[-83.84447,37.917776],[-83.844096,37.917625],[-83.843177,37.917226],[-83.843019,37.917142],[-83.842953,37.917088],[-83.842899,37.917044],[-83.84285,37.916954],[-83.842842,37.916852],[-83.842911,37.916704],[-83.843023,37.916521],[-83.843101,37.916349],[-83.843119,37.916225],[-83.843108,37.916033],[-83.843118,37.915974],[-83.843141,37.915919],[-83.843174,37.915879],[-83.84323,37.915845],[-83.843443,37.915779],[-83.843519,37.915734],[-83.843599,37.915655],[-83.843642,37.915552],[-83.843633,37.915473],[-83.843598,37.915411],[-83.843339,37.915214]]}},{"type":"Feature","properties":{"osm_id":16339017,"highway":"residential","name":"Lower Cane Creek Road","alt_name":null,"official_name":null,"surface":null,"tracktype":null,"service":null,"access":null,"motor_vehicle":null,"foot":null,"tiger_reviewed":"no","rrgh_part":0,"rrgh_tile_part":0},"geometry":{"type":"LineString","coordinates":[[-83.78633048965517,37.9],[-83.786086,37.900303],[-83.78598,37.900446],[-83.785937,37.900522],[-83.785891,37.900687],[-83.785854,37.901044],[-83.78585,37.901223],[-83.785865,37.901313],[-83.785925,37.901488],[-83.786052,37.901742],[-83.78616,37.901906],[-83.786297,37.902055],[-83.786543,37.902259],[-83.786618,37.902335],[-83.786744,37.902491],[-83.786888,37.902721],[-83.786945,37.902792],[-83.787013,37.902856],[-83.787093,37.90291],[-83.78718,37.902952],[-83.787446,37.903048],[-83.787534,37.903088],[-83.787616,37.90314],[-83.788144,37.90356],[-83.788409,37.903789],[-83.788787,37.904051],[-83.788946,37.904189],[-83.789092,37.904336],[-83.789224,37.904496],[-83.789462,37.904837],[-83.789534,37.904911],[-83.789696,37.905026],[-83.790129,37.905247],[-83.790206,37.905297],[-83.790264,37.905358],[-83.790309,37.905426],[-83.790406,37.905633],[-83.79046,37.90569],[-83.790538,37.905745],[-83.790619,37.905777],[-83.790708,37.905791],[-83.790791,37.905793],[-83.790903,37.905785],[-83.791652,37.905675],[-83.791925,37.905653],[-83.792009,37.905664],[-83.792121,37.905712],[-83.792587,37.906159],[-83.792639,37.906194],[-83.792781,37.90626],[-83.793028,37.90632],[-83.793107,37.906352],[-83.793545,37.906622],[-83.79364,37.906666],[-83.793663,37.906679]]}},{"type":"Feature","properties":{"osm_id":1441543546,"highway":"track","name":null,"alt_name":null,"official_name":null,"surface":null,"tracktype":null,"service":null,"access":null,"motor_vehicle":null,"foot":null,"tiger_reviewed":null,"rrgh_part":0,"rrgh_tile_part":0},"geometry":{"type":"LineString","coordinates":[[-83.815164,37.9081179],[-83.8150406,37.9082153],[-83.8149012,37.9084227],[-83.814869,37.9085793],[-83.8148314,37.9086597],[-83.814515,37.9089094],[-83.8141931,37.9090999],[-83.8141019,37.9091676],[-83.8135387,37.9094089],[-83.8133939,37.9095147],[-83.8124873,37.909921],[-83.8123747,37.9100015],[-83.812144,37.9101158],[-83.811849,37.9102173],[-83.8116345,37.9102639],[-83.8111785,37.9104374],[-83.8106743,37.9105983],[-83.8104919,37.9106745],[-83.8101433,37.9108438],[-83.8096069,37.9111316],[-83.8089042,37.9115676],[-83.8087754,37.9116014],[-83.8085877,37.9115845],[-83.8084482,37.9116014],[-83.8081747,37.9117284],[-83.8079815,37.9118427],[-83.8077187,37.9119612],[-83.806721,37.912523]]}},{"type":"Feature","properties":{"osm_id":1441543547,"highway":"track","name":null,"alt_name":null,"official_name":null,"surface":null,"tracktype":null,"service":null,"access":null,"motor_vehicle":null,"foot":null,"tiger_reviewed":null,"rrgh_part":0,"rrgh_tile_part":0},"geometry":{"type":"LineString","coordinates":[[-83.8141931,37.9090999],[-83.8141439,37.9088916],[-83.8141922,37.9087901],[-83.8143102,37.9086419],[-83.8144979,37.9079859],[-83.8147232,37.907533],[-83.8145301,37.9071183],[-83.8144014,37.9070675],[-83.8138972,37.9069786],[-83.813688,37.9069744],[-83.8135432,37.9069067],[-83.8134413,37.9067839],[-83.8133877,37.9066654],[-83.8133984,37.9065977],[-83.8135915,37.9062845],[-83.8136076,37.9058316]]}},{"type":"Feature","properties":{"osm_id":16316845,"highway":"track","name":null,"alt_name":null,"official_name":null,"surface":null,"tracktype":null,"service":null,"access":null,"motor_vehicle":null,"foot":null,"tiger_reviewed":"no","rrgh_part":0,"rrgh_tile_part":0},"geometry":{"type":"LineString","coordinates":[[-83.818384,37.922138],[-83.818094,37.921525],[-83.818002,37.921243],[-83.817952,37.921089],[-83.817727,37.920069],[-83.817659,37.919997],[-83.817498,37.919823],[-83.817469,37.919502],[-83.817613,37.919365],[-83.818077,37.919261],[-83.818526,37.919159],[-83.819001,37.918771],[-83.820518,37.917926],[-83.821279,37.917697],[-83.821756,37.917399],[-83.822282,37.916783]]}},{"type":"Feature","properties":{"osm_id":1441543548,"highway":"track","name":null,"alt_name":null,"official_name":null,"surface":null,"tracktype":null,"service":null,"access":null,"motor_vehicle":null,"foot":null,"tiger_reviewed":null,"rrgh_part":0,"rrgh_tile_part":0},"geometry":{"type":"LineString","coordinates":[[-83.822282,37.916783],[-83.8224429,37.9166844],[-83.8228989,37.9166251],[-83.8234998,37.9166082],[-83.8236875,37.9165743],[-83.8240523,37.9164474],[-83.8243689,37.9162188],[-83.8244815,37.916168],[-83.82468,37.9161765],[-83.8252594,37.91635],[-83.8253238,37.9163542],[-83.8253774,37.9163415],[-83.8255705,37.9162654],[-83.8262465,37.9159014],[-83.8265094,37.9157786],[-83.8268795,37.915639],[-83.8276789,37.9153808],[-83.8280812,37.9152919],[-83.8286445,37.9151395],[-83.828784,37.9151226],[-83.8289127,37.9150803],[-83.8295082,37.9150168],[-83.8297604,37.9149406],[-83.8302325,37.9147586],[-83.8305007,37.9146316],[-83.8307636,37.9144369],[-83.8311874,37.9141872],[-83.8314824,37.9139037],[-83.8316219,37.9137259],[-83.8317828,37.9135651],[-83.8318419,37.9134508],[-83.8318419,37.9134127],[-83.832035,37.9132095],[-83.8324481,37.9128244],[-83.8332957,37.9121218],[-83.8333923,37.9119737],[-83.8336283,37.9113388]]}},{"type":"Feature","properties":{"osm_id":16317021,"highway":"residential","name":null,"alt_name":null,"official_name":null,"surface":null,"tracktype":null,"service":null,"access":null,"motor_vehicle":null,"foot":null,"tiger_reviewed":"no","rrgh_part":0,"rrgh_tile_part":0},"geometry":{"type":"LineString","coordinates":[[-83.794775,37.906646],[-83.793912,37.906792],[-83.793562,37.906851],[-83.792811,37.906942],[-83.792358,37.906982],[-83.791894,37.907023],[-83.789385,37.907248]]}},{"type":"Feature","properties":{"osm_id":16339327,"highway":"service","name":"Elk Track Trail","alt_name":null,"official_name":null,"surface":null,"tracktype":null,"service":null,"access":null,"motor_vehicle":null,"foot":null,"tiger_reviewed":"no","rrgh_part":0,"rrgh_tile_part":0},"geometry":{"type":"LineString","coordinates":[[-83.7993215,37.9057319],[-83.7990186,37.9057349],[-83.7984478,37.905697],[-83.7983191,37.9056336],[-83.7982601,37.9055744],[-83.7982279,37.9054728],[-83.7982279,37.9050118],[-83.7982011,37.9047538],[-83.7982065,37.9045042],[-83.7982387,37.904352],[-83.7982279,37.9042081],[-83.7981958,37.9041532],[-83.7980831,37.9040516],[-83.7977077,37.9038317],[-83.797638,37.9037767],[-83.7976005,37.9037133],[-83.797579,37.903616],[-83.7976005,37.9033453],[-83.7976648,37.9032564],[-83.7976702,37.9032564],[-83.7977989,37.9030492],[-83.7979008,37.9028631],[-83.7979544,37.9027193],[-83.7979437,37.9026643],[-83.7978954,37.9026178],[-83.7975361,37.9024697],[-83.7968979,37.9024739],[-83.7968828,37.9024824],[-83.7968765,37.9024782],[-83.7968765,37.9024824],[-83.7963734,37.9022155],[-83.7964793,37.9013409],[-83.7968086,37.9005722]]}},{"type":"Feature","properties":{"osm_id":1441543545,"highway":"service","name":"Marlowe Path","alt_name":null,"official_name":null,"surface":null,"tracktype":null,"service":null,"access":null,"motor_vehicle":null,"foot":null,"tiger_reviewed":null,"rrgh_part":0,"rrgh_tile_part":0},"geometry":{"type":"LineString","coordinates":[[-83.8024677,37.9053036],[-83.8027329,37.9053205],[-83.8030064,37.9054348],[-83.803221,37.9054729],[-83.8035642,37.9056803]]}},{"type":"Feature","properties":{"osm_id":16336162,"highway":"service","name":null,"alt_name":null,"official_name":null,"surface":null,"tracktype":null,"service":null,"access":"private","motor_vehicle":null,"foot":null,"tiger_reviewed":"no","rrgh_part":0,"rrgh_tile_part":0},"geometry":{"type":"LineString","coordinates":[[-83.796639,37.906012],[-83.796683,37.905316],[-83.796625,37.904656],[-83.796463,37.904358],[-83.79598,37.90376],[-83.795677,37.903276],[-83.795395,37.902761]]}},{"type":"Feature","properties":{"osm_id":16316955,"highway":"track","name":null,"alt_name":null,"official_name":null,"surface":null,"tracktype":null,"service":null,"access":null,"motor_vehicle":null,"foot":null,"tiger_reviewed":"no","rrgh_part":0,"rrgh_tile_part":0},"geometry":{"type":"LineString","coordinates":[[-83.789385,37.907248],[-83.78927,37.907521],[-83.78931,37.907851],[-83.789563,37.908205],[-83.789684,37.908463],[-83.789633,37.90881],[-83.789491,37.909124],[-83.789582,37.909422],[-83.789673,37.909623]]}},{"type":"Feature","properties":{"osm_id":16335105,"highway":"track","name":null,"alt_name":null,"official_name":null,"surface":null,"tracktype":null,"service":null,"access":null,"motor_vehicle":null,"foot":null,"tiger_reviewed":"no","rrgh_part":0,"rrgh_tile_part":0},"geometry":{"type":"LineString","coordinates":[[-83.789385,37.907248],[-83.789231,37.907262],[-83.788365,37.90701],[-83.787469,37.907078],[-83.786805,37.90685],[-83.785795,37.907101],[-83.785457,37.907331],[-83.785159,37.907536],[-83.784524,37.907787],[-83.7830945,37.9082279],[-83.7817289,37.9088473],[-83.7816293,37.9090218],[-83.7815981,37.9092768],[-83.781607,37.909433],[-83.781578,37.909777],[-83.781467,37.91015],[-83.781376,37.910463],[-83.781145,37.910554],[-83.779932,37.910257],[-83.779442,37.909982],[-83.77872,37.909501],[-83.778287,37.909707],[-83.777882,37.910805],[-83.777709,37.910919],[-83.777276,37.910851],[-83.776063,37.910416],[-83.775659,37.910438],[-83.775428,37.91053],[-83.77511,37.911514],[-83.775081,37.911697]]}},{"type":"Feature","properties":{"osm_id":16317020,"highway":"residential","name":null,"alt_name":null,"official_name":null,"surface":null,"tracktype":null,"service":null,"access":null,"motor_vehicle":null,"foot":null,"tiger_reviewed":"no","rrgh_part":0,"rrgh_tile_part":0},"geometry":{"type":"LineString","coordinates":[[-83.793663,37.906679],[-83.793912,37.906792]]}},{"type":"Feature","properties":{"osm_id":16316959,"highway":"track","name":null,"alt_name":null,"official_name":null,"surface":null,"tracktype":null,"service":null,"access":null,"motor_vehicle":null,"foot":null,"tiger_reviewed":"no","rrgh_part":0,"rrgh_tile_part":0},"geometry":{"type":"LineString","coordinates":[[-83.789866,37.909696],[-83.789673,37.909623],[-83.789612,37.909776],[-83.789632,37.909953],[-83.789693,37.91009],[-83.789794,37.91013],[-83.790027,37.910074],[-83.790099,37.909929],[-83.790058,37.909808],[-83.789866,37.909696]]}},{"type":"Feature","properties":{"osm_id":16316422,"highway":"track","name":null,"alt_name":null,"official_name":null,"surface":null,"tracktype":null,"service":null,"access":null,"motor_vehicle":null,"foot":null,"tiger_reviewed":"no","rrgh_part":0,"rrgh_tile_part":0},"geometry":{"type":"LineString","coordinates":[[-83.784555,37.912966],[-83.784327,37.912808],[-83.7843,37.912672],[-83.784682,37.912288],[-83.784742,37.912061],[-83.78446,37.911767],[-83.783723,37.910976],[-83.783036,37.911072],[-83.781982,37.910577],[-83.781376,37.910463]]}},{"type":"Feature","properties":{"osm_id":16316957,"highway":"track","name":null,"alt_name":null,"official_name":null,"surface":null,"tracktype":null,"service":null,"access":null,"motor_vehicle":null,"foot":null,"tiger_reviewed":"no","rrgh_part":0,"rrgh_tile_part":0},"geometry":{"type":"LineString","coordinates":[[-83.781982,37.910577],[-83.781467,37.91015]]}},{"type":"Feature","properties":{"osm_id":1441543543,"highway":"service","name":null,"alt_name":null,"official_name":null,"surface":null,"tracktype":null,"service":null,"access":null,"motor_vehicle":null,"foot":null,"tiger_reviewed":null,"rrgh_part":0,"rrgh_tile_part":0},"geometry":{"type":"LineString","coordinates":[[-83.7897098,37.9205439],[-83.7897151,37.9204085],[-83.7896722,37.9202519],[-83.7897366,37.9200784],[-83.7897205,37.9199811],[-83.7896293,37.9198456],[-83.7895274,37.9197525],[-83.7890823,37.9194394],[-83.7885674,37.9192828],[-83.7884331,37.9191986],[-83.7871945,37.9189104],[-83.7869317,37.9188765],[-83.7867333,37.918868],[-83.7865831,37.9188342],[-83.7863525,37.9187072],[-83.7861594,37.9185464],[-83.7859824,37.9184237],[-83.7854622,37.9182417],[-83.7853067,37.9181528],[-83.7850814,37.9179835],[-83.7847007,37.9175857],[-83.7845344,37.9173911],[-83.784454,37.917336],[-83.7841107,37.9171668],[-83.783923,37.9170483],[-83.7838211,37.9169425],[-83.783687,37.9167563],[-83.7834886,37.9166124],[-83.7833384,37.9164473],[-83.7831239,37.9160834],[-83.7827431,37.915711],[-83.782585,37.915347]]}},{"type":"Feature","properties":{"osm_id":1441543544,"highway":"service","name":null,"alt_name":null,"official_name":null,"surface":null,"tracktype":null,"service":null,"access":null,"motor_vehicle":null,"foot":null,"tiger_reviewed":null,"rrgh_part":0,"rrgh_tile_part":0},"geometry":{"type":"LineString","coordinates":[[-83.7884331,37.9191986],[-83.7885082,37.919131],[-83.7889265,37.9190464],[-83.7893127,37.919021],[-83.7896667,37.9189702],[-83.7898061,37.918966],[-83.7900528,37.9190294],[-83.7907072,37.9193255],[-83.7909378,37.9194017],[-83.7910987,37.9194271],[-83.7914205,37.9194482],[-83.7916136,37.919444],[-83.7917959,37.9194101],[-83.7927345,37.9190802],[-83.7930456,37.9189491],[-83.7932708,37.918763],[-83.7934425,37.9185684],[-83.7935873,37.9184542],[-83.7938393,37.9184077],[-83.7939734,37.9183442],[-83.7941236,37.9182046],[-83.7941772,37.9181073],[-83.7941558,37.9178874],[-83.7940592,37.9176844]]}},{"type":"Feature","properties":{"osm_id":16317751,"highway":"residential","name":"Spruce Valley Road","alt_name":null,"official_name":null,"surface":null,"tracktype":null,"service":null,"access":null,"motor_vehicle":null,"foot":null,"tiger_reviewed":"no","rrgh_part":0,"rrgh_tile_part":0},"geometry":{"type":"LineString","coordinates":[[-83.845,37.93308154135338],[-83.844982,37.93309],[-83.844425,37.93332],[-83.844145,37.933487],[-83.843702,37.933776],[-83.843573,37.933871],[-83.843484,37.933949],[-83.843417,37.934043],[-83.843212,37.934567],[-83.843166,37.934644],[-83.842956,37.934891],[-83.842915,37.934966],[-83.842897,37.935045],[-83.842906,37.935216],[-83.842949,37.935424],[-83.843013,37.935628],[-83.84311,37.935818],[-83.843319,37.93615],[-83.843329,37.936183],[-83.843691,37.936752],[-83.843881,37.936982],[-83.843924,37.937061],[-83.84409,37.937291],[-83.844148,37.937389],[-83.844529,37.937802],[-83.844738,37.937998],[-83.844966,37.93828],[-83.845,37.93833682517482]]}},{"type":"Feature","properties":{"osm_id":16317751,"highway":"residential","name":"Spruce Valley Road","alt_name":null,"official_name":null,"surface":null,"tracktype":null,"service":null,"access":null,"motor_vehicle":null,"foot":null,"tiger_reviewed":"no","rrgh_part":0,"rrgh_tile_part":1},"geometry":{"type":"LineString","coordinates":[[-83.845,37.940542586776864],[-83.844865,37.940643],[-83.844757,37.940706]]}},{"type":"Feature","properties":{"osm_id":16317493,"highway":"residential","name":"Pine Hill Spur Road","alt_name":null,"official_name":null,"surface":null,"tracktype":null,"service":null,"access":null,"motor_vehicle":null,"foot":null,"tiger_reviewed":"no","rrgh_part":0,"rrgh_tile_part":0},"geometry":{"type":"LineString","coordinates":[[-83.844575,37.940565],[-83.844525,37.940733],[-83.844489,37.940933],[-83.844408,37.941175],[-83.844305,37.941398],[-83.844212,37.941509],[-83.844014,37.941701],[-83.843834,37.941837],[-83.843399,37.942103],[-83.842937,37.942347],[-83.841383,37.943166],[-83.840774,37.943465],[-83.840098,37.943784],[-83.839878,37.943879],[-83.839556,37.943995],[-83.839119,37.944115],[-83.838766,37.944202],[-83.838146,37.944338],[-83.837787,37.944442],[-83.837451,37.944561],[-83.837056,37.944739],[-83.836517,37.94501],[-83.836464,37.945042],[-83.836425,37.945065],[-83.836286,37.945194],[-83.835982,37.94557],[-83.835825,37.945738]]}},{"type":"Feature","properties":{"osm_id":16318205,"highway":"residential","name":"Cunningham Road","alt_name":null,"official_name":null,"surface":null,"tracktype":null,"service":null,"access":null,"motor_vehicle":null,"foot":null,"tiger_reviewed":"no","rrgh_part":0,"rrgh_tile_part":0},"geometry":{"type":"LineString","coordinates":[[-83.826849,37.94064],[-83.827491,37.940664],[-83.827938,37.940697],[-83.828124,37.940731],[-83.828782,37.940791],[-83.828999,37.940831],[-83.829101,37.940863],[-83.829398,37.940986],[-83.829607,37.941047],[-83.830036,37.941132],[-83.830254,37.941163],[-83.830589,37.941185],[-83.830817,37.941185],[-83.830932,37.941171],[-83.83129,37.941095],[-83.831421,37.941083],[-83.831556,37.94108],[-83.831843,37.941098],[-83.832133,37.941143],[-83.833137,37.941381],[-83.833403,37.941455],[-83.833527,37.941507],[-83.833647,37.941573],[-83.833873,37.941731],[-83.83409,37.941909],[-83.834928,37.942729],[-83.836289,37.944022],[-83.836719,37.944419],[-83.837056,37.944739]]}},{"type":"Feature","properties":{"osm_id":16318419,"highway":"residential","name":"Pine Hill Road","alt_name":null,"official_name":null,"surface":null,"tracktype":null,"service":null,"access":null,"motor_vehicle":null,"foot":null,"tiger_reviewed":"no","rrgh_part":0,"rrgh_tile_part":0},"geometry":{"type":"LineString","coordinates":[[-83.843758,37.950884],[-83.84366,37.950874],[-83.843612,37.950859],[-83.843175,37.950482],[-83.842581,37.949946],[-83.84009,37.947616],[-83.83807,37.945795],[-83.837973,37.945716],[-83.837867,37.945647],[-83.837752,37.945592],[-83.83763,37.945549],[-83.837502,37.945517],[-83.837234,37.945473],[-83.83695,37.94546],[-83.836813,37.945472],[-83.836554,37.945515],[-83.836052,37.945629],[-83.835909,37.945684],[-83.835825,37.945738],[-83.835246,37.946207],[-83.83509,37.946346],[-83.834959,37.946488],[-83.834803,37.946723],[-83.83467,37.946993],[-83.834387,37.947702],[-83.833943,37.94922],[-83.833871,37.949368],[-83.833839,37.949403],[-83.833798,37.94943],[-83.833746,37.949447],[-83.833685,37.949453],[-83.83362,37.949449],[-83.833471,37.949422],[-83.831369,37.948955],[-83.829467,37.948516],[-83.8277352,37.9481169],[-83.827597,37.948085],[-83.827361,37.948047],[-83.827088,37.948019],[-83.826809,37.947991],[-83.8249777,37.9477508]]}},{"type":"Feature","properties":{"osm_id":16318601,"highway":"residential","name":"Meyers Cemetery Road","alt_name":null,"official_name":null,"surface":null,"tracktype":null,"service":null,"access":null,"motor_vehicle":null,"foot":null,"tiger_reviewed":"no","rrgh_part":0,"rrgh_tile_part":0},"geometry":{"type":"LineString","coordinates":[[-83.842937,37.942347],[-83.842512,37.942196],[-83.842272,37.942041],[-83.842062,37.941936],[-83.841713,37.941849],[-83.841577,37.941805],[-83.841461,37.941744],[-83.84126,37.941581],[-83.841116,37.941509],[-83.840381,37.941273],[-83.840054,37.941144],[-83.839876,37.941093],[-83.839724,37.941064],[-83.839566,37.941014],[-83.839413,37.940937],[-83.839071,37.940729],[-83.83885,37.94057],[-83.838597,37.94035],[-83.838539,37.940312],[-83.838245,37.940175]]}},{"type":"Feature","properties":{"osm_id":16316680,"highway":"service","name":null,"alt_name":null,"official_name":null,"surface":null,"tracktype":null,"service":null,"access":"private","motor_vehicle":null,"foot":null,"tiger_reviewed":"no","rrgh_part":0,"rrgh_tile_part":0},"geometry":{"type":"LineString","coordinates":[[-83.836464,37.945042],[-83.836032,37.944744],[-83.835492,37.944394],[-83.835035,37.944184],[-83.834812,37.944128],[-83.834488,37.943983]]}},{"type":"Feature","properties":{"osm_id":16317772,"highway":"residential","name":"Silver Ridge Road","alt_name":null,"official_name":null,"surface":null,"tracktype":null,"service":null,"access":null,"motor_vehicle":null,"foot":null,"tiger_reviewed":"no","rrgh_part":0,"rrgh_tile_part":0},"geometry":{"type":"LineString","coordinates":[[-83.845,37.95660345454546],[-83.844921,37.956546],[-83.844852,37.956521]]}},{"type":"Feature","properties":{"osm_id":16317987,"highway":"residential","name":"Dehart Road","alt_name":null,"official_name":null,"surface":null,"tracktype":null,"service":null,"access":null,"motor_vehicle":null,"foot":null,"tiger_reviewed":"no","rrgh_part":0,"rrgh_tile_part":0},"geometry":{"type":"LineString","coordinates":[[-83.842865,37.954902],[-83.843063,37.955024],[-83.843275,37.955172],[-83.843363,37.955221],[-83.843467,37.955236],[-83.843705,37.955216],[-83.843861,37.955237],[-83.844063,37.955301],[-83.844421,37.955485],[-83.844512,37.955513],[-83.844566,37.955516],[-83.844669,37.955495],[-83.844711,37.955471],[-83.844811,37.955361],[-83.845,37.95497652739726]]}},{"type":"Feature","properties":{"osm_id":630774107,"highway":"residential","name":"Cherokee Trail","alt_name":null,"official_name":null,"surface":null,"tracktype":null,"service":null,"access":null,"motor_vehicle":null,"foot":null,"tiger_reviewed":null,"rrgh_part":0,"rrgh_tile_part":0},"geometry":{"type":"LineString","coordinates":[[-83.8438852,37.962418],[-83.8436496,37.9622266],[-83.8434699,37.9621287],[-83.8432075,37.9620805],[-83.8428152,37.9621635],[-83.8424968,37.9622268],[-83.8423058,37.9622067],[-83.8421723,37.9621159],[-83.8420228,37.9619465],[-83.8418286,37.9616864],[-83.8415507,37.9614033],[-83.8413733,37.9612395],[-83.8412994,37.9611711],[-83.8411405,37.9610048],[-83.8410948,37.9609473],[-83.840985,37.9607197],[-83.8408273,37.9602749],[-83.8405191,37.9597078],[-83.8402295,37.9594206],[-83.8399307,37.9592734],[-83.8394356,37.9591629],[-83.8391087,37.9590966],[-83.8386978,37.9588978],[-83.8382868,37.9586548],[-83.8381,37.9582718]]}},{"type":"Feature","properties":{"osm_id":16316634,"highway":"residential","name":"Representatative Drive","alt_name":null,"official_name":null,"surface":null,"tracktype":null,"service":null,"access":null,"motor_vehicle":null,"foot":null,"tiger_reviewed":null,"rrgh_part":0,"rrgh_tile_part":0},"geometry":{"type":"LineString","coordinates":[[-83.8443899,37.9743112],[-83.8444937,37.9741745],[-83.845,37.97356650114943]]}},{"type":"Feature","properties":{"osm_id":16316512,"highway":"service","name":null,"alt_name":null,"official_name":null,"surface":null,"tracktype":null,"service":null,"access":null,"motor_vehicle":null,"foot":null,"tiger_reviewed":"no","rrgh_part":0,"rrgh_tile_part":0},"geometry":{"type":"LineString","coordinates":[[-83.843082,37.9655],[-83.8429686,37.9653897],[-83.8426498,37.9653973],[-83.8422298,37.9654856],[-83.8420583,37.9654287],[-83.8417971,37.9653512],[-83.8415895,37.9651196]]}},{"type":"Feature","properties":{"osm_id":16316958,"highway":"service","name":null,"alt_name":null,"official_name":null,"surface":null,"tracktype":null,"service":null,"access":"private","motor_vehicle":null,"foot":null,"tiger_reviewed":"no","rrgh_part":0,"rrgh_tile_part":0},"geometry":{"type":"LineString","coordinates":[[-83.8339817,37.9708349],[-83.83376,37.971662],[-83.8335519,37.97206],[-83.8339264,37.9725075]]}},{"type":"Feature","properties":{"osm_id":16317496,"highway":"residential","name":"Compton Road","alt_name":null,"official_name":null,"surface":null,"tracktype":null,"service":null,"access":null,"motor_vehicle":null,"foot":null,"tiger_reviewed":"no","rrgh_part":0,"rrgh_tile_part":0},"geometry":{"type":"LineString","coordinates":[[-83.844149,37.974242],[-83.843737,37.974733],[-83.8435122970297,37.974999999999994]]}},{"type":"Feature","properties":{"osm_id":630768550,"highway":"residential","name":"Blue Sky Drive","alt_name":null,"official_name":null,"surface":null,"tracktype":null,"service":null,"access":null,"motor_vehicle":null,"foot":null,"tiger_reviewed":null,"rrgh_part":0,"rrgh_tile_part":0},"geometry":{"type":"LineString","coordinates":[[-83.8417267,37.9675613],[-83.8429503,37.9681253],[-83.8430628,37.9681733],[-83.8431559,37.9681889],[-83.8432516,37.9681842],[-83.843452,37.968147],[-83.84355,37.9681474],[-83.8436502,37.9681651],[-83.8437441,37.9682006],[-83.8440622,37.9683395],[-83.8442501,37.968432],[-83.8442997,37.968476],[-83.8443274,37.9685304]]}},{"type":"Feature","properties":{"osm_id":630774106,"highway":"residential","name":null,"alt_name":null,"official_name":null,"surface":null,"tracktype":null,"service":null,"access":null,"motor_vehicle":null,"foot":null,"tiger_reviewed":null,"rrgh_part":0,"rrgh_tile_part":0},"geometry":{"type":"LineString","coordinates":[[-83.8402433,37.9696406],[-83.8389815,37.9690755]]}},{"type":"Feature","properties":{"osm_id":16316732,"highway":"service","name":null,"alt_name":null,"official_name":null,"surface":null,"tracktype":null,"service":null,"access":null,"motor_vehicle":null,"foot":null,"tiger_reviewed":"no","rrgh_part":0,"rrgh_tile_part":0},"geometry":{"type":"LineString","coordinates":[[-83.8368542,37.9718069],[-83.836657,37.9722479],[-83.8364317,37.9728484],[-83.8363136,37.9729245],[-83.8354983,37.9730345]]}},{"type":"Feature","properties":{"osm_id":16318113,"highway":"residential","name":"Sunny Court","alt_name":null,"official_name":null,"surface":null,"tracktype":null,"service":null,"access":null,"motor_vehicle":null,"foot":null,"tiger_reviewed":"no","rrgh_part":0,"rrgh_tile_part":0},"geometry":{"type":"LineString","coordinates":[[-83.8366049,37.9717165],[-83.836813,37.971378],[-83.837051,37.970958],[-83.83737,37.970368],[-83.837591,37.970031]]}},{"type":"Feature","properties":{"osm_id":1441542396,"highway":"service","name":null,"alt_name":null,"official_name":null,"surface":null,"tracktype":null,"service":null,"access":null,"motor_vehicle":null,"foot":null,"tiger_reviewed":null,"rrgh_part":0,"rrgh_tile_part":0},"geometry":{"type":"LineString","coordinates":[[-83.8338791,37.9708053],[-83.8339435,37.9704708],[-83.8341044,37.9688944]]}},{"type":"Feature","properties":{"osm_id":1441542398,"highway":"service","name":"Mullins Lane","alt_name":null,"official_name":null,"surface":null,"tracktype":null,"service":null,"access":null,"motor_vehicle":null,"foot":null,"tiger_reviewed":null,"rrgh_part":0,"rrgh_tile_part":0},"geometry":{"type":"LineString","coordinates":[[-83.8400014,37.9728151],[-83.8396738,37.9732922],[-83.8396631,37.9733302],[-83.839572,37.9734401],[-83.8394647,37.9736091]]}},{"type":"Feature","properties":{"osm_id":16316963,"highway":"residential","name":null,"alt_name":null,"official_name":null,"surface":null,"tracktype":null,"service":null,"access":null,"motor_vehicle":null,"foot":null,"tiger_reviewed":"no","rrgh_part":0,"rrgh_tile_part":0},"geometry":{"type":"LineString","coordinates":[[-83.820747,37.923841],[-83.820235,37.924048],[-83.82003,37.924233],[-83.819979,37.924458],[-83.819934,37.925349],[-83.820258,37.925636]]}},{"type":"Feature","properties":{"osm_id":16317930,"highway":"residential","name":"Lower Spruce Road","alt_name":null,"official_name":null,"surface":null,"tracktype":null,"service":null,"access":null,"motor_vehicle":null,"foot":null,"tiger_reviewed":"no","rrgh_part":0,"rrgh_tile_part":0},"geometry":{"type":"LineString","coordinates":[[-83.828656,37.92964],[-83.828513,37.929718],[-83.825903,37.930987],[-83.825605,37.931142],[-83.825322,37.93131],[-83.824934,37.931585],[-83.824475,37.931977],[-83.82338,37.932999],[-83.823176,37.933206],[-83.822997,37.933406],[-83.822853,37.933608],[-83.822797,37.933714],[-83.822754,37.933825],[-83.822725,37.93394],[-83.822662,37.934397],[-83.82261,37.934605],[-83.822329,37.935253],[-83.821949,37.936469],[-83.821914,37.936677],[-83.821915,37.936874],[-83.821949,37.937061],[-83.822029,37.937328],[-83.822051,37.937515],[-83.822039,37.937612],[-83.821989,37.937815],[-83.821859,37.93827],[-83.821831,37.938335],[-83.821785,37.938392],[-83.821724,37.938438],[-83.821568,37.938504],[-83.821068,37.938645],[-83.820234,37.938901],[-83.819685,37.939059],[-83.819419,37.939148],[-83.819293,37.939207],[-83.819178,37.93928],[-83.818857,37.939528],[-83.818647,37.939665],[-83.818544,37.939715],[-83.818435,37.939755],[-83.818143,37.939821],[-83.817793,37.939885],[-83.817521,37.939948],[-83.817394,37.93999],[-83.81728,37.940044],[-83.817181,37.940108],[-83.817092,37.940182],[-83.81701,37.940264],[-83.81673,37.940602],[-83.816592,37.940739],[-83.816515,37.940796],[-83.816326,37.940894],[-83.816212,37.940935],[-83.815835,37.941051],[-83.815456,37.941156],[-83.815235,37.941239],[-83.815061,37.941325],[-83.814711,37.941553],[-83.814615,37.941594],[-83.814524,37.941618],[-83.814416,37.94163],[-83.813952,37.9416],[-83.81383,37.9416],[-83.813473,37.941612],[-83.813239,37.941629],[-83.813004,37.941662],[-83.812887,37.941688],[-83.81268,37.941758],[-83.812597,37.941803],[-83.812529,37.941858],[-83.812478,37.941926],[-83.812445,37.942003],[-83.812429,37.942088],[-83.812394,37.942482],[-83.812372,37.942581],[-83.812303,37.942769],[-83.812036,37.943284],[-83.812018,37.943364],[-83.812023,37.943449],[-83.812052,37.943533],[-83.812139,37.943658],[-83.812235,37.943756],[-83.812875,37.944294],[-83.813436,37.944795],[-83.814312,37.945512],[-83.81442,37.945626],[-83.814456,37.945682],[-83.814494,37.945793],[-83.814507,37.945901]]}},{"type":"Feature","properties":{"osm_id":630769831,"highway":"residential","name":null,"alt_name":null,"official_name":null,"surface":null,"tracktype":null,"service":null,"access":null,"motor_vehicle":null,"foot":null,"tiger_reviewed":null,"rrgh_part":0,"rrgh_tile_part":0},"geometry":{"type":"LineString","coordinates":[[-83.826232,37.927095],[-83.8266475,37.9266829],[-83.8267954,37.9265662],[-83.8269925,37.9264739],[-83.8273623,37.9263864],[-83.8276334,37.9263086],[-83.8278552,37.9263475],[-83.8281695,37.9265662],[-83.8281202,37.9267363]]}},{"type":"Feature","properties":{"osm_id":630769830,"highway":"residential","name":null,"alt_name":null,"official_name":null,"surface":null,"tracktype":null,"service":null,"access":null,"motor_vehicle":null,"foot":null,"tiger_reviewed":null,"rrgh_part":0,"rrgh_tile_part":0},"geometry":{"type":"LineString","coordinates":[[-83.8328263,37.9319516],[-83.8332916,37.931398],[-83.8335905,37.9309339],[-83.8335718,37.9306687],[-83.8334784,37.9304035],[-83.8333009,37.930212]]}},{"type":"Feature","properties":{"osm_id":16316384,"highway":"residential","name":"Science Ridge Road","alt_name":null,"official_name":null,"surface":null,"tracktype":null,"service":null,"access":null,"motor_vehicle":null,"foot":null,"tiger_reviewed":"no","rrgh_part":0,"rrgh_tile_part":0},"geometry":{"type":"LineString","coordinates":[[-83.8222425,37.967567],[-83.8221297,37.9677327],[-83.8220652,37.9678399],[-83.8219755,37.9679626],[-83.8218774,37.9680753],[-83.821782,37.968177],[-83.8216783,37.9682732],[-83.821583,37.9683561],[-83.8214736,37.9684401],[-83.8212367,37.9685915],[-83.8211498,37.9686412],[-83.8209983,37.9687164],[-83.8205793,37.9689084],[-83.8200107,37.9691707],[-83.8198431,37.969248],[-83.819731,37.9693076],[-83.8196258,37.969374],[-83.8194562,37.9694977],[-83.8193763,37.9695707],[-83.8193062,37.9696492],[-83.8192431,37.9697309],[-83.8191576,37.969858],[-83.8191193,37.9699302],[-83.818943,37.970315],[-83.8187686,37.9706344],[-83.818706,37.970749],[-83.818422,37.971176],[-83.8180152,37.9718782],[-83.817962,37.971995],[-83.817835,37.972307],[-83.817612,37.972893],[-83.817178,37.973882],[-83.816893,37.974602],[-83.816768,37.974836],[-83.81666979640718,37.974999999999994]]}},{"type":"Feature","properties":{"osm_id":16317339,"highway":"residential","name":"New Cut Road","alt_name":null,"official_name":null,"surface":null,"tracktype":null,"service":null,"access":null,"motor_vehicle":null,"foot":null,"tiger_reviewed":"no","rrgh_part":0,"rrgh_tile_part":0},"geometry":{"type":"LineString","coordinates":[[-83.793973,37.957295],[-83.793932,37.957412],[-83.793933,37.957529],[-83.794101,37.958221],[-83.7943287,37.9592648],[-83.794462,37.959876],[-83.794519,37.960186],[-83.794562,37.960512],[-83.794579,37.960851],[-83.794567,37.961088],[-83.794432,37.962113],[-83.794432,37.962223],[-83.7944435,37.9623267],[-83.794457,37.962448],[-83.794517,37.96267],[-83.794558,37.962779],[-83.794666,37.96299],[-83.7948,37.963185],[-83.795335,37.9638],[-83.795915,37.964568],[-83.796334,37.965086],[-83.796475,37.96528],[-83.796595,37.965494],[-83.7967343,37.9658656],[-83.796874,37.966116],[-83.797225,37.96666],[-83.79736,37.966917],[-83.7973885,37.9669695],[-83.797418,37.967024],[-83.797482,37.967229],[-83.797543,37.967556],[-83.797596,37.967763],[-83.7977082,37.9680997],[-83.7977854,37.9683311],[-83.797814,37.968417],[-83.797884,37.9686744],[-83.7979597,37.9689527],[-83.79808,37.969395],[-83.798251,37.969929],[-83.798446,37.970759],[-83.798593,37.971382],[-83.798678,37.971549],[-83.798793,37.971696],[-83.7988611,37.9717581],[-83.79902,37.971903],[-83.799713,37.9724],[-83.800108,37.972709],[-83.800188,37.97279],[-83.8003005,37.9729042],[-83.800462,37.973068],[-83.800659,37.973336],[-83.800802,37.973498],[-83.801148,37.973766],[-83.801218,37.973837],[-83.801244,37.973905],[-83.801246,37.973973],[-83.801336,37.974149],[-83.801493,37.97454],[-83.801567,37.974738],[-83.801622,37.974938],[-83.80163014743589,37.974999999999994]]}},{"type":"Feature","properties":{"osm_id":16318034,"highway":"residential","name":"Clay Lick Road","alt_name":null,"official_name":null,"surface":null,"tracktype":null,"service":null,"access":null,"motor_vehicle":null,"foot":null,"tiger_reviewed":"no","rrgh_part":0,"rrgh_tile_part":0},"geometry":{"type":"LineString","coordinates":[[-83.79808,37.969395],[-83.796579,37.970182],[-83.79619,37.970366],[-83.796002,37.970424],[-83.795784,37.970453],[-83.795669,37.970455],[-83.795429,37.970437],[-83.795055,37.970376],[-83.794655,37.970282],[-83.794471,37.970222],[-83.794246,37.97013],[-83.793921,37.969964],[-83.793038,37.969485],[-83.792846,37.969401],[-83.79275,37.969373],[-83.792564,37.969345],[-83.792006,37.969355],[-83.791555,37.969345],[-83.789676,37.969238],[-83.789403,37.969214],[-83.78914,37.969173],[-83.788602,37.96904],[-83.788506,37.96903],[-83.788408,37.969032],[-83.78831,37.96905],[-83.78812,37.969126],[-83.787715,37.969363],[-83.787475,37.969488],[-83.786527,37.969943],[-83.785622,37.970501],[-83.785261,37.970757],[-83.785051,37.970951],[-83.784869,37.971161],[-83.784715,37.971389],[-83.784523,37.971736],[-83.784448,37.971842],[-83.784364,37.97194],[-83.784094,37.972202],[-83.783941,37.97238],[-83.783886,37.972476],[-83.783843,37.972577],[-83.78378,37.972786],[-83.783632,37.973401],[-83.783561,37.973654],[-83.783512,37.973755],[-83.783446,37.973849],[-83.783191,37.974098],[-83.783037,37.974277],[-83.782718,37.974797],[-83.78257580193237,37.974999999999994]]}},{"type":"Feature","properties":{"osm_id":16316631,"highway":"service","name":null,"alt_name":null,"official_name":null,"surface":null,"tracktype":null,"service":null,"access":"private","motor_vehicle":null,"foot":null,"tiger_reviewed":"no","rrgh_part":0,"rrgh_tile_part":0},"geometry":{"type":"LineString","coordinates":[[-83.827088,37.948019],[-83.826875,37.948684],[-83.826679,37.949294]]}},{"type":"Feature","properties":{"osm_id":1370701880,"highway":"service","name":null,"alt_name":null,"official_name":null,"surface":"gravel","tracktype":null,"service":null,"access":null,"motor_vehicle":null,"foot":null,"tiger_reviewed":null,"rrgh_part":0,"rrgh_tile_part":0},"geometry":{"type":"LineString","coordinates":[[-83.8330887,37.9431015],[-83.8330706,37.9428992],[-83.8331181,37.9426809],[-83.833385,37.9416079],[-83.833403,37.941455]]}},{"type":"Feature","properties":{"osm_id":16316513,"highway":"service","name":null,"alt_name":null,"official_name":null,"surface":null,"tracktype":null,"service":null,"access":null,"motor_vehicle":null,"foot":null,"tiger_reviewed":"no","rrgh_part":0,"rrgh_tile_part":0},"geometry":{"type":"LineString","coordinates":[[-83.8277352,37.9481169],[-83.8278402,37.9478419],[-83.8279522,37.9475479]]}},{"type":"Feature","properties":{"osm_id":16316681,"highway":"service","name":null,"alt_name":null,"official_name":null,"surface":null,"tracktype":null,"service":null,"access":null,"motor_vehicle":null,"foot":null,"tiger_reviewed":"no","rrgh_part":0,"rrgh_tile_part":0},"geometry":{"type":"LineString","coordinates":[[-83.829467,37.948516],[-83.829725,37.947759],[-83.829823,37.947472]]}},{"type":"Feature","properties":{"osm_id":16317141,"highway":"service","name":null,"alt_name":null,"official_name":null,"surface":null,"tracktype":null,"service":null,"access":null,"motor_vehicle":null,"foot":null,"tiger_reviewed":"no","rrgh_part":0,"rrgh_tile_part":0},"geometry":{"type":"LineString","coordinates":[[-83.8249777,37.9477508],[-83.8250147,37.9472088]]}},{"type":"Feature","properties":{"osm_id":16318364,"highway":"residential","name":"Henderson Road","alt_name":null,"official_name":null,"surface":null,"tracktype":null,"service":null,"access":null,"motor_vehicle":null,"foot":null,"tiger_reviewed":"no","rrgh_part":0,"rrgh_tile_part":0},"geometry":{"type":"LineString","coordinates":[[-83.815235,37.941239],[-83.81524,37.941116],[-83.815276,37.940932],[-83.815452,37.940467],[-83.815542,37.939665],[-83.815537,37.939445]]}},{"type":"Feature","properties":{"osm_id":16317444,"highway":"residential","name":"Mc Guire Lane","alt_name":null,"official_name":null,"surface":null,"tracktype":null,"service":null,"access":null,"motor_vehicle":null,"foot":null,"tiger_reviewed":"no","rrgh_part":0,"rrgh_tile_part":0},"geometry":{"type":"LineString","coordinates":[[-83.808182,37.948164],[-83.808217,37.948332],[-83.808254,37.948444],[-83.8083488,37.9486196],[-83.80844,37.948805],[-83.808502,37.949002],[-83.808555,37.949291],[-83.808592,37.949658],[-83.808593,37.950017],[-83.808602,37.950071],[-83.808651,37.950209],[-83.808649,37.950258],[-83.808629,37.950304],[-83.808545,37.950414]]}},{"type":"Feature","properties":{"osm_id":16318686,"highway":"residential","name":"Steel Road","alt_name":null,"official_name":null,"surface":null,"tracktype":null,"service":null,"access":null,"motor_vehicle":null,"foot":null,"tiger_reviewed":"no","rrgh_part":0,"rrgh_tile_part":0},"geometry":{"type":"LineString","coordinates":[[-83.805396,37.941224],[-83.80547,37.94094],[-83.805505,37.940913],[-83.805607,37.940927],[-83.806068,37.941049],[-83.806361,37.941142],[-83.807016,37.941406],[-83.807764,37.941685],[-83.80847,37.941965],[-83.80945,37.942326],[-83.809831,37.94245],[-83.810148,37.942538],[-83.810338,37.942577],[-83.81075,37.942627],[-83.810948,37.942673],[-83.811035,37.942709],[-83.811112,37.942757],[-83.811231,37.942857],[-83.811931,37.943464],[-83.812139,37.943658]]}},{"type":"Feature","properties":{"osm_id":16316919,"highway":"service","name":null,"alt_name":null,"official_name":null,"surface":null,"tracktype":null,"service":null,"access":null,"motor_vehicle":null,"foot":null,"tiger_reviewed":"no","rrgh_part":0,"rrgh_tile_part":0},"geometry":{"type":"LineString","coordinates":[[-83.8088292,37.9479629],[-83.8090646,37.9485251],[-83.8083488,37.9486196]]}},{"type":"Feature","properties":{"osm_id":630774109,"highway":"residential","name":null,"alt_name":null,"official_name":null,"surface":null,"tracktype":null,"service":null,"access":null,"motor_vehicle":null,"foot":null,"tiger_reviewed":null,"rrgh_part":0,"rrgh_tile_part":0},"geometry":{"type":"LineString","coordinates":[[-83.810148,37.942538],[-83.8098928,37.9439591]]}},{"type":"Feature","properties":{"osm_id":16316652,"highway":"service","name":null,"alt_name":null,"official_name":null,"surface":null,"tracktype":null,"service":null,"access":null,"motor_vehicle":null,"foot":null,"tiger_reviewed":"no","rrgh_part":0,"rrgh_tile_part":0},"geometry":{"type":"LineString","coordinates":[[-83.803837,37.947573],[-83.8036499,37.9477447],[-83.803663,37.947948],[-83.803701,37.948085],[-83.8038569,37.9482432],[-83.8040422,37.9484172]]}},{"type":"Feature","properties":{"osm_id":16316652,"highway":"service","name":null,"alt_name":null,"official_name":null,"surface":null,"tracktype":null,"service":null,"access":null,"motor_vehicle":null,"foot":null,"tiger_reviewed":"no","rrgh_part":1,"rrgh_tile_part":0},"geometry":{"type":"LineString","coordinates":[[-83.8040422,37.9484172],[-83.804158,37.948526],[-83.804249,37.948759],[-83.8041479,37.9489777],[-83.8040574,37.9490026],[-83.8039673,37.9489749],[-83.8039473,37.9488644],[-83.8039974,37.9487342],[-83.8040474,37.9485645],[-83.8040422,37.9484172]]}},{"type":"Feature","properties":{"osm_id":16317442,"highway":"residential","name":"Shepherd Cemetery Road","alt_name":null,"official_name":null,"surface":null,"tracktype":null,"service":null,"access":null,"motor_vehicle":null,"foot":null,"tiger_reviewed":"no","rrgh_part":0,"rrgh_tile_part":0},"geometry":{"type":"LineString","coordinates":[[-83.800723,37.946682],[-83.800578,37.946956],[-83.800409,37.947216],[-83.80028,37.94731],[-83.800122,37.947377],[-83.800049,37.947411],[-83.799983,37.947471],[-83.799858,37.947781],[-83.799824,37.947929],[-83.799823,37.948034],[-83.799882,37.948388],[-83.799978,37.948691],[-83.800283,37.948847]]}},{"type":"Feature","properties":{"osm_id":981105181,"highway":"service","name":null,"alt_name":null,"official_name":null,"surface":null,"tracktype":null,"service":null,"access":null,"motor_vehicle":null,"foot":null,"tiger_reviewed":null,"rrgh_part":0,"rrgh_tile_part":0},"geometry":{"type":"LineString","coordinates":[[-83.8023991,37.9471139],[-83.8024371,37.9470186],[-83.8024836,37.9469069],[-83.802521,37.946813],[-83.8025499,37.9467196],[-83.8025759,37.9466268],[-83.8025921,37.9465206],[-83.8026084,37.94644],[-83.802626,37.9463595],[-83.8026584,37.9462161]]}},{"type":"Feature","properties":{"osm_id":981105182,"highway":"service","name":null,"alt_name":null,"official_name":null,"surface":null,"tracktype":null,"service":null,"access":"private","motor_vehicle":null,"foot":null,"tiger_reviewed":null,"rrgh_part":0,"rrgh_tile_part":0},"geometry":{"type":"LineString","coordinates":[[-83.8026584,37.9462161],[-83.8026598,37.9461155],[-83.8026535,37.9460093],[-83.8026499,37.9459054],[-83.8026436,37.9458203],[-83.8026309,37.9457497]]}},{"type":"Feature","properties":{"osm_id":16317390,"highway":"residential","name":"Rogers Road","alt_name":null,"official_name":null,"surface":null,"tracktype":null,"service":null,"access":null,"motor_vehicle":null,"foot":null,"tiger_reviewed":"no","rrgh_part":0,"rrgh_tile_part":0},"geometry":{"type":"LineString","coordinates":[[-83.826201,37.957323],[-83.826881,37.956751],[-83.828034,37.955839],[-83.828227,37.955659],[-83.828411,37.955433],[-83.828513,37.955281],[-83.828625,37.955056],[-83.828693,37.954748],[-83.828718,37.954675],[-83.828755,37.954607],[-83.82886,37.954487],[-83.829378,37.954041],[-83.829443,37.953957],[-83.829499,37.953863],[-83.829526,37.953765],[-83.829531,37.953662],[-83.829509,37.953579],[-83.82946,37.953514],[-83.829394,37.953463],[-83.82927,37.953405],[-83.829241,37.953404],[-83.82917,37.953432],[-83.829126,37.953479]]}},{"type":"Feature","properties":{"osm_id":16318056,"highway":"residential","name":"Clevinger Lane","alt_name":null,"official_name":null,"surface":null,"tracktype":null,"service":null,"access":null,"motor_vehicle":null,"foot":null,"tiger_reviewed":"no","rrgh_part":0,"rrgh_tile_part":0},"geometry":{"type":"LineString","coordinates":[[-83.828034,37.955839],[-83.828133,37.955811],[-83.828334,37.955777],[-83.828726,37.955597],[-83.829039,37.955473],[-83.82986,37.95517],[-83.83004,37.955143],[-83.83016,37.955142],[-83.83032,37.955173],[-83.830428,37.955212],[-83.83055,37.955274],[-83.830645,37.955338],[-83.83089,37.955548],[-83.830965,37.955631],[-83.831046,37.955675],[-83.83115,37.955708],[-83.831208,37.955717],[-83.83132,37.955719],[-83.831393,37.95571]]}},{"type":"Feature","properties":{"osm_id":16316770,"highway":"service","name":null,"alt_name":null,"official_name":null,"surface":null,"tracktype":null,"service":null,"access":"private","motor_vehicle":null,"foot":null,"tiger_reviewed":"no","rrgh_part":0,"rrgh_tile_part":0},"geometry":{"type":"LineString","coordinates":[[-83.829303,37.961239],[-83.829834,37.961296],[-83.830192,37.961304],[-83.8303252,37.96128],[-83.8305674,37.9611453],[-83.8307857,37.9610045],[-83.8309675,37.9608268]]}},{"type":"Feature","properties":{"osm_id":16316773,"highway":"service","name":null,"alt_name":null,"official_name":null,"surface":null,"tracktype":null,"service":null,"access":null,"motor_vehicle":null,"foot":null,"tiger_reviewed":"no","rrgh_part":0,"rrgh_tile_part":0},"geometry":{"type":"LineString","coordinates":[[-83.829104,37.960088],[-83.82954,37.959854],[-83.830001,37.959578],[-83.830315,37.959336],[-83.830579,37.959151]]}},{"type":"Feature","properties":{"osm_id":16318323,"highway":"residential","name":"Chambers Road","alt_name":null,"official_name":null,"surface":null,"tracktype":null,"service":null,"access":null,"motor_vehicle":null,"foot":null,"tiger_reviewed":"no","rrgh_part":0,"rrgh_tile_part":0},"geometry":{"type":"LineString","coordinates":[[-83.809646,37.963968],[-83.80971,37.963704],[-83.809885,37.963177],[-83.8100447,37.9627211],[-83.810291,37.962018],[-83.810333,37.96186],[-83.810338,37.961689],[-83.810279,37.961185],[-83.810309,37.961024],[-83.810382,37.960863],[-83.810484,37.960708],[-83.810872,37.960283],[-83.810926,37.96021],[-83.810967,37.960133],[-83.810993,37.960056],[-83.811004,37.95998],[-83.811013,37.959721]]}},{"type":"Feature","properties":{"osm_id":16318322,"highway":"residential","name":"Chambers Road","alt_name":null,"official_name":null,"surface":null,"tracktype":null,"service":null,"access":null,"motor_vehicle":null,"foot":null,"tiger_reviewed":"no","rrgh_part":0,"rrgh_tile_part":0},"geometry":{"type":"LineString","coordinates":[[-83.810987,37.959643],[-83.811013,37.959721],[-83.811126,37.959636],[-83.811161,37.959588],[-83.811165,37.959533],[-83.811132,37.959504],[-83.811062,37.959499],[-83.811032,37.959513],[-83.811003,37.959547],[-83.810987,37.959643]]}},{"type":"Feature","properties":{"osm_id":630774108,"highway":"residential","name":null,"alt_name":null,"official_name":null,"surface":null,"tracktype":null,"service":null,"access":null,"motor_vehicle":null,"foot":null,"tiger_reviewed":null,"rrgh_part":0,"rrgh_tile_part":0},"geometry":{"type":"LineString","coordinates":[[-83.8291579,37.962128],[-83.8311719,37.9619889]]}},{"type":"Feature","properties":{"osm_id":836305208,"highway":"service","name":null,"alt_name":null,"official_name":null,"surface":null,"tracktype":null,"service":null,"access":null,"motor_vehicle":null,"foot":null,"tiger_reviewed":null,"rrgh_part":0,"rrgh_tile_part":0},"geometry":{"type":"LineString","coordinates":[[-83.8287744,37.9669978],[-83.828478,37.9670765]]}},{"type":"Feature","properties":{"osm_id":1441542392,"highway":"service","name":null,"alt_name":null,"official_name":null,"surface":null,"tracktype":null,"service":null,"access":null,"motor_vehicle":null,"foot":null,"tiger_reviewed":null,"rrgh_part":0,"rrgh_tile_part":0},"geometry":{"type":"LineString","coordinates":[[-83.8222425,37.967567],[-83.8223576,37.9674167],[-83.8223458,37.9671944],[-83.8221769,37.9668283],[-83.8221005,37.966587],[-83.8220488,37.9663635],[-83.8217933,37.966044],[-83.8217872,37.9658338],[-83.8214873,37.9656542]]}},{"type":"Feature","properties":{"osm_id":822067121,"highway":"service","name":null,"alt_name":null,"official_name":null,"surface":null,"tracktype":null,"service":null,"access":null,"motor_vehicle":null,"foot":null,"tiger_reviewed":null,"rrgh_part":0,"rrgh_tile_part":0},"geometry":{"type":"LineString","coordinates":[[-83.8280469,37.9690603],[-83.828076,37.9687881],[-83.8281454,37.9683731],[-83.828244,37.9676979],[-83.8283248,37.9673012],[-83.8283838,37.9671852],[-83.828478,37.9670765],[-83.8283753,37.9670048],[-83.8284207,37.9667404]]}},{"type":"Feature","properties":{"osm_id":1300948856,"highway":"residential","name":"Old US 460","alt_name":"Old Main Street","official_name":null,"surface":null,"tracktype":null,"service":null,"access":null,"motor_vehicle":null,"foot":null,"tiger_reviewed":"no","rrgh_part":0,"rrgh_tile_part":0},"geometry":{"type":"LineString","coordinates":[[-83.817367,37.965681],[-83.817567,37.965795],[-83.817701,37.965881],[-83.817895,37.966018],[-83.818598,37.966573],[-83.819043,37.966913],[-83.819336,37.967128],[-83.819527,37.96726],[-83.819662,37.967347],[-83.8197764,37.9674107],[-83.819811,37.96743],[-83.819975,37.967507],[-83.820321,37.967636],[-83.820782,37.967771],[-83.821438,37.96794],[-83.821581,37.967978]]}},{"type":"Feature","properties":{"osm_id":1300948858,"highway":"track","name":"Main Street","alt_name":null,"official_name":null,"surface":null,"tracktype":null,"service":null,"access":null,"motor_vehicle":null,"foot":null,"tiger_reviewed":"no","rrgh_part":0,"rrgh_tile_part":0},"geometry":{"type":"LineString","coordinates":[[-83.8222096,37.9681352],[-83.823304,37.968412],[-83.823967,37.968583],[-83.824407,37.968705],[-83.825241,37.968923],[-83.826,37.96911],[-83.826225,37.96916],[-83.826582,37.9692291]]}},{"type":"Feature","properties":{"osm_id":1300948859,"highway":"residential","name":"Science Ridge Road","alt_name":null,"official_name":null,"surface":null,"tracktype":null,"service":null,"access":null,"motor_vehicle":null,"foot":null,"tiger_reviewed":"no","rrgh_part":0,"rrgh_tile_part":0},"geometry":{"type":"LineString","coordinates":[[-83.821438,37.96794],[-83.821124,37.968124],[-83.820988,37.968186],[-83.82083,37.968231],[-83.820602,37.968275],[-83.820469,37.968327],[-83.820406,37.968368],[-83.820286,37.968478],[-83.820012,37.968769],[-83.8199146,37.9688901],[-83.819909,37.9689144],[-83.819909,37.9689564],[-83.8199146,37.9689951],[-83.8199455,37.9690636],[-83.8200107,37.9691707]]}},{"type":"Feature","properties":{"osm_id":1300948862,"highway":"track","name":null,"alt_name":null,"official_name":null,"surface":null,"tracktype":null,"service":null,"access":null,"motor_vehicle":null,"foot":null,"tiger_reviewed":null,"rrgh_part":0,"rrgh_tile_part":0},"geometry":{"type":"LineString","coordinates":[[-83.8222096,37.9681352],[-83.8218696,37.9685433],[-83.8215463,37.9688387],[-83.8213359,37.9689357],[-83.8211512,37.968956],[-83.8209767,37.9689843],[-83.8207085,37.969059]]}},{"type":"Feature","properties":{"osm_id":16316960,"highway":"service","name":null,"alt_name":null,"official_name":null,"surface":null,"tracktype":null,"service":null,"access":"private","motor_vehicle":null,"foot":null,"tiger_reviewed":"no","rrgh_part":0,"rrgh_tile_part":0},"geometry":{"type":"LineString","coordinates":[[-83.8315045,37.9714316],[-83.8316225,37.9713661],[-83.8316815,37.9713195],[-83.83177,37.9712265],[-83.8318586,37.9709347],[-83.8319083,37.9706383],[-83.8319003,37.9702662]]}},{"type":"Feature","properties":{"osm_id":313433096,"highway":"service","name":null,"alt_name":null,"official_name":null,"surface":null,"tracktype":null,"service":null,"access":null,"motor_vehicle":null,"foot":null,"tiger_reviewed":null,"rrgh_part":0,"rrgh_tile_part":0},"geometry":{"type":"LineString","coordinates":[[-83.828497,37.9693907],[-83.8284425,37.9695324],[-83.8284147,37.9697188],[-83.8285189,37.9699191],[-83.8284538,37.9702323],[-83.8284407,37.9704942],[-83.8285189,37.9710641],[-83.828558,37.9712952],[-83.828558,37.9715263],[-83.8286101,37.9716187],[-83.8287729,37.9717265],[-83.8288315,37.9718241],[-83.8287859,37.9719422],[-83.8286882,37.9720808],[-83.8286492,37.9723735]]}},{"type":"Feature","properties":{"osm_id":1300948857,"highway":"track","name":"Main Street","alt_name":null,"official_name":null,"surface":null,"tracktype":null,"service":null,"access":null,"motor_vehicle":null,"foot":null,"tiger_reviewed":"no","rrgh_part":0,"rrgh_tile_part":0},"geometry":{"type":"LineString","coordinates":[[-83.827958,37.969452],[-83.8284425,37.9695324]]}},{"type":"Feature","properties":{"osm_id":1300948863,"highway":"track","name":null,"alt_name":null,"official_name":null,"surface":null,"tracktype":null,"service":null,"access":null,"motor_vehicle":null,"foot":null,"tiger_reviewed":null,"rrgh_part":0,"rrgh_tile_part":0},"geometry":{"type":"LineString","coordinates":[[-83.8209254,37.969312],[-83.8207085,37.969059],[-83.8205793,37.9689084]]}},{"type":"Feature","properties":{"osm_id":1300948864,"highway":"residential","name":null,"alt_name":null,"official_name":null,"surface":null,"tracktype":null,"service":null,"access":null,"motor_vehicle":null,"foot":null,"tiger_reviewed":null,"rrgh_part":0,"rrgh_tile_part":0},"geometry":{"type":"LineString","coordinates":[[-83.8197764,37.9674107],[-83.820298,37.9666675]]}},{"type":"Feature","properties":{"osm_id":1441542393,"highway":"service","name":null,"alt_name":null,"official_name":null,"surface":null,"tracktype":null,"service":null,"access":null,"motor_vehicle":null,"foot":null,"tiger_reviewed":null,"rrgh_part":0,"rrgh_tile_part":0},"geometry":{"type":"LineString","coordinates":[[-83.8173098,37.9665805],[-83.817401,37.9663268],[-83.8173581,37.9661492],[-83.8173688,37.9660519],[-83.817567,37.965795]]}},{"type":"Feature","properties":{"osm_id":1441542394,"highway":"service","name":null,"alt_name":null,"official_name":null,"surface":null,"tracktype":null,"service":null,"access":null,"motor_vehicle":null,"foot":null,"tiger_reviewed":null,"rrgh_part":0,"rrgh_tile_part":0},"geometry":{"type":"LineString","coordinates":[[-83.8154551,37.9658701],[-83.8156212,37.9654134],[-83.8157281,37.9650111],[-83.8158839,37.9645678],[-83.8158678,37.9645212],[-83.8158678,37.964331],[-83.8159,37.964128]]}},{"type":"Feature","properties":{"osm_id":16317196,"highway":"residential","name":"Hickory Ridge Lane","alt_name":null,"official_name":null,"surface":null,"tracktype":null,"service":null,"access":null,"motor_vehicle":null,"foot":null,"tiger_reviewed":"no","rrgh_part":0,"rrgh_tile_part":0},"geometry":{"type":"LineString","coordinates":[[-83.809331,37.966662],[-83.810915,37.967136]]}},{"type":"Feature","properties":{"osm_id":16318111,"highway":"residential","name":"Wade Lane","alt_name":null,"official_name":null,"surface":null,"tracktype":null,"service":null,"access":null,"motor_vehicle":null,"foot":null,"tiger_reviewed":"no","rrgh_part":0,"rrgh_tile_part":0},"geometry":{"type":"LineString","coordinates":[[-83.809544,37.96546],[-83.810369,37.965542],[-83.810956,37.965614]]}},{"type":"Feature","properties":{"osm_id":16318721,"highway":"residential","name":"Parish Road","alt_name":null,"official_name":null,"surface":null,"tracktype":null,"service":null,"access":null,"motor_vehicle":null,"foot":null,"tiger_reviewed":"no","rrgh_part":0,"rrgh_tile_part":0},"geometry":{"type":"LineString","coordinates":[[-83.809796,37.963975],[-83.809672,37.964783],[-83.809544,37.96546],[-83.809354,37.966476],[-83.809331,37.966662],[-83.809228,37.96705]]}},{"type":"Feature","properties":{"osm_id":630774110,"highway":"residential","name":null,"alt_name":null,"official_name":null,"surface":null,"tracktype":null,"service":null,"access":null,"motor_vehicle":null,"foot":null,"tiger_reviewed":null,"rrgh_part":0,"rrgh_tile_part":0},"geometry":{"type":"LineString","coordinates":[[-83.8100447,37.9627211],[-83.8112852,37.9627403]]}},{"type":"Feature","properties":{"osm_id":16318288,"highway":"residential","name":"Long Branch Road","alt_name":null,"official_name":null,"surface":null,"tracktype":null,"service":null,"access":null,"motor_vehicle":null,"foot":null,"tiger_reviewed":"no","rrgh_part":0,"rrgh_tile_part":0},"geometry":{"type":"LineString","coordinates":[[-83.8180152,37.9718782],[-83.8179012,37.9717658],[-83.8175511,37.9714234],[-83.8171386,37.971205],[-83.8167218,37.9711457],[-83.815577,37.971102],[-83.8148304,37.9709542],[-83.8141078,37.970903],[-83.813471,37.970337],[-83.8125221,37.9697788],[-83.8123421,37.9696972],[-83.812101,37.969784],[-83.8106817,37.9708778],[-83.8102893,37.9712993],[-83.8100552,37.9726411],[-83.8100249,37.97283],[-83.810016,37.972921],[-83.8099649,37.9730741],[-83.8098615,37.9731395],[-83.8090289,37.973595],[-83.808624,37.973928],[-83.808446,37.974258],[-83.808468,37.974821],[-83.80850765650406,37.974999999999994]]}},{"type":"Feature","properties":{"osm_id":630782467,"highway":"residential","name":"Williams Lane","alt_name":null,"official_name":null,"surface":null,"tracktype":null,"service":null,"access":null,"motor_vehicle":null,"foot":null,"tiger_reviewed":null,"rrgh_part":0,"rrgh_tile_part":0},"geometry":{"type":"LineString","coordinates":[[-83.8123421,37.9696972],[-83.8118949,37.9694071],[-83.8116218,37.9692456],[-83.8114853,37.9692157],[-83.8110908,37.9693174],[-83.8107721,37.9692875],[-83.8101956,37.9692396],[-83.809968,37.9692695],[-83.8096645,37.9693413],[-83.8094976,37.969419],[-83.8092017,37.969431],[-83.8089514,37.969437],[-83.8076162,37.970053],[-83.8072596,37.9701248],[-83.8067134,37.9701068],[-83.8064706,37.9700769],[-83.8062885,37.9700829],[-83.8060458,37.9700829]]}},{"type":"Feature","properties":{"osm_id":631004040,"highway":"residential","name":null,"alt_name":null,"official_name":null,"surface":null,"tracktype":null,"service":null,"access":null,"motor_vehicle":null,"foot":null,"tiger_reviewed":null,"rrgh_part":0,"rrgh_tile_part":0},"geometry":{"type":"LineString","coordinates":[[-83.81331723195478,37.974999999999994],[-83.8133233,37.9744632],[-83.8134404,37.9741523],[-83.8137855,37.9737394],[-83.8140874,37.9736423]]}},{"type":"Feature","properties":{"osm_id":16316935,"highway":"service","name":null,"alt_name":null,"official_name":null,"surface":null,"tracktype":null,"service":null,"access":null,"motor_vehicle":null,"foot":null,"tiger_reviewed":"no","rrgh_part":0,"rrgh_tile_part":0},"geometry":{"type":"LineString","coordinates":[[-83.8187686,37.9706344],[-83.8184262,37.9704679],[-83.8180772,37.9700509],[-83.8178342,37.9699389],[-83.8173662,37.9698819]]}},{"type":"Feature","properties":{"osm_id":16316646,"highway":"service","name":null,"alt_name":null,"official_name":null,"surface":null,"tracktype":null,"service":null,"access":"private","motor_vehicle":null,"foot":null,"tiger_reviewed":"no","rrgh_part":0,"rrgh_tile_part":0},"geometry":{"type":"LineString","coordinates":[[-83.793852,37.95722],[-83.793952,37.9570862],[-83.7940693,37.9570091],[-83.7942581,37.9569321],[-83.7945903,37.9568551],[-83.795121,37.956805]]}},{"type":"Feature","properties":{"osm_id":16317471,"highway":"service","name":"Lovely Cemetery Lane","alt_name":null,"official_name":null,"surface":null,"tracktype":null,"service":null,"access":null,"motor_vehicle":null,"foot":null,"tiger_reviewed":"no","rrgh_part":0,"rrgh_tile_part":0},"geometry":{"type":"LineString","coordinates":[[-83.794921,37.958093],[-83.795086,37.958046],[-83.795459,37.957968],[-83.795985,37.957842],[-83.796083,37.957804],[-83.796118,37.957781],[-83.796168,37.957699],[-83.796196,37.957592],[-83.796176,37.957495],[-83.79613,37.957445],[-83.796041,37.957409],[-83.795987,37.9574],[-83.795755,37.957377],[-83.795554,37.957368],[-83.795294,37.95737],[-83.794942,37.957399],[-83.794811,37.957395],[-83.794689,37.957373],[-83.79444,37.957301],[-83.794315,37.957277],[-83.794035,37.957337]]}},{"type":"Feature","properties":{"osm_id":16318279,"highway":"residential","name":"Forest Lake Drive","alt_name":null,"official_name":null,"surface":null,"tracktype":null,"service":null,"access":null,"motor_vehicle":null,"foot":null,"tiger_reviewed":"no","rrgh_part":0,"rrgh_tile_part":0},"geometry":{"type":"LineString","coordinates":[[-83.796254,37.959323],[-83.796309,37.95925],[-83.796317,37.959208],[-83.796293,37.959128],[-83.796228,37.959005],[-83.796198,37.958899],[-83.796191,37.958783],[-83.796216,37.958674],[-83.796247,37.958626],[-83.796289,37.958586],[-83.796401,37.958523],[-83.79654,37.958484],[-83.796774,37.958462],[-83.796943,37.958452],[-83.797101,37.95842],[-83.797304,37.958333],[-83.797492,37.958221],[-83.797613,37.958141],[-83.797818,37.957961],[-83.798318,37.957424],[-83.798454,37.957304],[-83.79855,37.957245],[-83.798647,37.957201],[-83.798913,37.957137],[-83.799978,37.956953],[-83.800396,37.956873],[-83.800716,37.956831],[-83.80087,37.956828],[-83.801071,37.956861],[-83.80119,37.956909],[-83.801645,37.957173],[-83.8020371,37.9573945],[-83.8021316,37.9574417],[-83.8022479,37.9574835],[-83.8023597,37.9575103],[-83.8024644,37.957525],[-83.8026015,37.9575324],[-83.8030792,37.9575289],[-83.804337,37.9574948],[-83.805026,37.9575025]]}},{"type":"Feature","properties":{"osm_id":313433347,"highway":"service","name":null,"alt_name":null,"official_name":null,"surface":null,"tracktype":null,"service":null,"access":null,"motor_vehicle":null,"foot":null,"tiger_reviewed":null,"rrgh_part":0,"rrgh_tile_part":0},"geometry":{"type":"LineString","coordinates":[[-83.7999509,37.9617133],[-83.8004264,37.9626222],[-83.800498,37.9628174],[-83.800516,37.9629895]]}},{"type":"Feature","properties":{"osm_id":16316532,"highway":"service","name":null,"alt_name":null,"official_name":null,"surface":null,"tracktype":null,"service":null,"access":"private","motor_vehicle":null,"foot":null,"tiger_reviewed":"no","rrgh_part":0,"rrgh_tile_part":0},"geometry":{"type":"LineString","coordinates":[[-83.795121,37.956805],[-83.79543,37.95671],[-83.796009,37.956363],[-83.796455,37.956057],[-83.7970589,37.9557868],[-83.7973325,37.9558177],[-83.7973651,37.9559306]]}},{"type":"Feature","properties":{"osm_id":16316843,"highway":"service","name":null,"alt_name":null,"official_name":null,"surface":null,"tracktype":null,"service":null,"access":null,"motor_vehicle":null,"foot":null,"tiger_reviewed":"no","rrgh_part":0,"rrgh_tile_part":0},"geometry":{"type":"LineString","coordinates":[[-83.784344,37.953486],[-83.7845857,37.9532395],[-83.784755,37.9530083],[-83.7849309,37.9526026],[-83.7850286,37.9523304]]}},{"type":"Feature","properties":{"osm_id":1441542361,"highway":"service","name":null,"alt_name":null,"official_name":null,"surface":null,"tracktype":null,"service":null,"access":null,"motor_vehicle":null,"foot":null,"tiger_reviewed":null,"rrgh_part":0,"rrgh_tile_part":0},"geometry":{"type":"LineString","coordinates":[[-83.7894044,37.9558322],[-83.789844,37.9549674],[-83.789978,37.9547983]]}},{"type":"Feature","properties":{"osm_id":1441542362,"highway":"service","name":null,"alt_name":null,"official_name":null,"surface":null,"tracktype":null,"service":null,"access":null,"motor_vehicle":null,"foot":null,"tiger_reviewed":null,"rrgh_part":0,"rrgh_tile_part":0},"geometry":{"type":"LineString","coordinates":[[-83.7889756,37.9565567],[-83.7897636,37.9566666],[-83.7898065,37.9565947],[-83.7900531,37.9560131]]}},{"type":"Feature","properties":{"osm_id":1441542363,"highway":"service","name":null,"alt_name":null,"official_name":null,"surface":null,"tracktype":null,"service":null,"access":null,"motor_vehicle":null,"foot":null,"tiger_reviewed":null,"rrgh_part":0,"rrgh_tile_part":0},"geometry":{"type":"LineString","coordinates":[[-83.7924676,37.9592056],[-83.7925802,37.9591634],[-83.7927894,37.9591591],[-83.7933847,37.9592141],[-83.7943287,37.9592648]]}},{"type":"Feature","properties":{"osm_id":16316382,"highway":"residential","name":"McFarland Road","alt_name":null,"official_name":null,"surface":null,"tracktype":null,"service":null,"access":null,"motor_vehicle":null,"foot":null,"tiger_reviewed":"no","rrgh_part":0,"rrgh_tile_part":0},"geometry":{"type":"LineString","coordinates":[[-83.806932,37.963815],[-83.8069,37.963952],[-83.806838,37.964124],[-83.806631,37.964554],[-83.806097,37.965578],[-83.805763,37.966251],[-83.805743,37.966309],[-83.805744,37.966361],[-83.805765,37.9664],[-83.805832,37.966474],[-83.806019,37.966624],[-83.806051,37.966665],[-83.806147,37.966842],[-83.806335,37.967077],[-83.806362,37.967151],[-83.806358,37.967189],[-83.806331,37.967251]]}},{"type":"Feature","properties":{"osm_id":16317220,"highway":"residential","name":"Lovely Lane","alt_name":null,"official_name":null,"surface":null,"tracktype":null,"service":null,"access":null,"motor_vehicle":null,"foot":null,"tiger_reviewed":"no","rrgh_part":0,"rrgh_tile_part":0},"geometry":{"type":"LineString","coordinates":[[-83.802854,37.963453],[-83.802807,37.96366],[-83.802803,37.963831],[-83.802817,37.963895],[-83.8029,37.964091],[-83.802919,37.964159],[-83.802924,37.964309],[-83.802781,37.965106],[-83.802751,37.965374],[-83.802757,37.966127],[-83.802748,37.966689],[-83.802763,37.966903]]}},{"type":"Feature","properties":{"osm_id":16316694,"highway":"service","name":null,"alt_name":null,"official_name":null,"surface":null,"tracktype":null,"service":null,"access":null,"motor_vehicle":null,"foot":null,"tiger_reviewed":"no","rrgh_part":0,"rrgh_tile_part":0},"geometry":{"type":"LineString","coordinates":[[-83.7967343,37.9658656],[-83.7963697,37.9658945],[-83.7959886,37.9659182],[-83.7955678,37.9658913]]}},{"type":"Feature","properties":{"osm_id":16318433,"highway":"residential","name":"Rocky Branch Road","alt_name":null,"official_name":null,"surface":null,"tracktype":null,"service":null,"access":null,"motor_vehicle":null,"foot":null,"tiger_reviewed":"no","rrgh_part":0,"rrgh_tile_part":0},"geometry":{"type":"LineString","coordinates":[[-83.800871,37.963096],[-83.800626,37.963173],[-83.800533,37.963203],[-83.800137,37.963263],[-83.800036,37.963283],[-83.799943,37.963318],[-83.799861,37.96337],[-83.799782,37.963435],[-83.799238,37.963911],[-83.79907,37.964072],[-83.798867,37.964313],[-83.79849,37.964852],[-83.7982,37.965166],[-83.798074,37.965326],[-83.7980182,37.9654304],[-83.797981,37.9655],[-83.79787,37.9657687],[-83.797836,37.965851],[-83.797662,37.966196],[-83.797554,37.966467],[-83.797436,37.966709],[-83.79736,37.966917]]}},{"type":"Feature","properties":{"osm_id":16317671,"highway":"residential","name":"Timber Lane","alt_name":null,"official_name":null,"surface":null,"tracktype":null,"service":null,"access":null,"motor_vehicle":null,"foot":null,"tiger_reviewed":"no","rrgh_part":0,"rrgh_tile_part":0},"geometry":{"type":"LineString","coordinates":[[-83.798446,37.970759],[-83.797832,37.970996],[-83.79722,37.971156],[-83.796911,37.971276],[-83.796403,37.971528],[-83.7963296,37.9715703],[-83.796219,37.971634],[-83.79605,37.971758],[-83.795979,37.971835],[-83.795922,37.97192],[-83.795879,37.972009],[-83.795823,37.972186],[-83.795748,37.972529],[-83.795694,37.972703],[-83.795623,37.97287],[-83.795529,37.973025],[-83.795395,37.973167],[-83.795315,37.973231],[-83.7949242,37.9734991],[-83.794882,37.973528],[-83.794734,37.973648],[-83.793622,37.974769],[-83.793495,37.974867],[-83.793428,37.974897],[-83.793351,37.974913],[-83.793167,37.97491],[-83.792134,37.974769],[-83.791829,37.974725],[-83.791105,37.974587],[-83.790341,37.974463],[-83.789298,37.974272]]}},{"type":"Feature","properties":{"osm_id":16318095,"highway":"residential","name":"Cottonwood Lane","alt_name":null,"official_name":null,"surface":null,"tracktype":null,"service":null,"access":null,"motor_vehicle":null,"foot":null,"tiger_reviewed":"no","rrgh_part":0,"rrgh_tile_part":0},"geometry":{"type":"LineString","coordinates":[[-83.79212756315789,37.974999999999994],[-83.792126,37.974989],[-83.792121,37.974907],[-83.792134,37.974769]]}},{"type":"Feature","properties":{"osm_id":1441542364,"highway":"service","name":null,"alt_name":null,"official_name":null,"surface":null,"tracktype":null,"service":null,"access":null,"motor_vehicle":null,"foot":null,"tiger_reviewed":null,"rrgh_part":0,"rrgh_tile_part":0},"geometry":{"type":"LineString","coordinates":[[-83.7914694,37.963553],[-83.7915874,37.9627073],[-83.7916893,37.9624113],[-83.7917805,37.9623098],[-83.7918771,37.9622421],[-83.7920326,37.9621702],[-83.7921667,37.9621279],[-83.7923277,37.9620983],[-83.7927193,37.9621068],[-83.7930197,37.9621322],[-83.793127,37.9621618],[-83.7933416,37.9622675],[-83.7936044,37.9623732],[-83.7939209,37.9623563],[-83.7944435,37.9623267]]}},{"type":"Feature","properties":{"osm_id":1441542365,"highway":"service","name":null,"alt_name":null,"official_name":null,"surface":null,"tracktype":null,"service":null,"access":null,"motor_vehicle":null,"foot":null,"tiger_reviewed":null,"rrgh_part":0,"rrgh_tile_part":0},"geometry":{"type":"LineString","coordinates":[[-83.7955678,37.9658913],[-83.794629,37.9658321],[-83.7937868,37.9657729],[-83.7933147,37.9656799],[-83.7931323,37.965663],[-83.7929231,37.9656968],[-83.792789,37.9657518],[-83.7924242,37.9660013],[-83.7922633,37.9660901],[-83.7921614,37.9661281],[-83.7919844,37.966145],[-83.7918771,37.9661239],[-83.7917805,37.9660731],[-83.7917376,37.9660309],[-83.791641,37.9658913],[-83.7915337,37.965608],[-83.7914694,37.9655446],[-83.7911797,37.9654008],[-83.7909651,37.9653332],[-83.7904877,37.965219],[-83.7899405,37.9651133],[-83.7896562,37.9650668],[-83.7893665,37.9650668],[-83.7892163,37.9650837],[-83.788535,37.9651048],[-83.7883258,37.9651556],[-83.7880576,37.9653289]]}},{"type":"Feature","properties":{"osm_id":1441542377,"highway":"service","name":null,"alt_name":null,"official_name":null,"surface":null,"tracktype":null,"service":null,"access":null,"motor_vehicle":null,"foot":null,"tiger_reviewed":null,"rrgh_part":0,"rrgh_tile_part":0},"geometry":{"type":"LineString","coordinates":[[-83.8027115,37.9714455],[-83.8026257,37.9716061],[-83.8022503,37.9719104],[-83.8021484,37.9720498],[-83.8021055,37.9721766],[-83.802068,37.972409],[-83.8021002,37.9728231],[-83.8020841,37.9729245],[-83.8020466,37.973026],[-83.8019822,37.9731316],[-83.8018642,37.9732795],[-83.8015693,37.9734316],[-83.8013011,37.9734908],[-83.8011671,37.9735035],[-83.8010169,37.9734781],[-83.8007523,37.9731976],[-83.8006038,37.9729554],[-83.8004702,37.9728974],[-83.8003005,37.9729042]]}},{"type":"Feature","properties":{"osm_id":16316852,"highway":"service","name":null,"alt_name":null,"official_name":null,"surface":null,"tracktype":null,"service":null,"access":"private","motor_vehicle":null,"foot":null,"tiger_reviewed":"no","rrgh_part":0,"rrgh_tile_part":0},"geometry":{"type":"LineString","coordinates":[[-83.800188,37.97279],[-83.800164,37.972807],[-83.799869,37.97301],[-83.799652,37.973265],[-83.799587,37.973468],[-83.799473,37.973713]]}},{"type":"Feature","properties":{"osm_id":16317257,"highway":"residential","name":"Fay Street","alt_name":null,"official_name":null,"surface":null,"tracktype":null,"service":null,"access":null,"motor_vehicle":null,"foot":null,"tiger_reviewed":"no","rrgh_part":0,"rrgh_tile_part":0},"geometry":{"type":"LineString","coordinates":[[-83.783632,37.973401],[-83.783806,37.973582],[-83.78444,37.974312],[-83.784798,37.974742],[-83.784933,37.974877],[-83.78507209345794,37.974999999999994]]}},{"type":"Feature","properties":{"osm_id":16317257,"highway":"residential","name":"Fay Street","alt_name":null,"official_name":null,"surface":null,"tracktype":null,"service":null,"access":null,"motor_vehicle":null,"foot":null,"tiger_reviewed":"no","rrgh_part":0,"rrgh_tile_part":1},"geometry":{"type":"LineString","coordinates":[[-83.78675901675977,37.974999999999994],[-83.786625,37.974839],[-83.786433,37.974541],[-83.786293,37.974227],[-83.786037,37.973495],[-83.785994,37.973418],[-83.785943,37.973357],[-83.785888,37.973315],[-83.785825,37.973287],[-83.785259,37.973165],[-83.784282,37.972908],[-83.78378,37.972786]]}},{"type":"Feature","properties":{"osm_id":894791990,"highway":"residential","name":"Upper Cane Creek Road","alt_name":null,"official_name":null,"surface":null,"tracktype":null,"service":null,"access":null,"motor_vehicle":null,"foot":null,"tiger_reviewed":"no","rrgh_part":0,"rrgh_tile_part":0},"geometry":{"type":"LineString","coordinates":[[-83.76662013953488,37.9],[-83.766568,37.900295],[-83.766554,37.900647],[-83.766601,37.901006],[-83.766733,37.901497],[-83.766803,37.901704],[-83.766922,37.902132],[-83.767118,37.902619],[-83.767146,37.90271],[-83.7671745,37.9028079]]}},{"type":"Feature","properties":{"osm_id":16309196,"highway":"track","name":"Upper Cane Creek Road","alt_name":null,"official_name":null,"surface":null,"tracktype":null,"service":null,"access":null,"motor_vehicle":null,"foot":null,"tiger_reviewed":"no","rrgh_part":0,"rrgh_tile_part":0},"geometry":{"type":"LineString","coordinates":[[-83.76,37.913288175045594],[-83.7602801,37.9132508],[-83.7608922,37.912911],[-83.7613546,37.9127907],[-83.7617338,37.9127916],[-83.7618434,37.9127571],[-83.761896,37.91256],[-83.762119,37.9122721],[-83.7626028,37.912027],[-83.763034,37.9116997],[-83.7636238,37.9111902],[-83.7639193,37.9108905],[-83.7641325,37.9106634],[-83.7642294,37.9102539],[-83.7640531,37.9101193],[-83.7643323,37.9091716],[-83.763993,37.9086193],[-83.7638091,37.9083362],[-83.7636967,37.9081309],[-83.7638807,37.9078845],[-83.7642623,37.9074978],[-83.7646251,37.9066001],[-83.7647197,37.9062289],[-83.764791,37.9058101],[-83.764843,37.9054974],[-83.7648418,37.9053253],[-83.764954,37.905148],[-83.765263,37.904845],[-83.765655,37.904521],[-83.765769,37.90441],[-83.765938,37.904255],[-83.765962,37.904238],[-83.766451,37.903933],[-83.766547,37.903891],[-83.766697,37.903847],[-83.766744,37.903813],[-83.766784,37.903736],[-83.766907,37.903313],[-83.766926,37.90306],[-83.766946,37.902934],[-83.767002,37.902789],[-83.767015,37.902759],[-83.767118,37.902619]]}},{"type":"Feature","properties":{"osm_id":16310167,"highway":"service","name":"Buel Hall Road","alt_name":null,"official_name":null,"surface":null,"tracktype":null,"service":null,"access":null,"motor_vehicle":null,"foot":null,"tiger_reviewed":null,"rrgh_part":0,"rrgh_tile_part":0},"geometry":{"type":"LineString","coordinates":[[-83.7625777,37.9331374],[-83.762254,37.93341],[-83.761846,37.933668],[-83.761787,37.933724],[-83.761747,37.933813],[-83.761757,37.9338681],[-83.7619343,37.9341481],[-83.7620402,37.9343637],[-83.762172,37.934885],[-83.7622209,37.934993],[-83.7622853,37.9350627],[-83.7623898,37.9351341],[-83.7623657,37.935226],[-83.7623958,37.935337],[-83.7624742,37.9353862],[-83.7626009,37.935429]]}},{"type":"Feature","properties":{"osm_id":1350659320,"highway":"service","name":"Buel Hall Road","alt_name":null,"official_name":null,"surface":null,"tracktype":null,"service":null,"access":null,"motor_vehicle":null,"foot":null,"tiger_reviewed":null,"rrgh_part":0,"rrgh_tile_part":0},"geometry":{"type":"LineString","coordinates":[[-83.762861,37.9328882],[-83.7627518,37.9329799],[-83.7626466,37.9330769]]}},{"type":"Feature","properties":{"osm_id":1350659321,"highway":"service","name":"Buel Hall Road","alt_name":null,"official_name":null,"surface":null,"tracktype":null,"service":null,"access":null,"motor_vehicle":null,"foot":null,"tiger_reviewed":null,"rrgh_part":0,"rrgh_tile_part":0},"geometry":{"type":"LineString","coordinates":[[-83.7626466,37.9330769],[-83.7625777,37.9331374]]}},{"type":"Feature","properties":{"osm_id":16310303,"highway":"service","name":"Daughtery Road","alt_name":null,"official_name":null,"surface":null,"tracktype":null,"service":null,"access":"private","motor_vehicle":null,"foot":null,"tiger_reviewed":"no","rrgh_part":0,"rrgh_tile_part":0},"geometry":{"type":"LineString","coordinates":[[-83.7689527,37.938077],[-83.7690322,37.938021],[-83.770009,37.937397],[-83.770313,37.937214],[-83.770389,37.937187]]}},{"type":"Feature","properties":{"osm_id":16309239,"highway":"residential","name":"Amon Peyton Lane","alt_name":null,"official_name":null,"surface":null,"tracktype":null,"service":null,"access":null,"motor_vehicle":null,"foot":null,"tiger_reviewed":"no","rrgh_part":0,"rrgh_tile_part":0},"geometry":{"type":"LineString","coordinates":[[-83.770895,37.949194],[-83.7709,37.949007],[-83.770892,37.948807],[-83.770921,37.948381],[-83.770944,37.94758],[-83.770968,37.947335],[-83.771015,37.947217]]}},{"type":"Feature","properties":{"osm_id":16317548,"highway":"residential","name":"Cooks Branch Road","alt_name":null,"official_name":null,"surface":null,"tracktype":null,"service":null,"access":null,"motor_vehicle":null,"foot":null,"tiger_reviewed":"no","rrgh_part":0,"rrgh_tile_part":0},"geometry":{"type":"LineString","coordinates":[[-83.776847,37.942261],[-83.776755,37.942265],[-83.776716,37.942283],[-83.776659,37.942347],[-83.776629,37.942437],[-83.776512,37.943003],[-83.776279,37.944021],[-83.775854,37.945806],[-83.7754957,37.9472316],[-83.775059,37.948969],[-83.774806,37.949954]]}},{"type":"Feature","properties":{"osm_id":1350659331,"highway":"service","name":null,"alt_name":null,"official_name":null,"surface":null,"tracktype":null,"service":null,"access":null,"motor_vehicle":null,"foot":null,"tiger_reviewed":null,"rrgh_part":0,"rrgh_tile_part":0},"geometry":{"type":"LineString","coordinates":[[-83.7754957,37.9472316],[-83.77537,37.9471934],[-83.7753,37.9471499],[-83.7752355,37.9470858],[-83.7750725,37.946934]]}},{"type":"Feature","properties":{"osm_id":1350659331,"highway":"service","name":null,"alt_name":null,"official_name":null,"surface":null,"tracktype":null,"service":null,"access":null,"motor_vehicle":null,"foot":null,"tiger_reviewed":null,"rrgh_part":1,"rrgh_tile_part":0},"geometry":{"type":"LineString","coordinates":[[-83.7750725,37.946934],[-83.7749198,37.9468929],[-83.7747653,37.9468629],[-83.7742814,37.9468953],[-83.7740251,37.9469133],[-83.7739437,37.9469001],[-83.7738859,37.9468594],[-83.7738553,37.9468008],[-83.7737678,37.9460976],[-83.7737801,37.9460286],[-83.7738186,37.9459707],[-83.7738868,37.945932],[-83.7739761,37.9459127],[-83.7745807,37.9458672],[-83.7747426,37.9458534],[-83.7748292,37.9458617],[-83.7748948,37.9458948],[-83.7749438,37.9459493],[-83.7749692,37.9460148],[-83.7750725,37.946934]]}},{"type":"Feature","properties":{"osm_id":1441536856,"highway":"track","name":"Cook Branch Road","alt_name":null,"official_name":null,"surface":"dirt","tracktype":"grade3","service":null,"access":null,"motor_vehicle":null,"foot":null,"tiger_reviewed":"no","rrgh_part":0,"rrgh_tile_part":0},"geometry":{"type":"LineString","coordinates":[[-83.778153,37.941452],[-83.778081,37.941556],[-83.777952,37.941791],[-83.777879,37.941988],[-83.7777158,37.9421761],[-83.777631,37.942299],[-83.7775433,37.9423699],[-83.777386,37.942469]]}},{"type":"Feature","properties":{"osm_id":1441536857,"highway":"residential","name":"Cook Branch Road","alt_name":null,"official_name":null,"surface":"gravel","tracktype":null,"service":null,"access":null,"motor_vehicle":null,"foot":null,"tiger_reviewed":"no","rrgh_part":0,"rrgh_tile_part":0},"geometry":{"type":"LineString","coordinates":[[-83.777386,37.942469],[-83.777313,37.942472],[-83.777252,37.942461],[-83.776894,37.942276],[-83.776847,37.942261]]}},{"type":"Feature","properties":{"osm_id":16310216,"highway":"residential","name":"Dan Daughtery Road","alt_name":null,"official_name":null,"surface":null,"tracktype":null,"service":null,"access":null,"motor_vehicle":null,"foot":null,"tiger_reviewed":"no","rrgh_part":0,"rrgh_tile_part":0},"geometry":{"type":"LineString","coordinates":[[-83.766479,37.93601],[-83.766245,37.936117],[-83.765844,37.936322],[-83.765455,37.936536],[-83.765412,37.936549],[-83.765372,37.936555],[-83.765284,37.936535],[-83.765077,37.936402],[-83.764986,37.936366],[-83.764945,37.936358],[-83.764909,37.936363],[-83.764813,37.936396],[-83.764743,37.936471],[-83.764727,37.936484],[-83.764671,37.936526],[-83.764619,37.936547],[-83.764555,37.936546],[-83.764408,37.936509],[-83.764373,37.93651],[-83.764348,37.936522],[-83.76433,37.936537],[-83.764315,37.936582],[-83.764314,37.936648],[-83.764267,37.936784],[-83.764251,37.936805]]}},{"type":"Feature","properties":{"osm_id":16310221,"highway":"service","name":"Stallion Road","alt_name":null,"official_name":null,"surface":null,"tracktype":null,"service":null,"access":"private","motor_vehicle":null,"foot":null,"tiger_reviewed":"no","rrgh_part":0,"rrgh_tile_part":0},"geometry":{"type":"LineString","coordinates":[[-83.764251,37.936805],[-83.764216,37.936852],[-83.764156,37.93691],[-83.763854,37.937096]]}},{"type":"Feature","properties":{"osm_id":16310498,"highway":"residential","name":"Industrial Park Road","alt_name":null,"official_name":null,"surface":null,"tracktype":null,"service":null,"access":null,"motor_vehicle":null,"foot":null,"tiger_reviewed":"no","rrgh_part":0,"rrgh_tile_part":0},"geometry":{"type":"LineString","coordinates":[[-83.760451,37.948421],[-83.76053,37.948546],[-83.760568,37.948641],[-83.760633,37.949269],[-83.760659,37.949439],[-83.760682,37.949512],[-83.760719,37.94958],[-83.760773,37.949637],[-83.760841,37.949682],[-83.760994,37.949733]]}},{"type":"Feature","properties":{"osm_id":1441536866,"highway":"residential","name":"Lewis Chambers Cemetery Road","alt_name":null,"official_name":null,"surface":null,"tracktype":null,"service":null,"access":null,"motor_vehicle":null,"foot":null,"tiger_reviewed":null,"rrgh_part":0,"rrgh_tile_part":0},"geometry":{"type":"LineString","coordinates":[[-83.7723874,37.9494769],[-83.7723291,37.9498751],[-83.7722379,37.9500188],[-83.771959,37.9503189],[-83.7715461,37.9507459],[-83.7708167,37.9515109]]}},{"type":"Feature","properties":{"osm_id":1441536866,"highway":"residential","name":"Lewis Chambers Cemetery Road","alt_name":null,"official_name":null,"surface":null,"tracktype":null,"service":null,"access":null,"motor_vehicle":null,"foot":null,"tiger_reviewed":null,"rrgh_part":1,"rrgh_tile_part":0},"geometry":{"type":"LineString","coordinates":[[-83.7708167,37.9515109],[-83.7703738,37.9515691],[-83.7700638,37.9518147],[-83.7702375,37.9525129],[-83.7705057,37.9525931],[-83.7706773,37.9526057],[-83.7708811,37.952555],[-83.7709133,37.9524958],[-83.7708918,37.9523521],[-83.7708006,37.9517772],[-83.7708167,37.9515109]]}},{"type":"Feature","properties":{"osm_id":16310420,"highway":"residential","name":"Whispering Pine Road","alt_name":null,"official_name":null,"surface":null,"tracktype":null,"service":null,"access":null,"motor_vehicle":null,"foot":null,"tiger_reviewed":"no","rrgh_part":0,"rrgh_tile_part":0},"geometry":{"type":"LineString","coordinates":[[-83.76529,37.951917],[-83.765435,37.952137],[-83.765658,37.952395],[-83.765755,37.952522],[-83.765978,37.952934],[-83.766158,37.953231],[-83.766331,37.953468],[-83.766496,37.953608],[-83.766777,37.953733],[-83.766856,37.953777],[-83.766937,37.953829],[-83.767059,37.953935],[-83.76711,37.953992],[-83.767168,37.954083],[-83.767264,37.954429],[-83.76729,37.954478],[-83.767336,37.954531],[-83.767384,37.954561],[-83.767435,37.954578],[-83.76749,37.954584],[-83.767555,37.954577],[-83.767617,37.954555],[-83.767983,37.954338],[-83.768061,37.954304],[-83.768435,37.954163],[-83.768721,37.954078],[-83.768937,37.954032],[-83.769017,37.954025],[-83.769117,37.95403],[-83.769229,37.954068],[-83.76933,37.954134],[-83.769421,37.954222],[-83.769495,37.954322],[-83.769596,37.954487],[-83.769628,37.95459],[-83.769622,37.954632],[-83.76959,37.954689],[-83.769465,37.954844],[-83.769361,37.954946],[-83.769291,37.95499],[-83.769215,37.955012],[-83.769177,37.955008],[-83.769158,37.954996],[-83.769122,37.954951],[-83.769023,37.9546]]}},{"type":"Feature","properties":{"osm_id":16310191,"highway":"residential","name":"Tally-Ho Road","alt_name":null,"official_name":null,"surface":null,"tracktype":null,"service":null,"access":null,"motor_vehicle":null,"foot":null,"tiger_reviewed":"no","rrgh_part":0,"rrgh_tile_part":0},"geometry":{"type":"LineString","coordinates":[[-83.764782,37.950751],[-83.764421,37.950724],[-83.763511,37.95068]]}},{"type":"Feature","properties":{"osm_id":16310248,"highway":"residential","name":"Elmer Henry Road","alt_name":null,"official_name":null,"surface":null,"tracktype":null,"service":null,"access":null,"motor_vehicle":null,"foot":null,"tiger_reviewed":"no","rrgh_part":0,"rrgh_tile_part":0},"geometry":{"type":"LineString","coordinates":[[-83.764994,37.953685],[-83.764985,37.953522],[-83.764943,37.953436],[-83.764878,37.953353],[-83.764797,37.953271],[-83.764662,37.953163],[-83.764471,37.952962],[-83.764261,37.952783],[-83.764171,37.95272],[-83.764068,37.952595],[-83.763909,37.952263],[-83.76379,37.951954],[-83.763629,37.951582],[-83.763596,37.951446],[-83.763549,37.951394],[-83.763439,37.951377]]}},{"type":"Feature","properties":{"osm_id":16310249,"highway":"residential","name":"Elmer Henry Road","alt_name":null,"official_name":null,"surface":null,"tracktype":null,"service":null,"access":null,"motor_vehicle":null,"foot":null,"tiger_reviewed":"no","rrgh_part":0,"rrgh_tile_part":0},"geometry":{"type":"LineString","coordinates":[[-83.763495,37.951252],[-83.763596,37.951446]]}},{"type":"Feature","properties":{"osm_id":16310300,"highway":"residential","name":"Meadow View Drive","alt_name":null,"official_name":null,"surface":null,"tracktype":null,"service":null,"access":null,"motor_vehicle":null,"foot":null,"tiger_reviewed":"no","rrgh_part":0,"rrgh_tile_part":0},"geometry":{"type":"LineString","coordinates":[[-83.764991,37.948735],[-83.76487,37.949528],[-83.764782,37.950751],[-83.764734,37.951223],[-83.764676,37.951502],[-83.764621,37.951624]]}},{"type":"Feature","properties":{"osm_id":16310301,"highway":"residential","name":"Meadow View Drive","alt_name":null,"official_name":null,"surface":null,"tracktype":null,"service":null,"access":null,"motor_vehicle":null,"foot":null,"tiger_reviewed":"no","rrgh_part":0,"rrgh_tile_part":0},"geometry":{"type":"LineString","coordinates":[[-83.764621,37.951624],[-83.764789,37.951663],[-83.765007,37.951758],[-83.765196,37.951855],[-83.76529,37.951917]]}},{"type":"Feature","properties":{"osm_id":16310648,"highway":"residential","name":"Landrum Lane","alt_name":null,"official_name":null,"surface":null,"tracktype":null,"service":null,"access":null,"motor_vehicle":null,"foot":null,"tiger_reviewed":"no","rrgh_part":0,"rrgh_tile_part":0},"geometry":{"type":"LineString","coordinates":[[-83.76529,37.951917],[-83.765406,37.952],[-83.765652,37.952204],[-83.766008,37.95246],[-83.766289,37.952767]]}},{"type":"Feature","properties":{"osm_id":16317146,"highway":"service","name":null,"alt_name":null,"official_name":null,"surface":null,"tracktype":null,"service":null,"access":"private","motor_vehicle":null,"foot":null,"tiger_reviewed":"no","rrgh_part":0,"rrgh_tile_part":0},"geometry":{"type":"LineString","coordinates":[[-83.77523356756757,37.974999999999994],[-83.775466,37.974785],[-83.776506,37.973802]]}},{"type":"Feature","properties":{"osm_id":16310120,"highway":"residential","name":"Maness Lane","alt_name":null,"official_name":null,"surface":null,"tracktype":null,"service":null,"access":null,"motor_vehicle":null,"foot":null,"tiger_reviewed":"no","rrgh_part":0,"rrgh_tile_part":0},"geometry":{"type":"LineString","coordinates":[[-83.762218,37.965658],[-83.76263,37.965531],[-83.763432,37.96531],[-83.763692,37.965257],[-83.763857,37.965255],[-83.763951,37.965275],[-83.763992,37.965292],[-83.764441,37.96551],[-83.764586,37.965591],[-83.764682,37.965654],[-83.764771,37.965727],[-83.764986,37.965967],[-83.765056,37.966017],[-83.765171,37.966069]]}},{"type":"Feature","properties":{"osm_id":16310437,"highway":"residential","name":"Lloyd Ballard Road","alt_name":null,"official_name":null,"surface":null,"tracktype":null,"service":null,"access":null,"motor_vehicle":null,"foot":null,"tiger_reviewed":"no","rrgh_part":0,"rrgh_tile_part":0},"geometry":{"type":"LineString","coordinates":[[-83.762889,37.966782],[-83.762764,37.967091],[-83.762711,37.967188],[-83.762455,37.96753],[-83.762376,37.967623],[-83.76213,37.967848],[-83.762089,37.967898],[-83.762046,37.968002],[-83.762056,37.968108],[-83.76213,37.968364],[-83.762189,37.968938],[-83.762309,37.969439],[-83.762386,37.969679],[-83.762393,37.969743],[-83.762379,37.969909],[-83.762326,37.970188],[-83.762317,37.970356],[-83.762289,37.970546]]}}],"rrgh_tile":{"id":"r7c2","bounds":[37.9,-83.845,37.974999999999994,-83.76]}}
