{"type":"FeatureCollection","features":[{"type":"Feature","properties":{"osm_id":16309734,"highway":"residential","name":"Punkin Hollow Road","alt_name":null,"official_name":null,"surface":"unpaved","tracktype":null,"service":null,"access":null,"motor_vehicle":null,"foot":null,"tiger_reviewed":"no","rrgh_part":0,"rrgh_tile_part":0},"geometry":{"type":"LineString","coordinates":[[-83.734898,37.917381],[-83.7350613,37.9172278],[-83.7352455,37.9170283],[-83.7369469,37.9156732],[-83.7371198,37.9154002],[-83.7374371,37.9148992],[-83.7375158,37.9145348],[-83.7375869,37.9141968],[-83.7377617,37.9140075],[-83.738089,37.913888],[-83.7385934,37.9137137],[-83.7390099,37.913433],[-83.7392894,37.913284],[-83.7395477,37.912946],[-83.7396797,37.9125735],[-83.7398616,37.9124435],[-83.7402243,37.9123857],[-83.7410197,37.9123514],[-83.741352,37.9122126],[-83.7414715,37.9120438],[-83.7415945,37.9118699],[-83.7416728,37.9116108],[-83.7417307,37.9114112],[-83.7419564,37.9109945],[-83.7419686,37.9107505],[-83.7419141,37.9106424],[-83.7418313,37.9105377],[-83.7417565,37.9104731],[-83.7416646,37.9104181],[-83.7415012,37.9103777],[-83.7410378,37.9103221],[-83.740975,37.9102955],[-83.7409383,37.9102548],[-83.7409411,37.9102051],[-83.7410363,37.9101246],[-83.741496,37.9096284],[-83.741393,37.9094482],[-83.7413413,37.9091167],[-83.7414713,37.9088518],[-83.7413862,37.9087063],[-83.7413583,37.9085195],[-83.7414466,37.9083271],[-83.7415236,37.9080657],[-83.7413523,37.9076727],[-83.7411724,37.9074159],[-83.7409327,37.9069149],[-83.7407376,37.9067371],[-83.7400666,37.9062668],[-83.7397996,37.906146],[-83.7396832,37.9060383],[-83.7396821,37.9058533],[-83.7396719,37.9055872],[-83.7394846,37.9054028],[-83.7393154,37.9053449],[-83.7392377,37.905248],[-83.7392238,37.9049064],[-83.7389271,37.9045025],[-83.7388386,37.9040887],[-83.7387942,37.9039381],[-83.7388487,37.9036492],[-83.7388181,37.9034022],[-83.7386247,37.9031665],[-83.7384998,37.9027621],[-83.7384452,37.9025668],[-83.7384839,37.9023653],[-83.7385256,37.9022328],[-83.738579,37.902154],[-83.7386727,37.9020712],[-83.7390263,37.9018761],[-83.7392029,37.9016637],[-83.7394146,37.9015354],[-83.7399011,37.901316],[-83.7401251,37.9011393],[-83.7403802,37.9007718],[-83.7405505,37.9004992],[-83.740665,37.900366],[-83.7409438,37.9002453],[-83.7413197,37.9001757],[-83.7416095,37.9001638],[-83.7418836,37.9001789],[-83.7422883,37.9000497],[-83.74239348327274,37.9]]}},{"type":"Feature","properties":{"osm_id":1238190197,"highway":"track","name":"FR 167","alt_name":null,"official_name":null,"surface":"gravel","tracktype":null,"service":null,"access":null,"motor_vehicle":null,"foot":null,"tiger_reviewed":"no","rrgh_part":0,"rrgh_tile_part":0},"geometry":{"type":"LineString","coordinates":[[-83.73681160156512,37.9],[-83.7366328,37.9001688],[-83.7364705,37.9002752],[-83.7362513,37.9003615],[-83.7357883,37.9004069],[-83.7356669,37.9003681],[-83.7355664,37.9002635],[-83.7355232,37.9000749],[-83.73548878384146,37.9]]}},{"type":"Feature","properties":{"osm_id":1238190197,"highway":"track","name":"FR 167","alt_name":null,"official_name":null,"surface":"gravel","tracktype":null,"service":null,"access":null,"motor_vehicle":null,"foot":null,"tiger_reviewed":"no","rrgh_part":0,"rrgh_tile_part":1},"geometry":{"type":"LineString","coordinates":[[-83.73384727650652,37.9],[-83.7338387,37.9000143],[-83.7336599,37.9001601],[-83.7335845,37.9002201]]}},{"type":"Feature","properties":{"osm_id":1238190195,"highway":"track","name":"FR 168 (closed)","alt_name":null,"official_name":null,"surface":null,"tracktype":null,"service":null,"access":null,"motor_vehicle":null,"foot":null,"tiger_reviewed":"no","rrgh_part":0,"rrgh_tile_part":0},"geometry":{"type":"LineString","coordinates":[[-83.72761833287983,37.9],[-83.7276776,37.900148],[-83.7277902,37.900288],[-83.7280313,37.9003971],[-83.7281379,37.9004575],[-83.7281907,37.9005837],[-83.7282043,37.9007099],[-83.7282136,37.900883],[-83.7282818,37.9010231],[-83.728353,37.9011748],[-83.7285404,37.901312],[-83.7288261,37.9014253],[-83.7291854,37.901473],[-83.7296121,37.9013787],[-83.7299123,37.9012374],[-83.7301168,37.9010842],[-83.7303381,37.9009785],[-83.730645,37.9009061],[-83.7308744,37.9008685],[-83.7310072,37.9007729],[-83.7312541,37.9004535],[-83.7312898,37.9003175],[-83.7312616,37.9001385],[-83.73128124209939,37.9]]}},{"type":"Feature","properties":{"osm_id":1238190195,"highway":"track","name":"FR 168 (closed)","alt_name":null,"official_name":null,"surface":null,"tracktype":null,"service":null,"access":null,"motor_vehicle":null,"foot":null,"tiger_reviewed":"no","rrgh_part":0,"rrgh_tile_part":1},"geometry":{"type":"LineString","coordinates":[[-83.7329059707203,37.9],[-83.7330219,37.9000631],[-83.7331308,37.9001371],[-83.7331793,37.9001713],[-83.7332207,37.9002131],[-83.7332739,37.9003049]]}},{"type":"Feature","properties":{"osm_id":16308855,"highway":"track","name":null,"alt_name":null,"official_name":null,"surface":null,"tracktype":null,"service":null,"access":null,"motor_vehicle":null,"foot":null,"tiger_reviewed":"no","rrgh_part":0,"rrgh_tile_part":0},"geometry":{"type":"LineString","coordinates":[[-83.75227099447514,37.9],[-83.752342,37.900252],[-83.752468,37.9017],[-83.753058,37.903577],[-83.75364,37.904389],[-83.75428,37.904779],[-83.756111,37.905132],[-83.756373,37.905372],[-83.756317,37.905586],[-83.755599,37.905745],[-83.755369,37.905867],[-83.755229,37.906531],[-83.7550769,37.907694],[-83.7548189,37.9095328],[-83.754993,37.910282],[-83.7551886,37.9114544],[-83.7552618,37.9117665],[-83.7551126,37.9121797],[-83.7550288,37.9124478],[-83.754578,37.912736],[-83.754492,37.912855],[-83.7541565,37.9128231],[-83.7536804,37.912892],[-83.7535341,37.9129714],[-83.7535165,37.9131645],[-83.753394,37.913267],[-83.753134,37.91361],[-83.7529787,37.9140349],[-83.7528367,37.9144054],[-83.7527907,37.9153684],[-83.7523746,37.9157708],[-83.752353,37.916194],[-83.752352,37.916335],[-83.752743,37.916626],[-83.752743,37.916851],[-83.7523598,37.9174166],[-83.7522254,37.9178057],[-83.752234,37.918236],[-83.752071,37.918566],[-83.751807,37.918953],[-83.751776,37.919186],[-83.752069,37.919436],[-83.752272,37.919501],[-83.754432,37.919592]]}},{"type":"Feature","properties":{"osm_id":16309196,"highway":"track","name":"Upper Cane Creek Road","alt_name":null,"official_name":null,"surface":null,"tracktype":null,"service":null,"access":null,"motor_vehicle":null,"foot":null,"tiger_reviewed":"no","rrgh_part":0,"rrgh_tile_part":0},"geometry":{"type":"LineString","coordinates":[[-83.754492,37.912855],[-83.7548424,37.9129253],[-83.7557987,37.9128534],[-83.7557407,37.9132431],[-83.7559132,37.9136652],[-83.756362,37.914235],[-83.756555,37.914272],[-83.756691,37.914192],[-83.7566409,37.9137644],[-83.7567158,37.9135423],[-83.7569813,37.9134273],[-83.7575953,37.9134649],[-83.7578394,37.9134927],[-83.7579899,37.9134475],[-83.7581607,37.9132725],[-83.7583222,37.9129669],[-83.758394,37.9126449],[-83.75853,37.9126566],[-83.759115,37.9131444],[-83.7594868,37.9133097],[-83.7599511,37.9132947],[-83.76,37.913288175045594]]}},{"type":"Feature","properties":{"osm_id":16308856,"highway":"track","name":null,"alt_name":null,"official_name":null,"surface":null,"tracktype":null,"service":null,"access":null,"motor_vehicle":null,"foot":null,"tiger_reviewed":"no","rrgh_part":0,"rrgh_tile_part":0},"geometry":{"type":"LineString","coordinates":[[-83.75512,37.91989],[-83.754432,37.919592],[-83.754857,37.919584],[-83.755263,37.919585],[-83.755374,37.919657],[-83.755364,37.919802],[-83.755252,37.919883],[-83.75512,37.91989]]}},{"type":"Feature","properties":{"osm_id":1425199647,"highway":"track","name":"FR 167","alt_name":null,"official_name":null,"surface":"gravel","tracktype":null,"service":null,"access":null,"motor_vehicle":null,"foot":null,"tiger_reviewed":"no","rrgh_part":0,"rrgh_tile_part":0},"geometry":{"type":"LineString","coordinates":[[-83.7335845,37.9002201],[-83.7334664,37.9002663],[-83.7332739,37.9003049],[-83.7328592,37.9004805],[-83.7325199,37.9007025],[-83.7321083,37.9010536],[-83.7318015,37.9013902],[-83.7316111,37.9016803],[-83.7315682,37.901913],[-83.7316153,37.9021295],[-83.7317808,37.9023149],[-83.7322026,37.902714],[-83.7323031,37.9028814],[-83.7322854,37.9029971],[-83.7321712,37.9030879],[-83.7315294,37.9033073],[-83.7313692,37.9034468],[-83.7313155,37.9035662],[-83.7313671,37.9040047],[-83.7313472,37.9041771],[-83.7312294,37.9042832],[-83.731114,37.9043055],[-83.7309692,37.9043076],[-83.7308539,37.9042987],[-83.7306055,37.9042942],[-83.7303431,37.9043252],[-83.7299802,37.9044207],[-83.729754,37.9044935],[-83.7294021,37.9048254],[-83.7292598,37.9050294],[-83.7291734,37.9052408],[-83.7291384,37.9054043],[-83.7291902,37.9055743],[-83.7294152,37.9057899],[-83.7296431,37.9059849],[-83.7296856,37.9061032],[-83.7296695,37.9062394],[-83.7296019,37.9063316],[-83.7295111,37.9064173],[-83.7293668,37.9064791],[-83.7292126,37.906504],[-83.7287844,37.9065641],[-83.7285813,37.906611],[-83.7284338,37.9067308],[-83.7281333,37.9070988],[-83.7281119,37.9072698],[-83.728162,37.9074765],[-83.7282401,37.907832],[-83.7282265,37.9081099],[-83.7281941,37.9082444],[-83.7281394,37.9083636],[-83.7279859,37.9085606],[-83.7277134,37.9087551],[-83.7274453,37.9089412],[-83.7272445,37.9092173],[-83.7271687,37.9095293]]}},{"type":"Feature","properties":{"osm_id":16308706,"highway":"track","name":null,"alt_name":null,"official_name":null,"surface":null,"tracktype":null,"service":null,"access":null,"motor_vehicle":null,"foot":null,"tiger_reviewed":"no","rrgh_part":0,"rrgh_tile_part":0},"geometry":{"type":"LineString","coordinates":[[-83.7439045,37.9117531],[-83.7433044,37.9127321]]}},{"type":"Feature","properties":{"osm_id":16308705,"highway":"track","name":null,"alt_name":null,"official_name":null,"surface":null,"tracktype":null,"service":null,"access":null,"motor_vehicle":null,"foot":null,"tiger_reviewed":"no","rrgh_part":0,"rrgh_tile_part":0},"geometry":{"type":"LineString","coordinates":[[-83.7414715,37.9120438],[-83.7417512,37.912182],[-83.741882,37.9125098],[-83.7422695,37.912736],[-83.7426193,37.9127985],[-83.7433044,37.9127321],[-83.7442432,37.9125997],[-83.7445645,37.9125908],[-83.7452454,37.9128051],[-83.7467607,37.913349],[-83.7480528,37.9137662],[-83.7484338,37.9138905],[-83.7492563,37.9143393],[-83.7496137,37.9145314],[-83.749915,37.914658],[-83.75091,37.915004],[-83.751285,37.915027],[-83.751574,37.914913],[-83.752469,37.914341],[-83.7529787,37.9140349]]}},{"type":"Feature","properties":{"osm_id":16309094,"highway":"track","name":null,"alt_name":null,"official_name":null,"surface":null,"tracktype":null,"service":null,"access":null,"motor_vehicle":null,"foot":null,"tiger_reviewed":"no","rrgh_part":0,"rrgh_tile_part":0},"geometry":{"type":"LineString","coordinates":[[-83.743041,37.923116],[-83.743769,37.922459],[-83.7443011,37.9218533],[-83.7450138,37.9208209],[-83.7453118,37.9203459],[-83.745593,37.9202119],[-83.7457911,37.9202797],[-83.7469219,37.920829],[-83.7475002,37.921105],[-83.7479376,37.9211504],[-83.748493,37.9212159],[-83.7495245,37.9211025],[-83.7497108,37.921157],[-83.7497015,37.9213292],[-83.7496758,37.9217227],[-83.7497555,37.9218599],[-83.7499952,37.9218615],[-83.750198,37.921771],[-83.75054,37.921304],[-83.750469,37.91964],[-83.750783,37.918937],[-83.751872,37.917667],[-83.7523248,37.9170236],[-83.752352,37.916335]]}},{"type":"Feature","properties":{"osm_id":16310621,"highway":"residential","name":"Eagle Nest Lane","alt_name":null,"official_name":null,"surface":null,"tracktype":null,"service":null,"access":null,"motor_vehicle":null,"foot":null,"tiger_reviewed":"no","rrgh_part":0,"rrgh_tile_part":0},"geometry":{"type":"LineString","coordinates":[[-83.746165,37.917932],[-83.746109,37.918196],[-83.745971,37.918588],[-83.74549,37.919084],[-83.744709,37.919646],[-83.744276,37.920183],[-83.743842,37.921103],[-83.74334,37.922192],[-83.743041,37.923116],[-83.742771,37.92342],[-83.742546,37.92371],[-83.742446,37.923838],[-83.742376,37.923946],[-83.742309,37.92413],[-83.742285,37.924293],[-83.742306,37.924359],[-83.742394,37.924481]]}},{"type":"Feature","properties":{"osm_id":1260764828,"highway":"track","name":"Rock Hill Road","alt_name":null,"official_name":null,"surface":null,"tracktype":null,"service":null,"access":null,"motor_vehicle":null,"foot":null,"tiger_reviewed":null,"rrgh_part":0,"rrgh_tile_part":0},"geometry":{"type":"LineString","coordinates":[[-83.7371198,37.9154002],[-83.7372982,37.9152987],[-83.7376023,37.9150776],[-83.7377996,37.9148283],[-83.7380365,37.9145738],[-83.7381414,37.9144584],[-83.7382295,37.9144398],[-83.7383146,37.9144258],[-83.7383577,37.9144467],[-83.738323,37.9145464],[-83.7382016,37.9147184],[-83.7381541,37.9148797],[-83.7382372,37.9150748],[-83.738382,37.9151311],[-83.7386745,37.9151123],[-83.7389417,37.9151825],[-83.7391708,37.9152772],[-83.7395094,37.9154092],[-83.7398313,37.9154479],[-83.7403022,37.9154147],[-83.7406973,37.9153732],[-83.7411537,37.9153452],[-83.7417874,37.9153598],[-83.7419441,37.9153442],[-83.7420226,37.9152564],[-83.741967,37.9150675],[-83.7419457,37.9148838],[-83.7420003,37.9146869],[-83.7420093,37.9145149],[-83.7418844,37.9143416],[-83.7417101,37.9142347],[-83.7415224,37.9141863],[-83.741355,37.9141238],[-83.7413326,37.9140456],[-83.7413673,37.9139256],[-83.7413059,37.9137523]]}},{"type":"Feature","properties":{"osm_id":16309702,"highway":"residential","name":"Fallen Timber Branch Road","alt_name":null,"official_name":null,"surface":null,"tracktype":null,"service":null,"access":null,"motor_vehicle":null,"foot":null,"tiger_reviewed":"no","rrgh_part":0,"rrgh_tile_part":0},"geometry":{"type":"LineString","coordinates":[[-83.731904,37.917017],[-83.731638,37.917299],[-83.731538,37.917374],[-83.731305,37.917507],[-83.731217,37.917597],[-83.731076,37.917857],[-83.730942,37.918051],[-83.73084,37.918255],[-83.73079,37.918413],[-83.730723,37.918566],[-83.73064,37.91867],[-83.730533,37.918745],[-83.730182,37.918917],[-83.730011,37.918985],[-83.729813,37.919104],[-83.729544,37.91944],[-83.72939,37.919687],[-83.729346,37.919783],[-83.729228,37.920145],[-83.729249,37.920312],[-83.729304,37.920537],[-83.729312,37.920606],[-83.729318,37.920658],[-83.729313,37.920779],[-83.729259,37.920947],[-83.729214,37.921086],[-83.729193,37.92121],[-83.729196,37.921495],[-83.729196,37.921524],[-83.729243,37.921944],[-83.729204,37.922179],[-83.729134,37.922439],[-83.729075,37.922487],[-83.728955,37.922513],[-83.728926,37.922519],[-83.728841,37.922552],[-83.728751,37.922603],[-83.728597,37.922746],[-83.728445,37.92286],[-83.728434,37.922885],[-83.728421,37.922916],[-83.728421,37.923018]]}},{"type":"Feature","properties":{"osm_id":1138411153,"highway":"residential","name":"Punkin Hollow Road","alt_name":null,"official_name":null,"surface":null,"tracktype":null,"service":null,"access":null,"motor_vehicle":null,"foot":null,"tiger_reviewed":"no","rrgh_part":0,"rrgh_tile_part":0},"geometry":{"type":"LineString","coordinates":[[-83.734542,37.918676],[-83.7345822,37.9186272],[-83.734607,37.918597],[-83.734622,37.918579],[-83.734665,37.918475],[-83.734677,37.918354],[-83.734678,37.917923],[-83.734688,37.917861],[-83.734747,37.917681],[-83.734898,37.917381]]}},{"type":"Feature","properties":{"osm_id":16308769,"highway":"residential","name":"Hidden Hollow","alt_name":null,"official_name":null,"surface":"unpaved","tracktype":null,"service":null,"access":null,"motor_vehicle":null,"foot":null,"tiger_reviewed":"no","rrgh_part":0,"rrgh_tile_part":0},"geometry":{"type":"LineString","coordinates":[[-83.677337,37.9200825],[-83.6773293,37.9201508],[-83.6773421,37.9202624],[-83.677362,37.920346],[-83.677412,37.92042],[-83.6774546,37.9204645],[-83.6775192,37.9205172],[-83.6776269,37.920572],[-83.6777682,37.920609],[-83.6779853,37.9206474],[-83.6781404,37.9206884],[-83.678217,37.920714],[-83.678274,37.92076],[-83.678342,37.9208288],[-83.6784095,37.9209433],[-83.6785271,37.9211702],[-83.6787017,37.9214596],[-83.6787521,37.921545],[-83.678794,37.921618],[-83.6788522,37.9218281],[-83.6788678,37.9219523],[-83.6788934,37.9220995],[-83.6789537,37.9222041],[-83.679068,37.9222779],[-83.679218,37.9223435],[-83.6794061,37.9224203],[-83.679594,37.9224969],[-83.6797933,37.9225699],[-83.679982,37.922638],[-83.680849,37.923136],[-83.681033,37.923226],[-83.681088,37.923248],[-83.6812454,37.9233137],[-83.6814434,37.9233679],[-83.6818019,37.9235833],[-83.6819236,37.9236336],[-83.6820551,37.923664],[-83.682286,37.923724],[-83.682439,37.923821],[-83.683146,37.924139],[-83.683504,37.924388],[-83.683674,37.924456],[-83.684147,37.924513],[-83.6844226,37.9245162],[-83.684577,37.924518],[-83.6847623,37.9245388],[-83.684941,37.9245783],[-83.6851052,37.9246406],[-83.6854164,37.9247672],[-83.685758,37.9249141],[-83.6859757,37.9249877],[-83.6862127,37.9250451],[-83.6863737,37.9250662],[-83.6869356,37.9252251],[-83.6872104,37.9252836],[-83.6874034,37.9253539],[-83.6876262,37.9254828],[-83.6878415,37.9255589],[-83.6881904,37.9256292],[-83.6884429,37.9256526],[-83.6888438,37.9256819],[-83.6891408,37.925799],[-83.6893413,37.9258693],[-83.6895195,37.9259396],[-83.6911604,37.9262851],[-83.6915019,37.9262676],[-83.691643,37.9262558],[-83.6918138,37.9263027],[-83.6920736,37.926455],[-83.6930982,37.926578],[-83.6931835,37.9265651],[-83.6934472,37.9265252],[-83.6936625,37.9264843],[-83.6939669,37.9264901],[-83.6941971,37.9265311],[-83.6946352,37.9266248],[-83.6948446,37.9266545],[-83.695296,37.9267185],[-83.6953833,37.9267551],[-83.6955336,37.9268181],[-83.6957563,37.9270406],[-83.6959716,37.9273276],[-83.6963022,37.927539],[-83.6967958,37.9278547],[-83.6970037,37.9279191],[-83.6972264,37.9279484],[-83.6974789,37.9279836],[-83.697761,37.9279543],[-83.6979466,37.9279133],[-83.6980877,37.9279133],[-83.6982139,37.9279426],[-83.6982956,37.9279777],[-83.6984349,37.9280305],[-83.6984812,37.928048],[-83.6986594,37.9280948],[-83.6987857,37.9281241],[-83.6989341,37.9281065],[-83.6993499,37.9280773],[-83.6996821,37.9281116],[-83.6999736,37.9281417],[-83.7005082,37.9280714],[-83.700731,37.9279718],[-83.7008646,37.9279308],[-83.7010354,37.9279133],[-83.7012061,37.927884],[-83.7015922,37.927679],[-83.7019189,37.9275853],[-83.7023273,37.9276673],[-83.7024758,37.9276439],[-83.7030995,37.9276204],[-83.7033216,37.9276076],[-83.7039184,37.9275734],[-83.7041495,37.9276218],[-83.7043441,37.9276601],[-83.704503,37.9276934],[-83.7046419,37.927699],[-83.7046937,37.9276837],[-83.7047764,37.9276122],[-83.7048035,37.9275174],[-83.7047858,37.9273986],[-83.7047396,37.9273315]]}},{"type":"Feature","properties":{"osm_id":16310467,"highway":"track","name":"Spaas Creek Road","alt_name":null,"official_name":null,"surface":"unpaved","tracktype":null,"service":null,"access":null,"motor_vehicle":null,"foot":null,"tiger_reviewed":"no","rrgh_part":0,"rrgh_tile_part":0},"geometry":{"type":"LineString","coordinates":[[-83.71567130243407,37.9],[-83.7157697,37.9000441],[-83.7158805,37.9000558],[-83.7159405,37.9000874],[-83.7163867,37.900469],[-83.7164692,37.9005741],[-83.7164737,37.900642],[-83.7164678,37.9007954],[-83.71654,37.9009304],[-83.716687,37.901056],[-83.7167462,37.9011347],[-83.7170753,37.9013965],[-83.7172616,37.9017761],[-83.7172678,37.9019146],[-83.7172908,37.9021253],[-83.7173815,37.9022933],[-83.7176055,37.902446],[-83.7176735,37.9026153],[-83.7181759,37.9034237],[-83.7189839,37.9046609],[-83.7191966,37.9048957],[-83.7195237,37.9050633],[-83.7197813,37.9052564],[-83.7198416,37.9054936],[-83.7200215,37.9056104],[-83.7207523,37.9059457],[-83.7208401,37.90605],[-83.720832,37.9061934],[-83.7208332,37.9064452],[-83.7208508,37.9066686],[-83.7209719,37.9069795],[-83.7210512,37.9071688],[-83.7210342,37.907322],[-83.7210709,37.907452],[-83.7211559,37.9076404],[-83.721352,37.908038],[-83.7214328,37.9083835],[-83.7213686,37.9091239],[-83.7214006,37.9093118],[-83.7215442,37.9096367],[-83.7216532,37.9098153],[-83.7220403,37.9100942],[-83.7224188,37.9103897],[-83.7225381,37.9104921],[-83.7226735,37.9107487],[-83.7229609,37.9110329],[-83.723038,37.9112608],[-83.7230681,37.9114731],[-83.7231823,37.9117455],[-83.7232573,37.9119661]]}},{"type":"Feature","properties":{"osm_id":1444557025,"highway":"residential","name":"Hatton Ridge Road","alt_name":null,"official_name":null,"surface":"gravel","tracktype":null,"service":null,"access":null,"motor_vehicle":null,"foot":null,"tiger_reviewed":"no","rrgh_part":0,"rrgh_tile_part":0},"geometry":{"type":"LineString","coordinates":[[-83.7004666,37.902464],[-83.7009847,37.9030079],[-83.7012942,37.903343],[-83.7015324,37.9036213],[-83.7017451,37.9037678],[-83.7020181,37.9038824],[-83.7023413,37.9040046],[-83.7027792,37.9041151],[-83.7032416,37.9041907],[-83.7035457,37.9043345],[-83.7037796,37.9045194],[-83.7039135,37.9047054],[-83.7040105,37.9048791],[-83.7041369,37.9052324],[-83.7040831,37.9055164],[-83.7038859,37.9059457],[-83.7036777,37.9062077],[-83.7032973,37.9065003],[-83.7030989,37.9068193],[-83.7029595,37.9070712],[-83.702927,37.9072938],[-83.7030812,37.9075601],[-83.7036443,37.9079694],[-83.7040362,37.9081515],[-83.7044199,37.9082696],[-83.7048199,37.9082894],[-83.7055402,37.9081846],[-83.7063759,37.9084721],[-83.707519,37.9087077],[-83.707766,37.9087533],[-83.7080638,37.9088901],[-83.7082945,37.9089713],[-83.7085671,37.9090115],[-83.708999,37.908961],[-83.7095521,37.908859],[-83.710303,37.9084835],[-83.7108062,37.9084731],[-83.7113122,37.9084247],[-83.711461,37.9084517],[-83.7116101,37.9085199],[-83.7119773,37.9087766],[-83.7122825,37.909261],[-83.7126203,37.9097519],[-83.7131202,37.9101436],[-83.7132357,37.9102341],[-83.713386,37.9103067],[-83.7136401,37.91038],[-83.7139923,37.9103874],[-83.7147067,37.9104046],[-83.7149808,37.910481],[-83.7153124,37.9106538],[-83.7155484,37.9107854],[-83.715889,37.9110529],[-83.716208,37.911266],[-83.7163935,37.9113586],[-83.7166817,37.9114672],[-83.7169978,37.911556],[-83.7173627,37.9115348],[-83.7175204,37.9115267],[-83.7176614,37.9115483],[-83.7178,37.9116292],[-83.7179086,37.9117845],[-83.7179908,37.9120576],[-83.7180849,37.9121403],[-83.7182411,37.9122255],[-83.7184018,37.9124212],[-83.7186256,37.9126485],[-83.7189157,37.912772],[-83.7190489,37.9128427],[-83.7191232,37.9129516]]}},{"type":"Feature","properties":{"osm_id":1264966370,"highway":"track","name":null,"alt_name":null,"official_name":null,"surface":null,"tracktype":null,"service":null,"access":null,"motor_vehicle":null,"foot":null,"tiger_reviewed":null,"rrgh_part":0,"rrgh_tile_part":0},"geometry":{"type":"LineString","coordinates":[[-83.7142619,37.9039006],[-83.7143238,37.9037406],[-83.7143684,37.9035639],[-83.7144493,37.903489],[-83.7145356,37.9034211],[-83.7146552,37.9033938],[-83.714737,37.9033419],[-83.7148477,37.903201],[-83.7148613,37.9030236],[-83.7148963,37.9029728],[-83.7150097,37.9028828],[-83.715124,37.9028113],[-83.7153656,37.9026301],[-83.7155264,37.9025645],[-83.7157602,37.902504],[-83.7160203,37.9024116],[-83.7161853,37.9023862],[-83.7163177,37.9023483],[-83.7164229,37.9022209],[-83.716508,37.902093],[-83.716526,37.9018656],[-83.7164131,37.9015956],[-83.7163754,37.9012661],[-83.7163661,37.9011308]]}},{"type":"Feature","properties":{"osm_id":1425199646,"highway":"track","name":"FR 167","alt_name":null,"official_name":null,"surface":"gravel","tracktype":null,"service":null,"access":null,"motor_vehicle":null,"foot":null,"tiger_reviewed":"no","rrgh_part":0,"rrgh_tile_part":0},"geometry":{"type":"LineString","coordinates":[[-83.7271687,37.9095293],[-83.7271775,37.9098449],[-83.7273255,37.9101468],[-83.7277729,37.9104158],[-83.7277904,37.9105144],[-83.7277624,37.9106063],[-83.72668,37.9107936],[-83.7262092,37.9109639],[-83.7258109,37.9112737],[-83.7253715,37.911505],[-83.7243298,37.9117678],[-83.7238302,37.9119099],[-83.7235191,37.9119651],[-83.7232573,37.9119661]]}},{"type":"Feature","properties":{"osm_id":16310110,"highway":"residential","name":"Poachy Williams Road","alt_name":null,"official_name":null,"surface":null,"tracktype":null,"service":null,"access":null,"motor_vehicle":null,"foot":null,"tiger_reviewed":"no","rrgh_part":0,"rrgh_tile_part":0},"geometry":{"type":"LineString","coordinates":[[-83.724337,37.914941],[-83.724291,37.915026],[-83.724226,37.915082],[-83.724205,37.915101],[-83.724132,37.915131],[-83.72374,37.915245],[-83.723537,37.915323],[-83.723228,37.915426],[-83.7229,37.915567],[-83.722366,37.915858],[-83.72192,37.916145],[-83.72186,37.916202],[-83.721821,37.916268],[-83.721805,37.916346],[-83.721827,37.91662],[-83.721816,37.916711],[-83.721784,37.916802],[-83.721513,37.917252],[-83.721319,37.9176318],[-83.721258,37.917731],[-83.721199,37.917798],[-83.720998,37.917968],[-83.720806,37.91813],[-83.720206,37.918662],[-83.720063,37.918727],[-83.71989,37.918783],[-83.719662,37.918888],[-83.719039,37.919227],[-83.718818,37.919318],[-83.718365,37.91948],[-83.718042,37.919492],[-83.717837,37.919523],[-83.717737,37.919527],[-83.717443,37.919522],[-83.717253,37.919559],[-83.716924,37.919658],[-83.71638,37.919681],[-83.716147,37.919898],[-83.715966,37.920152],[-83.715639,37.920472],[-83.715505,37.920604],[-83.715072,37.921154],[-83.71485,37.921399],[-83.7144867,37.9220085],[-83.7144674,37.9226498],[-83.714507,37.922827],[-83.7144264,37.9230982],[-83.7141692,37.9232766],[-83.7138912,37.9237086],[-83.7127067,37.924084],[-83.7121214,37.92408],[-83.711812,37.924555],[-83.711773,37.925001],[-83.711747,37.925946],[-83.71194,37.926458],[-83.712154,37.926472]]}},{"type":"Feature","properties":{"osm_id":16310470,"highway":"residential","name":"Spaas Creek Road","alt_name":null,"official_name":null,"surface":"gravel","tracktype":null,"service":null,"access":null,"motor_vehicle":null,"foot":null,"tiger_reviewed":"no","rrgh_part":0,"rrgh_tile_part":0},"geometry":{"type":"LineString","coordinates":[[-83.7232573,37.9119661],[-83.722807,37.9120736],[-83.7225754,37.9121175],[-83.7224095,37.9121489],[-83.7219815,37.9122463],[-83.7218189,37.9122852],[-83.721728,37.912307],[-83.7216024,37.9123857],[-83.7214612,37.9126419],[-83.7214172,37.9126664],[-83.7211328,37.9127621],[-83.7206032,37.9128936],[-83.7201964,37.9129277],[-83.7197007,37.9129044],[-83.719379,37.9128755],[-83.7192959,37.9128814],[-83.7191782,37.9129136],[-83.7191232,37.9129516],[-83.7190003,37.9129822],[-83.718863,37.912984],[-83.718659,37.912993],[-83.718505,37.91301],[-83.718354,37.913048],[-83.718209,37.913107],[-83.718105,37.913117],[-83.717887,37.91305],[-83.71778,37.912997],[-83.71761,37.9129012],[-83.717498,37.9128787],[-83.7174155,37.9128751],[-83.71731,37.912886],[-83.717149,37.912907],[-83.7168796,37.9130485],[-83.7166645,37.9131926],[-83.7164448,37.9133082],[-83.7163812,37.9133566],[-83.7162536,37.9134635],[-83.716142,37.9135835],[-83.7160382,37.9137675],[-83.7159833,37.9139211],[-83.7159695,37.9139685],[-83.7159476,37.9140184],[-83.7158616,37.914149],[-83.715704,37.9143602],[-83.7156216,37.9144832],[-83.7155197,37.9146711],[-83.7154465,37.9149419],[-83.7154115,37.9152338],[-83.7154123,37.9153208],[-83.715445,37.9153978],[-83.715493,37.915466],[-83.7155727,37.9155437],[-83.7156484,37.9156097],[-83.7158041,37.9157243],[-83.7159659,37.9158643],[-83.7160354,37.9159594],[-83.7160819,37.9160674],[-83.7160994,37.916145],[-83.7161024,37.9162401],[-83.7160942,37.9163396],[-83.7160841,37.9164238],[-83.7160551,37.9167856],[-83.716063,37.916915]]}},{"type":"Feature","properties":{"osm_id":1138414442,"highway":"residential","name":"Williams Cemetery Road","alt_name":null,"official_name":null,"surface":"gravel","tracktype":null,"service":null,"access":null,"motor_vehicle":null,"foot":null,"tiger_reviewed":null,"rrgh_part":0,"rrgh_tile_part":0},"geometry":{"type":"LineString","coordinates":[[-83.7250848,37.9196056],[-83.7250146,37.9197415],[-83.7249149,37.9198253],[-83.7248113,37.9198179],[-83.7247361,37.9197528],[-83.724343,37.9193684],[-83.723759,37.9188436],[-83.7234148,37.9186238],[-83.7230318,37.9183981],[-83.7227069,37.9181519],[-83.7224705,37.9180217],[-83.7222523,37.9179347],[-83.7220809,37.9179163],[-83.7218988,37.917998],[-83.7217222,37.9179856],[-83.7215781,37.9179027],[-83.7215695,37.9178021],[-83.7215496,37.917739],[-83.7214793,37.917692],[-83.721319,37.9176318]]}},{"type":"Feature","properties":{"osm_id":1264966998,"highway":"track","name":null,"alt_name":null,"official_name":null,"surface":null,"tracktype":null,"service":null,"access":null,"motor_vehicle":null,"foot":null,"tiger_reviewed":null,"rrgh_part":0,"rrgh_tile_part":0},"geometry":{"type":"LineString","coordinates":[[-83.7225754,37.9121175],[-83.7224116,37.9123202],[-83.7221316,37.9123344],[-83.7218189,37.9122852]]}},{"type":"Feature","properties":{"osm_id":1264966999,"highway":"track","name":null,"alt_name":null,"official_name":null,"surface":null,"tracktype":null,"service":null,"access":null,"motor_vehicle":null,"foot":null,"tiger_reviewed":null,"rrgh_part":0,"rrgh_tile_part":0},"geometry":{"type":"LineString","coordinates":[[-83.7232573,37.9119661],[-83.7230551,37.912275],[-83.7228062,37.9125876],[-83.7225316,37.9131138],[-83.7221626,37.9136368],[-83.721892,37.913938]]}},{"type":"Feature","properties":{"osm_id":1264967000,"highway":"track","name":null,"alt_name":null,"official_name":null,"surface":null,"tracktype":null,"service":null,"access":null,"motor_vehicle":null,"foot":null,"tiger_reviewed":null,"rrgh_part":0,"rrgh_tile_part":0},"geometry":{"type":"LineString","coordinates":[[-83.7224436,37.9152554],[-83.721982,37.915168],[-83.721824,37.9151037],[-83.7214806,37.9147623],[-83.7212841,37.9145969],[-83.7211007,37.9145207],[-83.7211236,37.9143308],[-83.7211702,37.9142111],[-83.7212612,37.9141476],[-83.721892,37.913938]]}},{"type":"Feature","properties":{"osm_id":1264967518,"highway":"track","name":null,"alt_name":null,"official_name":null,"surface":null,"tracktype":null,"service":null,"access":null,"motor_vehicle":null,"foot":null,"tiger_reviewed":null,"rrgh_part":0,"rrgh_tile_part":0},"geometry":{"type":"LineString","coordinates":[[-83.715704,37.9143602],[-83.7150541,37.9142237],[-83.7147022,37.9139099],[-83.7145301,37.9138677],[-83.7144077,37.9136836],[-83.7138875,37.9134452],[-83.7134935,37.9133517],[-83.713375,37.9133366],[-83.7130575,37.9132581],[-83.7128815,37.9133969]]}},{"type":"Feature","properties":{"osm_id":1264967519,"highway":"track","name":null,"alt_name":null,"official_name":null,"surface":null,"tracktype":null,"service":null,"access":null,"motor_vehicle":null,"foot":null,"tiger_reviewed":null,"rrgh_part":0,"rrgh_tile_part":0},"geometry":{"type":"LineString","coordinates":[[-83.715704,37.9143602],[-83.7152648,37.9141291],[-83.715047,37.9138268],[-83.7149651,37.9136266],[-83.7147932,37.9134121],[-83.7143871,37.9132997],[-83.713855,37.9131563],[-83.7136716,37.9130026],[-83.7132507,37.9129587],[-83.7129069,37.9130129],[-83.7125598,37.9131279],[-83.7120106,37.913081],[-83.711287,37.9129195]]}},{"type":"Feature","properties":{"osm_id":16309842,"highway":"service","name":"Fagan Cemetery Road","alt_name":null,"official_name":null,"surface":null,"tracktype":null,"service":null,"access":null,"motor_vehicle":null,"foot":null,"tiger_reviewed":null,"rrgh_part":0,"rrgh_tile_part":0},"geometry":{"type":"LineString","coordinates":[[-83.7163654,37.9171677],[-83.7162929,37.9171243],[-83.7163356,37.9172316],[-83.7163859,37.9172923],[-83.7164389,37.9173243],[-83.7164929,37.9173253],[-83.7168029,37.9172953],[-83.7169688,37.9172504],[-83.7170066,37.9172154],[-83.7169898,37.9171811],[-83.7169385,37.9171702],[-83.7167185,37.9171757],[-83.7165319,37.9171773],[-83.7163654,37.9171677]]}},{"type":"Feature","properties":{"osm_id":16309843,"highway":"residential","name":"Fagan Cemetery Road","alt_name":null,"official_name":null,"surface":null,"tracktype":null,"service":null,"access":null,"motor_vehicle":null,"foot":null,"tiger_reviewed":"no","rrgh_part":0,"rrgh_tile_part":0},"geometry":{"type":"LineString","coordinates":[[-83.716063,37.916915],[-83.71607,37.916934],[-83.7162929,37.9171243]]}},{"type":"Feature","properties":{"osm_id":16309947,"highway":"service","name":"Champ Lane","alt_name":null,"official_name":null,"surface":null,"tracktype":null,"service":null,"access":"private","motor_vehicle":null,"foot":null,"tiger_reviewed":"no","rrgh_part":0,"rrgh_tile_part":0},"geometry":{"type":"LineString","coordinates":[[-83.714447,37.916584],[-83.714185,37.91675],[-83.714124,37.916767],[-83.714051,37.916767],[-83.71388,37.916736],[-83.713611,37.91664],[-83.713404,37.916582],[-83.712843,37.916469]]}},{"type":"Feature","properties":{"osm_id":1444557052,"highway":"residential","name":"Hatton Ridge Road","alt_name":null,"official_name":null,"surface":"gravel","tracktype":null,"service":null,"access":null,"motor_vehicle":null,"foot":null,"tiger_reviewed":"no","rrgh_part":0,"rrgh_tile_part":0},"geometry":{"type":"LineString","coordinates":[[-83.69865214597147,37.9],[-83.6988297,37.9004475],[-83.6990243,37.9007453],[-83.6992734,37.9010137],[-83.699405,37.9011097],[-83.6995618,37.9014053],[-83.6997155,37.9019259],[-83.6997962,37.9021274],[-83.6999761,37.9022811],[-83.7001837,37.9023757],[-83.7004666,37.902464]]}},{"type":"Feature","properties":{"osm_id":1238192308,"highway":"residential","name":"Daniel Morrison Road","alt_name":null,"official_name":null,"surface":"gravel","tracktype":null,"service":null,"access":null,"motor_vehicle":null,"foot":null,"tiger_reviewed":"no","rrgh_part":0,"rrgh_tile_part":0},"geometry":{"type":"LineString","coordinates":[[-83.6970645,37.9074123],[-83.697181,37.907569],[-83.697384,37.907762],[-83.69754,37.907934],[-83.697656,37.90804],[-83.697773,37.908166],[-83.69781,37.908266],[-83.697805,37.908372],[-83.697815,37.908435],[-83.698088,37.909087],[-83.698105,37.909213],[-83.698094,37.909361],[-83.698099,37.909485],[-83.698192,37.909885],[-83.698193,37.910042],[-83.698218,37.910278],[-83.698242,37.910357],[-83.698383,37.910602],[-83.698436,37.910768],[-83.698464,37.910947],[-83.698438,37.911085],[-83.698373,37.911225],[-83.698242,37.911414],[-83.698053,37.911593],[-83.698029,37.911641],[-83.69803,37.911666],[-83.698061,37.911713],[-83.698277,37.911828],[-83.698364,37.911895]]}},{"type":"Feature","properties":{"osm_id":1238192309,"highway":"track","name":null,"alt_name":null,"official_name":null,"surface":null,"tracktype":null,"service":null,"access":null,"motor_vehicle":null,"foot":null,"tiger_reviewed":"no","rrgh_part":0,"rrgh_tile_part":0},"geometry":{"type":"LineString","coordinates":[[-83.6888592,37.9027577],[-83.6892019,37.9029316],[-83.689433,37.903162],[-83.6898593,37.9038265],[-83.6902345,37.9042266],[-83.690563,37.904673],[-83.6911345,37.9052794],[-83.6912747,37.9053946],[-83.6913958,37.9055245],[-83.6915477,37.9055741],[-83.6917363,37.9054965],[-83.6922734,37.9055314],[-83.6927554,37.9056698],[-83.6930027,37.9056984],[-83.6937396,37.9057462],[-83.6945101,37.9058797],[-83.6947337,37.9059344],[-83.694895,37.906038],[-83.6954779,37.9063452],[-83.6956387,37.9063277],[-83.69616,37.9066239],[-83.6964949,37.9069351],[-83.6970645,37.9074123]]}},{"type":"Feature","properties":{"osm_id":1264968765,"highway":"track","name":null,"alt_name":null,"official_name":null,"surface":null,"tracktype":null,"service":null,"access":null,"motor_vehicle":null,"foot":null,"tiger_reviewed":null,"rrgh_part":0,"rrgh_tile_part":0},"geometry":{"type":"LineString","coordinates":[[-83.6853675,37.909833],[-83.6852703,37.9097303],[-83.6852644,37.9096636],[-83.6852703,37.9095791],[-83.6853002,37.9094439],[-83.6853475,37.9091869],[-83.6853236,37.9091069],[-83.685311,37.9090963],[-83.6851034,37.9089109],[-83.6849498,37.908891],[-83.684479,37.9088613],[-83.6840169,37.9088024],[-83.6835104,37.9087749],[-83.6833352,37.9087509],[-83.6832338,37.9087099],[-83.6831904,37.9086794],[-83.6830203,37.9085315],[-83.6829886,37.9084269],[-83.6830434,37.9083041],[-83.6829973,37.908038],[-83.6828329,37.9076718],[-83.6827926,37.9074648],[-83.6827868,37.9069349],[-83.6826312,37.9066665],[-83.6824524,37.9064481],[-83.68234,37.9062093],[-83.6823265,37.906105],[-83.6822939,37.9058545],[-83.68234,37.9056839],[-83.682354,37.9055569],[-83.6823407,37.9054821],[-83.6822881,37.9054041],[-83.6820546,37.9051221],[-83.6816222,37.9049947],[-83.6816075,37.9049945],[-83.6812446,37.9049901],[-83.6809131,37.9049265],[-83.6805816,37.9046558],[-83.680227,37.9043237],[-83.679685,37.9036777],[-83.6791402,37.9033479],[-83.6787655,37.9032205],[-83.6781976,37.9031159]]}},{"type":"Feature","properties":{"osm_id":1264968766,"highway":"track","name":null,"alt_name":null,"official_name":null,"surface":null,"tracktype":null,"service":null,"access":null,"motor_vehicle":null,"foot":null,"tiger_reviewed":null,"rrgh_part":0,"rrgh_tile_part":0},"geometry":{"type":"LineString","coordinates":[[-83.6770128,37.9024199],[-83.6778632,37.9026587],[-83.678359,37.9028839],[-83.6791575,37.9031205],[-83.67976,37.9034571],[-83.6801837,37.9037437],[-83.6805643,37.9041099],[-83.6813109,37.9047286],[-83.6816075,37.9049945]]}},{"type":"Feature","properties":{"osm_id":1264968768,"highway":"track","name":null,"alt_name":null,"official_name":null,"surface":null,"tracktype":null,"service":null,"access":null,"motor_vehicle":null,"foot":null,"tiger_reviewed":null,"rrgh_part":0,"rrgh_tile_part":0},"geometry":{"type":"LineString","coordinates":[[-83.6823407,37.9054821],[-83.6825734,37.9053252],[-83.6827535,37.9052528],[-83.6833201,37.9052916],[-83.6838883,37.9049815],[-83.6841479,37.9048122]]}},{"type":"Feature","properties":{"osm_id":1264968769,"highway":"track","name":null,"alt_name":null,"official_name":null,"surface":null,"tracktype":null,"service":null,"access":null,"motor_vehicle":null,"foot":null,"tiger_reviewed":null,"rrgh_part":0,"rrgh_tile_part":0},"geometry":{"type":"LineString","coordinates":[[-83.684173,37.9057097],[-83.6835603,37.9058331],[-83.6831753,37.9057214],[-83.6830787,37.9056774]]}},{"type":"Feature","properties":{"osm_id":1264968771,"highway":"track","name":null,"alt_name":null,"official_name":null,"surface":null,"tracktype":null,"service":null,"access":null,"motor_vehicle":null,"foot":null,"tiger_reviewed":null,"rrgh_part":0,"rrgh_tile_part":0},"geometry":{"type":"LineString","coordinates":[[-83.685311,37.9090963],[-83.6851308,37.9088152],[-83.685007,37.9086044],[-83.6849049,37.9083216],[-83.6848679,37.907893],[-83.6849266,37.9076393],[-83.6848853,37.907449],[-83.684692,37.9072348],[-83.6845138,37.9068834]]}},{"type":"Feature","properties":{"osm_id":1264968772,"highway":"track","name":null,"alt_name":null,"official_name":null,"surface":null,"tracktype":null,"service":null,"access":null,"motor_vehicle":null,"foot":null,"tiger_reviewed":null,"rrgh_part":0,"rrgh_tile_part":0},"geometry":{"type":"LineString","coordinates":[[-83.6849266,37.9076393],[-83.685146,37.907521],[-83.6854046,37.9074936],[-83.6856696,37.9073188],[-83.6860585,37.9070171],[-83.6862627,37.9068148]]}},{"type":"Feature","properties":{"osm_id":1264968767,"highway":"track","name":null,"alt_name":null,"official_name":null,"surface":null,"tracktype":null,"service":null,"access":null,"motor_vehicle":null,"foot":null,"tiger_reviewed":null,"rrgh_part":0,"rrgh_tile_part":0},"geometry":{"type":"LineString","coordinates":[[-83.6823265,37.906105],[-83.6818971,37.9060604],[-83.6815494,37.9060638],[-83.681317,37.905925],[-83.680965,37.9057621],[-83.6806891,37.9056884],[-83.6797527,37.9056113]]}},{"type":"Feature","properties":{"osm_id":1264968764,"highway":"track","name":null,"alt_name":null,"official_name":null,"surface":null,"tracktype":null,"service":null,"access":null,"motor_vehicle":null,"foot":null,"tiger_reviewed":null,"rrgh_part":0,"rrgh_tile_part":0},"geometry":{"type":"LineString","coordinates":[[-83.6853675,37.909833],[-83.6854195,37.9098743],[-83.6857041,37.9100232],[-83.6861516,37.9100654],[-83.6865609,37.9098934],[-83.6871155,37.9095433],[-83.6874559,37.9094679],[-83.6880373,37.9094679],[-83.6887258,37.9093834],[-83.6891809,37.9094468],[-83.6895519,37.9095735],[-83.6901601,37.9099568],[-83.6906076,37.910331],[-83.6909825,37.9104004],[-83.6912387,37.91034],[-83.6921414,37.9098783],[-83.6924321,37.9097365],[-83.6931779,37.9095464],[-83.6934992,37.9095101],[-83.6937938,37.9095524],[-83.6939009,37.9096459],[-83.6938244,37.9097395],[-83.6936216,37.9097878],[-83.6930556,37.9099447],[-83.6926195,37.910171],[-83.6924742,37.9102495],[-83.6925239,37.910334],[-83.692631,37.9103159],[-83.692761,37.9102767],[-83.6930709,37.9103612],[-83.6936255,37.9105965],[-83.6940233,37.9109013],[-83.6942757,37.9114143],[-83.6944975,37.9116105],[-83.6945549,37.9119424],[-83.6945502,37.9122695]]}},{"type":"Feature","properties":{"osm_id":1264969890,"highway":"track","name":null,"alt_name":null,"official_name":null,"surface":null,"tracktype":null,"service":null,"access":null,"motor_vehicle":null,"foot":null,"tiger_reviewed":null,"rrgh_part":0,"rrgh_tile_part":0},"geometry":{"type":"LineString","coordinates":[[-83.6912838,37.9142219],[-83.691554,37.9144428],[-83.691762,37.9145616],[-83.6921042,37.9144337],[-83.6925594,37.914302],[-83.6931092,37.9141683],[-83.6934438,37.9142575],[-83.6941564,37.914602],[-83.6945236,37.9148162],[-83.6949538,37.9150305],[-83.695271,37.9153339],[-83.6954839,37.915387],[-83.6958923,37.9157264],[-83.6962117,37.9158378],[-83.6965637,37.9158858]]}},{"type":"Feature","properties":{"osm_id":1264969891,"highway":"track","name":null,"alt_name":null,"official_name":null,"surface":null,"tracktype":null,"service":null,"access":null,"motor_vehicle":null,"foot":null,"tiger_reviewed":null,"rrgh_part":0,"rrgh_tile_part":0},"geometry":{"type":"LineString","coordinates":[[-83.6966528,37.9153921],[-83.696203,37.9152053],[-83.6958293,37.9149499],[-83.6957968,37.9148145],[-83.6957468,37.9145403],[-83.6953014,37.9144734],[-83.6950516,37.91447],[-83.694352,37.9144117],[-83.6941434,37.9143757],[-83.6934212,37.9141039]]}},{"type":"Feature","properties":{"osm_id":1264968774,"highway":"track","name":null,"alt_name":null,"official_name":null,"surface":null,"tracktype":null,"service":null,"access":null,"motor_vehicle":null,"foot":null,"tiger_reviewed":null,"rrgh_part":0,"rrgh_tile_part":0},"geometry":{"type":"LineString","coordinates":[[-83.6854195,37.9098743],[-83.6854787,37.9101841],[-83.6855327,37.9104322]]}},{"type":"Feature","properties":{"osm_id":1264968775,"highway":"track","name":null,"alt_name":null,"official_name":null,"surface":null,"tracktype":null,"service":null,"access":null,"motor_vehicle":null,"foot":null,"tiger_reviewed":null,"rrgh_part":0,"rrgh_tile_part":0},"geometry":{"type":"LineString","coordinates":[[-83.6855327,37.9104322],[-83.6856539,37.9105665],[-83.6856391,37.9108662],[-83.6856784,37.910989],[-83.6856899,37.9111995],[-83.6857537,37.911423],[-83.6857079,37.9117021],[-83.6855065,37.9119488],[-83.6852183,37.9121387]]}},{"type":"Feature","properties":{"osm_id":16310363,"highway":"residential","name":"Dennis Lane","alt_name":null,"official_name":null,"surface":null,"tracktype":null,"service":null,"access":null,"motor_vehicle":null,"foot":null,"tiger_reviewed":"no","rrgh_part":0,"rrgh_tile_part":0},"geometry":{"type":"LineString","coordinates":[[-83.682743,37.917769],[-83.682876,37.917794],[-83.682929,37.917804],[-83.683031,37.917847],[-83.683144,37.917912],[-83.683692,37.918298],[-83.683937,37.91845],[-83.684288,37.918644],[-83.684547,37.918839],[-83.684663,37.918909],[-83.685141,37.91909],[-83.685319,37.919139],[-83.68537,37.9191587],[-83.685425,37.91918],[-83.685593,37.919299],[-83.685819,37.91949],[-83.685906,37.91958],[-83.685967,37.919663]]}},{"type":"Feature","properties":{"osm_id":1336512635,"highway":"track","name":null,"alt_name":null,"official_name":null,"surface":null,"tracktype":null,"service":null,"access":null,"motor_vehicle":null,"foot":null,"tiger_reviewed":null,"rrgh_part":0,"rrgh_tile_part":0},"geometry":{"type":"LineString","coordinates":[[-83.6837254,37.9212732],[-83.6837423,37.9211725],[-83.6836934,37.9211318],[-83.6835901,37.9210648],[-83.6834553,37.9209531],[-83.6832801,37.9208545],[-83.683189,37.9207329],[-83.6829842,37.9206134],[-83.6828443,37.9205312],[-83.6826545,37.9204709],[-83.6824837,37.9204186],[-83.6823903,37.9203665],[-83.6822816,37.9202677],[-83.6821938,37.9202063],[-83.6819549,37.9201224],[-83.6819173,37.9199516],[-83.6819766,37.9197426],[-83.6820852,37.9195994],[-83.6825941,37.919185],[-83.682868,37.9190523],[-83.68301,37.9189578],[-83.6832221,37.9188176],[-83.683467,37.9188567],[-83.6840154,37.919152],[-83.6842889,37.9192814],[-83.6845351,37.9193761],[-83.6846816,37.9194609],[-83.6847608,37.9196683],[-83.6847197,37.9200292]]}},{"type":"Feature","properties":{"osm_id":1336512636,"highway":"track","name":null,"alt_name":null,"official_name":null,"surface":null,"tracktype":null,"service":null,"access":null,"motor_vehicle":null,"foot":null,"tiger_reviewed":null,"rrgh_part":0,"rrgh_tile_part":0},"geometry":{"type":"LineString","coordinates":[[-83.6819549,37.9201224],[-83.6820342,37.9203422],[-83.6816551,37.9204487],[-83.68122,37.9203508],[-83.680987,37.9204331],[-83.6806938,37.9205853],[-83.6805486,37.9206969],[-83.680248,37.9208094],[-83.6800668,37.9208121],[-83.6800013,37.9210091],[-83.6800102,37.9213117],[-83.680148,37.9215646],[-83.6804103,37.921758],[-83.6808311,37.9220034],[-83.6812487,37.9221598],[-83.6815857,37.9222917],[-83.6819258,37.9224037],[-83.6821158,37.9225376],[-83.6825578,37.9228376],[-83.6828412,37.92305],[-83.6831712,37.9232016],[-83.683464,37.9233668],[-83.6837992,37.9234703],[-83.684238,37.9235646],[-83.6847331,37.9236696],[-83.686066,37.9239341]]}},{"type":"Feature","properties":{"osm_id":16308271,"highway":"residential","name":"Peter Trace Road","alt_name":null,"official_name":null,"surface":null,"tracktype":null,"service":null,"access":null,"motor_vehicle":null,"foot":null,"tiger_reviewed":"no","rrgh_part":0,"rrgh_tile_part":0},"geometry":{"type":"LineString","coordinates":[[-83.695282,37.94922],[-83.695753,37.949184],[-83.695922,37.94916],[-83.696081,37.949121],[-83.696307,37.949027],[-83.696796,37.948784],[-83.696999,37.948718],[-83.697044,37.948717],[-83.697092,37.948725],[-83.697206,37.948766],[-83.697686,37.948985],[-83.697962,37.94909],[-83.698628,37.949276],[-83.699346,37.949441],[-83.699443,37.949457],[-83.699558,37.949461],[-83.69963,37.949463],[-83.700219,37.94942],[-83.700322,37.949392],[-83.700724,37.949216],[-83.700817,37.949163],[-83.701017,37.949084],[-83.701432,37.948952],[-83.701826,37.948858],[-83.70191,37.948829],[-83.702053,37.948758],[-83.702228,37.948686],[-83.702797,37.948412],[-83.702957,37.948315],[-83.703187,37.948142],[-83.703349,37.948037],[-83.703448,37.947984],[-83.704112,37.947424],[-83.704401,37.947119],[-83.704958,37.946636],[-83.705094,37.94648],[-83.705173,37.946363],[-83.705269,37.946161],[-83.705309,37.946059],[-83.705327,37.946013],[-83.705433,37.945848],[-83.705521,37.945627],[-83.705525,37.945573],[-83.705499,37.945506],[-83.705488,37.945476],[-83.705297,37.945234],[-83.705192,37.94507],[-83.705156,37.944987],[-83.705148,37.944893],[-83.705194,37.944798],[-83.705607,37.944136],[-83.705791,37.943714],[-83.705917,37.943453],[-83.70607,37.943091],[-83.706115,37.943045],[-83.70625,37.942972],[-83.706781,37.94276],[-83.706861,37.942728],[-83.707091,37.942642],[-83.707335,37.942571],[-83.707802,37.942401],[-83.708022,37.942309],[-83.708133,37.942277],[-83.708353,37.942227],[-83.708676,37.942171],[-83.709057,37.942043],[-83.709249,37.942003],[-83.709535,37.941995],[-83.7098156,37.9420216],[-83.710376,37.942052],[-83.710784,37.94206],[-83.711278,37.941999],[-83.711649,37.941908],[-83.711739,37.941907],[-83.711862,37.941941],[-83.711921,37.941966],[-83.712116,37.94205],[-83.712349,37.94216],[-83.712735,37.942342],[-83.713236,37.942528],[-83.713311,37.94257],[-83.713383,37.942626],[-83.713439,37.942688],[-83.713584,37.942892],[-83.713653,37.942944],[-83.713739,37.94298],[-83.713839,37.94301],[-83.714308,37.943128],[-83.714811,37.943214],[-83.715028,37.943233],[-83.715236,37.943217],[-83.715708,37.943141],[-83.715972,37.943118],[-83.716344,37.943109],[-83.716629,37.943124],[-83.716747,37.943145],[-83.716857,37.943175],[-83.716953,37.943215],[-83.717138,37.94331],[-83.717573,37.943453],[-83.718287,37.943605],[-83.719167,37.943755],[-83.719281,37.943765],[-83.719506,37.943763],[-83.719535,37.943758],[-83.719852,37.943704],[-83.719949,37.943698],[-83.720376,37.943654],[-83.720727,37.943592],[-83.720976,37.943593],[-83.721335,37.943653],[-83.721845,37.943806],[-83.722349,37.943976],[-83.722648,37.944117],[-83.72348,37.944445],[-83.723584,37.944499],[-83.72394,37.944685],[-83.724129,37.94483],[-83.72442,37.945023],[-83.724602,37.945116],[-83.724727,37.945169],[-83.724995,37.945261],[-83.725873,37.945481],[-83.72653,37.945705],[-83.726904,37.945876],[-83.727326,37.946027],[-83.727774,37.946438],[-83.727915,37.946503],[-83.728052,37.946545],[-83.728856,37.946703],[-83.729173,37.946789],[-83.729502,37.946904],[-83.729665,37.946945],[-83.730116,37.94699],[-83.730395,37.947029],[-83.730532,37.947059],[-83.730981,37.947175],[-83.731659,37.947332],[-83.733168,37.947712],[-83.734041,37.94791],[-83.734639,37.948075],[-83.734783,37.948101],[-83.734926,37.948116],[-83.735063,37.94812],[-83.735315,37.948106],[-83.737171,37.947864],[-83.737304,37.947858],[-83.737573,37.947874],[-83.737698,37.947902],[-83.737814,37.947945],[-83.73792,37.948],[-83.738016,37.94806],[-83.738373,37.948323],[-83.738538,37.948427],[-83.738815,37.94856],[-83.739102,37.948659],[-83.7397408,37.9488193],[-83.739907,37.948861],[-83.740165,37.948913],[-83.740426,37.948949],[-83.740787,37.948952],[-83.740991,37.948929],[-83.741262,37.948883],[-83.741418,37.948858],[-83.741486,37.948847],[-83.741649,37.948757],[-83.741732,37.948692],[-83.742049,37.948391],[-83.742212,37.948256],[-83.742297,37.9482],[-83.742387,37.948156],[-83.742486,37.948129],[-83.742595,37.948115],[-83.742828,37.948122],[-83.742949,37.948139],[-83.743186,37.948192],[-83.743695,37.948342],[-83.744201,37.948512],[-83.744345,37.948569],[-83.744487,37.948639]]}},{"type":"Feature","properties":{"osm_id":16309705,"highway":"residential","name":"Paul Hall Road","alt_name":null,"official_name":null,"surface":null,"tracktype":null,"service":null,"access":null,"motor_vehicle":null,"foot":null,"tiger_reviewed":"no","rrgh_part":0,"rrgh_tile_part":0},"geometry":{"type":"LineString","coordinates":[[-83.758528,37.92275],[-83.758477,37.922804],[-83.758418,37.922924],[-83.75837,37.923219],[-83.758288,37.923434],[-83.758197,37.923563],[-83.758019,37.923736],[-83.757969,37.923799],[-83.757891,37.923937],[-83.757789,37.924154],[-83.757588,37.924436],[-83.757501,37.924599],[-83.757428,37.92494],[-83.757437,37.925029],[-83.757434,37.925304],[-83.757409,37.925557],[-83.757374,37.925628],[-83.757152,37.925976],[-83.757118,37.926048],[-83.757038,37.926337],[-83.756969,37.926465],[-83.756607,37.926747],[-83.756542,37.927634],[-83.756575,37.927819],[-83.756605,37.927908],[-83.756682,37.928069],[-83.756792,37.92823],[-83.756925,37.928384],[-83.757498,37.928882],[-83.757716,37.929086],[-83.757838,37.929215],[-83.758258,37.929556],[-83.758394,37.92975],[-83.758517,37.929871],[-83.7587298,37.930043],[-83.7587767,37.9301432],[-83.758816,37.930383],[-83.758878,37.93052],[-83.758987,37.930645],[-83.7592511,37.9308709],[-83.7593458,37.9309672],[-83.7593985,37.9310443],[-83.7594323,37.9311428],[-83.7594404,37.9312303],[-83.7594275,37.9313427],[-83.7593666,37.9316193]]}},{"type":"Feature","properties":{"osm_id":16308477,"highway":"track","name":null,"alt_name":null,"official_name":null,"surface":null,"tracktype":null,"service":null,"access":null,"motor_vehicle":null,"foot":null,"tiger_reviewed":"no","rrgh_part":0,"rrgh_tile_part":0},"geometry":{"type":"LineString","coordinates":[[-83.732285,37.935334],[-83.732064,37.935179],[-83.731955,37.934993],[-83.732059,37.93485],[-83.732374,37.934798],[-83.732861,37.934731],[-83.733362,37.93452],[-83.733629,37.934225],[-83.733653,37.933993],[-83.733567,37.933711],[-83.733572,37.933366],[-83.733778,37.933159],[-83.733975,37.932848],[-83.733958,37.932638],[-83.733823,37.932314],[-83.733359,37.931425],[-83.732722,37.930993],[-83.732728,37.93076],[-83.732843,37.930676],[-83.733588,37.93068],[-83.734336,37.931007],[-83.735488,37.932097],[-83.736753,37.932933],[-83.737119,37.93335],[-83.737374,37.933928],[-83.737858,37.934322],[-83.739231,37.934585],[-83.739687,37.934763],[-83.740715,37.934662],[-83.742511,37.934897],[-83.74411,37.934607],[-83.745422,37.93448],[-83.747505,37.934368],[-83.748244,37.933971],[-83.749014,37.933757],[-83.750035,37.933037],[-83.751689,37.932454],[-83.7521037,37.9320233]]}},{"type":"Feature","properties":{"osm_id":1350659319,"highway":"service","name":null,"alt_name":null,"official_name":null,"surface":null,"tracktype":null,"service":null,"access":null,"motor_vehicle":null,"foot":null,"tiger_reviewed":null,"rrgh_part":0,"rrgh_tile_part":0},"geometry":{"type":"LineString","coordinates":[[-83.7521037,37.9320233],[-83.7521843,37.9319054],[-83.7522647,37.9317244],[-83.752412,37.9314559],[-83.7525393,37.9313029],[-83.7526561,37.9312137],[-83.7527821,37.9311573],[-83.7535021,37.9310228],[-83.7539288,37.9309338],[-83.7542069,37.9309106],[-83.7542991,37.9308933],[-83.7543823,37.9308319]]}},{"type":"Feature","properties":{"osm_id":16308435,"highway":"residential","name":"Williams Lane","alt_name":null,"official_name":null,"surface":null,"tracktype":null,"service":null,"access":null,"motor_vehicle":null,"foot":null,"tiger_reviewed":"no","rrgh_part":0,"rrgh_tile_part":0},"geometry":{"type":"LineString","coordinates":[[-83.75208,37.948296],[-83.752213,37.94844],[-83.752411,37.948579],[-83.753452,37.949429],[-83.75366,37.949589],[-83.754057,37.949934],[-83.754181,37.950033],[-83.754267,37.950081],[-83.754375,37.950196]]}},{"type":"Feature","properties":{"osm_id":16310323,"highway":"residential","name":"Herman Becraft Spur Road","alt_name":null,"official_name":null,"surface":null,"tracktype":null,"service":null,"access":null,"motor_vehicle":null,"foot":null,"tiger_reviewed":"no","rrgh_part":0,"rrgh_tile_part":0},"geometry":{"type":"LineString","coordinates":[[-83.75158,37.941327],[-83.75156,37.94144],[-83.751463,37.94157],[-83.751338,37.941706],[-83.751006,37.941999],[-83.750912,37.942111],[-83.750819,37.942281],[-83.750683,37.942574],[-83.750614,37.942762],[-83.750574,37.942921],[-83.750591,37.943002],[-83.7506166,37.9430362],[-83.7506679,37.9430644],[-83.750748,37.943064],[-83.751167,37.943055],[-83.751301,37.943084],[-83.751368,37.943125],[-83.751417,37.943174],[-83.751542,37.943383],[-83.751794,37.943519],[-83.751879,37.943579],[-83.752273,37.943933],[-83.752337,37.944024],[-83.752586,37.944611],[-83.752616,37.944666],[-83.752695,37.944752],[-83.752806,37.944806],[-83.753003,37.944847],[-83.75336,37.944881],[-83.753415,37.944871],[-83.75345,37.944849]]}},{"type":"Feature","properties":{"osm_id":16310761,"highway":"residential","name":"Hunter Lane","alt_name":null,"official_name":null,"surface":null,"tracktype":null,"service":null,"access":null,"motor_vehicle":null,"foot":null,"tiger_reviewed":"no","rrgh_part":0,"rrgh_tile_part":0},"geometry":{"type":"LineString","coordinates":[[-83.75483,37.948443],[-83.75493,37.948758],[-83.754953,37.948885],[-83.754959,37.949041],[-83.754947,37.949511]]}},{"type":"Feature","properties":{"osm_id":313433406,"highway":"residential","name":"Autumn Drive","alt_name":null,"official_name":null,"surface":null,"tracktype":null,"service":null,"access":null,"motor_vehicle":null,"foot":null,"tiger_reviewed":null,"rrgh_part":0,"rrgh_tile_part":0},"geometry":{"type":"LineString","coordinates":[[-83.7510546,37.9475576],[-83.7496681,37.9475356],[-83.7485468,37.9475178],[-83.7483579,37.9475486],[-83.7483123,37.9476308],[-83.7481948,37.9482277]]}},{"type":"Feature","properties":{"osm_id":16308873,"highway":"service","name":null,"alt_name":null,"official_name":null,"surface":null,"tracktype":null,"service":null,"access":null,"motor_vehicle":null,"foot":null,"tiger_reviewed":null,"rrgh_part":0,"rrgh_tile_part":0},"geometry":{"type":"LineString","coordinates":[[-83.7493171,37.9427697],[-83.7497422,37.9429717],[-83.7499313,37.9430669],[-83.7501217,37.9430934],[-83.750276,37.9430965],[-83.7505697,37.9430785],[-83.7506679,37.9430644]]}},{"type":"Feature","properties":{"osm_id":16310649,"highway":"residential","name":"Herman Becraft Road","alt_name":null,"official_name":null,"surface":null,"tracktype":null,"service":null,"access":null,"motor_vehicle":null,"foot":null,"tiger_reviewed":"no","rrgh_part":0,"rrgh_tile_part":0},"geometry":{"type":"LineString","coordinates":[[-83.7515111,37.9438538],[-83.751454,37.94431],[-83.751331,37.945262],[-83.751222,37.946303],[-83.751074,37.947434],[-83.7510546,37.9475576],[-83.7510203,37.9477771],[-83.750997,37.947926],[-83.75098,37.948269]]}},{"type":"Feature","properties":{"osm_id":313433407,"highway":"residential","name":"Means Court","alt_name":null,"official_name":null,"surface":null,"tracktype":null,"service":null,"access":null,"motor_vehicle":null,"foot":null,"tiger_reviewed":null,"rrgh_part":0,"rrgh_tile_part":0},"geometry":{"type":"LineString","coordinates":[[-83.7517579,37.9482833],[-83.7517905,37.9478311],[-83.7517318,37.9477952],[-83.7510203,37.9477771]]}},{"type":"Feature","properties":{"osm_id":1424199490,"highway":"residential","name":"Herman Becraft Road","alt_name":null,"official_name":null,"surface":null,"tracktype":null,"service":null,"access":null,"motor_vehicle":null,"foot":null,"tiger_reviewed":null,"rrgh_part":0,"rrgh_tile_part":0},"geometry":{"type":"LineString","coordinates":[[-83.7515259,37.943692],[-83.7515111,37.9438538]]}},{"type":"Feature","properties":{"osm_id":1424199491,"highway":"residential","name":"Herman Becraft Road","alt_name":null,"official_name":null,"surface":null,"tracktype":null,"service":null,"access":null,"motor_vehicle":null,"foot":null,"tiger_reviewed":"no","rrgh_part":0,"rrgh_tile_part":0},"geometry":{"type":"LineString","coordinates":[[-83.751542,37.943383],[-83.7515259,37.943692]]}},{"type":"Feature","properties":{"osm_id":1441536869,"highway":"service","name":null,"alt_name":null,"official_name":null,"surface":null,"tracktype":null,"service":null,"access":null,"motor_vehicle":null,"foot":null,"tiger_reviewed":null,"rrgh_part":0,"rrgh_tile_part":0},"geometry":{"type":"LineString","coordinates":[[-83.7496681,37.9475356],[-83.7496198,37.9483196]]}},{"type":"Feature","properties":{"osm_id":1441536870,"highway":"service","name":"Bonn Mountain Road","alt_name":null,"official_name":null,"surface":null,"tracktype":null,"service":null,"access":null,"motor_vehicle":null,"foot":null,"tiger_reviewed":null,"rrgh_part":0,"rrgh_tile_part":0},"geometry":{"type":"LineString","coordinates":[[-83.7459737,37.9443724],[-83.7459577,37.9468538],[-83.7459577,37.947102],[-83.7459577,37.9477838],[-83.7459722,37.9481373]]}},{"type":"Feature","properties":{"osm_id":1441536871,"highway":"service","name":null,"alt_name":null,"official_name":null,"surface":null,"tracktype":null,"service":null,"access":null,"motor_vehicle":null,"foot":null,"tiger_reviewed":null,"rrgh_part":0,"rrgh_tile_part":0},"geometry":{"type":"LineString","coordinates":[[-83.7397408,37.9488193],[-83.739966,37.9484346],[-83.7401911,37.94805],[-83.740234,37.9479612],[-83.7402822,37.9478809],[-83.7403734,37.9477541],[-83.740427,37.9476568],[-83.7404323,37.9476103],[-83.7404377,37.9475638],[-83.7404163,37.9475173],[-83.7403948,37.9474666]]}},{"type":"Feature","properties":{"osm_id":16309083,"highway":"service","name":null,"alt_name":null,"official_name":null,"surface":null,"tracktype":null,"service":null,"access":"private","motor_vehicle":null,"foot":null,"tiger_reviewed":"no","rrgh_part":0,"rrgh_tile_part":0},"geometry":{"type":"LineString","coordinates":[[-83.754267,37.950081],[-83.7539853,37.9504077]]}},{"type":"Feature","properties":{"osm_id":16309732,"highway":"residential","name":"Lowell Circle","alt_name":null,"official_name":null,"surface":null,"tracktype":null,"service":null,"access":"private","motor_vehicle":null,"foot":null,"tiger_reviewed":"no","rrgh_part":0,"rrgh_tile_part":0},"geometry":{"type":"LineString","coordinates":[[-83.74157,37.95052],[-83.741871,37.950863],[-83.742085,37.95113],[-83.742145,37.951225],[-83.742179,37.951316],[-83.7421868,37.9515014],[-83.742191,37.951602],[-83.742174,37.951711],[-83.742121,37.95183],[-83.742092,37.95186],[-83.742012,37.951904],[-83.74197,37.951914],[-83.741767,37.951923],[-83.741582,37.951899],[-83.741452,37.951871],[-83.741071,37.951771],[-83.740912,37.951719],[-83.740864,37.951695],[-83.740781,37.951633],[-83.740444,37.951293]]}},{"type":"Feature","properties":{"osm_id":16310676,"highway":"residential","name":"Valley View Road","alt_name":null,"official_name":null,"surface":null,"tracktype":null,"service":null,"access":null,"motor_vehicle":null,"foot":null,"tiger_reviewed":"no","rrgh_part":0,"rrgh_tile_part":0},"geometry":{"type":"LineString","coordinates":[[-83.741978,37.950242],[-83.741298,37.949628]]}},{"type":"Feature","properties":{"osm_id":16310602,"highway":"service","name":"Combs Lane","alt_name":null,"official_name":null,"surface":null,"tracktype":null,"service":null,"access":"private","motor_vehicle":null,"foot":null,"tiger_reviewed":"no","rrgh_part":0,"rrgh_tile_part":0},"geometry":{"type":"LineString","coordinates":[[-83.73877,37.952439],[-83.738939,37.952627],[-83.739322,37.953001],[-83.74009,37.953662],[-83.740204,37.953813]]}},{"type":"Feature","properties":{"osm_id":16310304,"highway":"residential","name":"Cain Branch Road","alt_name":null,"official_name":null,"surface":null,"tracktype":null,"service":null,"access":null,"motor_vehicle":null,"foot":null,"tiger_reviewed":"no","rrgh_part":0,"rrgh_tile_part":0},"geometry":{"type":"LineString","coordinates":[[-83.726211,37.957737],[-83.726609,37.957744],[-83.727017,37.957725],[-83.727347,37.957737],[-83.72743,37.95774],[-83.727782,37.957723],[-83.72811,37.957692],[-83.728736,37.957651],[-83.728953,37.957648],[-83.729069,37.957655]]}},{"type":"Feature","properties":{"osm_id":16310309,"highway":"residential","name":"Tuffy Stull Spur Road","alt_name":null,"official_name":null,"surface":null,"tracktype":null,"service":null,"access":null,"motor_vehicle":null,"foot":null,"tiger_reviewed":"no","rrgh_part":0,"rrgh_tile_part":0},"geometry":{"type":"LineString","coordinates":[[-83.735456,37.954692],[-83.735525,37.954815],[-83.735617,37.955027],[-83.735925,37.95581],[-83.735951,37.955855],[-83.735984,37.955886],[-83.73603,37.955898],[-83.736114,37.955889],[-83.736456,37.955818],[-83.736863,37.955774],[-83.737008,37.955742],[-83.737034,37.955729],[-83.737258,37.955612],[-83.73762,37.955387],[-83.737911,37.955223],[-83.73803,37.955133],[-83.738173,37.955006],[-83.73826,37.95495],[-83.738389,37.954886]]}},{"type":"Feature","properties":{"osm_id":16310536,"highway":"residential","name":"Major Will Hoyt Road","alt_name":null,"official_name":null,"surface":null,"tracktype":null,"service":null,"access":null,"motor_vehicle":null,"foot":null,"tiger_reviewed":"no","rrgh_part":0,"rrgh_tile_part":0},"geometry":{"type":"LineString","coordinates":[[-83.729138,37.955954],[-83.729137,37.956133],[-83.729025,37.957157],[-83.729014,37.957342],[-83.729018,37.957525],[-83.729029,37.957574],[-83.729069,37.957655],[-83.729134,37.957723],[-83.729132,37.957861],[-83.729082,37.958186],[-83.729028,37.958443],[-83.728958,37.959089],[-83.728848,37.959687],[-83.728727,37.960561],[-83.728695,37.96059],[-83.72868,37.960644],[-83.728732,37.960734],[-83.728605,37.961],[-83.728101,37.961244],[-83.727922,37.961462],[-83.727905,37.962081],[-83.727748,37.962234],[-83.727632,37.962355]]}},{"type":"Feature","properties":{"osm_id":16310537,"highway":"residential","name":"Major Will Hoyt Road","alt_name":null,"official_name":null,"surface":null,"tracktype":null,"service":null,"access":null,"motor_vehicle":null,"foot":null,"tiger_reviewed":"no","rrgh_part":0,"rrgh_tile_part":0},"geometry":{"type":"LineString","coordinates":[[-83.729754,37.962494],[-83.729359,37.961968],[-83.729028,37.961404],[-83.728902,37.961144],[-83.728857,37.960874],[-83.728732,37.960734]]}},{"type":"Feature","properties":{"osm_id":313434338,"highway":"residential","name":"Dwellon Court","alt_name":null,"official_name":null,"surface":null,"tracktype":null,"service":null,"access":null,"motor_vehicle":null,"foot":null,"tiger_reviewed":null,"rrgh_part":0,"rrgh_tile_part":0},"geometry":{"type":"LineString","coordinates":[[-83.736456,37.955818],[-83.7359888,37.9544978],[-83.7359113,37.9544044]]}},{"type":"Feature","properties":{"osm_id":313434340,"highway":"residential","name":null,"alt_name":null,"official_name":null,"surface":null,"tracktype":null,"service":null,"access":null,"motor_vehicle":null,"foot":null,"tiger_reviewed":null,"rrgh_part":0,"rrgh_tile_part":0},"geometry":{"type":"LineString","coordinates":[[-83.735984,37.955886],[-83.7358325,37.9559923],[-83.7354026,37.9561618],[-83.7350118,37.956285]]}},{"type":"Feature","properties":{"osm_id":16308701,"highway":"service","name":null,"alt_name":null,"official_name":null,"surface":null,"tracktype":null,"service":null,"access":null,"motor_vehicle":null,"foot":null,"tiger_reviewed":"no","rrgh_part":0,"rrgh_tile_part":0},"geometry":{"type":"LineString","coordinates":[[-83.737034,37.955729],[-83.7371222,37.9558844]]}},{"type":"Feature","properties":{"osm_id":16309816,"highway":"service","name":"Phillips Hollow Road","alt_name":null,"official_name":null,"surface":null,"tracktype":null,"service":null,"access":null,"motor_vehicle":null,"foot":null,"tiger_reviewed":"no","rrgh_part":0,"rrgh_tile_part":0},"geometry":{"type":"LineString","coordinates":[[-83.7337352,37.9552938],[-83.7338133,37.9558023],[-83.7340934,37.956701],[-83.7344191,37.9569578],[-83.7344777,37.9577641],[-83.7344321,37.9578873],[-83.7343149,37.957949],[-83.7341716,37.9579027],[-83.733898,37.9577435]]}},{"type":"Feature","properties":{"osm_id":16309940,"highway":"residential","name":"Will Hoyt Road","alt_name":null,"official_name":null,"surface":null,"tracktype":null,"service":null,"access":null,"motor_vehicle":null,"foot":null,"tiger_reviewed":"no","rrgh_part":0,"rrgh_tile_part":0},"geometry":{"type":"LineString","coordinates":[[-83.729069,37.957655],[-83.729285,37.957677],[-83.729644,37.957668],[-83.729837,37.957627],[-83.730197,37.957525],[-83.730327,37.957513],[-83.730383,37.957517],[-83.730479,37.957557],[-83.730564,37.957632],[-83.730634,37.95772]]}},{"type":"Feature","properties":{"osm_id":16310207,"highway":"residential","name":"Chester Carty Road","alt_name":null,"official_name":null,"surface":null,"tracktype":null,"service":null,"access":null,"motor_vehicle":null,"foot":null,"tiger_reviewed":"no","rrgh_part":0,"rrgh_tile_part":0},"geometry":{"type":"LineString","coordinates":[[-83.75016,37.965315],[-83.750208,37.965376],[-83.750255,37.965411],[-83.750523,37.965517],[-83.750668,37.965611],[-83.750773,37.965738],[-83.750828,37.965783],[-83.750986,37.966012],[-83.751219,37.966249],[-83.751482,37.966547],[-83.751557,37.966653],[-83.751614,37.966757],[-83.751614,37.966816],[-83.751633,37.966877],[-83.751698,37.966999],[-83.751728,37.967125],[-83.751782,37.96724],[-83.751782,37.967299],[-83.751799,37.967352],[-83.751833,37.967394],[-83.751839,37.967468],[-83.751901,37.967533],[-83.751949,37.967609],[-83.752042,37.967681],[-83.752091,37.967705],[-83.752144,37.967716],[-83.752258,37.967703],[-83.752429,37.967667],[-83.752545,37.967664],[-83.752597,37.967678]]}},{"type":"Feature","properties":{"osm_id":16310104,"highway":"residential","name":"Clem Branch Road","alt_name":null,"official_name":null,"surface":null,"tracktype":null,"service":null,"access":null,"motor_vehicle":null,"foot":null,"tiger_reviewed":"no","rrgh_part":0,"rrgh_tile_part":0},"geometry":{"type":"LineString","coordinates":[[-83.743418,37.971599],[-83.743878,37.972449],[-83.744005,37.972725],[-83.744114,37.973013],[-83.744164,37.97312],[-83.744237,37.973229],[-83.744345,37.973353],[-83.744471,37.973445],[-83.745078,37.973749],[-83.745185,37.973812],[-83.745535,37.974171],[-83.745666,37.974357],[-83.745774,37.974547],[-83.745903,37.974846],[-83.74594735869566,37.974999999999994]]}},{"type":"Feature","properties":{"osm_id":16309369,"highway":"track","name":"Coldiron Fork South Road","alt_name":null,"official_name":null,"surface":null,"tracktype":null,"service":null,"access":null,"motor_vehicle":null,"foot":null,"tiger_reviewed":"no","rrgh_part":0,"rrgh_tile_part":0},"geometry":{"type":"LineString","coordinates":[[-83.67500000000001,37.93051551449277],[-83.675291,37.9309],[-83.675475,37.931185],[-83.676222,37.931968],[-83.676668,37.932419],[-83.676813,37.932584],[-83.677029,37.932863],[-83.677154,37.932978],[-83.677675,37.933387],[-83.677946,37.93362],[-83.678082,37.933692],[-83.678274,37.93376],[-83.678338,37.9338],[-83.678398,37.933853],[-83.678515,37.933979],[-83.678906,37.934449],[-83.679022,37.934565],[-83.679337,37.934846],[-83.6794486,37.9349555],[-83.67962,37.935141],[-83.67965,37.935196],[-83.679865,37.935759],[-83.679878,37.935893],[-83.679877,37.936074],[-83.679897,37.936171],[-83.67992,37.93621],[-83.679957,37.93625],[-83.680015,37.936312],[-83.680036,37.936357],[-83.680043,37.93641],[-83.680029,37.936519],[-83.67997,37.936688],[-83.679943,37.93681],[-83.679947,37.936936],[-83.679971,37.937122],[-83.679977,37.937341],[-83.6800304,37.9374609],[-83.6799965,37.9374936],[-83.679966,37.937523],[-83.679951,37.937568],[-83.679934,37.93768],[-83.679961,37.938015],[-83.679943,37.938423],[-83.679964,37.93851],[-83.680045,37.938645],[-83.68009,37.938694],[-83.6801333,37.9387151],[-83.680193,37.938773],[-83.680216,37.93879],[-83.680268,37.938851],[-83.680315,37.938964],[-83.6803718,37.9391537],[-83.6803598,37.9392936],[-83.6803227,37.9394224],[-83.680267,37.939549],[-83.6802561,37.9398099],[-83.6801113,37.940231],[-83.6800763,37.9404404],[-83.6800912,37.9405663],[-83.6801545,37.9407795],[-83.680242,37.9411359],[-83.680387,37.941426],[-83.6804673,37.9415781],[-83.680477,37.941802],[-83.6805093,37.9420208],[-83.6805108,37.9422043],[-83.6804861,37.9424814],[-83.6804449,37.9426717],[-83.6803106,37.9428297],[-83.6802653,37.9429198],[-83.6802625,37.9432866],[-83.6801939,37.9438277],[-83.6801963,37.9441447],[-83.6799834,37.9443327],[-83.6793514,37.9448311],[-83.6791039,37.9449419],[-83.6788597,37.9451173],[-83.678457,37.946544],[-83.6781745,37.9469124],[-83.6777047,37.9470019],[-83.6773608,37.9469293],[-83.6772298,37.9469526],[-83.677277,37.947241],[-83.677396,37.9477573],[-83.6774324,37.9479239],[-83.6774597,37.9482361],[-83.677306,37.948268],[-83.676514,37.948209],[-83.675496,37.948251],[-83.67500000000001,37.948131978967496]]}},{"type":"Feature","properties":{"osm_id":16309765,"highway":"service","name":"Dog Trot Fork Road","alt_name":null,"official_name":null,"surface":null,"tracktype":null,"service":null,"access":"private","motor_vehicle":null,"foot":null,"tiger_reviewed":"no","rrgh_part":0,"rrgh_tile_part":0},"geometry":{"type":"LineString","coordinates":[[-83.711507,37.964463],[-83.711368,37.96466],[-83.711019,37.965095],[-83.710808,37.965322],[-83.710463,37.965656],[-83.710093,37.965978],[-83.709704,37.966262],[-83.709547,37.966345],[-83.709405,37.96642],[-83.709227,37.966493],[-83.708767,37.966682],[-83.7086843,37.9667243],[-83.708453,37.966841],[-83.70814,37.967029],[-83.707665,37.967334],[-83.707591,37.96738],[-83.706548,37.968029],[-83.706218,37.96821],[-83.705878,37.968373],[-83.705367,37.968567],[-83.704869,37.96873],[-83.704692,37.968776],[-83.70414,37.968894],[-83.703454,37.969083],[-83.703151,37.969204],[-83.702557,37.969534],[-83.702235,37.969692],[-83.701726,37.969899],[-83.701544,37.969959],[-83.700974,37.970107],[-83.700418,37.970229],[-83.700325,37.970241],[-83.699996,37.9702791],[-83.699129,37.970398],[-83.698856,37.970434],[-83.697868,37.970548],[-83.697678,37.970577],[-83.6973,37.970654],[-83.69712,37.970699],[-83.696765,37.970807],[-83.695924,37.971114],[-83.694394,37.971604],[-83.693276,37.971887],[-83.692687,37.972091],[-83.691998,37.972355],[-83.691753,37.972428],[-83.69149,37.972481],[-83.69135,37.9725],[-83.691198,37.972505],[-83.690373,37.972485],[-83.6902697,37.9724825],[-83.6899804,37.9724753],[-83.68956,37.972465],[-83.689096,37.972422],[-83.688903,37.972404],[-83.687033,37.972139],[-83.68679,37.972124],[-83.686677,37.972135],[-83.686568,37.972161],[-83.686461,37.972205],[-83.686264,37.972336],[-83.685834,37.972665],[-83.6852925,37.9731837],[-83.6851437,37.9732888],[-83.6845637,37.9736401],[-83.6842328,37.973805],[-83.6837429,37.9739861],[-83.683255,37.9741476],[-83.6829599,37.9742495],[-83.6828282,37.9743027],[-83.682571,37.97437],[-83.6822567,37.9744281],[-83.6819114,37.974445],[-83.6816716,37.9744462],[-83.6814301,37.9744344],[-83.681338,37.974441],[-83.681079,37.974467],[-83.680523,37.974607],[-83.680399,37.974648],[-83.680203,37.974757],[-83.680134,37.974809],[-83.679947,37.974986],[-83.67993897333334,37.974999999999994]]}},{"type":"Feature","properties":{"osm_id":970143764,"highway":"track","name":null,"alt_name":null,"official_name":null,"surface":null,"tracktype":null,"service":null,"access":null,"motor_vehicle":null,"foot":null,"tiger_reviewed":null,"rrgh_part":0,"rrgh_tile_part":0},"geometry":{"type":"LineString","coordinates":[[-83.67500000000001,37.972080624826084],[-83.6750843,37.9720844],[-83.6753362,37.9720464],[-83.6755553,37.9719463],[-83.6759409,37.971663],[-83.6764272,37.9713194],[-83.6767646,37.9711812],[-83.6770038,37.9710818],[-83.6770651,37.9711163],[-83.6772075,37.9711198],[-83.6774595,37.9710922],[-83.677799,37.9712269],[-83.6782438,37.9715464],[-83.6783423,37.9719297],[-83.6784935,37.9722941],[-83.6784935,37.9725221],[-83.6785746,37.9730886],[-83.6786249,37.9732647]]}},{"type":"Feature","properties":{"osm_id":599425341,"highway":"residential","name":"Poachy Williams Road","alt_name":null,"official_name":null,"surface":null,"tracktype":null,"service":null,"access":null,"motor_vehicle":null,"foot":null,"tiger_reviewed":"no","rrgh_part":0,"rrgh_tile_part":0},"geometry":{"type":"LineString","coordinates":[[-83.7149957,37.9230234],[-83.714507,37.922827]]}},{"type":"Feature","properties":{"osm_id":16310601,"highway":"track","name":"Norris Hollow Road","alt_name":null,"official_name":null,"surface":null,"tracktype":null,"service":null,"access":null,"motor_vehicle":null,"foot":null,"tiger_reviewed":"no","rrgh_part":0,"rrgh_tile_part":0},"geometry":{"type":"LineString","coordinates":[[-83.723584,37.944499],[-83.723582,37.944061],[-83.723583,37.943848],[-83.723824,37.943163],[-83.723911,37.942836],[-83.72406,37.94228],[-83.724185,37.941971],[-83.724309,37.941663],[-83.724358,37.941427],[-83.72447,37.940893],[-83.724595,37.940361],[-83.724588,37.939849],[-83.724658,37.93948],[-83.724774,37.939291],[-83.724942,37.939101]]}},{"type":"Feature","properties":{"osm_id":16310328,"highway":"track","name":"Rowe Road","alt_name":null,"official_name":null,"surface":null,"tracktype":null,"service":null,"access":null,"motor_vehicle":null,"foot":null,"tiger_reviewed":"no","rrgh_part":0,"rrgh_tile_part":0},"geometry":{"type":"LineString","coordinates":[[-83.7102048,37.9390139],[-83.7102024,37.9395866],[-83.7100778,37.9398695],[-83.7100545,37.9399237],[-83.7100373,37.9400112],[-83.7100102,37.9404673],[-83.7100613,37.9410015],[-83.710108,37.94147],[-83.710087,37.941611],[-83.710071,37.941647],[-83.710019,37.941708],[-83.709904,37.941793],[-83.709874,37.941825],[-83.709838,37.94192],[-83.7098156,37.9420216]]}},{"type":"Feature","properties":{"osm_id":16310671,"highway":"residential","name":"Claude Ingram Road","alt_name":null,"official_name":null,"surface":null,"tracktype":null,"service":null,"access":null,"motor_vehicle":null,"foot":null,"tiger_reviewed":"no","rrgh_part":0,"rrgh_tile_part":0},"geometry":{"type":"LineString","coordinates":[[-83.67500000000001,37.92783837340619],[-83.675786,37.927689],[-83.675945,37.927672],[-83.676101,37.92767],[-83.676253,37.927681],[-83.676425,37.927707],[-83.676927,37.92788],[-83.676963,37.927886],[-83.677368,37.928086],[-83.677607,37.928188],[-83.677684,37.928234],[-83.677821,37.92834],[-83.678002,37.928445],[-83.678297,37.9285869],[-83.6787672,37.9286928],[-83.6793808,37.9289195],[-83.6795954,37.9290006],[-83.6800324,37.9292165],[-83.6804312,37.9294638]]}},{"type":"Feature","properties":{"osm_id":1264972770,"highway":"track","name":null,"alt_name":null,"official_name":null,"surface":null,"tracktype":null,"service":null,"access":null,"motor_vehicle":null,"foot":null,"tiger_reviewed":null,"rrgh_part":0,"rrgh_tile_part":0},"geometry":{"type":"LineString","coordinates":[[-83.6752294,37.939039],[-83.6753289,37.938487],[-83.6751835,37.9379862],[-83.6752524,37.9375307],[-83.6755125,37.9372864],[-83.6761092,37.9371175],[-83.6763998,37.9367645],[-83.6766217,37.9362155],[-83.6768933,37.9358686],[-83.6769047,37.9354221],[-83.6772268,37.9345439],[-83.677567,37.9344189],[-83.6775756,37.9345644],[-83.67742,37.935201]]}},{"type":"Feature","properties":{"osm_id":1264972771,"highway":"track","name":null,"alt_name":null,"official_name":null,"surface":null,"tracktype":null,"service":null,"access":null,"motor_vehicle":null,"foot":null,"tiger_reviewed":null,"rrgh_part":0,"rrgh_tile_part":0},"geometry":{"type":"LineString","coordinates":[[-83.677567,37.9344189],[-83.677728,37.9341084],[-83.6777171,37.9339987],[-83.6775694,37.9338068],[-83.6774716,37.9335241]]}},{"type":"Feature","properties":{"osm_id":16308796,"highway":"track","name":null,"alt_name":null,"official_name":null,"surface":null,"tracktype":null,"service":null,"access":null,"motor_vehicle":null,"foot":null,"tiger_reviewed":"no","rrgh_part":0,"rrgh_tile_part":0},"geometry":{"type":"LineString","coordinates":[[-83.6797776,37.9527742],[-83.6793635,37.9528351],[-83.6784745,37.9533568],[-83.678117,37.9534276],[-83.6775943,37.9533917],[-83.6773404,37.9532634],[-83.6772232,37.9530679],[-83.6771619,37.9529454],[-83.6772522,37.9527879],[-83.6774659,37.9527096],[-83.6776273,37.9525576],[-83.6776039,37.9523904],[-83.6775459,37.9521404],[-83.677441,37.951996],[-83.67726,37.951825],[-83.677059,37.951573],[-83.677062,37.951363],[-83.677144,37.951275],[-83.677218,37.951066],[-83.677139,37.95088],[-83.676957,37.950782],[-83.676786,37.95066],[-83.676787,37.950563],[-83.67689,37.950475],[-83.677687,37.950157],[-83.677893,37.949949],[-83.677958,37.949611],[-83.677879,37.949376],[-83.677562,37.948712],[-83.6774597,37.9482361]]}},{"type":"Feature","properties":{"osm_id":16308953,"highway":"service","name":null,"alt_name":null,"official_name":null,"surface":null,"tracktype":null,"service":null,"access":"private","motor_vehicle":null,"foot":null,"tiger_reviewed":"no","rrgh_part":0,"rrgh_tile_part":0},"geometry":{"type":"LineString","coordinates":[[-83.680267,37.939549],[-83.680734,37.939846],[-83.680926,37.939908],[-83.681778,37.939981],[-83.682537,37.939531],[-83.683864,37.939266],[-83.685619,37.940048]]}},{"type":"Feature","properties":{"osm_id":16310266,"highway":"residential","name":"Trinity Way","alt_name":null,"official_name":null,"surface":null,"tracktype":null,"service":null,"access":null,"motor_vehicle":null,"foot":null,"tiger_reviewed":"no","rrgh_part":0,"rrgh_tile_part":0},"geometry":{"type":"LineString","coordinates":[[-83.720398,37.957235],[-83.720383,37.957033],[-83.720303,37.956498]]}},{"type":"Feature","properties":{"osm_id":16309752,"highway":"residential","name":"Dog Trot Fork Road","alt_name":null,"official_name":null,"surface":null,"tracktype":null,"service":null,"access":null,"motor_vehicle":null,"foot":null,"tiger_reviewed":"no","rrgh_part":0,"rrgh_tile_part":0},"geometry":{"type":"LineString","coordinates":[[-83.711847,37.956967],[-83.712162,37.957289],[-83.712221,37.957342],[-83.712295,37.95739],[-83.712464,37.957466],[-83.712774,37.957564],[-83.713133,37.957696],[-83.71349,37.957863],[-83.713594,37.957928],[-83.71369,37.958002],[-83.713767,37.958088],[-83.713884,37.95829],[-83.714258,37.959132],[-83.714272,37.95916],[-83.714673,37.959962],[-83.714687,37.959992],[-83.71475,37.960124],[-83.714766,37.960186],[-83.714752,37.960251],[-83.714723,37.960287],[-83.714505,37.960471],[-83.714378,37.9606],[-83.714318,37.960675],[-83.714023,37.961115],[-83.713864,37.961295],[-83.713669,37.961464],[-83.713558,37.96154],[-83.713438,37.96161],[-83.713051,37.961787],[-83.712797,37.961915],[-83.712675,37.961988],[-83.712337,37.962233],[-83.712148,37.962424],[-83.711521,37.963156],[-83.711444,37.963255],[-83.711385,37.963356],[-83.71135,37.963461],[-83.711344,37.963568],[-83.711367,37.963676],[-83.71141,37.96378],[-83.711531,37.963965],[-83.71158,37.964057],[-83.711591,37.964119]]}},{"type":"Feature","properties":{"osm_id":313434341,"highway":"service","name":"Cornwell Station","alt_name":null,"official_name":null,"surface":null,"tracktype":null,"service":null,"access":null,"motor_vehicle":null,"foot":null,"tiger_reviewed":null,"rrgh_part":0,"rrgh_tile_part":0},"geometry":{"type":"LineString","coordinates":[[-83.7122217,37.956939],[-83.7122538,37.9567267],[-83.7122734,37.9565983],[-83.7122343,37.9565264],[-83.712104,37.956511],[-83.7119021,37.956511],[-83.7116481,37.9564339],[-83.7114331,37.9562953],[-83.7113224,37.9561823],[-83.7112442,37.9561258],[-83.7110423,37.9561207]]}},{"type":"Feature","properties":{"osm_id":16310213,"highway":"residential","name":"Cornwell Branch Road","alt_name":null,"official_name":null,"surface":null,"tracktype":null,"service":null,"access":null,"motor_vehicle":null,"foot":null,"tiger_reviewed":"no","rrgh_part":0,"rrgh_tile_part":0},"geometry":{"type":"LineString","coordinates":[[-83.711591,37.964119],[-83.711758,37.964169],[-83.712326,37.964561],[-83.712381,37.964607],[-83.712469,37.964715],[-83.71261,37.964949],[-83.712729,37.965068],[-83.712994,37.965284],[-83.713119,37.96535],[-83.713524,37.965477],[-83.71369,37.965558],[-83.713852,37.965657],[-83.714312,37.966013],[-83.714386,37.966083],[-83.71457,37.966298],[-83.714725,37.966502],[-83.714737,37.966523],[-83.714874,37.966767],[-83.715121,37.966955],[-83.715233,37.967058],[-83.71546,37.967373],[-83.71558,37.967565],[-83.715742,37.967887],[-83.715784,37.967998],[-83.71581,37.968144],[-83.715833,37.968192],[-83.715993,37.968399],[-83.716105,37.968594],[-83.7164,37.968967],[-83.716514,37.969141],[-83.716601,37.969223],[-83.716657,37.969254],[-83.716758,37.96931],[-83.716806,37.969349],[-83.716989,37.969574],[-83.71711,37.969683],[-83.717255,37.969793],[-83.717392,37.969919],[-83.717655,37.970287],[-83.718079,37.970771],[-83.718151,37.970879],[-83.71819,37.970972],[-83.718211,37.971021],[-83.718234,37.971147],[-83.718286,37.971273],[-83.718339,37.971547],[-83.718505,37.971803],[-83.718609,37.971997],[-83.718812,37.972195],[-83.718881,37.972284],[-83.718908,37.972336],[-83.71893,37.972393],[-83.718934,37.97245],[-83.718889,37.972717],[-83.718894,37.972795],[-83.718918,37.972845],[-83.71901,37.972973],[-83.719169,37.973266],[-83.719296,37.973571],[-83.719419,37.973923],[-83.71945,37.97397],[-83.719489,37.974009],[-83.719521,37.974041],[-83.719668,37.97413],[-83.719797,37.974403],[-83.720104,37.974903],[-83.72010319166667,37.974999999999994]]}},{"type":"Feature","properties":{"osm_id":16310212,"highway":"residential","name":"Cornwell Branch Road","alt_name":null,"official_name":null,"surface":null,"tracktype":null,"service":null,"access":null,"motor_vehicle":null,"foot":null,"tiger_reviewed":"no","rrgh_part":0,"rrgh_tile_part":0},"geometry":{"type":"LineString","coordinates":[[-83.711507,37.964463],[-83.711565,37.96436],[-83.711598,37.964259],[-83.711591,37.964119]]}},{"type":"Feature","properties":{"osm_id":16308506,"highway":"service","name":null,"alt_name":null,"official_name":null,"surface":null,"tracktype":null,"service":null,"access":"private","motor_vehicle":null,"foot":null,"tiger_reviewed":"no","rrgh_part":0,"rrgh_tile_part":0},"geometry":{"type":"LineString","coordinates":[[-83.707591,37.96738],[-83.7079105,37.9675479],[-83.70827,37.967723],[-83.708368,37.967718],[-83.708598,37.967632],[-83.708683,37.967594]]}},{"type":"Feature","properties":{"osm_id":16308906,"highway":"residential","name":null,"alt_name":null,"official_name":null,"surface":null,"tracktype":null,"service":null,"access":null,"motor_vehicle":null,"foot":null,"tiger_reviewed":"no","rrgh_part":0,"rrgh_tile_part":0},"geometry":{"type":"LineString","coordinates":[[-83.7086843,37.9667243],[-83.7088144,37.9669971],[-83.7088586,37.9671514],[-83.7088533,37.9672614],[-83.7088171,37.9673565],[-83.7087849,37.9674147],[-83.7086199,37.9674749],[-83.7085193,37.9674855],[-83.7083852,37.9674749],[-83.7082163,37.9674876],[-83.7079105,37.9675479]]}},{"type":"Feature","properties":{"osm_id":16309854,"highway":"residential","name":"Blevins Lane","alt_name":null,"official_name":null,"surface":null,"tracktype":null,"service":null,"access":null,"motor_vehicle":null,"foot":null,"tiger_reviewed":"no","rrgh_part":0,"rrgh_tile_part":0},"geometry":{"type":"LineString","coordinates":[[-83.709547,37.966345],[-83.709579,37.967109],[-83.709616,37.967466],[-83.709745,37.967872],[-83.709873,37.968344]]}},{"type":"Feature","properties":{"osm_id":1430894967,"highway":"track","name":null,"alt_name":null,"official_name":null,"surface":null,"tracktype":null,"service":null,"access":null,"motor_vehicle":null,"foot":null,"tiger_reviewed":null,"rrgh_part":0,"rrgh_tile_part":0},"geometry":{"type":"LineString","coordinates":[[-83.6951628,37.9536393],[-83.6949414,37.9537481],[-83.6947579,37.9538092],[-83.6944546,37.9538562],[-83.6942229,37.9539069],[-83.6940536,37.9539982],[-83.6939019,37.9541033],[-83.6937778,37.9541745],[-83.6936072,37.9541827],[-83.6934638,37.9542176],[-83.6933314,37.9542785],[-83.69319,37.9542853],[-83.6928696,37.9542459],[-83.6927385,37.9541934],[-83.6925047,37.9540264],[-83.6920989,37.9537707],[-83.6919214,37.9536778],[-83.6915933,37.9536362],[-83.6913638,37.9535842],[-83.6905894,37.9534055],[-83.6903372,37.9533796],[-83.6902965,37.95305],[-83.6903974,37.9527528],[-83.6904818,37.9524988],[-83.6906298,37.9522186],[-83.6908366,37.9518603],[-83.6909612,37.9516127],[-83.6908672,37.9514677],[-83.6906568,37.951401],[-83.6904622,37.9514171],[-83.6902523,37.9514787],[-83.6901174,37.9516052],[-83.6898068,37.9518701],[-83.6895353,37.9521241],[-83.6892998,37.9523112],[-83.689186,37.9524091],[-83.6889043,37.9525375],[-83.6887707,37.9526102],[-83.6884976,37.9527666],[-83.6883671,37.9528017],[-83.6881919,37.9528469],[-83.6880166,37.9528862],[-83.6878372,37.9528654],[-83.6876704,37.9528165],[-83.6875449,37.9527747],[-83.6874487,37.9527281],[-83.6873731,37.9526996],[-83.6873105,37.9526534],[-83.6872765,37.9525711],[-83.6872929,37.9523654],[-83.6873186,37.952237],[-83.6873387,37.9520372],[-83.6873109,37.951908],[-83.6873514,37.9517899],[-83.6872581,37.9517362],[-83.6871442,37.9516794],[-83.6869707,37.9516429],[-83.686743,37.951663],[-83.6865684,37.9516657],[-83.6863432,37.9516852],[-83.6860503,37.9516686],[-83.6858859,37.9516832],[-83.68551,37.9516531],[-83.6853756,37.9515404],[-83.685166,37.9513718],[-83.6850514,37.9512454],[-83.6850372,37.951144],[-83.6850355,37.9510183],[-83.6850196,37.9509119]]}},{"type":"Feature","properties":{"osm_id":1430894969,"highway":"track","name":null,"alt_name":null,"official_name":null,"surface":null,"tracktype":null,"service":null,"access":null,"motor_vehicle":null,"foot":null,"tiger_reviewed":null,"rrgh_part":0,"rrgh_tile_part":0},"geometry":{"type":"LineString","coordinates":[[-83.695282,37.94922],[-83.6950685,37.9492708],[-83.6949003,37.9493309],[-83.6947479,37.9493976],[-83.6945462,37.949486],[-83.694409,37.9495245],[-83.6942508,37.9495342],[-83.6941493,37.9495197],[-83.6939477,37.9494851],[-83.6937898,37.94947],[-83.6935401,37.9494452],[-83.6934257,37.9494529],[-83.6932843,37.9494863],[-83.693241,37.9495844],[-83.6932246,37.9497111],[-83.6931778,37.9498359],[-83.6931205,37.9499134],[-83.6930013,37.9499664],[-83.6928023,37.9500054],[-83.692685,37.950006],[-83.6925075,37.9500107],[-83.6923133,37.9499517],[-83.6920387,37.9498527],[-83.6917443,37.9497297],[-83.6915342,37.9496459],[-83.6914455,37.9496211],[-83.6913413,37.9496309],[-83.691146,37.9496864],[-83.69089,37.9497468],[-83.6906575,37.9497748],[-83.6904398,37.9497974],[-83.6901566,37.9498435],[-83.6898705,37.9499039],[-83.6896419,37.9499961],[-83.6894685,37.9501034],[-83.689335,37.9502095],[-83.6892357,37.9502689],[-83.6890879,37.9503281],[-83.6889671,37.9503629],[-83.6887012,37.9504408],[-83.6885953,37.9505474],[-83.6885044,37.9506601],[-83.6883275,37.9508009],[-83.687995,37.9510887],[-83.6876623,37.9512869],[-83.687538,37.9513598],[-83.6874678,37.9514361],[-83.6874566,37.9515422],[-83.6874702,37.9516439],[-83.6874148,37.9517341],[-83.6873514,37.9517899]]}},{"type":"Feature","properties":{"osm_id":16309504,"highway":"residential","name":"Rothwell Ridge Road","alt_name":null,"official_name":null,"surface":null,"tracktype":null,"service":null,"access":null,"motor_vehicle":null,"foot":null,"tiger_reviewed":"no","rrgh_part":0,"rrgh_tile_part":0},"geometry":{"type":"LineString","coordinates":[[-83.686617,37.957017],[-83.686507,37.957223],[-83.68644,37.957301],[-83.686352,37.957366],[-83.686118,37.957423],[-83.685733,37.957456],[-83.685697,37.957458],[-83.685319,37.957474],[-83.68516,37.95747],[-83.684709,37.957415],[-83.684577,37.957384],[-83.684212,37.957265],[-83.683463,37.956976],[-83.683073,37.956872],[-83.682925,37.956858],[-83.682667,37.956848],[-83.682485,37.956869],[-83.68219,37.956945],[-83.682054,37.956993],[-83.681942,37.957052],[-83.681546,37.957338],[-83.681309,37.957571],[-83.680847,37.958084],[-83.680717,37.958241],[-83.680384,37.958598],[-83.680021,37.959041],[-83.67973,37.959342],[-83.679581,37.959474],[-83.679356,37.959631],[-83.67921,37.959713],[-83.679073,37.959771],[-83.678974,37.959803],[-83.678851,37.959826],[-83.678679,37.959801],[-83.678413,37.959749]]}},{"type":"Feature","properties":{"osm_id":16310277,"highway":"residential","name":"Bull Fork Road","alt_name":null,"official_name":null,"surface":"unpaved","tracktype":null,"service":null,"access":null,"motor_vehicle":null,"foot":null,"tiger_reviewed":"no","rrgh_part":0,"rrgh_tile_part":0},"geometry":{"type":"LineString","coordinates":[[-83.6797776,37.9527742],[-83.6799699,37.9529604],[-83.6801825,37.9533798],[-83.6803349,37.954885],[-83.680585,37.955412],[-83.6810349,37.955977],[-83.681747,37.956661]]}},{"type":"Feature","properties":{"osm_id":1264972774,"highway":"track","name":null,"alt_name":null,"official_name":null,"surface":null,"tracktype":null,"service":null,"access":null,"motor_vehicle":null,"foot":null,"tiger_reviewed":null,"rrgh_part":0,"rrgh_tile_part":0},"geometry":{"type":"LineString","coordinates":[[-83.6768684,37.9529325],[-83.6768423,37.9531586],[-83.6768706,37.9533522],[-83.6767967,37.9534053],[-83.6763774,37.9533625],[-83.6761362,37.9534019],[-83.675856,37.9535698],[-83.6754845,37.9537034],[-83.6751955,37.9537291],[-83.67500000000001,37.953795172609425]]}},{"type":"Feature","properties":{"osm_id":16310276,"highway":"residential","name":"O' Hair Lane","alt_name":null,"official_name":null,"surface":null,"tracktype":null,"service":null,"access":null,"motor_vehicle":null,"foot":null,"tiger_reviewed":"no","rrgh_part":0,"rrgh_tile_part":0},"geometry":{"type":"LineString","coordinates":[[-83.678679,37.959801],[-83.678786,37.959893],[-83.679069,37.960195],[-83.679165,37.96028],[-83.679293,37.960368],[-83.67935,37.960386],[-83.679441,37.960379],[-83.679514,37.960353],[-83.679711,37.960249],[-83.679805,37.96022],[-83.679889,37.960212],[-83.679909,37.960239],[-83.679908,37.960291],[-83.679876,37.960443],[-83.679843,37.960495]]}},{"type":"Feature","properties":{"osm_id":16308762,"highway":"residential","name":null,"alt_name":null,"official_name":null,"surface":null,"tracktype":null,"service":null,"access":null,"motor_vehicle":null,"foot":null,"tiger_reviewed":"no","rrgh_part":0,"rrgh_tile_part":0},"geometry":{"type":"LineString","coordinates":[[-83.70037988335358,37.974999999999994],[-83.700469,37.973967],[-83.7001283,37.9727395],[-83.7003182,37.9725041],[-83.7005249,37.9720069],[-83.7005433,37.971776],[-83.7003458,37.9712923],[-83.7002945,37.9710914],[-83.7002829,37.9705242],[-83.7003422,37.9703667],[-83.700418,37.970229]]}},{"type":"Feature","properties":{"osm_id":16308536,"highway":"residential","name":null,"alt_name":null,"official_name":null,"surface":null,"tracktype":null,"service":null,"access":null,"motor_vehicle":null,"foot":null,"tiger_reviewed":"no","rrgh_part":0,"rrgh_tile_part":0},"geometry":{"type":"LineString","coordinates":[[-83.699129,37.970398],[-83.6996169,37.9715223],[-83.6999312,37.9720944],[-83.7001283,37.9727395]]}},{"type":"Feature","properties":{"osm_id":16308901,"highway":"residential","name":null,"alt_name":null,"official_name":null,"surface":null,"tracktype":null,"service":null,"access":null,"motor_vehicle":null,"foot":null,"tiger_reviewed":"no","rrgh_part":0,"rrgh_tile_part":0},"geometry":{"type":"LineString","coordinates":[[-83.7003182,37.9725041],[-83.7004564,37.9725477],[-83.7004037,37.9728002],[-83.700988,37.973011],[-83.701242,37.973483],[-83.701448,37.973823],[-83.701577,37.974239],[-83.701766,37.974525]]}},{"type":"Feature","properties":{"osm_id":1320001492,"highway":"residential","name":null,"alt_name":null,"official_name":null,"surface":null,"tracktype":null,"service":null,"access":null,"motor_vehicle":null,"foot":null,"tiger_reviewed":"no","rrgh_part":0,"rrgh_tile_part":0},"geometry":{"type":"LineString","coordinates":[[-83.699996,37.9702791],[-83.6998974,37.9700268],[-83.6998561,37.9698677],[-83.699823,37.969694],[-83.6997001,37.9695054],[-83.699619,37.969313],[-83.699725,37.969143],[-83.699921,37.968933]]}},{"type":"Feature","properties":{"osm_id":16309755,"highway":"service","name":"Dog Trot Fork Road","alt_name":null,"official_name":null,"surface":null,"tracktype":null,"service":null,"access":"private","motor_vehicle":null,"foot":null,"tiger_reviewed":"no","rrgh_part":0,"rrgh_tile_part":0},"geometry":{"type":"LineString","coordinates":[[-83.689096,37.972422],[-83.68871320321051,37.974999999999994]]}},{"type":"Feature","properties":{"osm_id":970143766,"highway":"service","name":null,"alt_name":null,"official_name":null,"surface":null,"tracktype":null,"service":null,"access":null,"motor_vehicle":null,"foot":null,"tiger_reviewed":null,"rrgh_part":0,"rrgh_tile_part":0},"geometry":{"type":"LineString","coordinates":[[-83.6828282,37.9743027],[-83.6827876,37.974378],[-83.6825047,37.9745914],[-83.6823571,37.9748393],[-83.6822891491427,37.974999999999994]]}},{"type":"Feature","properties":{"osm_id":970143765,"highway":"service","name":null,"alt_name":null,"official_name":null,"surface":null,"tracktype":null,"service":null,"access":null,"motor_vehicle":null,"foot":null,"tiger_reviewed":null,"rrgh_part":0,"rrgh_tile_part":0},"geometry":{"type":"LineString","coordinates":[[-83.6814301,37.9744344],[-83.6813739,37.9742456],[-83.6812343,37.9741396],[-83.6809527,37.9741336],[-83.6804807,37.9741316],[-83.6802295,37.9741236],[-83.6800671,37.9741056],[-83.679991,37.9740195],[-83.6799757,37.9739235],[-83.6800341,37.9737695],[-83.6801457,37.9735095],[-83.6801102,37.9733995],[-83.6799986,37.9731994],[-83.6799224,37.9730494],[-83.6795291,37.9728894],[-83.6793693,37.9728494],[-83.6792018,37.9729014],[-83.6790901,37.9730754],[-83.6789506,37.9732254],[-83.6788262,37.9733094]]}},{"type":"Feature","properties":{"osm_id":970143765,"highway":"service","name":null,"alt_name":null,"official_name":null,"surface":null,"tracktype":null,"service":null,"access":null,"motor_vehicle":null,"foot":null,"tiger_reviewed":null,"rrgh_part":1,"rrgh_tile_part":0},"geometry":{"type":"LineString","coordinates":[[-83.6788262,37.9733094],[-83.6786249,37.9732647],[-83.6783695,37.9733114],[-83.6782705,37.9734495],[-83.6783695,37.9736555],[-83.6784837,37.9737515],[-83.6788009,37.9738055],[-83.67891,37.9738035],[-83.6789582,37.9737575],[-83.6789582,37.9736255],[-83.6788871,37.9733514],[-83.6788262,37.9733094]]}},{"type":"Feature","properties":{"osm_id":1444818395,"highway":"residential","name":"Bear Branch Road","alt_name":null,"official_name":null,"surface":null,"tracktype":null,"service":null,"access":null,"motor_vehicle":null,"foot":null,"tiger_reviewed":"no","rrgh_part":0,"rrgh_tile_part":0},"geometry":{"type":"LineString","coordinates":[[-83.67500000000001,37.91874432116789],[-83.675175,37.918881],[-83.675225,37.918913],[-83.675409,37.919034],[-83.675676,37.91918],[-83.675979,37.919382],[-83.676125,37.919526],[-83.676211,37.919661],[-83.676243,37.919772],[-83.676252,37.919953]]}}],"rrgh_tile":{"id":"r7c3","bounds":[37.9,-83.76,37.974999999999994,-83.67500000000001]}}
