{"type":"FeatureCollection","features":[{"type":"Feature","properties":{"osm_id":16317711,"highway":"residential","name":null,"alt_name":null,"official_name":null,"surface":null,"tracktype":null,"service":null,"access":null,"motor_vehicle":null,"foot":null,"tiger_reviewed":"no","rrgh_part":0,"rrgh_tile_part":0},"geometry":{"type":"LineString","coordinates":[[-83.417773,37.905794],[-83.417915,37.90583],[-83.418517,37.906038]]}},{"type":"Feature","properties":{"osm_id":16322221,"highway":"service","name":"James Manning Drive","alt_name":null,"official_name":null,"surface":null,"tracktype":null,"service":null,"access":"private","motor_vehicle":null,"foot":null,"tiger_reviewed":"no","rrgh_part":0,"rrgh_tile_part":0},"geometry":{"type":"LineString","coordinates":[[-83.41733,37.906389],[-83.417373,37.906408],[-83.417421,37.906452],[-83.41744,37.906487],[-83.41747,37.906616],[-83.417465,37.906661],[-83.417446,37.906701],[-83.417363,37.90676],[-83.417234,37.90679],[-83.417046,37.906786],[-83.416675,37.906749],[-83.416297,37.906763],[-83.415913,37.906726],[-83.415689,37.906714],[-83.415578,37.906763],[-83.41555,37.906816],[-83.415557,37.906848],[-83.415573,37.906861],[-83.415662,37.906895],[-83.415809,37.906921],[-83.41598,37.906937],[-83.416132,37.906987],[-83.416197,37.907024]]}},{"type":"Feature","properties":{"osm_id":16318038,"highway":"service","name":null,"alt_name":null,"official_name":null,"surface":null,"tracktype":null,"service":null,"access":"private","motor_vehicle":null,"foot":null,"tiger_reviewed":"no","rrgh_part":0,"rrgh_tile_part":0},"geometry":{"type":"LineString","coordinates":[[-83.4113937,37.916261],[-83.4122864,37.9159055],[-83.4125605,37.9158698],[-83.4132843,37.915811],[-83.4135595,37.9158074],[-83.4137489,37.9158204],[-83.4139,37.915924],[-83.4141242,37.9165366],[-83.4143735,37.9170285],[-83.4145814,37.9172563],[-83.4151631,37.9179029]]}},{"type":"Feature","properties":{"osm_id":16322130,"highway":"residential","name":"Tabernacle Crossover Road","alt_name":null,"official_name":null,"surface":null,"tracktype":null,"service":null,"access":null,"motor_vehicle":null,"foot":null,"tiger_reviewed":"no","rrgh_part":0,"rrgh_tile_part":0},"geometry":{"type":"LineString","coordinates":[[-83.359204,37.908548],[-83.359577,37.908666],[-83.35983,37.908758],[-83.359971,37.908835],[-83.360143,37.908965],[-83.360459,37.909405],[-83.360858,37.910081],[-83.361108,37.91053],[-83.361482,37.91111],[-83.361844,37.911644],[-83.362108,37.912066],[-83.362262,37.912343],[-83.362795,37.913157],[-83.363222,37.913838],[-83.363293,37.913914],[-83.363385,37.913986],[-83.363505,37.914054],[-83.364258,37.914392],[-83.364674,37.914562],[-83.364895,37.914666],[-83.36527,37.91486],[-83.365351,37.914892],[-83.365411,37.914944],[-83.365436,37.914992],[-83.365442,37.91501],[-83.365442,37.915071],[-83.365365,37.915187],[-83.365308,37.915247],[-83.365255,37.915323],[-83.365238,37.915413],[-83.365207,37.915774],[-83.365096,37.916434],[-83.364967,37.917542],[-83.36491,37.917878],[-83.364871,37.918226],[-83.364816,37.919028],[-83.364808,37.919329],[-83.364868,37.919915],[-83.364876,37.920198],[-83.364869,37.920339],[-83.364845,37.920473],[-83.364769,37.920745],[-83.364677,37.921013],[-83.364647,37.921141],[-83.364632,37.921271],[-83.364636,37.921396],[-83.364677,37.921651],[-83.364786,37.922049],[-83.364812,37.922185],[-83.36482,37.92246],[-83.364792,37.923004],[-83.364776,37.923142],[-83.364771,37.923401],[-83.364773,37.923525],[-83.36479,37.923643],[-83.364833,37.923752],[-83.36497,37.92396],[-83.365223,37.924267],[-83.36547,37.92453],[-83.365552,37.924596],[-83.365713,37.924689],[-83.365841,37.924731],[-83.366006,37.92476]]}},{"type":"Feature","properties":{"osm_id":16317549,"highway":"residential","name":"Robinson Fork Road","alt_name":null,"official_name":null,"surface":null,"tracktype":null,"service":null,"access":null,"motor_vehicle":null,"foot":null,"tiger_reviewed":"no","rrgh_part":0,"rrgh_tile_part":0},"geometry":{"type":"LineString","coordinates":[[-83.397718,37.90509],[-83.397746,37.905171],[-83.397814,37.905411],[-83.397904,37.905555],[-83.397998,37.90565],[-83.398141,37.905758],[-83.398206,37.905825],[-83.39837,37.906053],[-83.398565,37.90628],[-83.398606,37.906371],[-83.398651,37.906669],[-83.398727,37.906835],[-83.398792,37.906945],[-83.39903,37.90721],[-83.399161,37.907473],[-83.399224,37.907511],[-83.399299,37.907537],[-83.399382,37.907549],[-83.399658,37.907563],[-83.399833,37.907584],[-83.399908,37.907614],[-83.39996,37.907661],[-83.399988,37.90772],[-83.399997,37.90779],[-83.399984,37.908003],[-83.399999,37.908064],[-83.400043,37.908114],[-83.400096,37.908155],[-83.400206,37.908213],[-83.400342,37.908253],[-83.400456,37.908301],[-83.400566,37.908374],[-83.400608,37.908417],[-83.400671,37.908508],[-83.400716,37.908597],[-83.400783,37.908669],[-83.400825,37.908693],[-83.400878,37.908709],[-83.401479,37.908734],[-83.401684,37.908778],[-83.401826,37.908829],[-83.402691,37.909136],[-83.40317,37.909286],[-83.403693,37.909417],[-83.404227,37.909577],[-83.404594,37.909675],[-83.405314,37.909822],[-83.405899,37.910009],[-83.40605,37.910067],[-83.406354,37.910215],[-83.406504,37.910296],[-83.406793,37.910493],[-83.407251,37.910835],[-83.407711,37.911204],[-83.408193,37.911576],[-83.408339,37.911706],[-83.408697,37.912119],[-83.409027,37.91255],[-83.409207,37.912835],[-83.409453,37.91326],[-83.409811,37.913811],[-83.409897,37.91396],[-83.410037,37.914261],[-83.410084,37.914409],[-83.410172,37.914868],[-83.410192,37.915009],[-83.410212,37.91537],[-83.410234,37.915432],[-83.41027,37.915487],[-83.410321,37.915535],[-83.410388,37.915575],[-83.410466,37.915599],[-83.410532,37.915601],[-83.411366,37.91563]]}},{"type":"Feature","properties":{"osm_id":16322570,"highway":"residential","name":"Bush Bridge","alt_name":null,"official_name":null,"surface":null,"tracktype":null,"service":null,"access":null,"motor_vehicle":null,"foot":null,"tiger_reviewed":"no","rrgh_part":0,"rrgh_tile_part":0},"geometry":{"type":"LineString","coordinates":[[-83.39683,37.901984],[-83.39733,37.902061],[-83.397635,37.902132],[-83.397743,37.90214],[-83.397932,37.902126],[-83.398051,37.902126],[-83.398605,37.902257],[-83.39877,37.902278],[-83.398943,37.902285],[-83.399032,37.902283],[-83.399176,37.902257],[-83.399393,37.902177],[-83.399625,37.902079],[-83.399722,37.902054],[-83.399822,37.90205]]}},{"type":"Feature","properties":{"osm_id":16318498,"highway":"residential","name":"Vest Branch Road","alt_name":null,"official_name":null,"surface":null,"tracktype":null,"service":null,"access":null,"motor_vehicle":null,"foot":null,"tiger_reviewed":"no","rrgh_part":0,"rrgh_tile_part":0},"geometry":{"type":"LineString","coordinates":[[-83.381049,37.901112],[-83.381132,37.90116],[-83.381284,37.901283],[-83.38164,37.901638],[-83.381842,37.901839],[-83.382275,37.902222],[-83.383342,37.903109],[-83.383778,37.903497],[-83.383894,37.903591],[-83.38428,37.903849],[-83.384391,37.903934],[-83.384473,37.904032],[-83.384519,37.904104],[-83.384533,37.904127],[-83.384578,37.904228],[-83.384635,37.904435],[-83.38465,37.904542],[-83.384639,37.904643],[-83.384596,37.904735],[-83.384531,37.904818],[-83.384387,37.904964],[-83.384336,37.905037],[-83.384311,37.905111],[-83.384315,37.905185],[-83.384345,37.905257],[-83.384398,37.905325],[-83.384472,37.905387],[-83.384564,37.905442],[-83.384908,37.905609],[-83.3853,37.905828],[-83.385555,37.905999],[-83.385801,37.906191],[-83.386159,37.906598],[-83.386268,37.906681],[-83.386501,37.906811],[-83.386608,37.90686],[-83.387112,37.907088],[-83.387634,37.907311],[-83.387882,37.907447],[-83.387997,37.907529],[-83.388518,37.908004],[-83.388707,37.908216],[-83.388857,37.908425],[-83.389037,37.908798],[-83.389059,37.908869],[-83.389197,37.909793],[-83.389198,37.910036],[-83.389187,37.910115],[-83.389114,37.910453],[-83.389019,37.910997],[-83.388897,37.911494],[-83.388799,37.911778],[-83.38859,37.9123],[-83.388535,37.912472],[-83.388506,37.912737],[-83.388463,37.913444],[-83.38844,37.913582],[-83.388391,37.913704],[-83.3883,37.913869],[-83.388229,37.91408]]}},{"type":"Feature","properties":{"osm_id":16319015,"highway":"residential","name":"Left Fork Vest Branch Road","alt_name":null,"official_name":null,"surface":null,"tracktype":null,"service":null,"access":null,"motor_vehicle":null,"foot":null,"tiger_reviewed":"no","rrgh_part":0,"rrgh_tile_part":0},"geometry":{"type":"LineString","coordinates":[[-83.389037,37.908798],[-83.389099,37.908768],[-83.389135,37.908726],[-83.389154,37.908705],[-83.389234,37.908486],[-83.389266,37.908443],[-83.389337,37.908374],[-83.389381,37.908353],[-83.38944,37.908351],[-83.389496,37.908361],[-83.389907,37.908489],[-83.390091,37.908522],[-83.390275,37.908578],[-83.39066,37.908674],[-83.390754,37.908709],[-83.391385,37.909027],[-83.391845,37.909237],[-83.392124,37.909377],[-83.392245,37.90942],[-83.392389,37.909444],[-83.392619,37.909463],[-83.392734,37.909479],[-83.39297,37.909511],[-83.393015,37.909509],[-83.393084,37.909487]]}},{"type":"Feature","properties":{"osm_id":16321297,"highway":"residential","name":"Robinson Branch Road","alt_name":null,"official_name":null,"surface":null,"tracktype":null,"service":null,"access":null,"motor_vehicle":null,"foot":null,"tiger_reviewed":"no","rrgh_part":0,"rrgh_tile_part":0},"geometry":{"type":"LineString","coordinates":[[-83.39683,37.901984],[-83.396721,37.901972],[-83.39662,37.901979],[-83.396541,37.902029],[-83.396513,37.902069],[-83.396503,37.902114],[-83.396535,37.902398],[-83.396517,37.902445],[-83.396472,37.902475],[-83.396414,37.902491],[-83.396349,37.902485],[-83.396278,37.902453],[-83.396074,37.902294],[-83.395905,37.9022],[-83.395806,37.902171],[-83.394706,37.901969],[-83.394611,37.901942],[-83.394523,37.901902],[-83.394451,37.901843],[-83.394397,37.901775],[-83.39438,37.901741],[-83.394286,37.901556],[-83.394235,37.901486],[-83.394171,37.901419],[-83.394095,37.901359],[-83.393908,37.901265],[-83.393684,37.901181],[-83.393262,37.900995],[-83.392887,37.900869],[-83.392606,37.90081],[-83.392345,37.900735],[-83.392186,37.900714],[-83.392051,37.90072],[-83.391678,37.900798],[-83.391386,37.900776],[-83.391051,37.90075],[-83.390728,37.900786],[-83.390652,37.90077],[-83.390341,37.900654],[-83.390131,37.900575],[-83.390004,37.900533],[-83.389877,37.900506],[-83.389196,37.900384],[-83.388542,37.900317],[-83.388395,37.900286],[-83.388229,37.900248],[-83.388131,37.900237],[-83.388024,37.900243],[-83.387904,37.900268],[-83.387658,37.900342],[-83.387532,37.900366],[-83.386923,37.900441],[-83.386822,37.900462],[-83.38673,37.9005],[-83.386476,37.900678],[-83.386376,37.900725],[-83.386195,37.900789],[-83.386043,37.900818],[-83.385967,37.900821],[-83.38576,37.900806],[-83.385532,37.900769],[-83.385415,37.90076],[-83.384865,37.900764],[-83.384641,37.900752],[-83.384518,37.900727],[-83.38425,37.900634],[-83.384111,37.900597],[-83.383828,37.900564],[-83.382582,37.900485],[-83.382452,37.900466],[-83.382334,37.900436],[-83.382004,37.900328],[-83.381783,37.900279],[-83.381565,37.900254],[-83.38146,37.900258],[-83.381362,37.900276],[-83.381272,37.900309],[-83.381196,37.900357],[-83.381135,37.900416],[-83.381094,37.900482],[-83.381076,37.90055],[-83.38108,37.900617],[-83.381155,37.9008],[-83.381171,37.900854],[-83.381173,37.900903],[-83.381147,37.900996],[-83.381049,37.901112]]}},{"type":"Feature","properties":{"osm_id":16321299,"highway":"residential","name":"Robinson Branch Road","alt_name":null,"official_name":null,"surface":null,"tracktype":null,"service":null,"access":null,"motor_vehicle":null,"foot":null,"tiger_reviewed":"no","rrgh_part":0,"rrgh_tile_part":0},"geometry":{"type":"LineString","coordinates":[[-83.397718,37.90509],[-83.397647,37.904889],[-83.397576,37.904609],[-83.397509,37.90401],[-83.397503,37.903598],[-83.397334,37.902777],[-83.397313,37.902722],[-83.397212,37.902557],[-83.396963,37.90224],[-83.396879,37.902118],[-83.396842,37.902047],[-83.39683,37.901984]]}},{"type":"Feature","properties":{"osm_id":16317714,"highway":"residential","name":null,"alt_name":null,"official_name":null,"surface":null,"tracktype":null,"service":null,"access":null,"motor_vehicle":null,"foot":null,"tiger_reviewed":"no","rrgh_part":0,"rrgh_tile_part":0},"geometry":{"type":"LineString","coordinates":[[-83.410321,37.915535],[-83.409487,37.915693],[-83.40844,37.915838],[-83.40716,37.91592],[-83.405914,37.915977],[-83.405204,37.916136],[-83.404823,37.916228]]}},{"type":"Feature","properties":{"osm_id":16318146,"highway":"service","name":null,"alt_name":null,"official_name":null,"surface":null,"tracktype":null,"service":null,"access":"private","motor_vehicle":null,"foot":null,"tiger_reviewed":"no","rrgh_part":0,"rrgh_tile_part":0},"geometry":{"type":"LineString","coordinates":[[-83.413218,37.920555],[-83.413192,37.920917],[-83.413388,37.921649],[-83.41371,37.922294],[-83.414006,37.922781],[-83.414017,37.923217],[-83.413743,37.923985]]}},{"type":"Feature","properties":{"osm_id":16322832,"highway":"residential","name":"Cox Lane","alt_name":null,"official_name":null,"surface":null,"tracktype":null,"service":null,"access":null,"motor_vehicle":null,"foot":null,"tiger_reviewed":"no","rrgh_part":0,"rrgh_tile_part":0},"geometry":{"type":"LineString","coordinates":[[-83.39531,37.921388],[-83.395575,37.922233],[-83.395614,37.923411],[-83.395767,37.923683]]}},{"type":"Feature","properties":{"osm_id":16317550,"highway":"residential","name":"Robinson Fork Road","alt_name":null,"official_name":null,"surface":null,"tracktype":null,"service":null,"access":null,"motor_vehicle":null,"foot":null,"tiger_reviewed":"no","rrgh_part":0,"rrgh_tile_part":0},"geometry":{"type":"LineString","coordinates":[[-83.379142,37.90055],[-83.38039,37.901098],[-83.380457,37.901114],[-83.380519,37.901111],[-83.38058,37.901081],[-83.380675,37.901035],[-83.38074,37.90102],[-83.380812,37.901024],[-83.380887,37.901043],[-83.381049,37.901112]]}},{"type":"Feature","properties":{"osm_id":16320226,"highway":"service","name":"Hobert Helton Drive","alt_name":null,"official_name":null,"surface":null,"tracktype":null,"service":null,"access":"private","motor_vehicle":null,"foot":null,"tiger_reviewed":"no","rrgh_part":0,"rrgh_tile_part":0},"geometry":{"type":"LineString","coordinates":[[-83.379142,37.90055],[-83.379065,37.900502],[-83.378965,37.90046],[-83.378809,37.90043],[-83.378658,37.900415],[-83.378464,37.900418],[-83.378381,37.900403],[-83.378284,37.900352],[-83.378201,37.900256]]}},{"type":"Feature","properties":{"osm_id":16321356,"highway":"residential","name":"Wm Gibson Road","alt_name":null,"official_name":null,"surface":null,"tracktype":null,"service":null,"access":null,"motor_vehicle":null,"foot":null,"tiger_reviewed":"no","rrgh_part":0,"rrgh_tile_part":0},"geometry":{"type":"LineString","coordinates":[[-83.370975,37.900451],[-83.370982,37.900432],[-83.37109,37.900255],[-83.371109,37.900151],[-83.37110849413736,37.9]]}},{"type":"Feature","properties":{"osm_id":16318718,"highway":"residential","name":"Ferguson Road","alt_name":null,"official_name":null,"surface":null,"tracktype":null,"service":null,"access":null,"motor_vehicle":null,"foot":null,"tiger_reviewed":"no","rrgh_part":0,"rrgh_tile_part":0},"geometry":{"type":"LineString","coordinates":[[-83.366376,37.902622],[-83.366373,37.902551],[-83.366401,37.902501],[-83.366524,37.902378],[-83.36673,37.902171],[-83.366832,37.902077],[-83.367014,37.901934],[-83.367086,37.901886],[-83.367248,37.901803],[-83.367434,37.901742],[-83.368042,37.901573],[-83.368255,37.901521],[-83.368471,37.901482],[-83.3688,37.901464],[-83.369528,37.901494],[-83.369676,37.901489],[-83.369726,37.901477],[-83.369762,37.901463],[-83.36982,37.901418],[-83.36997,37.901184],[-83.370112,37.901011],[-83.370265,37.900841],[-83.370453,37.900672],[-83.370521,37.900633],[-83.370674,37.900596],[-83.37086,37.900586],[-83.370919,37.900565],[-83.370946,37.900528],[-83.370975,37.900451]]}},{"type":"Feature","properties":{"osm_id":16319161,"highway":"residential","name":"Denniston Road","alt_name":null,"official_name":null,"surface":null,"tracktype":null,"service":null,"access":null,"motor_vehicle":null,"foot":null,"tiger_reviewed":"no","rrgh_part":0,"rrgh_tile_part":0},"geometry":{"type":"LineString","coordinates":[[-83.3546578032787,37.9],[-83.354678,37.900044],[-83.354774,37.900185],[-83.354928,37.900349],[-83.355027,37.900429],[-83.355135,37.9005],[-83.355242,37.900556],[-83.355358,37.900588],[-83.355483,37.900594],[-83.355823,37.90057],[-83.35588,37.900581],[-83.355907,37.900586],[-83.355976,37.900626],[-83.356017,37.900682],[-83.356023,37.900745],[-83.355949,37.900969],[-83.355936,37.901068],[-83.355942,37.901176],[-83.355957,37.901296],[-83.356064,37.901689],[-83.356141,37.902109],[-83.356199,37.902238],[-83.356496,37.902703],[-83.356554,37.902826],[-83.356704,37.903266],[-83.356763,37.903341],[-83.356849,37.903405],[-83.35695,37.903447],[-83.357066,37.903483],[-83.357193,37.903502],[-83.357333,37.90351],[-83.357644,37.903509],[-83.358371,37.903482],[-83.359097,37.903497],[-83.359275,37.903467],[-83.359736,37.903307],[-83.360032,37.90318],[-83.360192,37.903131],[-83.360358,37.903108],[-83.360527,37.903116],[-83.360859,37.903156],[-83.361015,37.903154],[-83.361156,37.903128],[-83.361286,37.903077],[-83.361407,37.903004],[-83.361735,37.902731],[-83.361855,37.902653],[-83.361991,37.902595],[-83.362144,37.90256],[-83.362304,37.902541],[-83.36247,37.902535],[-83.36264,37.902549],[-83.362816,37.902579],[-83.362996,37.902623],[-83.363347,37.902739],[-83.363581,37.902803],[-83.364211,37.902971],[-83.364357,37.902988],[-83.364504,37.902982],[-83.364878,37.9029],[-83.365166,37.902837],[-83.36554,37.902773],[-83.365726,37.902754],[-83.366376,37.902622],[-83.36644,37.902613],[-83.366567,37.902615],[-83.366661,37.902627],[-83.366739,37.902684],[-83.366844,37.902801],[-83.367011,37.903035],[-83.367044,37.903112],[-83.367039,37.903168]]}},{"type":"Feature","properties":{"osm_id":16321167,"highway":"residential","name":"Loveless Cemetery Road","alt_name":null,"official_name":null,"surface":null,"tracktype":null,"service":null,"access":null,"motor_vehicle":null,"foot":null,"tiger_reviewed":"no","rrgh_part":0,"rrgh_tile_part":0},"geometry":{"type":"LineString","coordinates":[[-83.363581,37.902803],[-83.363537,37.902763],[-83.3634144,37.9023817],[-83.3635753,37.9021728],[-83.3638591,37.9018888],[-83.3641568,37.9014955],[-83.3644441,37.9010817],[-83.3646119,37.9008509],[-83.364766,37.9006461],[-83.3648768,37.9005472],[-83.3653495,37.9004721]]}},{"type":"Feature","properties":{"osm_id":192717440,"highway":"residential","name":null,"alt_name":null,"official_name":null,"surface":null,"tracktype":null,"service":null,"access":null,"motor_vehicle":null,"foot":null,"tiger_reviewed":null,"rrgh_part":0,"rrgh_tile_part":0},"geometry":{"type":"LineString","coordinates":[[-83.364357,37.902988],[-83.3644431,37.9029076],[-83.3645489,37.9028533],[-83.3646036,37.9027768],[-83.3646018,37.9026515],[-83.3645542,37.9025639],[-83.3644537,37.9024706],[-83.3644307,37.9023774]]}},{"type":"Feature","properties":{"osm_id":16322280,"highway":"residential","name":"Buford Litteral Road","alt_name":null,"official_name":null,"surface":null,"tracktype":null,"service":null,"access":null,"motor_vehicle":null,"foot":null,"tiger_reviewed":"no","rrgh_part":0,"rrgh_tile_part":0},"geometry":{"type":"LineString","coordinates":[[-83.364563,37.904586],[-83.3643382,37.904225],[-83.364056,37.904187],[-83.3635912,37.9041591],[-83.3633536,37.9042541]]}},{"type":"Feature","properties":{"osm_id":192717416,"highway":"residential","name":null,"alt_name":null,"official_name":null,"surface":null,"tracktype":null,"service":null,"access":null,"motor_vehicle":null,"foot":null,"tiger_reviewed":null,"rrgh_part":0,"rrgh_tile_part":0},"geometry":{"type":"LineString","coordinates":[[-83.366189,37.903196],[-83.3661433,37.903147],[-83.3662032,37.9030704]]}},{"type":"Feature","properties":{"osm_id":16320515,"highway":"residential","name":"Long Road","alt_name":null,"official_name":null,"surface":null,"tracktype":null,"service":null,"access":null,"motor_vehicle":null,"foot":null,"tiger_reviewed":"no","rrgh_part":0,"rrgh_tile_part":0},"geometry":{"type":"LineString","coordinates":[[-83.381611,37.922384],[-83.381803,37.92262],[-83.381899,37.922738],[-83.381968,37.922849],[-83.381998,37.922948],[-83.381991,37.923017],[-83.381974,37.923048],[-83.381909,37.92309]]}},{"type":"Feature","properties":{"osm_id":16322357,"highway":"residential","name":"Hoover Triplett Road","alt_name":null,"official_name":null,"surface":null,"tracktype":null,"service":null,"access":null,"motor_vehicle":null,"foot":null,"tiger_reviewed":"no","rrgh_part":0,"rrgh_tile_part":0},"geometry":{"type":"LineString","coordinates":[[-83.374924,37.921459],[-83.374941,37.9214],[-83.374895,37.921216],[-83.374889,37.921025],[-83.3749,37.92095],[-83.374959,37.92081],[-83.375159,37.920521],[-83.375451,37.920041],[-83.375632,37.919778],[-83.375715,37.919628],[-83.375834,37.91932],[-83.37591,37.919189],[-83.376393,37.91848],[-83.376573,37.918257],[-83.376622,37.918187],[-83.376771,37.917971]]}},{"type":"Feature","properties":{"osm_id":16322400,"highway":"residential","name":"Bentley Lane","alt_name":null,"official_name":null,"surface":null,"tracktype":null,"service":null,"access":null,"motor_vehicle":null,"foot":null,"tiger_reviewed":"no","rrgh_part":0,"rrgh_tile_part":0},"geometry":{"type":"LineString","coordinates":[[-83.380931,37.917361],[-83.379283,37.917185],[-83.378614,37.918157],[-83.377056,37.91852],[-83.376622,37.918187]]}},{"type":"Feature","properties":{"osm_id":16320310,"highway":"residential","name":"Raney Lykius Road","alt_name":null,"official_name":null,"surface":null,"tracktype":null,"service":null,"access":null,"motor_vehicle":null,"foot":null,"tiger_reviewed":"no","rrgh_part":0,"rrgh_tile_part":0},"geometry":{"type":"LineString","coordinates":[[-83.364632,37.921271],[-83.364499,37.921158],[-83.36434,37.920937],[-83.363634,37.920418],[-83.363479,37.920321],[-83.363402,37.920289],[-83.362776,37.920242],[-83.362449,37.920236],[-83.362349,37.920243],[-83.361765,37.920219],[-83.36164,37.920221],[-83.361606,37.920233],[-83.361585,37.920251]]}},{"type":"Feature","properties":{"osm_id":16322395,"highway":"residential","name":"Whites Branch Road","alt_name":null,"official_name":null,"surface":null,"tracktype":null,"service":null,"access":null,"motor_vehicle":null,"foot":null,"tiger_reviewed":"no","rrgh_part":0,"rrgh_tile_part":0},"geometry":{"type":"LineString","coordinates":[[-83.42,37.97466701],[-83.419762,37.974573],[-83.419451,37.974472],[-83.419111,37.974391],[-83.418937,37.974364],[-83.418771,37.974356],[-83.418349,37.97439],[-83.418065,37.974424],[-83.417467,37.974518],[-83.417367,37.974512],[-83.417274,37.974484],[-83.417201,37.974446],[-83.417028,37.974315],[-83.416678,37.973799],[-83.416613,37.973724],[-83.416543,37.97367],[-83.416461,37.973624],[-83.416369,37.973592],[-83.416088,37.973534],[-83.416003,37.973532],[-83.415702,37.973491],[-83.41547,37.973446],[-83.415381,37.973439],[-83.415279,37.97341],[-83.415187,37.973364],[-83.415104,37.973309],[-83.415037,37.973251],[-83.414846,37.973006],[-83.414703,37.972859],[-83.414602,37.972784],[-83.414384,37.972692],[-83.41388,37.972603],[-83.413325,37.972565],[-83.413083,37.972573],[-83.412964,37.972589],[-83.412666,37.972669],[-83.412273,37.972796],[-83.412181,37.972803],[-83.412071,37.972785],[-83.411977,37.972754],[-83.411743,37.972617],[-83.411304,37.972313],[-83.411048,37.972175],[-83.410678,37.971948],[-83.410293,37.971701],[-83.409386,37.971149],[-83.409162,37.970995],[-83.409105,37.970971],[-83.409047,37.970964],[-83.408993,37.970973],[-83.408888,37.971016],[-83.408806,37.971074]]}},{"type":"Feature","properties":{"osm_id":16318154,"highway":"service","name":null,"alt_name":null,"official_name":null,"surface":null,"tracktype":null,"service":null,"access":"private","motor_vehicle":null,"foot":null,"tiger_reviewed":"no","rrgh_part":0,"rrgh_tile_part":0},"geometry":{"type":"LineString","coordinates":[[-83.417339,37.936699],[-83.418797,37.936799],[-83.419456,37.93642],[-83.42,37.935762863084925]]}},{"type":"Feature","properties":{"osm_id":16322472,"highway":"residential","name":"Sexton Cemetery Road","alt_name":null,"official_name":null,"surface":null,"tracktype":null,"service":null,"access":null,"motor_vehicle":null,"foot":null,"tiger_reviewed":"no","rrgh_part":0,"rrgh_tile_part":0},"geometry":{"type":"LineString","coordinates":[[-83.416145,37.933964],[-83.416196,37.933954],[-83.416225,37.93396],[-83.416251,37.933977],[-83.416473,37.934217],[-83.416599,37.934328],[-83.416748,37.934413],[-83.416921,37.93447],[-83.417211,37.934521],[-83.418757,37.93464],[-83.418922,37.934687],[-83.419245,37.934853],[-83.419537,37.935019],[-83.419913,37.935263],[-83.42,37.93532727835052]]}},{"type":"Feature","properties":{"osm_id":16321852,"highway":"service","name":"Craft Cemetery Road","alt_name":null,"official_name":null,"surface":null,"tracktype":null,"service":null,"access":"private","motor_vehicle":null,"foot":null,"tiger_reviewed":"no","rrgh_part":0,"rrgh_tile_part":0},"geometry":{"type":"LineString","coordinates":[[-83.417201,37.974446],[-83.417096,37.974577],[-83.417066,37.974657],[-83.417046,37.97497],[-83.41705009090909,37.974999999999994]]}},{"type":"Feature","properties":{"osm_id":16318138,"highway":"service","name":null,"alt_name":null,"official_name":null,"surface":null,"tracktype":null,"service":null,"access":"private","motor_vehicle":null,"foot":null,"tiger_reviewed":"no","rrgh_part":0,"rrgh_tile_part":0},"geometry":{"type":"LineString","coordinates":[[-83.417201,37.974446],[-83.417394,37.974062],[-83.417913,37.972925],[-83.418393,37.97189],[-83.418578,37.971457]]}},{"type":"Feature","properties":{"osm_id":16318460,"highway":"residential","name":"Greasy Creek Road","alt_name":null,"official_name":null,"surface":null,"tracktype":null,"service":null,"access":null,"motor_vehicle":null,"foot":null,"tiger_reviewed":"no","rrgh_part":0,"rrgh_tile_part":0},"geometry":{"type":"LineString","coordinates":[[-83.337539,37.964168],[-83.337715,37.964451],[-83.337901,37.964675],[-83.338122,37.964879],[-83.338469,37.965162],[-83.338676,37.965387],[-83.338784,37.965557],[-83.338888,37.965809],[-83.338888,37.966008],[-83.338852,37.966155],[-83.338766,37.966327],[-83.338666,37.966499],[-83.338582,37.966691],[-83.338559,37.966775],[-83.338537,37.967179],[-83.338528,37.967222],[-83.338501,37.96735],[-83.338319,37.967954],[-83.338246,37.968158],[-83.338157,37.968366],[-83.337969,37.968659],[-83.337895,37.968843],[-83.337885,37.968922],[-83.337891,37.968983],[-83.337936,37.969107],[-83.337995,37.969171],[-83.338074,37.969208],[-83.338119,37.969214],[-83.338164,37.969219],[-83.338255,37.969203],[-83.338429,37.969118],[-83.33862,37.969054],[-83.338823,37.969019],[-83.338926,37.969014],[-83.339026,37.969021],[-83.339218,37.969076],[-83.339677,37.969264],[-83.339973,37.969344],[-83.340282,37.969388],[-83.34075,37.969424],[-83.341398,37.969501],[-83.341936,37.969543],[-83.342501,37.969502],[-83.342687,37.969481],[-83.342824,37.969465],[-83.342969,37.969437],[-83.343099,37.969388],[-83.343342,37.969265],[-83.343475,37.969182],[-83.343755,37.969053],[-83.344058,37.968953],[-83.344219,37.968915],[-83.344384,37.968887],[-83.34455,37.968872],[-83.345125,37.968848],[-83.345905,37.968779],[-83.346194,37.968771],[-83.346445,37.968776],[-83.346844,37.968805],[-83.347237,37.968847],[-83.347475,37.968895],[-83.347963,37.969022],[-83.348091,37.969034],[-83.348214,37.969031],[-83.348331,37.969001],[-83.348434,37.968955],[-83.348521,37.968896],[-83.348723,37.968734],[-83.348783,37.968687],[-83.349072,37.96852],[-83.34917,37.968453],[-83.349259,37.96837],[-83.349335,37.968273],[-83.349395,37.968165],[-83.349489,37.967933],[-83.349638,37.967449],[-83.349731,37.967209],[-83.349797,37.967092],[-83.349961,37.966867],[-83.350233,37.966558],[-83.350339,37.966464],[-83.350458,37.966377],[-83.351287,37.965868],[-83.35177,37.965549],[-83.352066,37.965441],[-83.352143,37.965426],[-83.352217,37.965423],[-83.35264,37.965441],[-83.352823,37.965472],[-83.353069,37.965514],[-83.353206,37.965523],[-83.353594,37.965505],[-83.353707,37.965515],[-83.354847,37.965611],[-83.355404,37.965692],[-83.355586,37.965727],[-83.356117,37.965863],[-83.356481,37.965939],[-83.356851,37.966006],[-83.357561,37.966153],[-83.358016,37.966216],[-83.358101,37.966237],[-83.358397,37.966324],[-83.358521,37.966348],[-83.359016,37.966407],[-83.359126,37.966415],[-83.359174,37.96641],[-83.359774,37.966345],[-83.359928,37.966322],[-83.360229,37.96627],[-83.360505,37.966204],[-83.360752,37.96611],[-83.361014,37.965982],[-83.361308,37.965856],[-83.362368,37.965521],[-83.362524,37.96548],[-83.362685,37.965454],[-83.362849,37.96544],[-83.363164,37.965434],[-83.363777,37.965438],[-83.36388,37.965421],[-83.364092,37.96536],[-83.364382,37.96524],[-83.364501,37.965168],[-83.364553,37.965075],[-83.364561,37.965001],[-83.364549,37.96491],[-83.364232,37.964536],[-83.364195,37.964458],[-83.364178,37.964284],[-83.364232,37.96401],[-83.364278,37.963668],[-83.364348,37.96353],[-83.364817,37.962859],[-83.364981,37.962605],[-83.365321,37.961895],[-83.365556,37.961582],[-83.3656,37.961489],[-83.36562,37.961404]]}},{"type":"Feature","properties":{"osm_id":16318223,"highway":"service","name":null,"alt_name":null,"official_name":null,"surface":null,"tracktype":null,"service":null,"access":"private","motor_vehicle":null,"foot":null,"tiger_reviewed":"no","rrgh_part":0,"rrgh_tile_part":0},"geometry":{"type":"LineString","coordinates":[[-83.392618,37.931767],[-83.392972,37.931735],[-83.393702,37.93178],[-83.394654,37.931825],[-83.394972,37.931726],[-83.395102,37.931581],[-83.395057,37.931267],[-83.395039,37.931025],[-83.395014,37.930904]]}},{"type":"Feature","properties":{"osm_id":802766108,"highway":"track","name":null,"alt_name":null,"official_name":null,"surface":null,"tracktype":null,"service":null,"access":null,"motor_vehicle":null,"foot":null,"tiger_reviewed":null,"rrgh_part":0,"rrgh_tile_part":0},"geometry":{"type":"LineString","coordinates":[[-83.3871016,37.9231198],[-83.3871664,37.9233435],[-83.3872422,37.9233884],[-83.3877353,37.9233465],[-83.3880198,37.9233495],[-83.3881071,37.9233765],[-83.3882398,37.9235321],[-83.3883726,37.9236368],[-83.3885774,37.9236817],[-83.3889188,37.9237236],[-83.3891047,37.9238941],[-83.3892337,37.9240677],[-83.3894195,37.9241873],[-83.3896433,37.924334],[-83.3897647,37.9244477],[-83.3897609,37.9246092],[-83.3896092,37.9249713]]}},{"type":"Feature","properties":{"osm_id":16317884,"highway":"service","name":null,"alt_name":null,"official_name":null,"surface":null,"tracktype":null,"service":null,"access":"private","motor_vehicle":null,"foot":null,"tiger_reviewed":"no","rrgh_part":0,"rrgh_tile_part":0},"geometry":{"type":"LineString","coordinates":[[-83.395643,37.934822],[-83.394677,37.934518]]}},{"type":"Feature","properties":{"osm_id":16319267,"highway":"residential","name":"Brown Road","alt_name":null,"official_name":null,"surface":null,"tracktype":null,"service":null,"access":null,"motor_vehicle":null,"foot":null,"tiger_reviewed":"no","rrgh_part":0,"rrgh_tile_part":0},"geometry":{"type":"LineString","coordinates":[[-83.408813,37.941173],[-83.408701,37.94128],[-83.408628,37.94138],[-83.408538,37.941559],[-83.408369,37.941952],[-83.408123,37.942329],[-83.407962,37.942608],[-83.407853,37.942756],[-83.407662,37.942949],[-83.407591,37.943056],[-83.407491,37.943254],[-83.40741,37.943472],[-83.407276,37.94379],[-83.407198,37.943948],[-83.407058,37.944292],[-83.40701,37.944373],[-83.40696,37.944445],[-83.406842,37.94454],[-83.406778,37.944576],[-83.406635,37.944601],[-83.406497,37.944584],[-83.406361,37.944514],[-83.405898,37.944242],[-83.405812,37.944235],[-83.405607,37.944268],[-83.405319,37.944366],[-83.404973,37.944535],[-83.404816,37.944629],[-83.404391,37.944959],[-83.404028,37.945282],[-83.403955,37.945324],[-83.403868,37.945354],[-83.403667,37.945386],[-83.403256,37.945372],[-83.403077,37.945317],[-83.402921,37.945236],[-83.402626,37.945024],[-83.402355,37.94487],[-83.401926,37.944767],[-83.401716,37.944739],[-83.401523,37.944729],[-83.401341,37.944745],[-83.401123,37.944863],[-83.40084,37.945156],[-83.400667,37.945312],[-83.400546,37.945385],[-83.400412,37.945426],[-83.399713,37.945531],[-83.399478,37.945558],[-83.399301,37.945561],[-83.399212,37.945549],[-83.399122,37.945523],[-83.398752,37.945357],[-83.398463,37.945251],[-83.398368,37.945238],[-83.398275,37.945239],[-83.397922,37.945313],[-83.397706,37.945402],[-83.397489,37.945465],[-83.397383,37.945475],[-83.397233,37.945452]]}},{"type":"Feature","properties":{"osm_id":16318596,"highway":"residential","name":"A B McKinney Road","alt_name":null,"official_name":null,"surface":null,"tracktype":null,"service":null,"access":null,"motor_vehicle":null,"foot":null,"tiger_reviewed":"no","rrgh_part":0,"rrgh_tile_part":0},"geometry":{"type":"LineString","coordinates":[[-83.39603,37.948244],[-83.396252,37.948446],[-83.396324,37.94865],[-83.396346,37.948807],[-83.396423,37.949171],[-83.396447,37.949226],[-83.396489,37.94927],[-83.396553,37.949302],[-83.39663,37.949324],[-83.39703,37.949383],[-83.397155,37.949409]]}},{"type":"Feature","properties":{"osm_id":16320512,"highway":"residential","name":"Long Road","alt_name":null,"official_name":null,"surface":null,"tracktype":null,"service":null,"access":null,"motor_vehicle":null,"foot":null,"tiger_reviewed":"no","rrgh_part":0,"rrgh_tile_part":0},"geometry":{"type":"LineString","coordinates":[[-83.381909,37.92309],[-83.382058,37.92326],[-83.382434,37.923635]]}},{"type":"Feature","properties":{"osm_id":16321336,"highway":"residential","name":"Cox-Baker Cemetery Road","alt_name":null,"official_name":null,"surface":null,"tracktype":null,"service":null,"access":null,"motor_vehicle":null,"foot":null,"tiger_reviewed":"no","rrgh_part":0,"rrgh_tile_part":0},"geometry":{"type":"LineString","coordinates":[[-83.380684,37.935269],[-83.380713,37.935338],[-83.380707,37.935358],[-83.380634,37.935509],[-83.38057,37.935686],[-83.38047,37.935881],[-83.380483,37.935932],[-83.380509,37.935957]]}},{"type":"Feature","properties":{"osm_id":16322306,"highway":"residential","name":"Noble Fork Road","alt_name":null,"official_name":null,"surface":null,"tracktype":null,"service":null,"access":null,"motor_vehicle":null,"foot":null,"tiger_reviewed":"no","rrgh_part":0,"rrgh_tile_part":0},"geometry":{"type":"LineString","coordinates":[[-83.380521,37.92295],[-83.380626,37.922965],[-83.381101,37.922986],[-83.381255,37.923004],[-83.381407,37.923036],[-83.38172,37.923124],[-83.381818,37.923121],[-83.381909,37.92309]]}},{"type":"Feature","properties":{"osm_id":16318031,"highway":"residential","name":null,"alt_name":null,"official_name":null,"surface":null,"tracktype":null,"service":null,"access":null,"motor_vehicle":null,"foot":null,"tiger_reviewed":"no","rrgh_part":0,"rrgh_tile_part":0},"geometry":{"type":"LineString","coordinates":[[-83.385295,37.932409],[-83.385764,37.932463],[-83.386516,37.932662]]}},{"type":"Feature","properties":{"osm_id":16322139,"highway":"residential","name":"Tabernacle Crossover Road","alt_name":null,"official_name":null,"surface":null,"tracktype":null,"service":null,"access":null,"motor_vehicle":null,"foot":null,"tiger_reviewed":"no","rrgh_part":0,"rrgh_tile_part":0},"geometry":{"type":"LineString","coordinates":[[-83.365498,37.924752],[-83.365498,37.924639],[-83.36547,37.92453]]}},{"type":"Feature","properties":{"osm_id":16322498,"highway":"residential","name":"Leach Lane","alt_name":null,"official_name":null,"surface":null,"tracktype":null,"service":null,"access":null,"motor_vehicle":null,"foot":null,"tiger_reviewed":"no","rrgh_part":0,"rrgh_tile_part":0},"geometry":{"type":"LineString","coordinates":[[-83.366959,37.924867],[-83.366865,37.925272],[-83.366841,37.925532],[-83.366863,37.92572],[-83.366972,37.926213]]}},{"type":"Feature","properties":{"osm_id":16322899,"highway":"residential","name":"Wyck Smith Road","alt_name":null,"official_name":null,"surface":null,"tracktype":null,"service":null,"access":null,"motor_vehicle":null,"foot":null,"tiger_reviewed":"no","rrgh_part":0,"rrgh_tile_part":0},"geometry":{"type":"LineString","coordinates":[[-83.367474,37.924856],[-83.367551,37.924921],[-83.367784,37.925049],[-83.36793,37.925158],[-83.368054,37.925303],[-83.368146,37.925464],[-83.368399,37.926185],[-83.368644,37.927188],[-83.368758,37.927524],[-83.368872,37.927793],[-83.368919,37.927861],[-83.368981,37.927925],[-83.369089,37.928036],[-83.369189,37.928183],[-83.369251,37.928257],[-83.369407,37.928404],[-83.370031,37.928877],[-83.370251,37.929013],[-83.370353,37.929087]]}},{"type":"Feature","properties":{"osm_id":16318386,"highway":"residential","name":null,"alt_name":null,"official_name":null,"surface":null,"tracktype":null,"service":null,"access":null,"motor_vehicle":null,"foot":null,"tiger_reviewed":"no","rrgh_part":0,"rrgh_tile_part":0},"geometry":{"type":"LineString","coordinates":[[-83.377436,37.937026],[-83.37763,37.937191],[-83.378004,37.938107],[-83.378271,37.938387]]}},{"type":"Feature","properties":{"osm_id":16320772,"highway":"residential","name":"Carpenter Branch Spur Road","alt_name":null,"official_name":null,"surface":null,"tracktype":null,"service":null,"access":null,"motor_vehicle":null,"foot":null,"tiger_reviewed":"no","rrgh_part":0,"rrgh_tile_part":0},"geometry":{"type":"LineString","coordinates":[[-83.375063,37.942266],[-83.375067,37.942408],[-83.375051,37.942491],[-83.37503,37.942567],[-83.374958,37.942724],[-83.374807,37.942948],[-83.374587,37.943236],[-83.374529,37.943358],[-83.374467,37.943628],[-83.374417,37.943763],[-83.374338,37.94389],[-83.374211,37.944053],[-83.374068,37.944342],[-83.373988,37.944474],[-83.373778,37.944724],[-83.373264,37.945277],[-83.372987,37.945553],[-83.372813,37.94569]]}},{"type":"Feature","properties":{"osm_id":16320802,"highway":"residential","name":"Carpenter Branch Road","alt_name":null,"official_name":null,"surface":null,"tracktype":null,"service":null,"access":null,"motor_vehicle":null,"foot":null,"tiger_reviewed":"no","rrgh_part":0,"rrgh_tile_part":0},"geometry":{"type":"LineString","coordinates":[[-83.373942,37.940587],[-83.374075,37.940742],[-83.374475,37.941208],[-83.374816,37.941538],[-83.37494,37.941694],[-83.375016,37.941835],[-83.375038,37.941895],[-83.375057,37.942024],[-83.375063,37.942266],[-83.375163,37.942321],[-83.375285,37.942512],[-83.375372,37.942605],[-83.375607,37.942781],[-83.375661,37.942868],[-83.375723,37.943044]]}},{"type":"Feature","properties":{"osm_id":16317868,"highway":"service","name":null,"alt_name":null,"official_name":null,"surface":null,"tracktype":null,"service":null,"access":"private","motor_vehicle":null,"foot":null,"tiger_reviewed":"no","rrgh_part":0,"rrgh_tile_part":0},"geometry":{"type":"LineString","coordinates":[[-83.361377,37.943962],[-83.361488,37.943967],[-83.361538,37.944054],[-83.361826,37.944116],[-83.362061,37.94426]]}},{"type":"Feature","properties":{"osm_id":16318394,"highway":"service","name":null,"alt_name":null,"official_name":null,"surface":null,"tracktype":null,"service":null,"access":"private","motor_vehicle":null,"foot":null,"tiger_reviewed":"no","rrgh_part":0,"rrgh_tile_part":0},"geometry":{"type":"LineString","coordinates":[[-83.369751,37.943322],[-83.36807,37.946192],[-83.367703,37.946773],[-83.367649,37.947232],[-83.367653,37.947565],[-83.36783,37.948691],[-83.368113,37.949357],[-83.368331,37.949773],[-83.36866,37.949974],[-83.369254,37.950135],[-83.369694,37.950171],[-83.370288,37.950119],[-83.371876,37.949967]]}},{"type":"Feature","properties":{"osm_id":16320806,"highway":"residential","name":"Carpenter Branch Road","alt_name":null,"official_name":null,"surface":null,"tracktype":null,"service":null,"access":null,"motor_vehicle":null,"foot":null,"tiger_reviewed":"no","rrgh_part":0,"rrgh_tile_part":0},"geometry":{"type":"LineString","coordinates":[[-83.362753,37.945668],[-83.361705,37.944276],[-83.361708,37.944209],[-83.361538,37.944054]]}},{"type":"Feature","properties":{"osm_id":16321305,"highway":"residential","name":"Bud Smith Road","alt_name":null,"official_name":null,"surface":null,"tracktype":null,"service":null,"access":null,"motor_vehicle":null,"foot":null,"tiger_reviewed":"no","rrgh_part":0,"rrgh_tile_part":0},"geometry":{"type":"LineString","coordinates":[[-83.367093,37.941968],[-83.367005,37.942217],[-83.366977,37.942481],[-83.366969,37.942553],[-83.367002,37.942881],[-83.367042,37.943125],[-83.367108,37.943214],[-83.3672,37.943255]]}},{"type":"Feature","properties":{"osm_id":16317658,"highway":"residential","name":null,"alt_name":null,"official_name":null,"surface":null,"tracktype":null,"service":null,"access":null,"motor_vehicle":null,"foot":null,"tiger_reviewed":"no","rrgh_part":0,"rrgh_tile_part":0},"geometry":{"type":"LineString","coordinates":[[-83.371981,37.94215],[-83.372308,37.942359],[-83.372527,37.942516],[-83.372567,37.942672],[-83.372435,37.942848],[-83.372228,37.943003]]}},{"type":"Feature","properties":{"osm_id":16317883,"highway":"service","name":null,"alt_name":null,"official_name":null,"surface":null,"tracktype":null,"service":null,"access":"private","motor_vehicle":null,"foot":null,"tiger_reviewed":"no","rrgh_part":0,"rrgh_tile_part":0},"geometry":{"type":"LineString","coordinates":[[-83.366977,37.942481],[-83.366646,37.942611],[-83.366244,37.942673],[-83.365815,37.942735],[-83.36544,37.942787],[-83.365011,37.942855],[-83.364569,37.942834]]}},{"type":"Feature","properties":{"osm_id":16318391,"highway":"residential","name":null,"alt_name":null,"official_name":null,"surface":null,"tracktype":null,"service":null,"access":null,"motor_vehicle":null,"foot":null,"tiger_reviewed":"no","rrgh_part":0,"rrgh_tile_part":0},"geometry":{"type":"LineString","coordinates":[[-83.394028,37.949459],[-83.393638,37.950361]]}},{"type":"Feature","properties":{"osm_id":16321786,"highway":"residential","name":"Bill Peyton Road","alt_name":null,"official_name":null,"surface":null,"tracktype":null,"service":null,"access":null,"motor_vehicle":null,"foot":null,"tiger_reviewed":"no","rrgh_part":0,"rrgh_tile_part":0},"geometry":{"type":"LineString","coordinates":[[-83.388406,37.949285],[-83.388387,37.949308],[-83.388389,37.949335],[-83.388408,37.949354],[-83.388441,37.949361],[-83.388726,37.949367]]}},{"type":"Feature","properties":{"osm_id":443256762,"highway":"residential","name":"Bill Peyton Road","alt_name":null,"official_name":null,"surface":null,"tracktype":null,"service":null,"access":null,"motor_vehicle":null,"foot":null,"tiger_reviewed":"no","rrgh_part":0,"rrgh_tile_part":0},"geometry":{"type":"LineString","coordinates":[[-83.388726,37.949367],[-83.388446,37.949277],[-83.388406,37.949285]]}},{"type":"Feature","properties":{"osm_id":16321792,"highway":"residential","name":"Bill Peyton Road","alt_name":null,"official_name":null,"surface":null,"tracktype":null,"service":null,"access":null,"motor_vehicle":null,"foot":null,"tiger_reviewed":"no","rrgh_part":0,"rrgh_tile_part":0},"geometry":{"type":"LineString","coordinates":[[-83.395186,37.948937],[-83.395099,37.948925],[-83.395015,37.948932],[-83.394968,37.94895],[-83.394834,37.949036],[-83.39473,37.949083],[-83.394646,37.949101],[-83.39435,37.949163],[-83.394243,37.949224],[-83.394171,37.949299],[-83.394113,37.949379],[-83.394028,37.949459],[-83.393973,37.949511],[-83.393887,37.949555],[-83.39374,37.949573],[-83.393618,37.949566],[-83.393354,37.94952],[-83.392947,37.949486],[-83.392486,37.949398],[-83.392335,37.949393],[-83.391525,37.949456],[-83.391267,37.949534],[-83.390894,37.949618],[-83.390629,37.949701],[-83.39034,37.949748],[-83.390241,37.949745],[-83.390056,37.949697],[-83.389965,37.949649],[-83.389881,37.94959],[-83.389708,37.949522],[-83.389504,37.949506],[-83.388979,37.949432],[-83.388726,37.949367]]}},{"type":"Feature","properties":{"osm_id":16321364,"highway":"residential","name":"Cox Cemetery Road","alt_name":null,"official_name":null,"surface":null,"tracktype":null,"service":null,"access":null,"motor_vehicle":null,"foot":null,"tiger_reviewed":"no","rrgh_part":0,"rrgh_tile_part":0},"geometry":{"type":"LineString","coordinates":[[-83.390456,37.96598],[-83.390901,37.965894]]}},{"type":"Feature","properties":{"osm_id":16318211,"highway":"residential","name":null,"alt_name":null,"official_name":null,"surface":null,"tracktype":null,"service":null,"access":null,"motor_vehicle":null,"foot":null,"tiger_reviewed":"no","rrgh_part":0,"rrgh_tile_part":0},"geometry":{"type":"LineString","coordinates":[[-83.398304,37.964961],[-83.397447,37.96553],[-83.397142,37.966213],[-83.396785,37.9666],[-83.396313,37.96685],[-83.3958945,37.9674079],[-83.3958618,37.9674639],[-83.395785,37.9675448],[-83.3956959,37.9676187],[-83.395556,37.9677121],[-83.3954116,37.967793],[-83.3952604,37.9678526],[-83.3951137,37.9678917],[-83.3948024,37.9679237],[-83.394186,37.968054],[-83.393152,37.968667],[-83.392475,37.968825],[-83.392308,37.968783]]}},{"type":"Feature","properties":{"osm_id":16321363,"highway":"residential","name":"Kellacey Falls Road","alt_name":null,"official_name":null,"surface":null,"tracktype":null,"service":null,"access":null,"motor_vehicle":null,"foot":null,"tiger_reviewed":"no","rrgh_part":0,"rrgh_tile_part":0},"geometry":{"type":"LineString","coordinates":[[-83.392308,37.968783],[-83.392238,37.968698],[-83.391975,37.968295],[-83.391817,37.967826],[-83.391747,37.967746],[-83.391685,37.967699],[-83.391388,37.967509],[-83.391281,37.967427],[-83.391178,37.967274],[-83.391067,37.966925],[-83.391012,37.966809],[-83.390954,37.966628],[-83.390945,37.966521],[-83.39098,37.966282],[-83.391038,37.966125],[-83.391049,37.966058],[-83.391025,37.966019],[-83.390982,37.965951],[-83.390945,37.965935],[-83.390901,37.965894],[-83.390842,37.965691],[-83.390836,37.965504],[-83.390781,37.96513]]}},{"type":"Feature","properties":{"osm_id":16321637,"highway":"unclassified","name":"Old Highway 976","alt_name":null,"official_name":null,"surface":"unpaved","tracktype":null,"service":null,"access":null,"motor_vehicle":null,"foot":null,"tiger_reviewed":"no","rrgh_part":0,"rrgh_tile_part":0},"geometry":{"type":"LineString","coordinates":[[-83.39501246666667,37.974999999999994],[-83.394945,37.974956],[-83.394522,37.974712],[-83.394401,37.9746377],[-83.3939025,37.9743384],[-83.393614,37.974167],[-83.393123,37.973859],[-83.392984,37.973795],[-83.392909,37.973777],[-83.392757,37.973763],[-83.392629,37.97379],[-83.392573,37.973819],[-83.392529,37.973857],[-83.392478,37.9739166],[-83.392432,37.9740703],[-83.3923503,37.9744928],[-83.3922659,37.9747564],[-83.392173,37.974966],[-83.39215320895522,37.974999999999994]]}},{"type":"Feature","properties":{"osm_id":16321637,"highway":"unclassified","name":"Old Highway 976","alt_name":null,"official_name":null,"surface":"unpaved","tracktype":null,"service":null,"access":null,"motor_vehicle":null,"foot":null,"tiger_reviewed":"no","rrgh_part":0,"rrgh_tile_part":1},"geometry":{"type":"LineString","coordinates":[[-83.39158257585139,37.974999999999994],[-83.39145,37.974163],[-83.391448,37.974007],[-83.391433,37.973806],[-83.39141,37.973685]]}},{"type":"Feature","properties":{"osm_id":978308544,"highway":"service","name":null,"alt_name":null,"official_name":null,"surface":"gravel","tracktype":null,"service":null,"access":null,"motor_vehicle":null,"foot":null,"tiger_reviewed":null,"rrgh_part":0,"rrgh_tile_part":0},"geometry":{"type":"LineString","coordinates":[[-83.3954414,37.9746376],[-83.3952911,37.9746984],[-83.3951526,37.9746618],[-83.3947917,37.9744728],[-83.3946343,37.9744509],[-83.3945746,37.9744769],[-83.394401,37.9746377]]}},{"type":"Feature","properties":{"osm_id":1421283870,"highway":"service","name":null,"alt_name":null,"official_name":null,"surface":"gravel","tracktype":null,"service":null,"access":null,"motor_vehicle":null,"foot":null,"tiger_reviewed":null,"rrgh_part":0,"rrgh_tile_part":0},"geometry":{"type":"LineString","coordinates":[[-83.3939025,37.9743384],[-83.3941593,37.9743103],[-83.394288,37.9743145],[-83.3945881,37.9743652],[-83.3947917,37.9744728]]}},{"type":"Feature","properties":{"osm_id":16317743,"highway":"service","name":null,"alt_name":null,"official_name":null,"surface":null,"tracktype":null,"service":null,"access":null,"motor_vehicle":null,"foot":null,"tiger_reviewed":"no","rrgh_part":0,"rrgh_tile_part":0},"geometry":{"type":"LineString","coordinates":[[-83.392308,37.968783],[-83.39299,37.969496],[-83.393322,37.969914],[-83.393399,37.9702],[-83.393339,37.970582],[-83.393354,37.970852]]}},{"type":"Feature","properties":{"osm_id":16321849,"highway":"residential","name":"Peyton Cemetery No 1 Road","alt_name":null,"official_name":null,"surface":null,"tracktype":null,"service":null,"access":null,"motor_vehicle":null,"foot":null,"tiger_reviewed":"no","rrgh_part":0,"rrgh_tile_part":0},"geometry":{"type":"LineString","coordinates":[[-83.384649,37.965258],[-83.384641,37.964995],[-83.384618,37.964744],[-83.384563,37.964537],[-83.384449,37.964342],[-83.384365,37.964229],[-83.384218,37.964062],[-83.384099,37.963881]]}},{"type":"Feature","properties":{"osm_id":16322226,"highway":"residential","name":"Sam Dunn Road","alt_name":null,"official_name":null,"surface":null,"tracktype":null,"service":null,"access":null,"motor_vehicle":null,"foot":null,"tiger_reviewed":"no","rrgh_part":0,"rrgh_tile_part":0},"geometry":{"type":"LineString","coordinates":[[-83.381312,37.963661],[-83.381261,37.963728],[-83.380932,37.964067],[-83.380568,37.964337],[-83.380279,37.964578],[-83.379985,37.964789],[-83.379629,37.965091],[-83.378538,37.965968],[-83.378477,37.966006],[-83.378412,37.966026],[-83.37835,37.966026],[-83.378248,37.965983],[-83.378149,37.965906],[-83.377825,37.9656],[-83.377792,37.965544],[-83.377786,37.965485],[-83.377822,37.9653],[-83.377822,37.965233],[-83.377808,37.965165],[-83.377741,37.965032],[-83.377558,37.964822],[-83.377534,37.964771],[-83.377521,37.964666]]}},{"type":"Feature","properties":{"osm_id":16321698,"highway":"service","name":"Mauk Ridge Road","alt_name":null,"official_name":null,"surface":null,"tracktype":null,"service":null,"access":null,"motor_vehicle":null,"foot":null,"tiger_reviewed":"no","rrgh_part":0,"rrgh_tile_part":0},"geometry":{"type":"LineString","coordinates":[[-83.38256806576402,37.974999999999994],[-83.382572,37.974994],[-83.382692,37.974834],[-83.382834,37.974662],[-83.382996,37.974498],[-83.383102,37.974406],[-83.383317,37.974175],[-83.383338,37.974117],[-83.38336,37.97398],[-83.383392,37.973894],[-83.383527,37.973665],[-83.383584,37.973598],[-83.383651,37.973542],[-83.383823,37.973467],[-83.384018,37.973445],[-83.384429,37.97344],[-83.384753,37.973465],[-83.384938,37.9735],[-83.385018,37.973526],[-83.385135,37.973583],[-83.38524,37.973663]]}},{"type":"Feature","properties":{"osm_id":16321850,"highway":"service","name":"Peyton Cemetery No 1 Road","alt_name":null,"official_name":null,"surface":null,"tracktype":null,"service":null,"access":null,"motor_vehicle":null,"foot":null,"tiger_reviewed":"no","rrgh_part":0,"rrgh_tile_part":0},"geometry":{"type":"LineString","coordinates":[[-83.381397,37.963706],[-83.381931,37.963525],[-83.382159,37.963426],[-83.38231,37.963334],[-83.38246,37.963176]]}},{"type":"Feature","properties":{"osm_id":16322354,"highway":"residential","name":"Peyton Schoolhouse Road","alt_name":null,"official_name":null,"surface":null,"tracktype":null,"service":null,"access":null,"motor_vehicle":null,"foot":null,"tiger_reviewed":"no","rrgh_part":0,"rrgh_tile_part":0},"geometry":{"type":"LineString","coordinates":[[-83.381239,37.961874],[-83.381384,37.962009],[-83.381447,37.962108],[-83.381481,37.962289],[-83.381494,37.962446],[-83.381474,37.962682],[-83.381413,37.963012],[-83.38127,37.963469],[-83.381255,37.963553],[-83.381257,37.963576],[-83.381273,37.96362],[-83.381312,37.963661]]}},{"type":"Feature","properties":{"osm_id":110153730,"highway":"residential","name":"Sam Dunn Road","alt_name":null,"official_name":null,"surface":null,"tracktype":null,"service":null,"access":null,"motor_vehicle":null,"foot":null,"tiger_reviewed":"no","rrgh_part":0,"rrgh_tile_part":0},"geometry":{"type":"LineString","coordinates":[[-83.386986,37.966503],[-83.386911,37.966538],[-83.386821,37.96657],[-83.386587,37.966632],[-83.386389,37.966653],[-83.386294,37.96665],[-83.386233,37.966638],[-83.386112,37.966588],[-83.38603,37.966524],[-83.385957,37.966429],[-83.385905,37.966316],[-83.385845,37.966087],[-83.38579,37.965936],[-83.385711,37.965803],[-83.38561,37.965681],[-83.385412,37.965523],[-83.385201,37.965417],[-83.384881,37.965308],[-83.384649,37.965258],[-83.384341,37.965215],[-83.384247,37.965187],[-83.384105,37.965127],[-83.383431,37.964748],[-83.382298,37.964151],[-83.382081,37.964045],[-83.381731,37.963895],[-83.381569,37.963797],[-83.381397,37.963706],[-83.381312,37.963661]]}},{"type":"Feature","properties":{"osm_id":970443523,"highway":"service","name":null,"alt_name":null,"official_name":null,"surface":null,"tracktype":null,"service":null,"access":null,"motor_vehicle":null,"foot":null,"tiger_reviewed":null,"rrgh_part":0,"rrgh_tile_part":0},"geometry":{"type":"LineString","coordinates":[[-83.38524,37.973663],[-83.3854121,37.9738261],[-83.3858722,37.9739458],[-83.3865245,37.9741113],[-83.3866585,37.974217],[-83.3866585,37.9743297],[-83.3863681,37.9745304]]}},{"type":"Feature","properties":{"osm_id":16319082,"highway":"residential","name":"Rube Woods Spur Road","alt_name":null,"official_name":null,"surface":null,"tracktype":null,"service":null,"access":null,"motor_vehicle":null,"foot":null,"tiger_reviewed":"no","rrgh_part":0,"rrgh_tile_part":0},"geometry":{"type":"LineString","coordinates":[[-83.33858,37.922328],[-83.338566,37.922468],[-83.338564,37.922651],[-83.338535,37.922774],[-83.338519,37.922909],[-83.33855,37.923005],[-83.338582,37.92305],[-83.338661,37.923129],[-83.338894,37.9233],[-83.339244,37.923495],[-83.339437,37.923628],[-83.339581,37.923706],[-83.339659,37.92376],[-83.339895,37.92397],[-83.339974,37.924074],[-83.340003,37.924194],[-83.340001,37.924311],[-83.339936,37.924434],[-83.339821,37.924588],[-83.339729,37.924703],[-83.33957,37.924809],[-83.339329,37.924908],[-83.338901,37.925063],[-83.338466,37.925203],[-83.337984,37.925439],[-83.337468,37.92571],[-83.337325,37.925798],[-83.337149,37.925983],[-83.336709,37.9264],[-83.3364,37.926719],[-83.336284,37.926827],[-83.336065,37.927086],[-83.336002,37.927146],[-83.335958,37.927211],[-83.335485,37.927681],[-83.335365,37.927813],[-83.335265,37.927951],[-83.335215,37.92804],[-83.335187,37.928122],[-83.33516,37.928278],[-83.335152,37.928569],[-83.335118,37.92873],[-83.335048,37.928882],[-83.33500000000001,37.928957488986775]]}},{"type":"Feature","properties":{"osm_id":16319082,"highway":"residential","name":"Rube Woods Spur Road","alt_name":null,"official_name":null,"surface":null,"tracktype":null,"service":null,"access":null,"motor_vehicle":null,"foot":null,"tiger_reviewed":"no","rrgh_part":0,"rrgh_tile_part":1},"geometry":{"type":"LineString","coordinates":[[-83.33500000000001,37.948653562500006],[-83.335273,37.948752],[-83.33571,37.948847],[-83.335867,37.948902],[-83.336437,37.948937],[-83.336609,37.948956],[-83.336778,37.949008],[-83.336899,37.949068],[-83.337061,37.949176],[-83.337225,37.949333],[-83.337587,37.9496],[-83.337803,37.949861]]}},{"type":"Feature","properties":{"osm_id":16321327,"highway":"residential","name":"Orville Henry Road","alt_name":null,"official_name":null,"surface":null,"tracktype":null,"service":null,"access":null,"motor_vehicle":null,"foot":null,"tiger_reviewed":"no","rrgh_part":0,"rrgh_tile_part":0},"geometry":{"type":"LineString","coordinates":[[-83.35416174999999,37.9],[-83.354064,37.900034],[-83.353689,37.900133],[-83.353564,37.900178],[-83.353447,37.900236],[-83.353042,37.900518],[-83.352765,37.900757],[-83.35249,37.900966],[-83.352414,37.901033],[-83.352348,37.901107],[-83.352059,37.901487],[-83.351933,37.901728],[-83.351825,37.901894]]}},{"type":"Feature","properties":{"osm_id":16321890,"highway":"residential","name":"Jack Johnson Road","alt_name":null,"official_name":null,"surface":null,"tracktype":null,"service":null,"access":null,"motor_vehicle":null,"foot":null,"tiger_reviewed":"no","rrgh_part":0,"rrgh_tile_part":0},"geometry":{"type":"LineString","coordinates":[[-83.350497,37.902935],[-83.349165,37.903304],[-83.34835,37.90343],[-83.347742,37.903515],[-83.346975,37.904024]]}},{"type":"Feature","properties":{"osm_id":16322373,"highway":"residential","name":"Densil Wheeler Road","alt_name":null,"official_name":null,"surface":null,"tracktype":null,"service":null,"access":null,"motor_vehicle":null,"foot":null,"tiger_reviewed":"no","rrgh_part":0,"rrgh_tile_part":0},"geometry":{"type":"LineString","coordinates":[[-83.356212,37.905996],[-83.355821,37.906195],[-83.355527,37.906298],[-83.355152,37.906368],[-83.354792,37.906418],[-83.354059,37.906415],[-83.353648,37.906558],[-83.351673,37.907478]]}},{"type":"Feature","properties":{"osm_id":16318115,"highway":"residential","name":"Tabernacle Road","alt_name":null,"official_name":null,"surface":null,"tracktype":null,"service":null,"access":null,"motor_vehicle":null,"foot":null,"tiger_reviewed":"no","rrgh_part":0,"rrgh_tile_part":0},"geometry":{"type":"LineString","coordinates":[[-83.360316,37.908405],[-83.360128,37.908616],[-83.36009,37.908666],[-83.360066,37.908721],[-83.360061,37.908777],[-83.36007,37.908831],[-83.360143,37.908965]]}},{"type":"Feature","properties":{"osm_id":16319765,"highway":"residential","name":"Tim Keeton Road","alt_name":null,"official_name":null,"surface":null,"tracktype":null,"service":null,"access":null,"motor_vehicle":null,"foot":null,"tiger_reviewed":"no","rrgh_part":0,"rrgh_tile_part":0},"geometry":{"type":"LineString","coordinates":[[-83.34186296969698,37.9],[-83.34193,37.90056],[-83.340192,37.901295],[-83.339744,37.901748]]}},{"type":"Feature","properties":{"osm_id":16317795,"highway":"residential","name":null,"alt_name":null,"official_name":null,"surface":null,"tracktype":null,"service":null,"access":null,"motor_vehicle":null,"foot":null,"tiger_reviewed":"no","rrgh_part":0,"rrgh_tile_part":0},"geometry":{"type":"LineString","coordinates":[[-83.33500000000001,37.901333998601395],[-83.335381,37.90118],[-83.335674,37.901178]]}},{"type":"Feature","properties":{"osm_id":16322235,"highway":"residential","name":"Kenneth Vancleve Road","alt_name":null,"official_name":null,"surface":null,"tracktype":null,"service":null,"access":null,"motor_vehicle":null,"foot":null,"tiger_reviewed":"no","rrgh_part":0,"rrgh_tile_part":0},"geometry":{"type":"LineString","coordinates":[[-83.346441,37.900624],[-83.344483,37.906011]]}},{"type":"Feature","properties":{"osm_id":16320876,"highway":"residential","name":"Caudill Road","alt_name":null,"official_name":null,"surface":null,"tracktype":null,"service":null,"access":null,"motor_vehicle":null,"foot":null,"tiger_reviewed":"no","rrgh_part":0,"rrgh_tile_part":0},"geometry":{"type":"LineString","coordinates":[[-83.351306,37.915366],[-83.35132,37.915261],[-83.35135,37.915187],[-83.35148,37.91495],[-83.351506,37.914814],[-83.351486,37.914672],[-83.351367,37.914329],[-83.351321,37.914082],[-83.351325,37.914015],[-83.351357,37.913893],[-83.351416,37.91376],[-83.351649,37.913363],[-83.351754,37.913211],[-83.351849,37.913047],[-83.351958,37.912798],[-83.352028,37.912678],[-83.352301,37.912343]]}},{"type":"Feature","properties":{"osm_id":16317552,"highway":"residential","name":"Quarter Ridge Farm Road","alt_name":null,"official_name":null,"surface":null,"tracktype":null,"service":null,"access":null,"motor_vehicle":null,"foot":null,"tiger_reviewed":"no","rrgh_part":0,"rrgh_tile_part":0},"geometry":{"type":"LineString","coordinates":[[-83.349852,37.923483],[-83.350562,37.923398],[-83.350777,37.923269],[-83.350858,37.923062],[-83.350715,37.92149],[-83.350653,37.921265],[-83.350368,37.920865],[-83.350095,37.920506],[-83.350019,37.920193],[-83.349902,37.919641]]}},{"type":"Feature","properties":{"osm_id":16322324,"highway":"residential","name":"Bernard Dixon Road","alt_name":null,"official_name":null,"surface":null,"tracktype":null,"service":null,"access":null,"motor_vehicle":null,"foot":null,"tiger_reviewed":"no","rrgh_part":0,"rrgh_tile_part":0},"geometry":{"type":"LineString","coordinates":[[-83.343915,37.914918],[-83.344055,37.914979],[-83.344327,37.914999],[-83.345249,37.914947],[-83.345721,37.914963],[-83.346703,37.914858],[-83.347036,37.914841],[-83.347147,37.914843],[-83.347296,37.914874],[-83.347568,37.914927],[-83.34773,37.914989],[-83.347999,37.915185],[-83.348248,37.915588],[-83.348327,37.915659],[-83.348365,37.915687],[-83.348662,37.915839],[-83.34875,37.915857],[-83.349,37.915847],[-83.349495,37.915781],[-83.349569,37.915766],[-83.349879,37.915673],[-83.350148,37.915616],[-83.350237,37.915577],[-83.350559,37.915501],[-83.351306,37.915366],[-83.351411,37.915357],[-83.352165,37.915305],[-83.352244,37.915321]]}},{"type":"Feature","properties":{"osm_id":16321783,"highway":"residential","name":"Lower Dixon Road","alt_name":null,"official_name":null,"surface":null,"tracktype":null,"service":null,"access":null,"motor_vehicle":null,"foot":null,"tiger_reviewed":"no","rrgh_part":0,"rrgh_tile_part":0},"geometry":{"type":"LineString","coordinates":[[-83.347296,37.914874],[-83.347425,37.914092],[-83.347479,37.913534],[-83.347589,37.913023],[-83.347749,37.912192],[-83.34793,37.911562],[-83.347908,37.91147],[-83.34789,37.911435],[-83.347852,37.91136]]}},{"type":"Feature","properties":{"osm_id":16322379,"highway":"residential","name":"Joe Terrell Road","alt_name":null,"official_name":null,"surface":null,"tracktype":null,"service":null,"access":null,"motor_vehicle":null,"foot":null,"tiger_reviewed":"no","rrgh_part":0,"rrgh_tile_part":0},"geometry":{"type":"LineString","coordinates":[[-83.3382863,37.9133996],[-83.338632,37.913669],[-83.338948,37.913913],[-83.339216,37.914202],[-83.339768,37.914467]]}},{"type":"Feature","properties":{"osm_id":16320908,"highway":"residential","name":"May Cemetery Road","alt_name":null,"official_name":null,"surface":null,"tracktype":null,"service":null,"access":null,"motor_vehicle":null,"foot":null,"tiger_reviewed":"no","rrgh_part":0,"rrgh_tile_part":0},"geometry":{"type":"LineString","coordinates":[[-83.344128,37.915852],[-83.343818,37.915822],[-83.343722,37.915851],[-83.343639,37.915929],[-83.343391,37.916334],[-83.343255,37.916505],[-83.343251,37.916746],[-83.343287,37.916922],[-83.343272,37.917019]]}},{"type":"Feature","properties":{"osm_id":16322163,"highway":"residential","name":"Tree Nursery Road","alt_name":null,"official_name":null,"surface":null,"tracktype":null,"service":null,"access":null,"motor_vehicle":null,"foot":null,"tiger_reviewed":"no","rrgh_part":0,"rrgh_tile_part":0},"geometry":{"type":"LineString","coordinates":[[-83.336965,37.914324],[-83.33689,37.91451],[-83.336774,37.915056],[-83.336712,37.915281],[-83.3366817,37.915443],[-83.336593,37.915918],[-83.3365719,37.9160312],[-83.336445,37.916711],[-83.336422,37.916796],[-83.33638,37.916849],[-83.3363,37.9169],[-83.336211,37.916925],[-83.3361172,37.9169202],[-83.33500000000001,37.91675049437683]]}},{"type":"Feature","properties":{"osm_id":1416017294,"highway":"service","name":null,"alt_name":null,"official_name":null,"surface":null,"tracktype":null,"service":null,"access":null,"motor_vehicle":null,"foot":null,"tiger_reviewed":null,"rrgh_part":0,"rrgh_tile_part":0},"geometry":{"type":"LineString","coordinates":[[-83.3365719,37.9160312],[-83.3368259,37.9160149],[-83.3371647,37.9159633],[-83.337467,37.915857],[-83.3375592,37.9157894],[-83.3375851,37.915714],[-83.3374829,37.9156324],[-83.3372143,37.9155103],[-83.3369282,37.9154386],[-83.3366817,37.915443]]}},{"type":"Feature","properties":{"osm_id":16322205,"highway":"residential","name":"Larry Jenkins Road","alt_name":null,"official_name":null,"surface":null,"tracktype":null,"service":null,"access":null,"motor_vehicle":null,"foot":null,"tiger_reviewed":"no","rrgh_part":0,"rrgh_tile_part":0},"geometry":{"type":"LineString","coordinates":[[-83.346444,37.916588],[-83.346629,37.916659],[-83.347308,37.917154],[-83.347427,37.917335],[-83.347596,37.918514],[-83.347539,37.918559]]}},{"type":"Feature","properties":{"osm_id":1416017295,"highway":"track","name":null,"alt_name":null,"official_name":null,"surface":null,"tracktype":null,"service":null,"access":null,"motor_vehicle":null,"foot":null,"tiger_reviewed":null,"rrgh_part":0,"rrgh_tile_part":0},"geometry":{"type":"LineString","coordinates":[[-83.3368259,37.9160149],[-83.3369716,37.9160809],[-83.3372343,37.9161844],[-83.3374403,37.916357],[-83.3375585,37.9164443],[-83.33772,37.9165072],[-83.3379668,37.916554],[-83.3381318,37.9165679],[-83.3383797,37.9165988],[-83.3385531,37.9165755],[-83.33872,37.9164897],[-83.3388317,37.9164602],[-83.3390124,37.916557],[-83.3391341,37.9166616]]}},{"type":"Feature","properties":{"osm_id":16318834,"highway":"residential","name":"Farm Road","alt_name":null,"official_name":null,"surface":null,"tracktype":null,"service":null,"access":null,"motor_vehicle":null,"foot":null,"tiger_reviewed":"no","rrgh_part":0,"rrgh_tile_part":0},"geometry":{"type":"LineString","coordinates":[[-83.353383,37.926562],[-83.352908,37.926781],[-83.352746,37.926878],[-83.352756,37.927056],[-83.352899,37.927362],[-83.352911,37.927878],[-83.352901,37.928556],[-83.352973,37.928983],[-83.353237,37.9292],[-83.353614,37.929353],[-83.353889,37.929466],[-83.354164,37.929804],[-83.354532,37.930336],[-83.354837,37.930795],[-83.355418,37.931593]]}},{"type":"Feature","properties":{"osm_id":16318990,"highway":"service","name":"Maxwell Gunnels Road","alt_name":null,"official_name":null,"surface":null,"tracktype":null,"service":null,"access":"private","motor_vehicle":null,"foot":null,"tiger_reviewed":"no","rrgh_part":0,"rrgh_tile_part":0},"geometry":{"type":"LineString","coordinates":[[-83.359923,37.928952],[-83.359908,37.929228],[-83.359811,37.929884],[-83.359786,37.930377],[-83.359812,37.930476],[-83.359948,37.930698],[-83.360043,37.930775],[-83.360215,37.930854],[-83.360492,37.930837],[-83.360716,37.930797],[-83.360916,37.930774],[-83.360978,37.930773],[-83.36113,37.930814]]}},{"type":"Feature","properties":{"osm_id":16319585,"highway":"residential","name":"Howard Road","alt_name":null,"official_name":null,"surface":null,"tracktype":null,"service":null,"access":null,"motor_vehicle":null,"foot":null,"tiger_reviewed":"no","rrgh_part":0,"rrgh_tile_part":0},"geometry":{"type":"LineString","coordinates":[[-83.350977,37.925272],[-83.350441,37.925332],[-83.350023,37.925437],[-83.349657,37.925639],[-83.349414,37.925905],[-83.349108,37.926244],[-83.348732,37.926519],[-83.348315,37.926666],[-83.347888,37.92665],[-83.347277,37.926635],[-83.346809,37.926651],[-83.346412,37.926692],[-83.346289,37.926781],[-83.346238,37.92691],[-83.34629,37.927353]]}},{"type":"Feature","properties":{"osm_id":16321396,"highway":"residential","name":"Rube Woods Road","alt_name":null,"official_name":null,"surface":null,"tracktype":null,"service":null,"access":null,"motor_vehicle":null,"foot":null,"tiger_reviewed":"no","rrgh_part":0,"rrgh_tile_part":0},"geometry":{"type":"LineString","coordinates":[[-83.338992,37.931562],[-83.339047,37.932323],[-83.338891,37.932917],[-83.338513,37.93424],[-83.338426,37.935014],[-83.338387,37.936025],[-83.338263,37.937057],[-83.338273,37.93785],[-83.338492,37.93875],[-83.338892,37.939397],[-83.339326,37.939918],[-83.340159,37.940537],[-83.340496,37.940963],[-83.34098,37.942222],[-83.341187,37.942433],[-83.341576,37.942563],[-83.342056,37.942662],[-83.342412,37.942698],[-83.342999,37.942979],[-83.343686,37.943489],[-83.343891,37.943923],[-83.343631,37.945198],[-83.343741,37.945478],[-83.343907,37.945729],[-83.344132,37.946056],[-83.344279,37.946331],[-83.344361,37.946522],[-83.344425,37.94672],[-83.344408,37.947021],[-83.344376,37.947107],[-83.34432,37.947183],[-83.344251,37.947247],[-83.344166,37.947302],[-83.343743,37.947514],[-83.343555,37.947574],[-83.343367,37.94762],[-83.342986,37.947818],[-83.342603,37.948081],[-83.342425,37.948165],[-83.34222,37.948249],[-83.341971,37.948286],[-83.341829,37.948351],[-83.341771,37.9484],[-83.341679,37.948525],[-83.341656,37.948645],[-83.341643,37.948824],[-83.341608,37.948927],[-83.341524,37.94902],[-83.341407,37.949091],[-83.341346,37.94912],[-83.341188,37.949172],[-83.341019,37.949196],[-83.340859,37.9492],[-83.340574,37.94919],[-83.340453,37.949214],[-83.340408,37.949244],[-83.340378,37.949289],[-83.340362,37.949332],[-83.340358,37.949387],[-83.340413,37.949608],[-83.340422,37.94968],[-83.340414,37.949747],[-83.340389,37.949803],[-83.340343,37.949858],[-83.340277,37.949915],[-83.34012,37.950008],[-83.34001,37.950052],[-83.339439,37.950152],[-83.339149,37.950145],[-83.339063,37.950134],[-83.338777,37.950067],[-83.338652,37.950025],[-83.33842,37.949918],[-83.338162,37.949764],[-83.338059,37.949746],[-83.337998,37.949761],[-83.337925,37.949792],[-83.337803,37.949861]]}},{"type":"Feature","properties":{"osm_id":16318282,"highway":"residential","name":null,"alt_name":null,"official_name":null,"surface":null,"tracktype":null,"service":null,"access":null,"motor_vehicle":null,"foot":null,"tiger_reviewed":"no","rrgh_part":0,"rrgh_tile_part":0},"geometry":{"type":"LineString","coordinates":[[-83.337984,37.925439],[-83.33842,37.92629],[-83.338914,37.926987],[-83.339588,37.927636]]}},{"type":"Feature","properties":{"osm_id":16320805,"highway":"service","name":"Carpenter Branch Road","alt_name":null,"official_name":null,"surface":null,"tracktype":null,"service":null,"access":"private","motor_vehicle":null,"foot":null,"tiger_reviewed":"no","rrgh_part":0,"rrgh_tile_part":0},"geometry":{"type":"LineString","coordinates":[[-83.361538,37.944054],[-83.361705,37.944276],[-83.361695,37.944487],[-83.361525,37.944683],[-83.361316,37.944961],[-83.361119,37.945198],[-83.360989,37.945425],[-83.360793,37.945713],[-83.360649,37.946105],[-83.360583,37.946228]]}},{"type":"Feature","properties":{"osm_id":16318715,"highway":"residential","name":"Amyx Cemetery Road","alt_name":null,"official_name":null,"surface":null,"tracktype":null,"service":null,"access":null,"motor_vehicle":null,"foot":null,"tiger_reviewed":"no","rrgh_part":0,"rrgh_tile_part":0},"geometry":{"type":"LineString","coordinates":[[-83.343907,37.945729],[-83.344269,37.945267]]}},{"type":"Feature","properties":{"osm_id":16317800,"highway":"service","name":null,"alt_name":null,"official_name":null,"surface":null,"tracktype":null,"service":null,"access":"private","motor_vehicle":null,"foot":null,"tiger_reviewed":"no","rrgh_part":0,"rrgh_tile_part":0},"geometry":{"type":"LineString","coordinates":[[-83.350189,37.950234],[-83.350106,37.949792],[-83.34978,37.949422],[-83.349161,37.949233]]}},{"type":"Feature","properties":{"osm_id":16317885,"highway":"residential","name":null,"alt_name":null,"official_name":null,"surface":null,"tracktype":null,"service":null,"access":null,"motor_vehicle":null,"foot":null,"tiger_reviewed":"no","rrgh_part":0,"rrgh_tile_part":0},"geometry":{"type":"LineString","coordinates":[[-83.350599,37.949297],[-83.350285,37.949052],[-83.349985,37.948878],[-83.349708,37.948819]]}},{"type":"Feature","properties":{"osm_id":16317608,"highway":"service","name":null,"alt_name":null,"official_name":null,"surface":null,"tracktype":null,"service":null,"access":"private","motor_vehicle":null,"foot":null,"tiger_reviewed":"no","rrgh_part":0,"rrgh_tile_part":0},"geometry":{"type":"LineString","coordinates":[[-83.353707,37.965515],[-83.353703,37.965053],[-83.353727,37.96433],[-83.353804,37.963906],[-83.353954,37.963757],[-83.354229,37.96365],[-83.354473,37.963559],[-83.354562,37.963387],[-83.354662,37.963176],[-83.354815,37.963117],[-83.354998,37.963074],[-83.355007,37.962895],[-83.354861,37.962692],[-83.354615,37.962491],[-83.354511,37.962263],[-83.354397,37.962037],[-83.354312,37.961736],[-83.35438,37.961354],[-83.35449,37.961133],[-83.354529,37.960979],[-83.354518,37.960968],[-83.354354,37.960809],[-83.354149,37.960712]]}},{"type":"Feature","properties":{"osm_id":16322274,"highway":"residential","name":"Perry Cemetery Road","alt_name":null,"official_name":null,"surface":null,"tracktype":null,"service":null,"access":null,"motor_vehicle":null,"foot":null,"tiger_reviewed":"no","rrgh_part":0,"rrgh_tile_part":0},"geometry":{"type":"LineString","coordinates":[[-83.347171,37.950861],[-83.347279,37.950925],[-83.347251,37.950817],[-83.347233,37.950795],[-83.347205,37.950784],[-83.347174,37.950791],[-83.347154,37.950811],[-83.347151,37.950837],[-83.347171,37.950861]]}},{"type":"Feature","properties":{"osm_id":16322275,"highway":"residential","name":"Perry Cemetery Road","alt_name":null,"official_name":null,"surface":null,"tracktype":null,"service":null,"access":null,"motor_vehicle":null,"foot":null,"tiger_reviewed":"no","rrgh_part":0,"rrgh_tile_part":0},"geometry":{"type":"LineString","coordinates":[[-83.347616,37.951999],[-83.347499,37.951526],[-83.347447,37.951244],[-83.347393,37.951131],[-83.3473,37.950979],[-83.347279,37.950925]]}},{"type":"Feature","properties":{"osm_id":1416015111,"highway":"service","name":null,"alt_name":null,"official_name":null,"surface":null,"tracktype":null,"service":null,"access":null,"motor_vehicle":null,"foot":null,"tiger_reviewed":null,"rrgh_part":0,"rrgh_tile_part":0},"geometry":{"type":"LineString","coordinates":[[-83.342937,37.95473],[-83.343001,37.9547172],[-83.3431879,37.9548327]]}},{"type":"Feature","properties":{"osm_id":16319066,"highway":"residential","name":"Rube Woods Spur Road","alt_name":null,"official_name":null,"surface":null,"tracktype":null,"service":null,"access":null,"motor_vehicle":null,"foot":null,"tiger_reviewed":"no","rrgh_part":0,"rrgh_tile_part":0},"geometry":{"type":"LineString","coordinates":[[-83.338863,37.950577],[-83.337987,37.950696]]}},{"type":"Feature","properties":{"osm_id":16319084,"highway":"residential","name":"Rube Woods Spur Road","alt_name":null,"official_name":null,"surface":null,"tracktype":null,"service":null,"access":null,"motor_vehicle":null,"foot":null,"tiger_reviewed":"no","rrgh_part":0,"rrgh_tile_part":0},"geometry":{"type":"LineString","coordinates":[[-83.337987,37.950696],[-83.338842,37.951213]]}},{"type":"Feature","properties":{"osm_id":1416015108,"highway":"service","name":null,"alt_name":null,"official_name":null,"surface":null,"tracktype":null,"service":null,"access":null,"motor_vehicle":null,"foot":null,"tiger_reviewed":null,"rrgh_part":0,"rrgh_tile_part":0},"geometry":{"type":"LineString","coordinates":[[-83.3414308,37.9546451],[-83.3410284,37.9546878],[-83.3408857,37.954757],[-83.3408467,37.9548425],[-83.3408748,37.9549601],[-83.3409577,37.9550285],[-83.3411062,37.9550547],[-83.3412964,37.9550406],[-83.3415108,37.9550153]]}},{"type":"Feature","properties":{"osm_id":16318390,"highway":"service","name":null,"alt_name":null,"official_name":null,"surface":null,"tracktype":null,"service":null,"access":"private","motor_vehicle":null,"foot":null,"tiger_reviewed":"no","rrgh_part":0,"rrgh_tile_part":0},"geometry":{"type":"LineString","coordinates":[[-83.335008,37.961824],[-83.336769,37.96172],[-83.33709,37.961667],[-83.337305,37.961632]]}},{"type":"Feature","properties":{"osm_id":16319398,"highway":"unclassified","name":"Cr-1474","alt_name":null,"official_name":null,"surface":"gravel","tracktype":null,"service":null,"access":null,"motor_vehicle":null,"foot":null,"tiger_reviewed":null,"rrgh_part":0,"rrgh_tile_part":0},"geometry":{"type":"LineString","coordinates":[[-83.344655,37.952201],[-83.344645,37.952334],[-83.344609,37.952879],[-83.344391,37.953178],[-83.344211,37.953285],[-83.343889,37.953354],[-83.343562,37.953307],[-83.343206,37.953157],[-83.342939,37.953205],[-83.34276,37.953378],[-83.342697,37.953924],[-83.342437,37.954316],[-83.342178,37.954504],[-83.3418572,37.9546228],[-83.3414308,37.9546451],[-83.341283,37.954778],[-83.341276,37.954876],[-83.341369,37.954971],[-83.3415108,37.9550153],[-83.342254,37.95492],[-83.342937,37.95473]]}},{"type":"Feature","properties":{"osm_id":16320884,"highway":"residential","name":"Farrell-Fugett Road","alt_name":null,"official_name":null,"surface":null,"tracktype":null,"service":null,"access":null,"motor_vehicle":null,"foot":null,"tiger_reviewed":"no","rrgh_part":0,"rrgh_tile_part":0},"geometry":{"type":"LineString","coordinates":[[-83.339838,37.959663],[-83.339921,37.959767],[-83.33999,37.959888],[-83.340156,37.960284],[-83.340231,37.960525],[-83.340275,37.96092],[-83.340325,37.961067],[-83.340366,37.96113],[-83.340418,37.961186],[-83.340553,37.961274],[-83.341001,37.961441],[-83.341176,37.961522],[-83.341249,37.961573],[-83.341308,37.961633],[-83.341348,37.961702],[-83.341366,37.961776],[-83.341363,37.961852],[-83.34127,37.962167],[-83.341177,37.962548],[-83.341126,37.962701]]}},{"type":"Feature","properties":{"osm_id":16321401,"highway":"residential","name":"Rube Woods Road","alt_name":null,"official_name":null,"surface":null,"tracktype":null,"service":null,"access":null,"motor_vehicle":null,"foot":null,"tiger_reviewed":"no","rrgh_part":0,"rrgh_tile_part":0},"geometry":{"type":"LineString","coordinates":[[-83.337803,37.949861],[-83.337873,37.949952],[-83.337958,37.950122],[-83.338075,37.950357],[-83.338076,37.950396],[-83.338077,37.950459],[-83.33806,37.950552],[-83.338042,37.950595],[-83.338033,37.950621],[-83.337987,37.950696],[-83.337842,37.950851],[-83.337552,37.951092],[-83.337331,37.951299],[-83.33684,37.951792],[-83.336461,37.952153],[-83.336087,37.952473],[-83.335313,37.95309],[-83.33500000000001,37.95336268135593]]}},{"type":"Feature","properties":{"osm_id":16321401,"highway":"residential","name":"Rube Woods Road","alt_name":null,"official_name":null,"surface":null,"tracktype":null,"service":null,"access":null,"motor_vehicle":null,"foot":null,"tiger_reviewed":"no","rrgh_part":0,"rrgh_tile_part":1},"geometry":{"type":"LineString","coordinates":[[-83.33500000000001,37.95805835294119],[-83.335024,37.95816],[-83.335101,37.958267],[-83.335377,37.958579],[-83.335927,37.959111],[-83.33611,37.959339],[-83.336426,37.959802],[-83.33648,37.959844],[-83.336568,37.959869]]}},{"type":"Feature","properties":{"osm_id":16322267,"highway":"residential","name":"Stanley Nipper Road","alt_name":null,"official_name":null,"surface":null,"tracktype":null,"service":null,"access":null,"motor_vehicle":null,"foot":null,"tiger_reviewed":"no","rrgh_part":0,"rrgh_tile_part":0},"geometry":{"type":"LineString","coordinates":[[-83.341258,37.958088],[-83.341227,37.95811],[-83.341031,37.958337],[-83.340895,37.95851],[-83.34059,37.958913],[-83.340301,37.959204],[-83.340129,37.959437],[-83.339989,37.959567],[-83.339838,37.959663],[-83.339687,37.959779],[-83.339381,37.960079],[-83.338996,37.960434],[-83.338715,37.960673],[-83.338558,37.960792],[-83.338501,37.960846],[-83.338426,37.960947],[-83.338407,37.960997],[-83.338402,37.961049],[-83.338417,37.961103],[-83.338451,37.961157],[-83.338599,37.961336],[-83.338636,37.961404],[-83.338666,37.961551],[-83.338651,37.961926],[-83.338627,37.962002],[-83.33859,37.962062],[-83.338487,37.962149],[-83.338311,37.962254],[-83.338185,37.962344],[-83.338097,37.962439],[-83.338018,37.962572],[-83.33798,37.962846],[-83.337958,37.962884],[-83.337893,37.962929]]}},{"type":"Feature","properties":{"osm_id":16322304,"highway":"service","name":"Shepherd Road","alt_name":null,"official_name":null,"surface":null,"tracktype":null,"service":null,"access":"private","motor_vehicle":null,"foot":null,"tiger_reviewed":"no","rrgh_part":0,"rrgh_tile_part":0},"geometry":{"type":"LineString","coordinates":[[-83.345344,37.957496],[-83.345536,37.957591],[-83.345628,37.957657],[-83.34566,37.957693],[-83.345675,37.957732],[-83.345662,37.957773],[-83.345565,37.957847],[-83.345491,37.957869],[-83.345406,37.957883],[-83.345118,37.957883],[-83.344923,37.957936],[-83.344738,37.958026],[-83.34464,37.958061],[-83.344537,37.958084],[-83.344312,37.958104],[-83.343651,37.958144],[-83.3431,37.958211],[-83.342808,37.958226],[-83.342542,37.958275],[-83.341411,37.95852],[-83.341238,37.95852],[-83.341074,37.958504],[-83.340895,37.95851]]}},{"type":"Feature","properties":{"osm_id":16321181,"highway":"residential","name":"Peyton Cemetery Road","alt_name":null,"official_name":null,"surface":null,"tracktype":null,"service":null,"access":null,"motor_vehicle":null,"foot":null,"tiger_reviewed":"no","rrgh_part":0,"rrgh_tile_part":0},"geometry":{"type":"LineString","coordinates":[[-83.335671,37.956594],[-83.336234,37.956882],[-83.336549,37.957151],[-83.336574,37.957535],[-83.33648,37.95784],[-83.3365,37.95811],[-83.336924,37.958642]]}},{"type":"Feature","properties":{"osm_id":16318556,"highway":"residential","name":"Bishop Cemetery","alt_name":null,"official_name":null,"surface":null,"tracktype":null,"service":null,"access":null,"motor_vehicle":null,"foot":null,"tiger_reviewed":"no","rrgh_part":0,"rrgh_tile_part":0},"geometry":{"type":"LineString","coordinates":[[-83.359174,37.96641],[-83.359206,37.966652],[-83.35921,37.966752],[-83.359189,37.967174],[-83.359171,37.967264],[-83.359136,37.967357],[-83.358979,37.967603],[-83.358958,37.967651],[-83.358955,37.96769],[-83.358963,37.967717],[-83.359002,37.96775],[-83.359314,37.967787],[-83.359608,37.96784]]}},{"type":"Feature","properties":{"osm_id":16321604,"highway":"residential","name":"Henry Ross Road","alt_name":null,"official_name":null,"surface":null,"tracktype":null,"service":null,"access":null,"motor_vehicle":null,"foot":null,"tiger_reviewed":"no","rrgh_part":0,"rrgh_tile_part":0},"geometry":{"type":"LineString","coordinates":[[-83.360412,37.963937],[-83.360378,37.96433],[-83.360351,37.964417],[-83.360309,37.964501],[-83.360237,37.964578],[-83.36014,37.964649],[-83.3598,37.964853],[-83.359707,37.964933],[-83.359489,37.965219],[-83.359262,37.965487],[-83.358915,37.965793],[-83.358729,37.965932],[-83.358547,37.966048],[-83.358454,37.966089],[-83.358146,37.966189],[-83.358101,37.966237]]}},{"type":"Feature","properties":{"osm_id":16317760,"highway":"residential","name":null,"alt_name":null,"official_name":null,"surface":null,"tracktype":null,"service":null,"access":null,"motor_vehicle":null,"foot":null,"tiger_reviewed":"no","rrgh_part":0,"rrgh_tile_part":0},"geometry":{"type":"LineString","coordinates":[[-83.343144,37.971768],[-83.348482,37.970046],[-83.349238,37.970121]]}},{"type":"Feature","properties":{"osm_id":16318003,"highway":"service","name":null,"alt_name":null,"official_name":null,"surface":null,"tracktype":null,"service":null,"access":"private","motor_vehicle":null,"foot":null,"tiger_reviewed":"no","rrgh_part":0,"rrgh_tile_part":0},"geometry":{"type":"LineString","coordinates":[[-83.349012,37.973563],[-83.348882,37.973857],[-83.348763,37.974063],[-83.348708,37.974186],[-83.348674,37.974318],[-83.348674,37.974394],[-83.348747,37.974625],[-83.34888902425374,37.974999999999994]]}},{"type":"Feature","properties":{"osm_id":16321878,"highway":"residential","name":"Barker Road","alt_name":null,"official_name":null,"surface":null,"tracktype":null,"service":null,"access":null,"motor_vehicle":null,"foot":null,"tiger_reviewed":"no","rrgh_part":0,"rrgh_tile_part":0},"geometry":{"type":"LineString","coordinates":[[-83.348723,37.968734],[-83.349092,37.968961],[-83.34916,37.969011],[-83.349218,37.969066],[-83.349262,37.969127],[-83.349289,37.969195],[-83.349296,37.969267],[-83.349246,37.969585],[-83.349237,37.969763],[-83.349238,37.970121],[-83.34924,37.970559],[-83.349235,37.970643],[-83.349201,37.970806],[-83.349162,37.970887],[-83.349104,37.970963],[-83.349029,37.971035],[-83.34852,37.971423],[-83.348295,37.971607],[-83.347684,37.97198],[-83.347344,37.972216],[-83.347186,37.972336],[-83.347113,37.972372],[-83.347031,37.97239],[-83.346785,37.972414],[-83.346754,37.972422],[-83.346446,37.97237],[-83.346219,37.972761],[-83.346235,37.972982]]}},{"type":"Feature","properties":{"osm_id":16322768,"highway":"residential","name":"Hatton Road","alt_name":null,"official_name":null,"surface":null,"tracktype":null,"service":null,"access":null,"motor_vehicle":null,"foot":null,"tiger_reviewed":"no","rrgh_part":0,"rrgh_tile_part":0},"geometry":{"type":"LineString","coordinates":[[-83.347344,37.972216],[-83.347478,37.97244],[-83.347529,37.972505],[-83.347674,37.972637],[-83.347856,37.972762],[-83.348538,37.973145],[-83.348734,37.97327],[-83.348825,37.973342],[-83.349012,37.973563],[-83.349102,37.973636],[-83.349184,37.973674],[-83.349275,37.973685],[-83.349644,37.973682],[-83.349958,37.973659],[-83.350119,37.973638],[-83.350427,37.973626],[-83.35058,37.973634],[-83.35088,37.973681],[-83.351007,37.973724],[-83.351105,37.973777],[-83.351178,37.973836],[-83.351231,37.973904],[-83.351458,37.974375],[-83.35177529294478,37.974999999999994]]}},{"type":"Feature","properties":{"osm_id":16321844,"highway":"residential","name":"Ivan Fugett Road","alt_name":null,"official_name":null,"surface":null,"tracktype":null,"service":null,"access":null,"motor_vehicle":null,"foot":null,"tiger_reviewed":"no","rrgh_part":0,"rrgh_tile_part":0},"geometry":{"type":"LineString","coordinates":[[-83.338487,37.962149],[-83.338511,37.962189],[-83.33852,37.962273],[-83.338507,37.962603],[-83.338464,37.962814],[-83.338466,37.962921],[-83.338507,37.963269],[-83.338536,37.963327],[-83.338659,37.963477],[-83.338743,37.963555],[-83.3388,37.963587],[-83.338911,37.963678],[-83.339103,37.963866],[-83.339515,37.964176],[-83.339751,37.964413],[-83.339887,37.964495]]}},{"type":"Feature","properties":{"osm_id":16317759,"highway":"residential","name":null,"alt_name":null,"official_name":null,"surface":null,"tracktype":null,"service":null,"access":null,"motor_vehicle":null,"foot":null,"tiger_reviewed":"no","rrgh_part":0,"rrgh_tile_part":0},"geometry":{"type":"LineString","coordinates":[[-83.338528,37.967222],[-83.335729,37.967481],[-83.335339,37.966475]]}},{"type":"Feature","properties":{"osm_id":16318382,"highway":"service","name":null,"alt_name":null,"official_name":null,"surface":null,"tracktype":null,"service":null,"access":"private","motor_vehicle":null,"foot":null,"tiger_reviewed":"no","rrgh_part":0,"rrgh_tile_part":0},"geometry":{"type":"LineString","coordinates":[[-83.342687,37.969481],[-83.342657,37.969929],[-83.342585,37.970292],[-83.341797,37.971574]]}},{"type":"Feature","properties":{"osm_id":16322035,"highway":"residential","name":"Sam Perry Road","alt_name":null,"official_name":null,"surface":null,"tracktype":null,"service":null,"access":null,"motor_vehicle":null,"foot":null,"tiger_reviewed":"no","rrgh_part":0,"rrgh_tile_part":0},"geometry":{"type":"LineString","coordinates":[[-83.346754,37.972422],[-83.346706,37.972435],[-83.346639,37.972468],[-83.346512,37.97257],[-83.346448,37.972636],[-83.346337,37.972799],[-83.346235,37.972982],[-83.346082,37.973255],[-83.346019,37.973345],[-83.345859,37.97351],[-83.345583,37.973738],[-83.345507,37.973817],[-83.345389,37.973989],[-83.345337,37.974078],[-83.345278,37.974283],[-83.345263,37.974504],[-83.345228,37.974717],[-83.345114,37.974979],[-83.3450975111111,37.974999999999994]]}},{"type":"Feature","properties":{"osm_id":16322307,"highway":"service","name":"Louie Whitt Road","alt_name":null,"official_name":null,"surface":null,"tracktype":null,"service":null,"access":"private","motor_vehicle":null,"foot":null,"tiger_reviewed":"no","rrgh_part":0,"rrgh_tile_part":0},"geometry":{"type":"LineString","coordinates":[[-83.337936,37.969107],[-83.337907,37.969181],[-83.337894,37.969302],[-83.337938,37.970505],[-83.337921,37.970653],[-83.337844,37.971131],[-83.337832,37.971424],[-83.337906,37.972078],[-83.337945,37.972339],[-83.337983,37.972536],[-83.338069,37.972809],[-83.338075,37.972883],[-83.338033,37.973101],[-83.337989,37.973239],[-83.33796,37.973382],[-83.337946,37.974009],[-83.337955,37.974175],[-83.337946,37.974709],[-83.337935,37.974749],[-83.337914,37.974786],[-83.337874,37.974825],[-83.337771,37.974853],[-83.337135,37.974936],[-83.337084,37.974936],[-83.336995,37.974917],[-83.336933,37.974844],[-83.336831,37.97463],[-83.336647,37.974308],[-83.336242,37.973752]]}}],"rrgh_tile":{"id":"r7c7","bounds":[37.9,-83.42,37.974999999999994,-83.33500000000001]}}
