{"type":"FeatureCollection","features":[{"type":"Feature","properties":{"osm_id":16318261,"highway":"residential","name":"McCormick Road","alt_name":null,"official_name":null,"surface":null,"tracktype":null,"service":null,"access":null,"motor_vehicle":null,"foot":null,"tiger_reviewed":"no","rrgh_part":0,"rrgh_tile_part":0},"geometry":{"type":"LineString","coordinates":[[-83.845,38.01789084142395],[-83.844752,38.017878],[-83.844214,38.01783],[-83.844084,38.017839],[-83.844035,38.017859],[-83.843975,38.017919],[-83.843946,38.017985],[-83.8439323,38.0180284],[-83.8439294,38.0180874],[-83.8439488,38.0181442],[-83.8440097,38.0182235],[-83.844057,38.018286],[-83.844078,38.018379],[-83.844086,38.018771],[-83.844046,38.019388],[-83.8440605,38.0195291],[-83.84407,38.019622],[-83.844149,38.020115],[-83.844147,38.020254],[-83.844116,38.020397],[-83.843998,38.020669],[-83.843875,38.020867],[-83.843775,38.020998],[-83.843487,38.021332],[-83.843326,38.021541],[-83.843018,38.021998],[-83.842898,38.022115],[-83.842828,38.022158],[-83.842749,38.022188],[-83.842563,38.022215],[-83.842352,38.022212],[-83.842017,38.022165],[-83.8417,38.022093],[-83.84143,38.022001],[-83.841188,38.021897],[-83.840778,38.021695],[-83.840595,38.021631],[-83.840391,38.021595],[-83.840179,38.021585],[-83.839975,38.021603],[-83.839877,38.021629],[-83.839681,38.021716],[-83.839475,38.021832],[-83.836838,38.023401],[-83.835858,38.023966],[-83.8348443,38.0245901],[-83.834591,38.024746]]}},{"type":"Feature","properties":{"osm_id":16317496,"highway":"residential","name":"Compton Road","alt_name":null,"official_name":null,"surface":null,"tracktype":null,"service":null,"access":null,"motor_vehicle":null,"foot":null,"tiger_reviewed":"no","rrgh_part":0,"rrgh_tile_part":0},"geometry":{"type":"LineString","coordinates":[[-83.8435122970297,37.974999999999994],[-83.843482,37.975036],[-83.8428148,37.9757442],[-83.842456,37.9761552],[-83.8422588,37.9763582],[-83.8416943,37.9770024],[-83.8412912,37.9774608],[-83.840844,37.977919],[-83.840048,37.978851],[-83.839754,37.979167],[-83.839648,37.97926],[-83.839613,37.979316],[-83.83951,37.979426],[-83.839375,37.979607],[-83.839311,37.979712],[-83.838951,37.980436],[-83.838581,37.981142]]}},{"type":"Feature","properties":{"osm_id":16316384,"highway":"residential","name":"Science Ridge Road","alt_name":null,"official_name":null,"surface":null,"tracktype":null,"service":null,"access":null,"motor_vehicle":null,"foot":null,"tiger_reviewed":"no","rrgh_part":0,"rrgh_tile_part":0},"geometry":{"type":"LineString","coordinates":[[-83.81666979640718,37.974999999999994],[-83.816568,37.97517],[-83.816515,37.975287],[-83.816434,37.97552],[-83.81636,37.97593],[-83.816331,37.976023],[-83.816289,37.976108],[-83.816233,37.976182],[-83.816167,37.976243],[-83.816092,37.976292],[-83.81601,37.976327],[-83.815921,37.976353],[-83.815724,37.976377],[-83.815261,37.976406],[-83.815017,37.976452],[-83.814774,37.976523],[-83.814533,37.976608],[-83.814055,37.976807],[-83.813743,37.97696],[-83.813595,37.977063],[-83.813538,37.977124],[-83.813492,37.977193],[-83.813462,37.97727],[-83.813448,37.97735],[-83.81345,37.977434],[-83.813649,37.978324],[-83.813687,37.978537],[-83.81371,37.978753],[-83.813722,37.979197],[-83.813691,37.980454],[-83.813694,37.981061],[-83.813714,37.9813],[-83.813805,37.981658],[-83.813999,37.982266],[-83.814175,37.982867],[-83.814328,37.983745],[-83.814388,37.983987],[-83.814481,37.984212],[-83.814795,37.98475],[-83.815258,37.985637],[-83.81539,37.985852],[-83.815549,37.986054],[-83.815828,37.986328],[-83.81603,37.986496],[-83.816534,37.986877],[-83.81669,37.987016],[-83.8168,37.987155],[-83.816832,37.987228],[-83.816835,37.98725],[-83.816841,37.987306],[-83.816822,37.987383],[-83.816779,37.987456],[-83.816644,37.987601],[-83.816079,37.988105],[-83.815589,37.98856],[-83.814905,37.989281],[-83.814001,37.990304],[-83.813792,37.990516],[-83.813683,37.990614],[-83.813567,37.990702],[-83.813443,37.990777],[-83.813026,37.990959],[-83.812581,37.991136],[-83.812459,37.9911776],[-83.812282,37.991238],[-83.81198,37.991315],[-83.8114508,37.9913947],[-83.811203,37.991432],[-83.810343,37.991569],[-83.809805,37.991685],[-83.809108,37.991863],[-83.808936,37.991923],[-83.808775,37.992006]]}},{"type":"Feature","properties":{"osm_id":16317339,"highway":"residential","name":"New Cut Road","alt_name":null,"official_name":null,"surface":null,"tracktype":null,"service":null,"access":null,"motor_vehicle":null,"foot":null,"tiger_reviewed":"no","rrgh_part":0,"rrgh_tile_part":0},"geometry":{"type":"LineString","coordinates":[[-83.80163014743589,37.974999999999994],[-83.801663,37.97525],[-83.8016566,37.9756194],[-83.801654,37.97577],[-83.80166,37.975969],[-83.801688,37.976163],[-83.8017387,37.9763081],[-83.801775,37.976412],[-83.801923,37.976702],[-83.802176,37.977102],[-83.8022577,37.9772166],[-83.802625,37.977732],[-83.8027391,37.9779095],[-83.802958,37.97825],[-83.803023,37.978333],[-83.803186,37.978487],[-83.803454,37.978701],[-83.803637,37.978819],[-83.803836,37.978907],[-83.804054,37.978972],[-83.804296,37.979018],[-83.80514,37.979148],[-83.805981,37.979326],[-83.806413,37.979388],[-83.806803,37.979428],[-83.807334,37.979497],[-83.8076476,37.9795312],[-83.807862,37.979597],[-83.807949,37.979639],[-83.808023,37.979693],[-83.80808,37.979758],[-83.808118,37.979831],[-83.808148,37.979991],[-83.808142,37.980162],[-83.808124,37.980337],[-83.808066,37.980686],[-83.807988,37.980973],[-83.807841,37.981386],[-83.807693,37.981692],[-83.807516,37.981996],[-83.806724,37.982908],[-83.806326,37.983257],[-83.805727,37.983746],[-83.805677,37.983807],[-83.805561,37.984015],[-83.805443,37.984261],[-83.805352,37.984521],[-83.805341,37.984609],[-83.805346,37.984694],[-83.805381,37.984866],[-83.805388,37.984958],[-83.805359,37.985236],[-83.805384,37.985412],[-83.805417,37.9855],[-83.805467,37.985586],[-83.805528,37.98567],[-83.8058628,37.9860673],[-83.805876,37.986083],[-83.806149,37.986547],[-83.806381,37.986859],[-83.806428,37.986937],[-83.806482,37.987092],[-83.806518,37.987325],[-83.806588,37.987491],[-83.806932,37.988136],[-83.8071766,37.9885479],[-83.807369,37.988897],[-83.807519,37.989195],[-83.8077578,37.9897309],[-83.807834,37.989902],[-83.8078933,37.9900141],[-83.80799,37.990197],[-83.8081586,37.9904877],[-83.80824,37.990628],[-83.808279,37.990715],[-83.808425,37.991174],[-83.808557,37.991542],[-83.808685,37.991838],[-83.808775,37.992006]]}},{"type":"Feature","properties":{"osm_id":16318034,"highway":"residential","name":"Clay Lick Road","alt_name":null,"official_name":null,"surface":null,"tracktype":null,"service":null,"access":null,"motor_vehicle":null,"foot":null,"tiger_reviewed":"no","rrgh_part":0,"rrgh_tile_part":0},"geometry":{"type":"LineString","coordinates":[[-83.78257580193237,37.974999999999994],[-83.782573,37.975004],[-83.782401,37.9752],[-83.782201,37.975384],[-83.781973,37.97555],[-83.78185,37.975625],[-83.781722,37.975693],[-83.781455,37.975811],[-83.781043,37.975961],[-83.780751,37.976031],[-83.780297,37.976102],[-83.779703,37.976211],[-83.779432,37.976281],[-83.7792,37.976377],[-83.779007,37.976504],[-83.778834,37.976656],[-83.778498,37.977002],[-83.778132,37.977349],[-83.777831,37.977717],[-83.777654,37.977895],[-83.777453,37.978057],[-83.777238,37.978212],[-83.776915,37.978431],[-83.776691,37.978553],[-83.776451,37.978643],[-83.7761,37.978748],[-83.775803,37.978811],[-83.775281,37.978922],[-83.775068,37.978959],[-83.774961,37.978966],[-83.774857,37.978962],[-83.774713,37.978944],[-83.774582,37.978936],[-83.774504,37.978944],[-83.774435,37.978964],[-83.774385,37.978992]]}},{"type":"Feature","properties":{"osm_id":16318288,"highway":"residential","name":"Long Branch Road","alt_name":null,"official_name":null,"surface":null,"tracktype":null,"service":null,"access":null,"motor_vehicle":null,"foot":null,"tiger_reviewed":"no","rrgh_part":0,"rrgh_tile_part":0},"geometry":{"type":"LineString","coordinates":[[-83.80850765650406,37.974999999999994],[-83.808577,37.975313],[-83.8085885,37.9757108],[-83.8085593,37.97602],[-83.8083687,37.976561],[-83.8081008,37.9769323],[-83.8080881,37.9771388],[-83.8084831,37.9776646],[-83.8083895,37.9783749],[-83.808096,37.978862],[-83.8076476,37.9795312]]}},{"type":"Feature","properties":{"osm_id":631004040,"highway":"residential","name":null,"alt_name":null,"official_name":null,"surface":null,"tracktype":null,"service":null,"access":null,"motor_vehicle":null,"foot":null,"tiger_reviewed":null,"rrgh_part":0,"rrgh_tile_part":0},"geometry":{"type":"LineString","coordinates":[[-83.813448,37.97735],[-83.8133665,37.9764839],[-83.813311,37.9755513],[-83.81331723195478,37.974999999999994]]}},{"type":"Feature","properties":{"osm_id":16318095,"highway":"residential","name":"Cottonwood Lane","alt_name":null,"official_name":null,"surface":null,"tracktype":null,"service":null,"access":null,"motor_vehicle":null,"foot":null,"tiger_reviewed":"no","rrgh_part":0,"rrgh_tile_part":0},"geometry":{"type":"LineString","coordinates":[[-83.795016,37.976432],[-83.79483,37.976433],[-83.794417,37.976452],[-83.793655,37.976465],[-83.793394,37.976479],[-83.793012,37.976514],[-83.792728,37.976524],[-83.79249,37.976521],[-83.792336,37.976494],[-83.792267,37.976446],[-83.792238,37.97637],[-83.792231,37.976079],[-83.79218,37.975369],[-83.79212756315789,37.974999999999994]]}},{"type":"Feature","properties":{"osm_id":16317257,"highway":"residential","name":"Fay Street","alt_name":null,"official_name":null,"surface":null,"tracktype":null,"service":null,"access":null,"motor_vehicle":null,"foot":null,"tiger_reviewed":"no","rrgh_part":0,"rrgh_tile_part":0},"geometry":{"type":"LineString","coordinates":[[-83.78507209345794,37.974999999999994],[-83.785296,37.975198],[-83.785445,37.975357],[-83.786195,37.97636],[-83.786351,37.976615],[-83.786585,37.977052],[-83.786758,37.977313],[-83.786899,37.97748],[-83.787313,37.977912],[-83.78748,37.978059],[-83.787532,37.978087],[-83.787635,37.978102],[-83.787754,37.978087],[-83.788046,37.97803],[-83.788108,37.978008],[-83.788156,37.977978],[-83.788191,37.97794],[-83.788209,37.977897],[-83.788212,37.977848],[-83.788175,37.977735],[-83.787939,37.97731],[-83.787625,37.976685],[-83.787465,37.976282],[-83.787318,37.975869],[-83.78723,37.975662],[-83.787179,37.975563],[-83.787057,37.975375],[-83.786923,37.975197],[-83.78675901675977,37.974999999999994]]}},{"type":"Feature","properties":{"osm_id":16317146,"highway":"service","name":null,"alt_name":null,"official_name":null,"surface":null,"tracktype":null,"service":null,"access":"private","motor_vehicle":null,"foot":null,"tiger_reviewed":"no","rrgh_part":0,"rrgh_tile_part":0},"geometry":{"type":"LineString","coordinates":[[-83.774713,37.978944],[-83.774677,37.977915],[-83.774364,37.976588],[-83.774586,37.975599],[-83.77523356756757,37.974999999999994]]}},{"type":"Feature","properties":{"osm_id":16317384,"highway":"residential","name":"Tabor Road","alt_name":null,"official_name":null,"surface":null,"tracktype":null,"service":null,"access":null,"motor_vehicle":null,"foot":null,"tiger_reviewed":"no","rrgh_part":0,"rrgh_tile_part":0},"geometry":{"type":"LineString","coordinates":[[-83.824936,37.985567],[-83.825427,37.985292],[-83.825802,37.984972],[-83.826756,37.983736],[-83.827218,37.983485],[-83.827998,37.983256],[-83.828634,37.982981],[-83.829299,37.982501],[-83.830223,37.982066],[-83.831639,37.981562],[-83.832477,37.981379],[-83.833951,37.981287],[-83.835454,37.981538],[-83.837278,37.981364],[-83.837635,37.981315],[-83.838581,37.981142],[-83.8387,37.981165],[-83.838779,37.981171],[-83.839524,37.981164],[-83.841147,37.981126],[-83.842073,37.981087],[-83.842849,37.98108],[-83.843442,37.981056],[-83.843609,37.98104],[-83.844002,37.981046],[-83.844153,37.981068],[-83.844304,37.981111],[-83.844524,37.981214],[-83.845,37.981474412556054]]}},{"type":"Feature","properties":{"osm_id":16318554,"highway":"residential","name":"Refitt Road","alt_name":null,"official_name":null,"surface":null,"tracktype":null,"service":null,"access":null,"motor_vehicle":null,"foot":null,"tiger_reviewed":"no","rrgh_part":0,"rrgh_tile_part":0},"geometry":{"type":"LineString","coordinates":[[-83.811203,37.991432],[-83.811299,37.991669],[-83.811421,37.991896],[-83.811755,37.992408],[-83.812184,37.99302],[-83.812356,37.993313],[-83.812403,37.993416],[-83.812464,37.993628],[-83.812539,37.994167],[-83.812614,37.994373],[-83.812714,37.99458],[-83.813167,37.995271],[-83.813543,37.995878],[-83.813688,37.996066],[-83.813772,37.996148],[-83.813863,37.996215],[-83.813959,37.996264],[-83.814257,37.996371],[-83.814542,37.996488],[-83.814956,37.996697],[-83.815458,37.996885],[-83.81583,37.997007],[-83.81607,37.997071],[-83.816193,37.997093],[-83.81644,37.997106],[-83.816691,37.997089],[-83.81692,37.997049],[-83.817516,37.996875],[-83.818188,37.996702],[-83.819396,37.99635],[-83.819672,37.996283],[-83.819811,37.996259],[-83.820091,37.996237],[-83.820608,37.996239],[-83.821277,37.996217],[-83.821648,37.996234],[-83.821863,37.996262],[-83.821965,37.99629],[-83.822158,37.996382],[-83.822337,37.996497],[-83.822504,37.996628],[-83.822971,37.997057],[-83.82338,37.997495],[-83.823776,37.997889],[-83.823999,37.998075],[-83.824599,37.998533],[-83.824855,37.998703],[-83.825094,37.998877],[-83.825346,37.999036],[-83.825896,37.999321],[-83.825984,37.999367],[-83.826958,37.999816],[-83.827703,38.000185],[-83.828255,38.000431],[-83.828398,38.000491],[-83.828707,38.000594],[-83.829109,38.000711],[-83.82952,38.000803],[-83.829856,38.000844],[-83.831506,38.000927],[-83.832709,38.000998],[-83.833168,38.001027],[-83.8346,38.001094],[-83.835005,38.001126],[-83.835812,38.001214]]}},{"type":"Feature","properties":{"osm_id":16316870,"highway":"service","name":null,"alt_name":null,"official_name":null,"surface":null,"tracktype":null,"service":null,"access":"private","motor_vehicle":null,"foot":null,"tiger_reviewed":"no","rrgh_part":0,"rrgh_tile_part":0},"geometry":{"type":"LineString","coordinates":[[-83.841614,37.975974],[-83.8422588,37.9763582]]}},{"type":"Feature","properties":{"osm_id":16318760,"highway":"residential","name":"Andrews Drive","alt_name":null,"official_name":null,"surface":null,"tracktype":null,"service":null,"access":null,"motor_vehicle":null,"foot":null,"tiger_reviewed":"no","rrgh_part":0,"rrgh_tile_part":0},"geometry":{"type":"LineString","coordinates":[[-83.845,37.97581704527297],[-83.8449504,37.9758254],[-83.8446285,37.9762314]]}},{"type":"Feature","properties":{"osm_id":16316417,"highway":"service","name":null,"alt_name":null,"official_name":null,"surface":null,"tracktype":null,"service":null,"access":"private","motor_vehicle":null,"foot":null,"tiger_reviewed":"no","rrgh_part":0,"rrgh_tile_part":0},"geometry":{"type":"LineString","coordinates":[[-83.838581,37.981142],[-83.838381,37.981623],[-83.838236,37.981936],[-83.837565,37.983482],[-83.837363,37.98394]]}},{"type":"Feature","properties":{"osm_id":16317340,"highway":"residential","name":"Becraft Lane","alt_name":null,"official_name":null,"surface":null,"tracktype":null,"service":null,"access":null,"motor_vehicle":null,"foot":null,"tiger_reviewed":"no","rrgh_part":0,"rrgh_tile_part":0},"geometry":{"type":"LineString","coordinates":[[-83.835812,38.001214],[-83.836028,38.001221],[-83.836093,38.001197],[-83.836118,38.001179],[-83.836263,38.000998],[-83.836366,38.000904],[-83.836883,38.000532],[-83.837515,38.000155],[-83.837942,37.999857],[-83.838098,37.99977],[-83.838264,37.999704],[-83.838334,37.999693],[-83.83838,37.999703]]}},{"type":"Feature","properties":{"osm_id":16317576,"highway":"residential","name":"Allen Lane","alt_name":null,"official_name":null,"surface":null,"tracktype":null,"service":null,"access":null,"motor_vehicle":null,"foot":null,"tiger_reviewed":"no","rrgh_part":0,"rrgh_tile_part":0},"geometry":{"type":"LineString","coordinates":[[-83.833866,37.998958],[-83.833794,37.998964],[-83.833606,37.998961],[-83.833499,37.998932],[-83.833349,37.998839],[-83.832875,37.998504],[-83.832786,37.998458],[-83.83274,37.998444],[-83.832636,37.998435],[-83.832579,37.998447],[-83.832522,37.998472],[-83.83166,37.998979],[-83.831602,37.999072],[-83.831566,37.999228],[-83.831557,37.999692],[-83.831594,38.000082],[-83.831599,38.00039],[-83.831543,38.000798],[-83.831506,38.000927]]}},{"type":"Feature","properties":{"osm_id":1441542389,"highway":"service","name":null,"alt_name":null,"official_name":null,"surface":null,"tracktype":null,"service":null,"access":null,"motor_vehicle":null,"foot":null,"tiger_reviewed":null,"rrgh_part":0,"rrgh_tile_part":0},"geometry":{"type":"LineString","coordinates":[[-83.8344433,37.9921437],[-83.8342021,37.9925071],[-83.8340681,37.9925832],[-83.8340359,37.9926213],[-83.8341378,37.9932721],[-83.8342128,37.9936017],[-83.8341914,37.9940328],[-83.8339984,37.9946033],[-83.8329263,37.9961669],[-83.83209,37.9972234],[-83.8319024,37.9976164],[-83.83166,37.998979]]}},{"type":"Feature","properties":{"osm_id":16317011,"highway":"service","name":null,"alt_name":null,"official_name":null,"surface":null,"tracktype":null,"service":null,"access":null,"motor_vehicle":null,"foot":null,"tiger_reviewed":"no","rrgh_part":0,"rrgh_tile_part":0},"geometry":{"type":"LineString","coordinates":[[-83.837496,37.99777],[-83.8373127,37.9975915],[-83.836406,37.9969251]]}},{"type":"Feature","properties":{"osm_id":16316864,"highway":"service","name":null,"alt_name":null,"official_name":null,"surface":null,"tracktype":null,"service":null,"access":null,"motor_vehicle":null,"foot":null,"tiger_reviewed":"no","rrgh_part":0,"rrgh_tile_part":0},"geometry":{"type":"LineString","coordinates":[[-83.834679,38.006719],[-83.835541,38.006693],[-83.8362,38.006601],[-83.8370524,38.0067191],[-83.838351,38.006719],[-83.839481,38.006835]]}},{"type":"Feature","properties":{"osm_id":16316666,"highway":"service","name":null,"alt_name":null,"official_name":null,"surface":null,"tracktype":null,"service":null,"access":null,"motor_vehicle":null,"foot":null,"tiger_reviewed":"no","rrgh_part":0,"rrgh_tile_part":0},"geometry":{"type":"LineString","coordinates":[[-83.8353417,38.0036122],[-83.8351364,38.0036311],[-83.8335154,38.0039359]]}},{"type":"Feature","properties":{"osm_id":16317989,"highway":"service","name":null,"alt_name":null,"official_name":null,"surface":null,"tracktype":null,"service":null,"access":null,"motor_vehicle":null,"foot":null,"tiger_reviewed":"no","rrgh_part":0,"rrgh_tile_part":0},"geometry":{"type":"LineString","coordinates":[[-83.835248,38.004199],[-83.83643,38.003942],[-83.836777,38.003867],[-83.837842,38.003694],[-83.838728,38.003356],[-83.839559,38.003162],[-83.840105,38.002624],[-83.84056,38.002093]]}},{"type":"Feature","properties":{"osm_id":630781507,"highway":"residential","name":"Walnut Drive","alt_name":null,"official_name":null,"surface":null,"tracktype":null,"service":null,"access":null,"motor_vehicle":null,"foot":null,"tiger_reviewed":null,"rrgh_part":0,"rrgh_tile_part":0},"geometry":{"type":"LineString","coordinates":[[-83.8332503,38.010664],[-83.8343488,38.0109029],[-83.8349497,38.0109434],[-83.8377456,38.0109736],[-83.8405666,38.0110135],[-83.8409269,38.0110429],[-83.8418392,38.0112449],[-83.8422143,38.011423],[-83.8424649,38.0114972],[-83.8427306,38.0115217],[-83.8430422,38.0116008],[-83.8434,38.0116738],[-83.8438267,38.0116655]]}},{"type":"Feature","properties":{"osm_id":1056135157,"highway":"service","name":null,"alt_name":null,"official_name":null,"surface":null,"tracktype":null,"service":null,"access":null,"motor_vehicle":null,"foot":null,"tiger_reviewed":"no","rrgh_part":0,"rrgh_tile_part":0},"geometry":{"type":"LineString","coordinates":[[-83.832722,38.010985],[-83.8331779,38.0115453],[-83.8335694,38.0118967],[-83.8337366,38.0119673],[-83.8338378,38.0119474],[-83.8338202,38.0118635],[-83.8336509,38.0117771],[-83.8335704,38.0116508],[-83.8335813,38.0115716]]}},{"type":"Feature","properties":{"osm_id":630781508,"highway":"residential","name":"Sundura Way","alt_name":null,"official_name":null,"surface":null,"tracktype":null,"service":null,"access":null,"motor_vehicle":null,"foot":null,"tiger_reviewed":null,"rrgh_part":0,"rrgh_tile_part":0},"geometry":{"type":"LineString","coordinates":[[-83.8377456,38.0109736],[-83.8376573,38.014116]]}},{"type":"Feature","properties":{"osm_id":16316635,"highway":"service","name":null,"alt_name":null,"official_name":null,"surface":null,"tracktype":null,"service":null,"access":null,"motor_vehicle":null,"foot":null,"tiger_reviewed":"no","rrgh_part":0,"rrgh_tile_part":0},"geometry":{"type":"LineString","coordinates":[[-83.8439294,38.0180874],[-83.8436142,38.0182009],[-83.8434355,38.018443],[-83.8431979,38.0184861],[-83.8424785,38.0183341],[-83.8421845,38.0182532],[-83.8420033,38.0181257],[-83.8419572,38.018014]]}},{"type":"Feature","properties":{"osm_id":16317155,"highway":"service","name":null,"alt_name":null,"official_name":null,"surface":null,"tracktype":null,"service":null,"access":null,"motor_vehicle":null,"foot":null,"tiger_reviewed":"no","rrgh_part":0,"rrgh_tile_part":0},"geometry":{"type":"LineString","coordinates":[[-83.845,38.02456466685083],[-83.8446958,38.0245811],[-83.838389,38.0246009],[-83.8366769,38.0247842],[-83.8356159,38.0245192],[-83.8350132,38.0246898],[-83.8347323,38.0248094]]}},{"type":"Feature","properties":{"osm_id":630997659,"highway":"service","name":null,"alt_name":null,"official_name":null,"surface":null,"tracktype":null,"service":null,"access":null,"motor_vehicle":null,"foot":null,"tiger_reviewed":null,"rrgh_part":0,"rrgh_tile_part":0},"geometry":{"type":"LineString","coordinates":[[-83.8346915,38.0247911],[-83.8343808,38.024836],[-83.8342506,38.0249425],[-83.8339303,38.0251987],[-83.83364,38.0253367],[-83.8331996,38.0254432],[-83.8330594,38.0255891],[-83.8324388,38.0262002],[-83.8322486,38.0263106],[-83.8320334,38.0264841],[-83.8317981,38.0266457],[-83.831738,38.0266615]]}},{"type":"Feature","properties":{"osm_id":16316447,"highway":"service","name":null,"alt_name":null,"official_name":null,"surface":null,"tracktype":null,"service":null,"access":null,"motor_vehicle":null,"foot":null,"tiger_reviewed":"no","rrgh_part":0,"rrgh_tile_part":0},"geometry":{"type":"LineString","coordinates":[[-83.816835,37.98725],[-83.818474,37.987458],[-83.820084,37.988101],[-83.820729,37.988285],[-83.821843,37.988904],[-83.822752,37.989271],[-83.823249,37.989364],[-83.824156,37.989387]]}},{"type":"Feature","properties":{"osm_id":16317539,"highway":"residential","name":"Adena Hills Drive","alt_name":null,"official_name":null,"surface":null,"tracktype":null,"service":null,"access":null,"motor_vehicle":null,"foot":null,"tiger_reviewed":"no","rrgh_part":0,"rrgh_tile_part":0},"geometry":{"type":"LineString","coordinates":[[-83.816167,37.976243],[-83.816635,37.976822],[-83.816765,37.976965],[-83.816838,37.977029],[-83.816924,37.977084],[-83.817023,37.977127],[-83.817244,37.977178],[-83.817586,37.977224],[-83.817923,37.97725],[-83.81836,37.977317],[-83.818587,37.977327],[-83.818704,37.977315],[-83.818932,37.977274],[-83.819251,37.977191],[-83.819438,37.977118],[-83.81988,37.976895],[-83.820047,37.976844],[-83.820147,37.976835],[-83.820252,37.97684],[-83.820354,37.976859],[-83.82054,37.976928],[-83.820627,37.976978],[-83.820769,37.977097],[-83.82082,37.977163],[-83.820877,37.977315],[-83.820916,37.977596],[-83.821076,37.979337]]}},{"type":"Feature","properties":{"osm_id":16316392,"highway":"residential","name":"Tapp Road","alt_name":null,"official_name":null,"surface":null,"tracktype":null,"service":null,"access":null,"motor_vehicle":null,"foot":null,"tiger_reviewed":"no","rrgh_part":0,"rrgh_tile_part":0},"geometry":{"type":"LineString","coordinates":[[-83.796948,38.026893],[-83.796413,38.027065],[-83.79627,38.027154],[-83.796175,38.027255],[-83.796152,38.027314],[-83.796144,38.027375],[-83.796172,38.027502],[-83.796437,38.028046],[-83.796889,38.02892],[-83.797217,38.02953],[-83.797314,38.029744],[-83.797768,38.030741],[-83.79833,38.031902],[-83.799189,38.033494],[-83.799681,38.034445],[-83.800433,38.03585],[-83.801086,38.037023],[-83.801163,38.037198],[-83.801162,38.037316],[-83.801161,38.037452],[-83.801135,38.037531],[-83.800405,38.039284],[-83.800031,38.040412]]}},{"type":"Feature","properties":{"osm_id":16317193,"highway":"residential","name":"Town Branch Road","alt_name":null,"official_name":null,"surface":null,"tracktype":null,"service":null,"access":null,"motor_vehicle":null,"foot":null,"tiger_reviewed":"no","rrgh_part":0,"rrgh_tile_part":0},"geometry":{"type":"LineString","coordinates":[[-83.808775,37.992006],[-83.808874,37.992216],[-83.808922,37.992283],[-83.809123,37.992498],[-83.809187,37.992586],[-83.80924,37.992683],[-83.809288,37.992789],[-83.809412,37.993244],[-83.809596,37.993797],[-83.809658,37.99415],[-83.809691,37.994836],[-83.809777,37.995392],[-83.809836,37.995984],[-83.809898,37.996208],[-83.810042,37.996546],[-83.810256,37.996992],[-83.81052,37.997424],[-83.810674,37.997636],[-83.811451,37.998567],[-83.811944,37.999209],[-83.812097,37.999435],[-83.812232,37.999667],[-83.812345,37.9999],[-83.812389,38.000015],[-83.812423,38.000132],[-83.812463,38.000376],[-83.812565,38.001194],[-83.812576,38.001327],[-83.812623,38.001873],[-83.81266,38.002137],[-83.812888,38.003106],[-83.812915,38.00322],[-83.813235,38.004421],[-83.813273,38.004661],[-83.813299,38.004916],[-83.813346,38.005164],[-83.813382,38.00528],[-83.813433,38.005389],[-83.813503,38.00549],[-83.813591,38.005588],[-83.814101,38.006103],[-83.8145472,38.0065795],[-83.814825,38.006876],[-83.814918,38.00698],[-83.814993,38.007086],[-83.815042,38.007198],[-83.815068,38.007312],[-83.815099,38.007661],[-83.81512,38.007776],[-83.815157,38.007883],[-83.815204,38.007959],[-83.815215,38.007977],[-83.815293,38.00806],[-83.815388,38.008137],[-83.815602,38.008289],[-83.816095,38.00859],[-83.816585,38.008865],[-83.81669,38.008939],[-83.816777,38.009023],[-83.816843,38.009117],[-83.816936,38.009325],[-83.817342,38.010431],[-83.817453,38.010688],[-83.81771,38.011197],[-83.817867,38.011432],[-83.81796,38.01154],[-83.818376,38.011953],[-83.818596,38.012147],[-83.818719,38.012237],[-83.819242,38.012584],[-83.819369,38.012675],[-83.8195096,38.0127946],[-83.819604,38.012875],[-83.820285,38.013531],[-83.820611,38.01386],[-83.820835,38.01406],[-83.821172,38.014332],[-83.821278,38.01443],[-83.821922,38.015124],[-83.822004,38.015193],[-83.822094,38.015248],[-83.822294,38.015327],[-83.822403,38.015351],[-83.822644,38.015379],[-83.823796,38.015458],[-83.8240466,38.0154887],[-83.824221,38.01551],[-83.824473,38.015551],[-83.824679,38.015596],[-83.824895,38.015663],[-83.82507,38.015732]]}},{"type":"Feature","properties":{"osm_id":16317510,"highway":"residential","name":"Foster Branch Road","alt_name":null,"official_name":null,"surface":null,"tracktype":null,"service":null,"access":null,"motor_vehicle":null,"foot":null,"tiger_reviewed":"no","rrgh_part":0,"rrgh_tile_part":0},"geometry":{"type":"LineString","coordinates":[[-83.78697,38.000465],[-83.787034,38.000453],[-83.787105,38.000453],[-83.787172,38.000484],[-83.787205,38.000551],[-83.787224,38.000682],[-83.787216,38.000779],[-83.787144,38.000945],[-83.787116,38.001042],[-83.787049,38.001424],[-83.787058,38.001647],[-83.787144,38.002116],[-83.786639,38.002746],[-83.786569,38.002867],[-83.786503,38.003027],[-83.786488,38.003136],[-83.786501,38.003213],[-83.786666,38.003548],[-83.78673,38.003804],[-83.786722,38.003916],[-83.786738,38.004043],[-83.786857,38.004319],[-83.786914,38.004489],[-83.786931,38.004573],[-83.786946,38.005002],[-83.78691,38.005128],[-83.786869,38.005227],[-83.786702,38.00549],[-83.786677,38.005586],[-83.786685,38.005654],[-83.786737,38.005752],[-83.787064,38.00618],[-83.787168,38.006272],[-83.787387,38.00644],[-83.787673,38.006691],[-83.787779,38.0068],[-83.787847,38.006924],[-83.787872,38.006991],[-83.78789,38.007096],[-83.78788,38.007461],[-83.787887,38.007766],[-83.787878,38.008138],[-83.78782,38.008747],[-83.787754,38.009002],[-83.787544,38.009459],[-83.787363,38.009708],[-83.787251,38.009821],[-83.787003,38.010127],[-83.786692,38.010456],[-83.786592,38.010575],[-83.786369,38.010753],[-83.786314,38.010785],[-83.786046,38.010858],[-83.785888,38.010928],[-83.785637,38.010966],[-83.78538,38.010983],[-83.785213,38.01104],[-83.785115,38.011106],[-83.785044,38.011188],[-83.784998,38.011269],[-83.784878,38.011643],[-83.78484,38.011721],[-83.784688,38.012249],[-83.784633,38.012615],[-83.784495,38.013774],[-83.784422,38.014073],[-83.784342,38.014305],[-83.784305,38.014505],[-83.784295,38.014785],[-83.784323,38.015718],[-83.784309,38.016328],[-83.784267,38.016875],[-83.78428,38.017558],[-83.784252,38.017758],[-83.784213,38.017894],[-83.784125,38.018089],[-83.78392,38.018468],[-83.783494,38.019191],[-83.783428,38.019338],[-83.783173,38.020359],[-83.782957,38.02112],[-83.782819,38.021697]]}},{"type":"Feature","properties":{"osm_id":16318544,"highway":"residential","name":"Blake Drive","alt_name":null,"official_name":null,"surface":null,"tracktype":null,"service":null,"access":null,"motor_vehicle":null,"foot":null,"tiger_reviewed":"no","rrgh_part":0,"rrgh_tile_part":0},"geometry":{"type":"LineString","coordinates":[[-83.832709,38.000998],[-83.832605,38.001848],[-83.8324644,38.0028896],[-83.8324249,38.0032017]]}},{"type":"Feature","properties":{"osm_id":1441542391,"highway":"service","name":null,"alt_name":null,"official_name":null,"surface":null,"tracktype":null,"service":null,"access":null,"motor_vehicle":null,"foot":null,"tiger_reviewed":null,"rrgh_part":0,"rrgh_tile_part":0},"geometry":{"type":"LineString","coordinates":[[-83.815589,37.98856],[-83.8166183,37.9892955],[-83.8169292,37.9895915],[-83.817015,37.989693],[-83.8171973,37.9899679],[-83.8173795,37.9903062],[-83.8174117,37.9904246],[-83.817417,37.9909278],[-83.8173849,37.9914902],[-83.8174117,37.9918708],[-83.8174492,37.9921034],[-83.8175457,37.9923106],[-83.8177869,37.9924924]]}},{"type":"Feature","properties":{"osm_id":16316774,"highway":"service","name":null,"alt_name":null,"official_name":null,"surface":null,"tracktype":null,"service":null,"access":null,"motor_vehicle":null,"foot":null,"tiger_reviewed":"no","rrgh_part":0,"rrgh_tile_part":0},"geometry":{"type":"LineString","coordinates":[[-83.812576,38.001327],[-83.8128566,38.0008915],[-83.8132505,38.0006219],[-83.813773,38.000713],[-83.814012,38.001115],[-83.814228,38.001387]]}},{"type":"Feature","properties":{"osm_id":16317600,"highway":"residential","name":"Double Gate Road","alt_name":null,"official_name":null,"surface":null,"tracktype":null,"service":null,"access":null,"motor_vehicle":null,"foot":null,"tiger_reviewed":"no","rrgh_part":0,"rrgh_tile_part":0},"geometry":{"type":"LineString","coordinates":[[-83.808775,37.992006],[-83.808518,37.992138],[-83.807349,37.992692],[-83.805125,37.993718],[-83.804519,37.994007],[-83.804353,37.994072],[-83.804178,37.994101],[-83.804085,37.994103],[-83.803891,37.994089],[-83.803389,37.994019],[-83.80276,37.993899],[-83.802522,37.993876],[-83.802401,37.993875],[-83.802278,37.993883],[-83.802034,37.993934],[-83.801918,37.993976],[-83.80181,37.994029],[-83.801714,37.994091],[-83.801555,37.99424],[-83.801429,37.99441],[-83.801376,37.9945],[-83.801288,37.994686],[-83.801152,37.99507],[-83.801063,37.995236],[-83.800934,37.995375],[-83.800722,37.995562],[-83.800664,37.995635],[-83.800568,37.995794],[-83.800405,37.996131],[-83.800358,37.996203],[-83.800296,37.996264],[-83.800221,37.996314],[-83.800137,37.996352],[-83.800046,37.996378],[-83.799846,37.996402],[-83.799633,37.996389],[-83.799288,37.996342],[-83.79904,37.996321],[-83.798917,37.996323],[-83.798797,37.996346],[-83.798682,37.996384],[-83.798578,37.996431],[-83.798487,37.996492],[-83.798408,37.996562],[-83.798341,37.99664],[-83.798224,37.996815],[-83.798021,37.997179],[-83.797864,37.997562],[-83.797796,37.997765],[-83.797777,37.997864],[-83.797773,37.99796],[-83.797799,37.998138],[-83.797904,37.998527],[-83.797962,37.998699],[-83.79806,37.998848],[-83.798361,37.999166],[-83.798422,37.999291],[-83.798441,37.999403],[-83.798438,37.999463]]}},{"type":"Feature","properties":{"osm_id":1441542380,"highway":"service","name":null,"alt_name":null,"official_name":null,"surface":null,"tracktype":null,"service":null,"access":null,"motor_vehicle":null,"foot":null,"tiger_reviewed":null,"rrgh_part":0,"rrgh_tile_part":0},"geometry":{"type":"LineString","coordinates":[[-83.8027391,37.9779095],[-83.8020794,37.9781039],[-83.8011252,37.9786067],[-83.800707,37.9787293],[-83.8004337,37.9788983],[-83.8002836,37.9789279],[-83.7999673,37.9788941],[-83.7998708,37.9788983],[-83.7997421,37.9789363],[-83.7993937,37.9790884],[-83.7992811,37.9791138],[-83.7987344,37.9793081],[-83.7985789,37.9793166]]}},{"type":"Feature","properties":{"osm_id":16316515,"highway":"service","name":null,"alt_name":null,"official_name":null,"surface":null,"tracktype":null,"service":null,"access":null,"motor_vehicle":null,"foot":null,"tiger_reviewed":"no","rrgh_part":0,"rrgh_tile_part":0},"geometry":{"type":"LineString","coordinates":[[-83.805727,37.983746],[-83.805478,37.983643],[-83.805234,37.983643],[-83.80501,37.983732],[-83.804796,37.983804],[-83.803585,37.984068],[-83.80337,37.984085],[-83.803044,37.98398]]}},{"type":"Feature","properties":{"osm_id":16316757,"highway":"service","name":null,"alt_name":null,"official_name":null,"surface":null,"tracktype":null,"service":null,"access":null,"motor_vehicle":null,"foot":null,"tiger_reviewed":"no","rrgh_part":0,"rrgh_tile_part":0},"geometry":{"type":"LineString","coordinates":[[-83.8058628,37.9860673],[-83.8052868,37.9862793],[-83.8049578,37.9864003],[-83.8047558,37.9863953],[-83.8042198,37.9861913],[-83.8037788,37.9861573],[-83.8024578,37.9863203],[-83.8018988,37.9863963]]}},{"type":"Feature","properties":{"osm_id":16316989,"highway":"service","name":null,"alt_name":null,"official_name":null,"surface":null,"tracktype":null,"service":null,"access":"private","motor_vehicle":null,"foot":null,"tiger_reviewed":"no","rrgh_part":0,"rrgh_tile_part":0},"geometry":{"type":"LineString","coordinates":[[-83.8071766,37.9885479],[-83.8061061,37.9889654]]}},{"type":"Feature","properties":{"osm_id":16316786,"highway":"service","name":null,"alt_name":null,"official_name":null,"surface":null,"tracktype":null,"service":null,"access":null,"motor_vehicle":null,"foot":null,"tiger_reviewed":"no","rrgh_part":0,"rrgh_tile_part":0},"geometry":{"type":"LineString","coordinates":[[-83.807349,37.992692],[-83.80743,37.992997],[-83.807436,37.993352],[-83.807251,37.99462]]}},{"type":"Feature","properties":{"osm_id":16317181,"highway":"residential","name":"Brook Drive","alt_name":null,"official_name":null,"surface":null,"tracktype":null,"service":null,"access":null,"motor_vehicle":null,"foot":null,"tiger_reviewed":"no","rrgh_part":0,"rrgh_tile_part":0},"geometry":{"type":"LineString","coordinates":[[-83.8324644,38.0028896],[-83.829899,38.002714],[-83.829784,38.002688],[-83.829697,38.00264]]}},{"type":"Feature","properties":{"osm_id":630782463,"highway":"residential","name":"Spring Meadows Drive","alt_name":null,"official_name":null,"surface":null,"tracktype":null,"service":null,"access":null,"motor_vehicle":null,"foot":null,"tiger_reviewed":null,"rrgh_part":0,"rrgh_tile_part":0},"geometry":{"type":"LineString","coordinates":[[-83.8195096,38.0127946],[-83.8199635,38.0120862],[-83.8210706,38.0109062],[-83.8220124,38.0102677],[-83.8225892,38.0098969]]}},{"type":"Feature","properties":{"osm_id":16316740,"highway":"service","name":null,"alt_name":null,"official_name":null,"surface":null,"tracktype":null,"service":null,"access":"private","motor_vehicle":null,"foot":null,"tiger_reviewed":"no","rrgh_part":0,"rrgh_tile_part":0},"geometry":{"type":"LineString","coordinates":[[-83.815204,38.007959],[-83.8148367,38.0079265],[-83.8143791,38.0079941],[-83.8131857,38.0080129]]}},{"type":"Feature","properties":{"osm_id":16316776,"highway":"service","name":null,"alt_name":null,"official_name":null,"surface":null,"tracktype":null,"service":null,"access":null,"motor_vehicle":null,"foot":null,"tiger_reviewed":"no","rrgh_part":0,"rrgh_tile_part":0},"geometry":{"type":"LineString","coordinates":[[-83.812888,38.003106],[-83.812143,38.003196],[-83.810655,38.003673],[-83.810341,38.003627],[-83.809913,38.003351],[-83.809258,38.002708],[-83.808703,38.002411],[-83.808481,38.002296],[-83.80784,38.002157],[-83.807112,38.002203],[-83.806276,38.002386]]}},{"type":"Feature","properties":{"osm_id":16316913,"highway":"residential","name":"Corey Lane","alt_name":null,"official_name":null,"surface":null,"tracktype":null,"service":null,"access":null,"motor_vehicle":null,"foot":null,"tiger_reviewed":"no","rrgh_part":0,"rrgh_tile_part":0},"geometry":{"type":"LineString","coordinates":[[-83.819491,38.015629],[-83.819891,38.015935],[-83.820165,38.015997],[-83.820558,38.01592],[-83.820933,38.015516],[-83.821268,38.015324],[-83.821635,38.015321],[-83.822294,38.015327]]}},{"type":"Feature","properties":{"osm_id":16318320,"highway":"residential","name":"Deerview Drive","alt_name":null,"official_name":null,"surface":null,"tracktype":null,"service":null,"access":null,"motor_vehicle":null,"foot":null,"tiger_reviewed":"no","rrgh_part":0,"rrgh_tile_part":0},"geometry":{"type":"LineString","coordinates":[[-83.815604,38.020373],[-83.815623,38.020363],[-83.815852,38.020342],[-83.816237,38.02028],[-83.816701,38.020221],[-83.819158,38.019961],[-83.819369,38.019945]]}},{"type":"Feature","properties":{"osm_id":16318756,"highway":"residential","name":"Spencer Springs Drive","alt_name":null,"official_name":null,"surface":null,"tracktype":null,"service":null,"access":null,"motor_vehicle":null,"foot":null,"tiger_reviewed":"no","rrgh_part":0,"rrgh_tile_part":0},"geometry":{"type":"LineString","coordinates":[[-83.819379,38.019785],[-83.819369,38.019945],[-83.8192712,38.0209779],[-83.819186,38.021877],[-83.81918,38.022052]]}},{"type":"Feature","properties":{"osm_id":16317907,"highway":"residential","name":"Fortune Cemetery Lane","alt_name":null,"official_name":null,"surface":null,"tracktype":null,"service":null,"access":null,"motor_vehicle":null,"foot":null,"tiger_reviewed":"no","rrgh_part":0,"rrgh_tile_part":0},"geometry":{"type":"LineString","coordinates":[[-83.815079,38.022881],[-83.815428,38.023501],[-83.815549,38.023678],[-83.815671,38.023829],[-83.815707,38.023897],[-83.815795,38.024377],[-83.815816,38.024555]]}},{"type":"Feature","properties":{"osm_id":16318726,"highway":"residential","name":"Bedford Johnson Road","alt_name":null,"official_name":null,"surface":null,"tracktype":null,"service":null,"access":null,"motor_vehicle":null,"foot":null,"tiger_reviewed":"no","rrgh_part":0,"rrgh_tile_part":0},"geometry":{"type":"LineString","coordinates":[[-83.814257,38.023071],[-83.814544,38.023596],[-83.81471,38.023844],[-83.815484,38.025185],[-83.815753,38.025598],[-83.81594,38.025843],[-83.815992,38.025946]]}},{"type":"Feature","properties":{"osm_id":16317660,"highway":"residential","name":"Foley Hollow","alt_name":null,"official_name":null,"surface":null,"tracktype":null,"service":null,"access":null,"motor_vehicle":null,"foot":null,"tiger_reviewed":"no","rrgh_part":0,"rrgh_tile_part":0},"geometry":{"type":"LineString","coordinates":[[-83.788975,38.00689],[-83.789066,38.006892],[-83.78925,38.006884],[-83.789572,38.006908],[-83.790366,38.007064],[-83.790447,38.007068],[-83.790503,38.007058],[-83.79058,38.007018],[-83.790654,38.006954],[-83.79111,38.006444],[-83.79122,38.006305],[-83.791285,38.0062],[-83.791696,38.00571]]}},{"type":"Feature","properties":{"osm_id":16318063,"highway":"residential","name":"Foster Branch Spur","alt_name":null,"official_name":null,"surface":null,"tracktype":null,"service":null,"access":null,"motor_vehicle":null,"foot":null,"tiger_reviewed":"no","rrgh_part":0,"rrgh_tile_part":0},"geometry":{"type":"LineString","coordinates":[[-83.787847,38.006924],[-83.788089,38.006841],[-83.788292,38.00683],[-83.788797,38.006887],[-83.788975,38.00689]]}},{"type":"Feature","properties":{"osm_id":16318161,"highway":"residential","name":"Sponcil Cemetery Road","alt_name":null,"official_name":null,"surface":null,"tracktype":null,"service":null,"access":null,"motor_vehicle":null,"foot":null,"tiger_reviewed":"no","rrgh_part":0,"rrgh_tile_part":0},"geometry":{"type":"LineString","coordinates":[[-83.786503,38.003027],[-83.786321,38.003074],[-83.786151,38.003052],[-83.785993,38.00311],[-83.785741,38.003162],[-83.78566,38.003187],[-83.785598,38.003233],[-83.785548,38.003365],[-83.785459,38.003483],[-83.785411,38.00354],[-83.785286,38.003651]]}},{"type":"Feature","properties":{"osm_id":16316944,"highway":"service","name":null,"alt_name":null,"official_name":null,"surface":null,"tracktype":null,"service":null,"access":"private","motor_vehicle":null,"foot":null,"tiger_reviewed":"no","rrgh_part":0,"rrgh_tile_part":0},"geometry":{"type":"LineString","coordinates":[[-83.784878,38.011643],[-83.784498,38.0114538],[-83.7840421,38.0112958],[-83.7832132,38.0109481]]}},{"type":"Feature","properties":{"osm_id":16316744,"highway":"residential","name":null,"alt_name":null,"official_name":null,"surface":null,"tracktype":null,"service":null,"access":null,"motor_vehicle":null,"foot":null,"tiger_reviewed":"no","rrgh_part":0,"rrgh_tile_part":0},"geometry":{"type":"LineString","coordinates":[[-83.8037087,38.0270662],[-83.8036401,38.0271844],[-83.8035171,38.0273433],[-83.8033694,38.0274817],[-83.8029034,38.0278868],[-83.8026023,38.0281367],[-83.8024572,38.0282799],[-83.8024141,38.0283507],[-83.8023998,38.0284199],[-83.8024242,38.0284726],[-83.8024844,38.0285239],[-83.8025801,38.0285745],[-83.8026222,38.0286165],[-83.8026446,38.0286549],[-83.8026506,38.0287069],[-83.802641,38.0287807],[-83.8025702,38.0292136],[-83.8025197,38.0297307],[-83.8025074,38.0298921],[-83.8025085,38.0299919],[-83.8025209,38.030051],[-83.8025455,38.0300977],[-83.8025914,38.0301427],[-83.8026531,38.0301842],[-83.8027023,38.0302345],[-83.8027147,38.030268],[-83.8027225,38.0303272]]}},{"type":"Feature","properties":{"osm_id":16316564,"highway":"residential","name":null,"alt_name":null,"official_name":null,"surface":null,"tracktype":null,"service":null,"access":null,"motor_vehicle":null,"foot":null,"tiger_reviewed":"no","rrgh_part":0,"rrgh_tile_part":0},"geometry":{"type":"LineString","coordinates":[[-83.79198,38.02262],[-83.791835,38.022803],[-83.791542,38.02443],[-83.790934,38.024821],[-83.789921,38.025188],[-83.789602,38.02544],[-83.789627,38.027755]]}},{"type":"Feature","properties":{"osm_id":16317264,"highway":"residential","name":"Harpers Ridge Road","alt_name":null,"official_name":null,"surface":null,"tracktype":null,"service":null,"access":null,"motor_vehicle":null,"foot":null,"tiger_reviewed":"no","rrgh_part":0,"rrgh_tile_part":0},"geometry":{"type":"LineString","coordinates":[[-83.840381,38.028632],[-83.840108,38.028883],[-83.839822,38.029219],[-83.839786,38.029246],[-83.839734,38.029269],[-83.83967,38.029278],[-83.839601,38.029268],[-83.839531,38.029237],[-83.83806,38.02843],[-83.837,38.027818],[-83.836686,38.027668],[-83.836452,38.027583],[-83.836076,38.027469],[-83.835821,38.027396],[-83.835586,38.027342],[-83.835276,38.027303],[-83.835083,38.027315],[-83.834984,38.027336],[-83.834815,38.027394],[-83.834729,38.027433],[-83.834548,38.027535],[-83.834251,38.027731],[-83.833723,38.02812],[-83.832841,38.028834],[-83.832397,38.029264],[-83.831992,38.029582],[-83.831925,38.029714],[-83.831777,38.03022],[-83.831738,38.030304],[-83.831687,38.030381],[-83.831622,38.030451],[-83.831284,38.030661],[-83.831047,38.03079],[-83.830879,38.030868],[-83.830682,38.030922],[-83.830386,38.03096],[-83.830302,38.030979],[-83.830227,38.031008],[-83.830159,38.031047],[-83.830103,38.031099],[-83.83006,38.03116],[-83.830031,38.031229],[-83.830017,38.031302],[-83.830014,38.031377],[-83.830032,38.031531],[-83.830078,38.031767],[-83.8304,38.032946],[-83.830426,38.033098],[-83.830423,38.033173],[-83.830406,38.033245],[-83.830338,38.033381],[-83.829551,38.034517],[-83.829441,38.034689],[-83.829349,38.034875],[-83.829057,38.03565],[-83.828984,38.035897],[-83.828964,38.036082],[-83.828949,38.036646],[-83.828958,38.037016],[-83.82899,38.037276],[-83.82928,38.038851],[-83.829412,38.039421],[-83.829485,38.039735],[-83.829902,38.0412],[-83.829943,38.041278],[-83.829993,38.041341],[-83.830051,38.041391],[-83.830118,38.041428],[-83.830153,38.041441],[-83.830192,38.041455],[-83.830568,38.0415],[-83.831936,38.041628],[-83.832197,38.041662],[-83.832444,38.041717],[-83.832559,38.041759],[-83.832947,38.042009],[-83.833066,38.042085],[-83.833802,38.042623],[-83.835105,38.0437],[-83.835291,38.043879],[-83.835373,38.043975],[-83.83552,38.044177],[-83.835896,38.044753],[-83.83593,38.044805],[-83.836091,38.045008],[-83.83628,38.045202],[-83.836688,38.045552],[-83.83896,38.047311],[-83.839228,38.047569],[-83.839482,38.047855],[-83.839664,38.048041],[-83.839875,38.048225],[-83.8406,38.048717],[-83.840778,38.048838],[-83.841426,38.04935],[-83.841655,38.049513],[-83.841929,38.049709],[-83.84236520841682,38.05]]}},{"type":"Feature","properties":{"osm_id":16316408,"highway":"residential","name":null,"alt_name":null,"official_name":null,"surface":null,"tracktype":null,"service":null,"access":null,"motor_vehicle":null,"foot":null,"tiger_reviewed":"no","rrgh_part":0,"rrgh_tile_part":0},"geometry":{"type":"LineString","coordinates":[[-83.843628,38.030175],[-83.843423,38.030809],[-83.843357,38.031014],[-83.843156,38.031173],[-83.842287,38.031241],[-83.841971,38.031834],[-83.840728,38.032518],[-83.838474,38.034321],[-83.838215,38.034983],[-83.837637,38.035828]]}},{"type":"Feature","properties":{"osm_id":16316938,"highway":"residential","name":null,"alt_name":null,"official_name":null,"surface":null,"tracktype":null,"service":null,"access":null,"motor_vehicle":null,"foot":null,"tiger_reviewed":"no","rrgh_part":0,"rrgh_tile_part":0},"geometry":{"type":"LineString","coordinates":[[-83.832947,38.042009],[-83.83364,38.041478],[-83.834738,38.040746],[-83.835438,38.040022],[-83.835605,38.038945],[-83.835276,38.038261],[-83.834989,38.037488]]}},{"type":"Feature","properties":{"osm_id":16316888,"highway":"residential","name":null,"alt_name":null,"official_name":null,"surface":null,"tracktype":null,"service":null,"access":null,"motor_vehicle":null,"foot":null,"tiger_reviewed":"no","rrgh_part":0,"rrgh_tile_part":0},"geometry":{"type":"LineString","coordinates":[[-83.835896,38.044753],[-83.835443,38.045243],[-83.835245,38.045598],[-83.835088,38.045961]]}},{"type":"Feature","properties":{"osm_id":16316725,"highway":"residential","name":null,"alt_name":null,"official_name":null,"surface":null,"tracktype":null,"service":null,"access":null,"motor_vehicle":null,"foot":null,"tiger_reviewed":"no","rrgh_part":0,"rrgh_tile_part":0},"geometry":{"type":"LineString","coordinates":[[-83.841655,38.049513],[-83.841083,38.049865],[-83.84089707894736,38.05]]}},{"type":"Feature","properties":{"osm_id":16316727,"highway":"residential","name":null,"alt_name":null,"official_name":null,"surface":null,"tracktype":null,"service":null,"access":null,"motor_vehicle":null,"foot":null,"tiger_reviewed":"no","rrgh_part":0,"rrgh_tile_part":0},"geometry":{"type":"LineString","coordinates":[[-83.8406,38.048717],[-83.840164,38.049213],[-83.839855,38.049488],[-83.839586,38.049827]]}},{"type":"Feature","properties":{"osm_id":16316437,"highway":"residential","name":null,"alt_name":null,"official_name":null,"surface":null,"tracktype":null,"service":null,"access":null,"motor_vehicle":null,"foot":null,"tiger_reviewed":"no","rrgh_part":0,"rrgh_tile_part":0},"geometry":{"type":"LineString","coordinates":[[-83.820428,38.037753],[-83.82199,38.037683],[-83.822395,38.037843],[-83.823089,38.038644],[-83.823349,38.039056],[-83.823552,38.039902],[-83.824102,38.040314]]}},{"type":"Feature","properties":{"osm_id":16317431,"highway":"residential","name":"Montgomery Road","alt_name":null,"official_name":null,"surface":null,"tracktype":null,"service":null,"access":null,"motor_vehicle":null,"foot":null,"tiger_reviewed":"no","rrgh_part":0,"rrgh_tile_part":0},"geometry":{"type":"LineString","coordinates":[[-83.82199,38.041475],[-83.822167,38.041243],[-83.822496,38.041004],[-83.822917,38.040773],[-83.823308,38.040527],[-83.823402,38.040358],[-83.824102,38.040314],[-83.829412,38.039421]]}},{"type":"Feature","properties":{"osm_id":16088207,"highway":"residential","name":"Pergram Road","alt_name":null,"official_name":null,"surface":null,"tracktype":null,"service":null,"access":null,"motor_vehicle":null,"foot":null,"tiger_reviewed":"no","rrgh_part":0,"rrgh_tile_part":0},"geometry":{"type":"LineString","coordinates":[[-83.780074,38.035885],[-83.779963,38.03586],[-83.77986,38.035836],[-83.779801,38.035828],[-83.779671,38.035823],[-83.779603,38.035828],[-83.779535,38.035847],[-83.779473,38.035879],[-83.779421,38.035919],[-83.779376,38.035964],[-83.779335,38.036017],[-83.779192,38.036237],[-83.779045,38.036485],[-83.778954,38.036589],[-83.778885,38.036726],[-83.778826,38.036872],[-83.778773,38.03696],[-83.778712,38.037091],[-83.778671,38.037224],[-83.778641,38.037374],[-83.778631,38.037488],[-83.778632,38.037612],[-83.778625,38.03769],[-83.778594,38.037791],[-83.778549,38.037886],[-83.778542,38.037943],[-83.778542,38.038],[-83.778557,38.038048],[-83.778592,38.038095],[-83.778736,38.038205],[-83.778842,38.038304],[-83.778882,38.03837],[-83.778942,38.038484],[-83.778964,38.038676],[-83.778996,38.038832],[-83.779016,38.038909],[-83.779109,38.039386],[-83.779149,38.039556],[-83.779164,38.039643],[-83.779168,38.039731],[-83.779178,38.039818],[-83.779179,38.039905],[-83.779158,38.040082],[-83.779167,38.040154],[-83.779256,38.040366],[-83.779303,38.040448],[-83.779359,38.040525],[-83.779465,38.04064],[-83.779528,38.040693],[-83.779559,38.040733],[-83.779596,38.0408],[-83.779635,38.040936],[-83.779683,38.041168],[-83.77971,38.041245],[-83.77973,38.041318],[-83.779785,38.041443],[-83.779817,38.041494],[-83.77989,38.04157],[-83.779922,38.041586],[-83.779964,38.041593],[-83.780008,38.041591],[-83.780092,38.041568],[-83.780132,38.041551],[-83.780177,38.041523],[-83.780268,38.041448],[-83.780362,38.041377],[-83.780459,38.041319],[-83.780509,38.041293],[-83.780626,38.041243],[-83.780766,38.041195],[-83.780844,38.041173],[-83.780923,38.041155],[-83.78108,38.04113],[-83.781157,38.041124],[-83.78132,38.041119],[-83.781488,38.041123],[-83.781571,38.04113],[-83.781736,38.041153],[-83.781816,38.04117],[-83.781974,38.041212],[-83.782129,38.04127],[-83.782217,38.041297],[-83.782409,38.041338],[-83.782603,38.041373],[-83.782697,38.041397],[-83.782786,38.041428],[-83.782869,38.041463],[-83.782941,38.041501],[-83.783073,38.041576],[-83.783183,38.041648],[-83.7833,38.041713],[-83.783426,38.041769],[-83.783612,38.041836],[-83.783666,38.041863],[-83.783715,38.041899],[-83.783757,38.041942],[-83.783792,38.04199],[-83.783826,38.042041],[-83.783924,38.042204],[-83.784047,38.042415],[-83.784209,38.042674],[-83.784256,38.042784],[-83.784272,38.042837],[-83.784328,38.043108],[-83.784346,38.043164],[-83.784388,38.043277],[-83.7845,38.043541],[-83.784534,38.043587],[-83.784575,38.043629],[-83.784673,38.043705],[-83.78483,38.043808],[-83.784969,38.04391],[-83.785048,38.043983],[-83.78523,38.044175],[-83.785332,38.044276],[-83.785509,38.04443],[-83.785649,38.044537],[-83.78579,38.044655],[-83.785931,38.044787],[-83.786288,38.045083],[-83.78636,38.045148],[-83.78644,38.045231],[-83.786509,38.045328],[-83.786579,38.045418],[-83.786639,38.045521],[-83.786727,38.045753],[-83.786874,38.046068],[-83.786983,38.046351],[-83.787054,38.046517],[-83.78708,38.046594],[-83.787138,38.046792],[-83.78715,38.046862],[-83.787153,38.046941],[-83.787141,38.047023],[-83.787112,38.047104],[-83.7870991,38.0471264],[-83.787067,38.047182],[-83.787007,38.047254],[-83.78693,38.047316],[-83.78677,38.047435],[-83.786362,38.047723],[-83.78619,38.047854],[-83.786108,38.047929],[-83.786029,38.048009],[-83.785885,38.048172],[-83.785827,38.048258],[-83.785565,38.04856],[-83.785509,38.04863],[-83.785446,38.048698],[-83.78538,38.048764],[-83.785308,38.048828],[-83.785232,38.048891],[-83.785149,38.048954],[-83.784965,38.049059],[-83.784868,38.049108],[-83.784778,38.04916],[-83.784682,38.049208],[-83.784577,38.049255],[-83.784351,38.049341],[-83.784227,38.049377],[-83.784099,38.049403],[-83.783966,38.049419],[-83.783833,38.049419],[-83.783706,38.049409],[-83.783361,38.049365],[-83.783246,38.049358],[-83.783109,38.049358],[-83.782969,38.049363],[-83.782829,38.049373],[-83.782692,38.049379],[-83.782429,38.049386],[-83.782304,38.049404],[-83.782081,38.049464],[-83.781991,38.049512],[-83.781923,38.04958],[-83.781875,38.049659],[-83.781844,38.04975],[-83.781823,38.049849],[-83.78179806422018,38.05]]}},{"type":"Feature","properties":{"osm_id":16316936,"highway":"residential","name":null,"alt_name":null,"official_name":null,"surface":null,"tracktype":null,"service":null,"access":null,"motor_vehicle":null,"foot":null,"tiger_reviewed":"no","rrgh_part":0,"rrgh_tile_part":0},"geometry":{"type":"LineString","coordinates":[[-83.830153,38.041441],[-83.829826,38.041821],[-83.829741,38.042105],[-83.82975,38.042498],[-83.829613,38.042743],[-83.829386,38.042907]]}},{"type":"Feature","properties":{"osm_id":16316976,"highway":"residential","name":null,"alt_name":null,"official_name":null,"surface":null,"tracktype":null,"service":null,"access":null,"motor_vehicle":null,"foot":null,"tiger_reviewed":"no","rrgh_part":0,"rrgh_tile_part":0},"geometry":{"type":"LineString","coordinates":[[-83.8070958,38.0490766],[-83.8071575,38.049029],[-83.807227,38.048631],[-83.807324,38.048285],[-83.807482,38.047964],[-83.807638,38.047788]]}},{"type":"Feature","properties":{"osm_id":16316977,"highway":"residential","name":null,"alt_name":null,"official_name":null,"surface":null,"tracktype":null,"service":null,"access":null,"motor_vehicle":null,"foot":null,"tiger_reviewed":"no","rrgh_part":0,"rrgh_tile_part":0},"geometry":{"type":"LineString","coordinates":[[-83.806084,38.045512],[-83.806258,38.044742],[-83.806476,38.04448],[-83.808643,38.042962]]}},{"type":"Feature","properties":{"osm_id":16316411,"highway":"residential","name":null,"alt_name":null,"official_name":null,"surface":null,"tracktype":null,"service":null,"access":null,"motor_vehicle":null,"foot":null,"tiger_reviewed":"no","rrgh_part":0,"rrgh_tile_part":0},"geometry":{"type":"LineString","coordinates":[[-83.797314,38.029744],[-83.796751,38.030011],[-83.795867,38.030797],[-83.794593,38.031285],[-83.793939,38.031295],[-83.792866,38.031101],[-83.789626,38.031432],[-83.789481,38.031621],[-83.789295,38.032095]]}},{"type":"Feature","properties":{"osm_id":16316746,"highway":"residential","name":null,"alt_name":null,"official_name":null,"surface":null,"tracktype":null,"service":null,"access":null,"motor_vehicle":null,"foot":null,"tiger_reviewed":"no","rrgh_part":0,"rrgh_tile_part":0},"geometry":{"type":"LineString","coordinates":[[-83.801162,38.037316],[-83.801882,38.037458],[-83.802303,38.037555],[-83.802715,38.037587],[-83.802913,38.037541],[-83.803198,38.037385]]}},{"type":"Feature","properties":{"osm_id":16082457,"highway":"service","name":null,"alt_name":null,"official_name":null,"surface":null,"tracktype":null,"service":null,"access":"private","motor_vehicle":null,"foot":null,"tiger_reviewed":"no","rrgh_part":0,"rrgh_tile_part":0},"geometry":{"type":"LineString","coordinates":[[-83.789295,38.032095],[-83.789275,38.032132],[-83.789272,38.032186],[-83.789229,38.032363],[-83.788703,38.032664],[-83.788487,38.032705],[-83.787936,38.032636],[-83.787847,38.032639],[-83.787764,38.032631],[-83.787646,38.03264],[-83.787499,38.032721],[-83.787281,38.032911],[-83.787086,38.033219],[-83.78687,38.033362]]}},{"type":"Feature","properties":{"osm_id":16082553,"highway":"residential","name":null,"alt_name":null,"official_name":null,"surface":null,"tracktype":null,"service":null,"access":null,"motor_vehicle":null,"foot":null,"tiger_reviewed":"no","rrgh_part":0,"rrgh_tile_part":0},"geometry":{"type":"LineString","coordinates":[[-83.780074,38.035885],[-83.780151,38.035786],[-83.780369,38.035668],[-83.780584,38.035468],[-83.781239,38.034603]]}},{"type":"Feature","properties":{"osm_id":16082557,"highway":"residential","name":null,"alt_name":null,"official_name":null,"surface":null,"tracktype":null,"service":null,"access":null,"motor_vehicle":null,"foot":null,"tiger_reviewed":"no","rrgh_part":0,"rrgh_tile_part":0},"geometry":{"type":"LineString","coordinates":[[-83.781813,38.036618],[-83.781739,38.036588],[-83.781497,38.036504],[-83.781417,38.036471],[-83.781181,38.036363],[-83.78096,38.036269],[-83.780894,38.036235],[-83.780571,38.036055],[-83.780505,38.03602],[-83.780438,38.03599],[-83.78037,38.035965],[-83.780237,38.035924],[-83.780074,38.035885]]}},{"type":"Feature","properties":{"osm_id":16088214,"highway":"residential","name":"Pergram Road","alt_name":null,"official_name":null,"surface":null,"tracktype":null,"service":null,"access":null,"motor_vehicle":null,"foot":null,"tiger_reviewed":"no","rrgh_part":0,"rrgh_tile_part":0},"geometry":{"type":"LineString","coordinates":[[-83.786288,38.045083],[-83.787654,38.044178],[-83.788814,38.04238],[-83.789058,38.042162],[-83.789472,38.042102],[-83.790188,38.042304],[-83.790545,38.042153],[-83.791008,38.041789],[-83.79145,38.041705],[-83.791614,38.041767],[-83.794091,38.043438],[-83.794913,38.043817],[-83.796267,38.043794],[-83.797093,38.04406],[-83.797313,38.044075],[-83.797559,38.043928],[-83.79762,38.04385],[-83.7990317,38.0424957],[-83.7997828,38.0416652],[-83.799935,38.041549]]}},{"type":"Feature","properties":{"osm_id":16088537,"highway":"residential","name":"Tapp Lane","alt_name":null,"official_name":null,"surface":null,"tracktype":null,"service":null,"access":null,"motor_vehicle":null,"foot":null,"tiger_reviewed":"no","rrgh_part":0,"rrgh_tile_part":0},"geometry":{"type":"LineString","coordinates":[[-83.800031,38.040412],[-83.799996,38.040508],[-83.799911,38.040749],[-83.799836,38.040922],[-83.799792,38.041035],[-83.799762,38.041144],[-83.799751,38.041192],[-83.799745,38.041238],[-83.799746,38.041283],[-83.799754,38.041328],[-83.799769,38.041373],[-83.799792,38.041418],[-83.799831,38.04146],[-83.799879,38.041505],[-83.799935,38.041549],[-83.800146,38.041693],[-83.801168,38.042344],[-83.801935,38.042822],[-83.802338,38.04308]]}},{"type":"Feature","properties":{"osm_id":16088547,"highway":"residential","name":"Tapp Lane","alt_name":null,"official_name":null,"surface":null,"tracktype":null,"service":null,"access":null,"motor_vehicle":null,"foot":null,"tiger_reviewed":"no","rrgh_part":0,"rrgh_tile_part":0},"geometry":{"type":"LineString","coordinates":[[-83.804769,38.048238],[-83.804718,38.048309],[-83.804673,38.048398],[-83.804637,38.048485],[-83.804603,38.048576],[-83.8045314,38.0487973],[-83.804422,38.049337],[-83.804395,38.049498],[-83.804308,38.049903],[-83.80428573197116,38.05]]}},{"type":"Feature","properties":{"osm_id":16318296,"highway":"residential","name":"Tapp Lane","alt_name":null,"official_name":null,"surface":null,"tracktype":null,"service":null,"access":null,"motor_vehicle":null,"foot":null,"tiger_reviewed":"no","rrgh_part":0,"rrgh_tile_part":0},"geometry":{"type":"LineString","coordinates":[[-83.802338,38.04308],[-83.805821,38.045306],[-83.806034,38.045457],[-83.806084,38.045512],[-83.806133,38.045567],[-83.806173,38.045693],[-83.806171,38.045839],[-83.806114,38.046296],[-83.806093,38.04639],[-83.806059,38.046477],[-83.806012,38.046559],[-83.805893,38.046717],[-83.805314,38.047397],[-83.805107,38.047656],[-83.804976,38.047849],[-83.804769,38.048238]]}},{"type":"Feature","properties":{"osm_id":16083271,"highway":"residential","name":null,"alt_name":null,"official_name":null,"surface":null,"tracktype":null,"service":null,"access":null,"motor_vehicle":null,"foot":null,"tiger_reviewed":"no","rrgh_part":0,"rrgh_tile_part":0},"geometry":{"type":"LineString","coordinates":[[-83.8045314,38.0487973],[-83.8050679,38.0488642],[-83.8052215,38.0488872]]}},{"type":"Feature","properties":{"osm_id":16316568,"highway":"residential","name":null,"alt_name":null,"official_name":null,"surface":null,"tracktype":null,"service":null,"access":null,"motor_vehicle":null,"foot":null,"tiger_reviewed":"no","rrgh_part":0,"rrgh_tile_part":0},"geometry":{"type":"LineString","coordinates":[[-83.8052215,38.0488872],[-83.8054463,38.0489153],[-83.8057738,38.0489681],[-83.8062522,38.0490354],[-83.8068008,38.049105],[-83.807019,38.0491163],[-83.8070958,38.0490766]]}},{"type":"Feature","properties":{"osm_id":16082685,"highway":"service","name":null,"alt_name":null,"official_name":null,"surface":null,"tracktype":null,"service":null,"access":"private","motor_vehicle":null,"foot":null,"tiger_reviewed":"no","rrgh_part":0,"rrgh_tile_part":0},"geometry":{"type":"LineString","coordinates":[[-83.7870991,38.0471264],[-83.7876161,38.0473054],[-83.7880951,38.0473754],[-83.7885841,38.0476014],[-83.7886041,38.0479654],[-83.7884751,38.0482644],[-83.7886821,38.0487134],[-83.7900841,38.0493914],[-83.7902711,38.0499064],[-83.7902808404878,38.05]]}},{"type":"Feature","properties":{"osm_id":16317108,"highway":"service","name":null,"alt_name":null,"official_name":null,"surface":null,"tracktype":null,"service":null,"access":"private","motor_vehicle":null,"foot":null,"tiger_reviewed":"no","rrgh_part":0,"rrgh_tile_part":0},"geometry":{"type":"LineString","coordinates":[[-83.775803,37.978811],[-83.775646,37.977002],[-83.775365,37.976165],[-83.776269,37.975821]]}},{"type":"Feature","properties":{"osm_id":16310426,"highway":"residential","name":"Hill Top Ln Spur","alt_name":null,"official_name":null,"surface":null,"tracktype":null,"service":null,"access":null,"motor_vehicle":null,"foot":null,"tiger_reviewed":"no","rrgh_part":0,"rrgh_tile_part":0},"geometry":{"type":"LineString","coordinates":[[-83.770787,37.978566],[-83.770833,37.97857],[-83.771128,37.978813],[-83.77123,37.978876]]}},{"type":"Feature","properties":{"osm_id":16310546,"highway":"residential","name":"Hilltop Lane","alt_name":null,"official_name":null,"surface":null,"tracktype":null,"service":null,"access":null,"motor_vehicle":null,"foot":null,"tiger_reviewed":"no","rrgh_part":0,"rrgh_tile_part":0},"geometry":{"type":"LineString","coordinates":[[-83.770489,37.978926],[-83.770555,37.978763],[-83.770606,37.978688],[-83.770748,37.978578],[-83.770787,37.978566],[-83.770809,37.978514],[-83.770803,37.978458],[-83.77068,37.97813],[-83.770635,37.978078],[-83.770394,37.977877],[-83.770243,37.977717],[-83.770134,37.977647],[-83.769739,37.977479],[-83.769445,37.977416],[-83.769365,37.977379],[-83.769333,37.97735],[-83.769287,37.977283],[-83.769039,37.976813],[-83.768968,37.97656],[-83.768938,37.976489],[-83.768891,37.97641],[-83.768752,37.976278]]}},{"type":"Feature","properties":{"osm_id":16310279,"highway":"residential","name":"Clay Lick Road","alt_name":null,"official_name":null,"surface":null,"tracktype":null,"service":null,"access":null,"motor_vehicle":null,"foot":null,"tiger_reviewed":"no","rrgh_part":0,"rrgh_tile_part":0},"geometry":{"type":"LineString","coordinates":[[-83.774385,37.978992],[-83.774221,37.979056],[-83.774136,37.9791],[-83.774029,37.979138],[-83.773514,37.97929],[-83.773379,37.979315],[-83.77314,37.979336],[-83.772899,37.97935],[-83.772756,37.979347],[-83.771997,37.979223],[-83.771704,37.979199],[-83.77145,37.979189],[-83.771331,37.979169],[-83.770489,37.978926],[-83.770061,37.978784],[-83.769777,37.978676],[-83.769218,37.978427],[-83.768973,37.978307],[-83.768709,37.978205],[-83.768393,37.978046],[-83.768297,37.978009],[-83.768185,37.97799],[-83.767659,37.977983],[-83.766959,37.977947],[-83.766671,37.977942],[-83.766372,37.977959],[-83.765927,37.978024]]}},{"type":"Feature","properties":{"osm_id":16310750,"highway":"residential","name":"Sexton Lane","alt_name":null,"official_name":null,"surface":null,"tracktype":null,"service":null,"access":null,"motor_vehicle":null,"foot":null,"tiger_reviewed":"no","rrgh_part":0,"rrgh_tile_part":0},"geometry":{"type":"LineString","coordinates":[[-83.766293,37.98039],[-83.766483,37.980382],[-83.766693,37.980374],[-83.766841,37.980407],[-83.766947,37.98047],[-83.76713,37.980646],[-83.767242,37.980724],[-83.767467,37.980809],[-83.76762,37.980854],[-83.767692,37.980858],[-83.767764,37.980848],[-83.767947,37.980768],[-83.768019,37.980747],[-83.768151,37.980733]]}},{"type":"Feature","properties":{"osm_id":16310097,"highway":"residential","name":"Pottersville Road","alt_name":null,"official_name":null,"surface":null,"tracktype":null,"service":null,"access":null,"motor_vehicle":null,"foot":null,"tiger_reviewed":"no","rrgh_part":0,"rrgh_tile_part":0},"geometry":{"type":"LineString","coordinates":[[-83.766139,37.983882],[-83.765974,37.984045],[-83.765856,37.984267],[-83.76575,37.984494],[-83.765635,37.984649],[-83.765501,37.984774],[-83.765351,37.984868],[-83.765272,37.984905],[-83.76468,37.985127],[-83.764308,37.985231],[-83.76395,37.985361],[-83.763838,37.985414],[-83.763451,37.985646],[-83.763357,37.985674],[-83.763189,37.98569],[-83.763086,37.985681],[-83.762749,37.985623],[-83.76264,37.985615],[-83.762533,37.985622],[-83.762441,37.985656],[-83.762347,37.985706],[-83.762265,37.985775],[-83.762116,37.985947],[-83.762011,37.98617],[-83.7619,37.986367],[-83.761831,37.986466],[-83.761634,37.986626],[-83.761527,37.986696],[-83.761411,37.986752],[-83.761287,37.986795],[-83.760896,37.98687],[-83.760355,37.986993],[-83.76008,37.987015],[-83.76,37.98701146586345]]}},{"type":"Feature","properties":{"osm_id":16084368,"highway":"residential","name":"Davis Hollow Road","alt_name":null,"official_name":null,"surface":null,"tracktype":null,"service":null,"access":null,"motor_vehicle":null,"foot":null,"tiger_reviewed":"no","rrgh_part":0,"rrgh_tile_part":0},"geometry":{"type":"LineString","coordinates":[[-83.766219,38.013676],[-83.766243,38.013721],[-83.766301,38.013805],[-83.766399,38.013935],[-83.766506,38.01407],[-83.766547,38.014116],[-83.766577,38.014165],[-83.766648,38.014264],[-83.766687,38.014315],[-83.76673,38.014364],[-83.766828,38.014456],[-83.766886,38.014501],[-83.767082,38.014634],[-83.767292,38.014766],[-83.76736,38.014814],[-83.767424,38.014868],[-83.767486,38.014927],[-83.767726,38.015189],[-83.76798,38.015478],[-83.768268,38.015795],[-83.768504,38.016062],[-83.768568,38.016129]]}},{"type":"Feature","properties":{"osm_id":16316599,"highway":"residential","name":null,"alt_name":null,"official_name":null,"surface":null,"tracktype":null,"service":null,"access":null,"motor_vehicle":null,"foot":null,"tiger_reviewed":"no","rrgh_part":0,"rrgh_tile_part":0},"geometry":{"type":"LineString","coordinates":[[-83.772777,38.008522],[-83.7729622,38.0084621],[-83.7731671,38.0084803],[-83.7734356,38.0086221],[-83.7736173,38.0087838],[-83.773716,38.008861],[-83.7739526,38.008901],[-83.774176,38.008889],[-83.7745063,38.008784],[-83.7747178,38.0085984],[-83.7748689,38.0085279],[-83.7752421,38.008455],[-83.7757704,38.0084186],[-83.7758629,38.008429]]}},{"type":"Feature","properties":{"osm_id":16316654,"highway":"service","name":null,"alt_name":null,"official_name":null,"surface":null,"tracktype":null,"service":null,"access":null,"motor_vehicle":null,"foot":null,"tiger_reviewed":"no","rrgh_part":0,"rrgh_tile_part":0},"geometry":{"type":"LineString","coordinates":[[-83.772729,38.005488],[-83.7729014,38.0053086],[-83.7731331,38.0051293],[-83.7733448,38.0051083],[-83.7737892,38.0051637],[-83.7739944,38.0051227],[-83.7740769,38.005115],[-83.7741396,38.0050448],[-83.7744651,38.0047044],[-83.7748115,38.0044045],[-83.7751064,38.0041927],[-83.775344,38.0039975],[-83.7754361,38.0039655],[-83.7755744,38.0039751]]}},{"type":"Feature","properties":{"osm_id":16318690,"highway":"residential","name":"Hope Hill Road","alt_name":null,"official_name":null,"surface":null,"tracktype":null,"service":null,"access":null,"motor_vehicle":null,"foot":null,"tiger_reviewed":"no","rrgh_part":0,"rrgh_tile_part":0},"geometry":{"type":"LineString","coordinates":[[-83.775918,38.013058],[-83.77591,38.013114],[-83.775895,38.013143],[-83.775836,38.013196],[-83.775736,38.013238],[-83.775171,38.013432],[-83.775021,38.013498],[-83.774761,38.013634],[-83.774605,38.013738],[-83.774503,38.013824],[-83.774414,38.013926],[-83.774341,38.014035],[-83.774139,38.014474],[-83.773954,38.014801],[-83.773709,38.015162],[-83.773618,38.015262],[-83.773555,38.015299],[-83.773411,38.015342],[-83.773193,38.015363],[-83.772892,38.015373]]}},{"type":"Feature","properties":{"osm_id":16318689,"highway":"residential","name":"Hope Hill Road","alt_name":null,"official_name":null,"surface":null,"tracktype":null,"service":null,"access":null,"motor_vehicle":null,"foot":null,"tiger_reviewed":"no","rrgh_part":0,"rrgh_tile_part":0},"geometry":{"type":"LineString","coordinates":[[-83.775952,38.013098],[-83.775918,38.013058],[-83.775848,38.012847],[-83.775756,38.012704],[-83.775623,38.012561],[-83.77537,38.012322],[-83.775319,38.012251],[-83.775307,38.012181],[-83.775336,38.012111],[-83.7754,38.012058],[-83.775446,38.01204],[-83.775554,38.012016],[-83.77579,38.012008],[-83.775964,38.012035],[-83.77607,38.012071],[-83.776166,38.012123],[-83.776774,38.012539],[-83.776852,38.012599],[-83.776921,38.012696],[-83.776944,38.012768],[-83.776941,38.012838],[-83.776889,38.012894],[-83.776817,38.012934],[-83.776664,38.012971],[-83.776254,38.013037],[-83.776004,38.013106],[-83.775952,38.013098]]}},{"type":"Feature","properties":{"osm_id":631004039,"highway":"residential","name":null,"alt_name":null,"official_name":null,"surface":null,"tracktype":null,"service":null,"access":null,"motor_vehicle":null,"foot":null,"tiger_reviewed":null,"rrgh_part":0,"rrgh_tile_part":0},"geometry":{"type":"LineString","coordinates":[[-83.776941,38.012838],[-83.7770794,38.0125548],[-83.7770593,38.0123339],[-83.7770093,38.0121367],[-83.7769392,38.0119238],[-83.7769792,38.0117306],[-83.7770693,38.0116714],[-83.7770743,38.0116123],[-83.7769092,38.011494],[-83.7765939,38.0114033],[-83.7762185,38.0114309],[-83.7759782,38.0113756],[-83.775768,38.0113283],[-83.7754076,38.0112928],[-83.7752675,38.0112613],[-83.7751724,38.0111154],[-83.7751774,38.0109734],[-83.7754477,38.0100585]]}},{"type":"Feature","properties":{"osm_id":16317346,"highway":"residential","name":"Davis Hollow Road","alt_name":null,"official_name":null,"surface":null,"tracktype":null,"service":null,"access":null,"motor_vehicle":null,"foot":null,"tiger_reviewed":"no","rrgh_part":0,"rrgh_tile_part":0},"geometry":{"type":"LineString","coordinates":[[-83.766358,38.007545],[-83.766475,38.007814],[-83.766492,38.007899],[-83.76649,38.007987],[-83.766463,38.008078],[-83.76634,38.008326],[-83.7663,38.008433],[-83.766256,38.008649],[-83.766126,38.009083],[-83.766004,38.009791],[-83.765941,38.01029],[-83.765966,38.010888],[-83.766049,38.011426],[-83.766089,38.011908],[-83.766083,38.01204],[-83.766007,38.012298],[-83.765984,38.012484],[-83.765979,38.012606],[-83.76599,38.012795],[-83.766012,38.012978],[-83.766067,38.013256],[-83.766167,38.013559],[-83.766219,38.013676]]}},{"type":"Feature","properties":{"osm_id":16316600,"highway":"residential","name":null,"alt_name":null,"official_name":null,"surface":null,"tracktype":null,"service":null,"access":null,"motor_vehicle":null,"foot":null,"tiger_reviewed":"no","rrgh_part":0,"rrgh_tile_part":0},"geometry":{"type":"LineString","coordinates":[[-83.773691,38.019234],[-83.7734365,38.0194016]]}},{"type":"Feature","properties":{"osm_id":16082503,"highway":"service","name":null,"alt_name":null,"official_name":null,"surface":null,"tracktype":null,"service":null,"access":"private","motor_vehicle":null,"foot":null,"tiger_reviewed":"no","rrgh_part":0,"rrgh_tile_part":0},"geometry":{"type":"LineString","coordinates":[[-83.7734365,38.0194016],[-83.773342,38.019479],[-83.773104,38.01983],[-83.772746,38.020444],[-83.772308,38.021023],[-83.770893,38.022428]]}},{"type":"Feature","properties":{"osm_id":16083279,"highway":"service","name":null,"alt_name":null,"official_name":null,"surface":null,"tracktype":null,"service":null,"access":"private","motor_vehicle":null,"foot":null,"tiger_reviewed":"no","rrgh_part":0,"rrgh_tile_part":0},"geometry":{"type":"LineString","coordinates":[[-83.77605,38.021458],[-83.774312,38.023397],[-83.77424,38.023745],[-83.774771,38.024029],[-83.775,38.024539],[-83.774874,38.025305],[-83.775941,38.025424]]}},{"type":"Feature","properties":{"osm_id":16316709,"highway":"residential","name":null,"alt_name":null,"official_name":null,"surface":null,"tracktype":null,"service":null,"access":null,"motor_vehicle":null,"foot":null,"tiger_reviewed":"no","rrgh_part":0,"rrgh_tile_part":0},"geometry":{"type":"LineString","coordinates":[[-83.776971,38.020598],[-83.7766393,38.0209485],[-83.776407,38.0211812],[-83.7762413,38.0213206],[-83.77615,38.021393],[-83.77605,38.021458]]}},{"type":"Feature","properties":{"osm_id":802764353,"highway":"service","name":null,"alt_name":null,"official_name":null,"surface":null,"tracktype":null,"service":null,"access":null,"motor_vehicle":null,"foot":null,"tiger_reviewed":null,"rrgh_part":0,"rrgh_tile_part":0},"geometry":{"type":"LineString","coordinates":[[-83.7810856,38.0176491],[-83.7808809,38.0175606],[-83.7806596,38.0174046],[-83.7805341,38.0173213],[-83.7803294,38.0172797],[-83.7798803,38.0172381],[-83.779484,38.0171886],[-83.779025,38.0171574],[-83.7784736,38.0171132],[-83.7783184,38.017134],[-83.7782358,38.0171808],[-83.7781929,38.0172589],[-83.778216,38.0173863],[-83.7783712,38.0180757],[-83.7784802,38.0185154],[-83.7785231,38.0188536],[-83.7785792,38.0191137],[-83.7786453,38.0194363],[-83.7786651,38.0196601],[-83.7786387,38.01985],[-83.778566,38.0202454],[-83.7785,38.0205914],[-83.7784383,38.0208721]]}},{"type":"Feature","properties":{"osm_id":16083274,"highway":"residential","name":null,"alt_name":null,"official_name":null,"surface":null,"tracktype":null,"service":null,"access":null,"motor_vehicle":null,"foot":null,"tiger_reviewed":"no","rrgh_part":0,"rrgh_tile_part":0},"geometry":{"type":"LineString","coordinates":[[-83.76415,38.017981],[-83.764109,38.017898],[-83.763986,38.017996],[-83.763722,38.017942],[-83.763147,38.017773],[-83.762931,38.017596],[-83.762524,38.017356],[-83.762474,38.017286],[-83.76185,38.016739],[-83.761128,38.016266],[-83.760699,38.016046]]}},{"type":"Feature","properties":{"osm_id":16089446,"highway":"residential","name":"Perry Road","alt_name":null,"official_name":null,"surface":null,"tracktype":null,"service":null,"access":null,"motor_vehicle":null,"foot":null,"tiger_reviewed":"no","rrgh_part":0,"rrgh_tile_part":0},"geometry":{"type":"LineString","coordinates":[[-83.76,38.04663533714285],[-83.760169,38.046673],[-83.760253,38.046699],[-83.760332,38.046732],[-83.760543,38.046847],[-83.760657,38.046932],[-83.76076,38.04702],[-83.76113,38.047355],[-83.761204,38.047417],[-83.761287,38.047481],[-83.761361,38.04753],[-83.761447,38.047579],[-83.76154,38.04762],[-83.761638,38.047653],[-83.761741,38.047679],[-83.761846,38.047701],[-83.762068,38.047728],[-83.763559,38.04787],[-83.763835,38.047903],[-83.764251,38.047958],[-83.764523,38.047997],[-83.764657,38.048022],[-83.765176,38.048132],[-83.765947,38.048315],[-83.767078,38.048571],[-83.76749,38.048668],[-83.767998,38.04878],[-83.768127,38.048803],[-83.768622,38.048925],[-83.768872,38.048981],[-83.76903,38.049012],[-83.769128,38.049039],[-83.769472,38.049117],[-83.769586,38.049146],[-83.76981,38.04921],[-83.769917,38.049245],[-83.769976,38.049271],[-83.770077,38.049326],[-83.770559,38.049635],[-83.770723,38.049752],[-83.77102212796208,38.05]]}},{"type":"Feature","properties":{"osm_id":16083367,"highway":"residential","name":null,"alt_name":null,"official_name":null,"surface":null,"tracktype":null,"service":null,"access":null,"motor_vehicle":null,"foot":null,"tiger_reviewed":"no","rrgh_part":0,"rrgh_tile_part":0},"geometry":{"type":"LineString","coordinates":[[-83.76173820053475,38.05],[-83.761805,38.049751],[-83.761409,38.048433],[-83.761287,38.047481],[-83.761722,38.045934]]}}],"rrgh_tile":{"id":"r8c2","bounds":[37.974999999999994,-83.845,38.05,-83.76]}}
