{"type":"FeatureCollection","features":[{"type":"Feature","properties":{"osm_id":16310104,"highway":"residential","name":"Clem Branch Road","alt_name":null,"official_name":null,"surface":null,"tracktype":null,"service":null,"access":null,"motor_vehicle":null,"foot":null,"tiger_reviewed":"no","rrgh_part":0,"rrgh_tile_part":0},"geometry":{"type":"LineString","coordinates":[[-83.74594735869566,37.974999999999994],[-83.745956,37.97503],[-83.745977,37.975154],[-83.745998,37.975206],[-83.746225,37.975465],[-83.746472,37.975797]]}},{"type":"Feature","properties":{"osm_id":16309765,"highway":"service","name":"Dog Trot Fork Road","alt_name":null,"official_name":null,"surface":null,"tracktype":null,"service":null,"access":"private","motor_vehicle":null,"foot":null,"tiger_reviewed":"no","rrgh_part":0,"rrgh_tile_part":0},"geometry":{"type":"LineString","coordinates":[[-83.67993897333334,37.974999999999994],[-83.679904,37.975061],[-83.679473,37.976023],[-83.679439,37.976097],[-83.679183,37.976669],[-83.679042,37.976983],[-83.679004,37.977045]]}},{"type":"Feature","properties":{"osm_id":16310213,"highway":"residential","name":"Cornwell Branch Road","alt_name":null,"official_name":null,"surface":null,"tracktype":null,"service":null,"access":null,"motor_vehicle":null,"foot":null,"tiger_reviewed":"no","rrgh_part":0,"rrgh_tile_part":0},"geometry":{"type":"LineString","coordinates":[[-83.72010319166667,37.974999999999994],[-83.720102,37.975143],[-83.720117,37.975205],[-83.720177,37.975705],[-83.720223,37.975768],[-83.720219,37.977559]]}},{"type":"Feature","properties":{"osm_id":16308762,"highway":"residential","name":null,"alt_name":null,"official_name":null,"surface":null,"tracktype":null,"service":null,"access":null,"motor_vehicle":null,"foot":null,"tiger_reviewed":"no","rrgh_part":0,"rrgh_tile_part":0},"geometry":{"type":"LineString","coordinates":[[-83.700139,37.977107],[-83.700268,37.977023],[-83.700317,37.976787],[-83.700256,37.976436],[-83.70037988335358,37.974999999999994]]}},{"type":"Feature","properties":{"osm_id":16309755,"highway":"service","name":"Dog Trot Fork Road","alt_name":null,"official_name":null,"surface":null,"tracktype":null,"service":null,"access":"private","motor_vehicle":null,"foot":null,"tiger_reviewed":"no","rrgh_part":0,"rrgh_tile_part":0},"geometry":{"type":"LineString","coordinates":[[-83.68871320321051,37.974999999999994],[-83.688689,37.975163],[-83.687897,37.978339],[-83.687821,37.97864],[-83.68736,37.979896],[-83.686609,37.980384],[-83.686114,37.980705],[-83.685038,37.981607],[-83.686134,37.982016],[-83.686595,37.983197],[-83.686554,37.983833],[-83.686537,37.984106],[-83.686768,37.984696],[-83.686826,37.985605],[-83.687287,37.986514],[-83.686653,37.987377],[-83.685326,37.987559],[-83.683885,37.987241],[-83.683077,37.987195],[-83.682501,37.987377],[-83.682847,37.987741]]}},{"type":"Feature","properties":{"osm_id":970143766,"highway":"service","name":null,"alt_name":null,"official_name":null,"surface":null,"tracktype":null,"service":null,"access":null,"motor_vehicle":null,"foot":null,"tiger_reviewed":null,"rrgh_part":0,"rrgh_tile_part":0},"geometry":{"type":"LineString","coordinates":[[-83.6822891491427,37.974999999999994],[-83.6822042,37.9752009],[-83.6819898,37.9756345],[-83.6819752,37.9756707],[-83.681858,37.9759614],[-83.6818246,37.9761664],[-83.6818158,37.9763576],[-83.6816717,37.9764629],[-83.6815979,37.9764975],[-83.6816119,37.9765986],[-83.6816014,37.9767483],[-83.6814678,37.9770281],[-83.6814081,37.9771915],[-83.6814169,37.9773051],[-83.6814942,37.9774104],[-83.6817947,37.9775531]]}},{"type":"Feature","properties":{"osm_id":16088033,"highway":"unclassified","name":"Mill Creek Road","alt_name":null,"official_name":null,"surface":null,"tracktype":null,"service":null,"access":null,"motor_vehicle":null,"foot":null,"tiger_reviewed":null,"rrgh_part":0,"rrgh_tile_part":0},"geometry":{"type":"LineString","coordinates":[[-83.721273,38.023567],[-83.721375,38.023563],[-83.72148,38.023565],[-83.721568,38.02357],[-83.72179,38.023592],[-83.72187,38.023629],[-83.721922,38.023647],[-83.721991,38.023664],[-83.722235,38.023713],[-83.722589,38.023762],[-83.722689,38.02378],[-83.7228,38.023809],[-83.722911,38.023852],[-83.723014,38.023907],[-83.72311,38.023971],[-83.723197,38.024042],[-83.723273,38.024121],[-83.723336,38.024205],[-83.723385,38.024293],[-83.723423,38.024383],[-83.723449,38.024475],[-83.723488,38.02465],[-83.723517,38.024729],[-83.723556,38.024804],[-83.723613,38.024875],[-83.723685,38.024942],[-83.723764,38.025008],[-83.72385,38.025073],[-83.72404,38.025204],[-83.724247,38.025334],[-83.724474,38.025464],[-83.724594,38.025526],[-83.724718,38.025584],[-83.724846,38.025638],[-83.725119,38.025743],[-83.725372,38.025825],[-83.725475,38.025865],[-83.725565,38.025906],[-83.725648,38.025957],[-83.725722,38.02602],[-83.725789,38.026097],[-83.725848,38.026186],[-83.725902,38.026283],[-83.726006,38.026489],[-83.726151,38.026794],[-83.726208,38.026896],[-83.726272,38.026997],[-83.72635,38.027092],[-83.726444,38.027174],[-83.726546,38.027243],[-83.726652,38.027301],[-83.72676,38.027351],[-83.726863,38.027406],[-83.726959,38.027469],[-83.72705,38.027539],[-83.727465,38.027918],[-83.727747,38.028183],[-83.728139,38.028532],[-83.728221,38.02861],[-83.728362,38.028755],[-83.728442,38.028814],[-83.728536,38.028856],[-83.72864,38.028875],[-83.728747,38.028878],[-83.728854,38.028868],[-83.72905,38.028838],[-83.729093,38.028837],[-83.729174,38.028845],[-83.729219,38.028857],[-83.729255,38.028876],[-83.729303,38.028917],[-83.729327,38.028961],[-83.729355,38.029037],[-83.729528,38.029635],[-83.729635,38.029981],[-83.729949,38.030971],[-83.729977,38.031055],[-83.730032,38.031199],[-83.730065,38.031319],[-83.730143,38.031441],[-83.730281,38.031599],[-83.730352,38.03169],[-83.730415,38.031785],[-83.730469,38.031882],[-83.730514,38.03198],[-83.730549,38.032079],[-83.730649,38.032411],[-83.730733,38.032668],[-83.730971,38.033327],[-83.731215,38.033952],[-83.731316,38.034191],[-83.73137,38.034305],[-83.731487,38.034521],[-83.731534,38.034628],[-83.731572,38.034731],[-83.731598,38.034832],[-83.731618,38.03493],[-83.731648,38.035028],[-83.731735,38.035227],[-83.731763,38.03533],[-83.731768,38.035439],[-83.731763,38.035551],[-83.731763,38.035664],[-83.731774,38.035778],[-83.731805,38.035902],[-83.731855,38.035995],[-83.732002,38.036189],[-83.732066,38.036287],[-83.732136,38.036373],[-83.732184,38.036466],[-83.732213,38.036559],[-83.732224,38.03665],[-83.732227,38.036815],[-83.732232,38.036892],[-83.732259,38.036966],[-83.732314,38.037038],[-83.732393,38.037112],[-83.732506,38.037173],[-83.732629,38.037232],[-83.732766,38.037283],[-83.732893,38.037346],[-83.733006,38.037411],[-83.733312,38.03762],[-83.733404,38.037689],[-83.733492,38.037762],[-83.733576,38.037845],[-83.733647,38.037937],[-83.733705,38.038038],[-83.733755,38.038141],[-83.733841,38.038356],[-83.733904,38.038457],[-83.733947,38.038573],[-83.73402,38.038797],[-83.734143,38.039367],[-83.734294,38.039993],[-83.734328,38.04012],[-83.734364,38.040246],[-83.734404,38.040368],[-83.734492,38.040599],[-83.734528,38.040711],[-83.734553,38.040821],[-83.734552,38.040934],[-83.734523,38.041173],[-83.734522,38.041297],[-83.734538,38.041421],[-83.734565,38.041545],[-83.73466,38.041921],[-83.734767,38.042326],[-83.735006,38.043165],[-83.735092,38.04345],[-83.735139,38.043591],[-83.735202,38.043726],[-83.735277,38.043856],[-83.73536,38.043982],[-83.735448,38.044103],[-83.735539,38.044221],[-83.735721,38.044445],[-83.735803,38.044553],[-83.735871,38.044663],[-83.735924,38.044774],[-83.735966,38.044886],[-83.736001,38.045003],[-83.736074,38.045287],[-83.736095,38.045367],[-83.736134,38.045489],[-83.736178,38.045607],[-83.736321,38.045934],[-83.736372,38.046036],[-83.736429,38.046134],[-83.736491,38.046229],[-83.736621,38.046412],[-83.736969,38.04687],[-83.737184,38.047165],[-83.737316,38.047366],[-83.737373,38.047468],[-83.737422,38.047572],[-83.737509,38.047778],[-83.737544,38.047886],[-83.737637,38.048094],[-83.737681,38.048208],[-83.737754,38.048379],[-83.737844,38.048569],[-83.737911,38.048692],[-83.738132,38.049071],[-83.738294,38.049321],[-83.738456,38.049554],[-83.738598,38.049777],[-83.738661,38.049883],[-83.738712,38.049987],[-83.73871675000001,38.05]]}},{"type":"Feature","properties":{"osm_id":16310097,"highway":"residential","name":"Pottersville Road","alt_name":null,"official_name":null,"surface":null,"tracktype":null,"service":null,"access":null,"motor_vehicle":null,"foot":null,"tiger_reviewed":"no","rrgh_part":0,"rrgh_tile_part":0},"geometry":{"type":"LineString","coordinates":[[-83.76,37.98701146586345],[-83.759831,37.987004],[-83.759725,37.987012],[-83.759634,37.987038],[-83.75957,37.987082],[-83.759525,37.987211],[-83.759545,37.987383],[-83.759548,37.987643],[-83.759527,37.987849],[-83.759304,37.988284],[-83.759266,37.988383],[-83.759243,37.988489],[-83.75923,37.98895],[-83.759206,37.989087],[-83.759104,37.989511],[-83.75892,37.990083],[-83.758861,37.990221],[-83.758829,37.990362],[-83.758794,37.990874],[-83.758766,37.990986],[-83.758693,37.991197],[-83.758648,37.991294],[-83.758534,37.991475],[-83.758462,37.991555],[-83.758155,37.991764],[-83.758073,37.991793],[-83.757792,37.991859],[-83.757692,37.991891],[-83.757596,37.991934],[-83.757321,37.992101],[-83.757145,37.992221],[-83.756904,37.992418],[-83.756801,37.992548]]}},{"type":"Feature","properties":{"osm_id":16085525,"highway":"residential","name":"Pottersville Road","alt_name":null,"official_name":null,"surface":null,"tracktype":null,"service":null,"access":null,"motor_vehicle":null,"foot":null,"tiger_reviewed":"no","rrgh_part":0,"rrgh_tile_part":0},"geometry":{"type":"LineString","coordinates":[[-83.756801,37.992548],[-83.756786,37.992591],[-83.756744,37.992631],[-83.756738,37.992648],[-83.756727,37.992802],[-83.756715,37.9929],[-83.756712,37.992967],[-83.756679,37.993085],[-83.756661,37.99312],[-83.756593,37.993212],[-83.75656,37.993251],[-83.756534,37.993293],[-83.75643,37.993538],[-83.756414,37.993598],[-83.756378,37.9938],[-83.756375,37.993855],[-83.756354,37.993943],[-83.756223,37.994202],[-83.756199,37.994269],[-83.756193,37.99433],[-83.756192,37.99439],[-83.7562,37.99458],[-83.756197,37.994645],[-83.756163,37.994802],[-83.756142,37.994858],[-83.756107,37.994918],[-83.756077,37.994957],[-83.756042,37.995029],[-83.75603,37.995075],[-83.756014,37.995179],[-83.756013,37.995304],[-83.756007,37.995432],[-83.755966,37.99586],[-83.75595,37.995951],[-83.755905,37.996073],[-83.755858,37.996159],[-83.75582,37.99624],[-83.755781,37.996307],[-83.755734,37.996376],[-83.755589,37.996628],[-83.755476,37.996834],[-83.755346,37.99704],[-83.755171,37.997356],[-83.755052,37.997581],[-83.754963,37.997726],[-83.754795,37.997981],[-83.754729,37.998089],[-83.754498,37.998389],[-83.754352,37.998653],[-83.754259,37.998804],[-83.754126,37.998987],[-83.753977,37.999203],[-83.753909,37.999329],[-83.753735,37.99972],[-83.753693,37.999827],[-83.753808,38.000065],[-83.754664,38.00052]]}},{"type":"Feature","properties":{"osm_id":16309390,"highway":"residential","name":"Haven Road","alt_name":null,"official_name":null,"surface":null,"tracktype":null,"service":null,"access":null,"motor_vehicle":null,"foot":null,"tiger_reviewed":"no","rrgh_part":0,"rrgh_tile_part":0},"geometry":{"type":"LineString","coordinates":[[-83.733104,37.981962],[-83.733125,37.982119],[-83.733146,37.982188],[-83.7332,37.982291],[-83.733367,37.982528],[-83.733506,37.98282],[-83.733945,37.983648],[-83.734158,37.983948],[-83.734235,37.984132],[-83.734538,37.98442],[-83.734659,37.984588],[-83.734906,37.985229],[-83.734957,37.985262],[-83.735226,37.985544],[-83.735305,37.985711],[-83.735399,37.98586],[-83.735501,37.986067],[-83.735893,37.986703],[-83.735977,37.986817],[-83.736025,37.986874],[-83.736114,37.986949],[-83.736291,37.987045],[-83.736469,37.98729],[-83.73661,37.987554],[-83.736912,37.987922],[-83.737117,37.988106],[-83.737303,37.988314],[-83.737543,37.98864],[-83.737585,37.988746],[-83.737582,37.988842],[-83.737594,37.988949],[-83.737687,37.989177],[-83.737693,37.989294],[-83.737678,37.989453],[-83.737725,37.989565],[-83.737784,37.989624],[-83.737893,37.989644],[-83.738213,37.98961],[-83.738766,37.989663],[-83.738995,37.989706],[-83.739113,37.989744],[-83.739318,37.9899],[-83.739671,37.990233],[-83.739877,37.990267],[-83.74046,37.990305],[-83.740926,37.990432],[-83.741499,37.990634],[-83.741774,37.990753],[-83.742203,37.99102],[-83.742615,37.991421],[-83.743234,37.992136],[-83.743321,37.992211]]}},{"type":"Feature","properties":{"osm_id":16308904,"highway":"service","name":null,"alt_name":null,"official_name":null,"surface":null,"tracktype":null,"service":null,"access":"private","motor_vehicle":null,"foot":null,"tiger_reviewed":"no","rrgh_part":0,"rrgh_tile_part":0},"geometry":{"type":"LineString","coordinates":[[-83.738215,37.976942],[-83.738692,37.977363],[-83.738858,37.977642],[-83.738877,37.977968],[-83.738961,37.978038],[-83.738958,37.978201],[-83.739456,37.978923],[-83.741409,37.981094],[-83.741435,37.98121]]}},{"type":"Feature","properties":{"osm_id":16309120,"highway":"track","name":null,"alt_name":null,"official_name":null,"surface":null,"tracktype":null,"service":null,"access":null,"motor_vehicle":null,"foot":null,"tiger_reviewed":"no","rrgh_part":0,"rrgh_tile_part":0},"geometry":{"type":"LineString","coordinates":[[-83.731443,37.982438],[-83.73119,37.982058],[-83.73108,37.982006],[-83.730782,37.982018],[-83.730683,37.981958],[-83.729527,37.98023],[-83.729379,37.980163],[-83.72915,37.980155],[-83.729006,37.980156],[-83.728888,37.980148],[-83.728686,37.980001],[-83.728517,37.979713],[-83.728255,37.979548],[-83.728,37.979497],[-83.727309,37.979471],[-83.726965,37.979328],[-83.726076,37.978679],[-83.725916,37.978525],[-83.725763,37.978461],[-83.725388,37.978406],[-83.725267,37.978312],[-83.725117,37.978132],[-83.724974,37.978104],[-83.724636,37.97829],[-83.724504,37.978293],[-83.724363,37.978197],[-83.724284,37.977928],[-83.724401,37.977601],[-83.724445,37.977256],[-83.724285,37.977052],[-83.723991,37.976926],[-83.723188,37.976864],[-83.722881,37.976972],[-83.722551,37.977447],[-83.722303,37.977628],[-83.72208,37.977652],[-83.721806,37.977577],[-83.721324,37.977063],[-83.720926,37.976278],[-83.720654,37.976046],[-83.720223,37.975768]]}},{"type":"Feature","properties":{"osm_id":16082577,"highway":"service","name":null,"alt_name":null,"official_name":null,"surface":null,"tracktype":null,"service":null,"access":null,"motor_vehicle":null,"foot":null,"tiger_reviewed":"no","rrgh_part":0,"rrgh_tile_part":0},"geometry":{"type":"LineString","coordinates":[[-83.752427,38.003985],[-83.752404,38.003913],[-83.75238,38.003755],[-83.752359,38.003572],[-83.75236,38.003474],[-83.75237,38.003366],[-83.752399,38.003197],[-83.752405,38.003141],[-83.752412,38.00302],[-83.752409,38.002951],[-83.752396,38.002813],[-83.752401,38.002683],[-83.752419,38.00257],[-83.752429,38.002464],[-83.752435,38.002305],[-83.75243,38.002253],[-83.752447,38.002149],[-83.752483,38.002043],[-83.752534,38.001938],[-83.752695,38.001681],[-83.75278,38.00156],[-83.752911,38.001403],[-83.752981,38.001314],[-83.753066,38.001182],[-83.753142,38.001027],[-83.753148,38.000991],[-83.75317,38.000916],[-83.753192,38.000872],[-83.7533,38.0007],[-83.753384,38.000548],[-83.753451,38.000441],[-83.753486,38.000378],[-83.753519,38.000299],[-83.753588,38.000102],[-83.753693,37.999827]]}},{"type":"Feature","properties":{"osm_id":16082581,"highway":"service","name":null,"alt_name":null,"official_name":null,"surface":null,"tracktype":null,"service":null,"access":"private","motor_vehicle":null,"foot":null,"tiger_reviewed":"no","rrgh_part":0,"rrgh_tile_part":0},"geometry":{"type":"LineString","coordinates":[[-83.751855,38.00042],[-83.75167,38.000908],[-83.751988,38.001445],[-83.752369,38.001044],[-83.7533,38.0007]]}},{"type":"Feature","properties":{"osm_id":16310203,"highway":"residential","name":"Bean Branch Road","alt_name":null,"official_name":null,"surface":null,"tracktype":null,"service":null,"access":null,"motor_vehicle":null,"foot":null,"tiger_reviewed":"no","rrgh_part":0,"rrgh_tile_part":0},"geometry":{"type":"LineString","coordinates":[[-83.734585,37.998985],[-83.735029,37.999143],[-83.735119,37.999175],[-83.735657,37.999339],[-83.736411,37.999516]]}},{"type":"Feature","properties":{"osm_id":16310206,"highway":"residential","name":"Bean Branch Road","alt_name":null,"official_name":null,"surface":null,"tracktype":null,"service":null,"access":null,"motor_vehicle":null,"foot":null,"tiger_reviewed":"no","rrgh_part":0,"rrgh_tile_part":0},"geometry":{"type":"LineString","coordinates":[[-83.724955,37.989249],[-83.725092,37.989435],[-83.725235,37.989661],[-83.725315,37.98974],[-83.725848,37.990063],[-83.726102,37.990253],[-83.72647,37.990551],[-83.7266,37.990671],[-83.726722,37.990811],[-83.726856,37.991004],[-83.727016,37.991278],[-83.727192,37.991461],[-83.728542,37.992616],[-83.728632,37.992698],[-83.728799,37.992875],[-83.72898,37.993042],[-83.729722,37.993631],[-83.729996,37.993883],[-83.730541,37.994655],[-83.730719,37.99502],[-83.730785,37.995126],[-83.730865,37.995226],[-83.73091,37.995332],[-83.730941,37.995448],[-83.730943,37.995609],[-83.730973,37.995767],[-83.731046,37.995856],[-83.731325,37.99609],[-83.731551,37.996296],[-83.731821,37.996489],[-83.732042,37.996647],[-83.73231,37.996856],[-83.732574,37.997137],[-83.732702,37.99734],[-83.732769,37.997466],[-83.732822,37.997604],[-83.732876,37.997678],[-83.733007,37.99782],[-83.733331,37.998096],[-83.733481,37.998211],[-83.733513,37.998236],[-83.733755,37.998461],[-83.733926,37.998604],[-83.734105,37.998731],[-83.734294,37.99885],[-83.734487,37.998946],[-83.734585,37.998985],[-83.734711,37.999747],[-83.734647,37.999938],[-83.7348,38.00008],[-83.734894,38.000453],[-83.734925,38.000671],[-83.73508,38.000896],[-83.735244,38.001032],[-83.735397,38.001112],[-83.735592,38.001232],[-83.735665,38.001563],[-83.735707,38.00178],[-83.73585,38.001949],[-83.736045,38.002077]]}},{"type":"Feature","properties":{"osm_id":16308700,"highway":"service","name":null,"alt_name":null,"official_name":null,"surface":null,"tracktype":null,"service":null,"access":"private","motor_vehicle":null,"foot":null,"tiger_reviewed":"no","rrgh_part":0,"rrgh_tile_part":0},"geometry":{"type":"LineString","coordinates":[[-83.731821,37.996489],[-83.731487,37.99856],[-83.731406,38.00022]]}},{"type":"Feature","properties":{"osm_id":16083552,"highway":"residential","name":"Ventura Road","alt_name":null,"official_name":null,"surface":null,"tracktype":null,"service":null,"access":null,"motor_vehicle":null,"foot":null,"tiger_reviewed":"no","rrgh_part":0,"rrgh_tile_part":0},"geometry":{"type":"LineString","coordinates":[[-83.75517,38.020467],[-83.755172,38.020444],[-83.755182,38.020389],[-83.755237,38.020154],[-83.755279,38.020025],[-83.755327,38.01986],[-83.755483,38.01942],[-83.755536,38.019311],[-83.755631,38.019156],[-83.755691,38.019075],[-83.755725,38.019035],[-83.755783,38.018979],[-83.755806,38.018963]]}},{"type":"Feature","properties":{"osm_id":16084740,"highway":"residential","name":"Walters Road","alt_name":null,"official_name":null,"surface":null,"tracktype":null,"service":null,"access":null,"motor_vehicle":null,"foot":null,"tiger_reviewed":"no","rrgh_part":0,"rrgh_tile_part":0},"geometry":{"type":"LineString","coordinates":[[-83.747597,38.02027],[-83.747629,38.020254],[-83.747737,38.020181],[-83.747865,38.0201],[-83.748037,38.020012],[-83.748163,38.019955],[-83.748292,38.019907],[-83.748601,38.019801],[-83.748723,38.019754],[-83.748917,38.019669],[-83.749107,38.019592],[-83.749415,38.019483],[-83.749583,38.019416],[-83.749691,38.019368],[-83.749796,38.019313],[-83.749996,38.019193],[-83.750138,38.019103],[-83.75028,38.019026],[-83.750328,38.019003],[-83.750378,38.018984],[-83.750431,38.018968],[-83.750537,38.018949],[-83.750591,38.018948],[-83.750697,38.018955],[-83.750842,38.018982],[-83.751313,38.0191],[-83.751442,38.019142],[-83.75157,38.019188],[-83.751631,38.019215],[-83.751691,38.019248],[-83.751751,38.019289],[-83.751807,38.019335],[-83.751903,38.019432],[-83.751942,38.019481],[-83.752006,38.019579],[-83.752059,38.019683],[-83.752129,38.019834],[-83.752182,38.019932],[-83.752218,38.019983],[-83.75226,38.020033],[-83.752312,38.020076],[-83.752368,38.020112],[-83.752427,38.02014],[-83.752484,38.020161],[-83.752538,38.020173],[-83.752591,38.020179],[-83.752768,38.020188],[-83.752923,38.020193],[-83.753464,38.020191],[-83.753557,38.020194],[-83.75365,38.020202],[-83.753835,38.020227],[-83.754198,38.020285],[-83.754528,38.020334],[-83.754593,38.02034],[-83.754785,38.020376],[-83.755073,38.020442],[-83.75517,38.020467],[-83.755272,38.020494],[-83.755392,38.020536],[-83.755458,38.020554],[-83.755601,38.020583],[-83.755929,38.020658],[-83.756017,38.020681],[-83.756188,38.020733],[-83.75627,38.020764],[-83.756344,38.020802],[-83.756413,38.020849],[-83.756474,38.020905],[-83.756534,38.020967],[-83.756659,38.021104],[-83.756728,38.021168],[-83.756802,38.021229],[-83.756878,38.021286],[-83.757027,38.021387],[-83.757226,38.021516],[-83.757286,38.021548],[-83.757346,38.02157],[-83.757417,38.021579],[-83.757489,38.021574],[-83.757558,38.021558],[-83.757622,38.021535],[-83.757938,38.021385],[-83.75806,38.021334]]}},{"type":"Feature","properties":{"osm_id":16082884,"highway":"residential","name":null,"alt_name":null,"official_name":null,"surface":null,"tracktype":null,"service":null,"access":null,"motor_vehicle":null,"foot":null,"tiger_reviewed":"no","rrgh_part":0,"rrgh_tile_part":0},"geometry":{"type":"LineString","coordinates":[[-83.747597,38.02027],[-83.747239,38.020114],[-83.746874,38.019903],[-83.746746,38.019891],[-83.74574,38.019654],[-83.745041,38.019476],[-83.744907,38.019436],[-83.744145,38.019182],[-83.743774,38.019049],[-83.743278,38.018879],[-83.742905,38.018761],[-83.742315,38.018618],[-83.741638,38.018442],[-83.74156,38.01835],[-83.741568,38.018168],[-83.741594,38.018026]]}},{"type":"Feature","properties":{"osm_id":16083124,"highway":"residential","name":null,"alt_name":null,"official_name":null,"surface":null,"tracktype":null,"service":null,"access":null,"motor_vehicle":null,"foot":null,"tiger_reviewed":"no","rrgh_part":0,"rrgh_tile_part":0},"geometry":{"type":"LineString","coordinates":[[-83.746088,38.021787],[-83.74673,38.021323],[-83.747375,38.020412],[-83.747597,38.02027]]}},{"type":"Feature","properties":{"osm_id":16089304,"highway":"residential","name":"Greenbrier Road","alt_name":null,"official_name":null,"surface":null,"tracktype":null,"service":null,"access":null,"motor_vehicle":null,"foot":null,"tiger_reviewed":"no","rrgh_part":0,"rrgh_tile_part":0},"geometry":{"type":"LineString","coordinates":[[-83.733607,38.026456],[-83.733597,38.026466],[-83.733581,38.026474],[-83.733561,38.026482],[-83.733459,38.02651],[-83.733427,38.026522],[-83.73337,38.026552],[-83.733217,38.026678],[-83.733159,38.026714],[-83.733131,38.026728],[-83.733097,38.026741],[-83.733059,38.02675],[-83.732871,38.026774],[-83.732766,38.026799],[-83.732715,38.026817],[-83.732666,38.026837],[-83.732473,38.026936],[-83.732386,38.026975],[-83.732123,38.027079],[-83.731964,38.027131],[-83.731806,38.027188],[-83.731757,38.027207],[-83.731715,38.027229],[-83.731629,38.027267],[-83.731586,38.027284],[-83.731537,38.027299],[-83.731494,38.027316],[-83.731454,38.027336],[-83.731346,38.027398],[-83.731314,38.027423],[-83.731206,38.027529],[-83.730965,38.027711],[-83.730854,38.0278],[-83.730701,38.027939],[-83.730613,38.02801],[-83.730527,38.028088],[-83.730408,38.028209],[-83.730323,38.028283],[-83.730277,38.028318],[-83.730136,38.028415],[-83.730052,38.028479],[-83.729985,38.028547],[-83.729958,38.028579],[-83.729889,38.028674],[-83.729871,38.028694],[-83.729839,38.028723],[-83.729814,38.02874],[-83.729766,38.028766],[-83.729714,38.02878],[-83.729639,38.028793],[-83.729273,38.028837],[-83.729174,38.028845]]}},{"type":"Feature","properties":{"osm_id":16082767,"highway":"track","name":null,"alt_name":null,"official_name":null,"surface":null,"tracktype":null,"service":null,"access":null,"motor_vehicle":null,"foot":null,"tiger_reviewed":"no","rrgh_part":0,"rrgh_tile_part":0},"geometry":{"type":"LineString","coordinates":[[-83.705137,38.043963],[-83.705302,38.043987],[-83.705599,38.04396],[-83.70623,38.043746],[-83.70654,38.043679],[-83.706848,38.043716],[-83.707176,38.043714],[-83.707421,38.043592],[-83.707523,38.04343],[-83.707523,38.043419],[-83.707545,38.043356],[-83.707616,38.043339],[-83.707803,38.04276],[-83.707811,38.042749],[-83.707868,38.042619],[-83.708015,38.042446],[-83.708435,38.042173],[-83.708734,38.042056],[-83.708822,38.042034],[-83.708909,38.041983],[-83.709208,38.041736],[-83.709534,38.041395],[-83.709923,38.041156],[-83.710229,38.040808],[-83.710376,38.04063],[-83.710479,38.040451],[-83.710569,38.040063],[-83.710717,38.03952],[-83.710869,38.039179],[-83.711223,38.038756],[-83.71174,38.038421],[-83.712129,38.038217],[-83.712375,38.037981],[-83.712478,38.037649],[-83.712518,38.037244],[-83.712618,38.036856],[-83.712761,38.036482],[-83.713077,38.036182],[-83.713501,38.035791],[-83.713857,38.035481],[-83.714204,38.035245],[-83.714641,38.034935],[-83.715337,38.034469],[-83.715447,38.034057],[-83.715296,38.033782],[-83.715215,38.033442],[-83.715152,38.033038],[-83.715187,38.03248],[-83.715282,38.031872],[-83.715295,38.031273],[-83.715366,38.030868],[-83.715687,38.030365],[-83.715899,38.029975],[-83.715991,38.029595],[-83.715973,38.028971],[-83.715971,38.028551],[-83.716053,38.028218],[-83.716248,38.02791],[-83.716415,38.027699],[-83.716559,38.027455],[-83.716634,38.027172],[-83.716646,38.026881],[-83.716552,38.026485],[-83.716442,38.026177],[-83.716405,38.025968],[-83.716388,38.025709],[-83.716532,38.025449],[-83.716707,38.025156],[-83.716881,38.024848],[-83.717149,38.024668],[-83.717492,38.024419],[-83.717683,38.024205],[-83.717691,38.023783],[-83.717707,38.023293]]}},{"type":"Feature","properties":{"osm_id":16088729,"highway":"unclassified","name":"Pine Grove Road","alt_name":null,"official_name":null,"surface":null,"tracktype":null,"service":null,"access":null,"motor_vehicle":null,"foot":null,"tiger_reviewed":null,"rrgh_part":0,"rrgh_tile_part":0},"geometry":{"type":"LineString","coordinates":[[-83.721273,38.023567],[-83.721138,38.023577],[-83.720782,38.023609],[-83.720583,38.023635],[-83.720489,38.023657],[-83.720298,38.02371],[-83.720222,38.023727],[-83.720186,38.023733],[-83.720118,38.023739],[-83.720045,38.023739],[-83.71999,38.023734],[-83.719933,38.023721],[-83.719879,38.023704],[-83.719825,38.023679],[-83.719718,38.023621],[-83.71966,38.023596],[-83.719533,38.023553],[-83.719296,38.023489],[-83.719182,38.023455],[-83.719119,38.023433],[-83.718847,38.023354],[-83.718605,38.023293],[-83.718384,38.023247],[-83.718299,38.023233],[-83.718191,38.023221],[-83.718057,38.02322],[-83.717973,38.023226],[-83.717882,38.02324],[-83.717795,38.023262],[-83.717707,38.023293],[-83.717622,38.02333],[-83.717275,38.023502],[-83.717115,38.023573],[-83.717034,38.023604],[-83.71695,38.023629],[-83.716865,38.023648],[-83.716778,38.023663],[-83.716687,38.023675],[-83.716409,38.023694],[-83.716311,38.023708],[-83.716214,38.023707],[-83.716114,38.02371],[-83.716016,38.023722],[-83.715608,38.023734],[-83.71529,38.023747],[-83.714847,38.023756],[-83.714724,38.023756],[-83.714612,38.023763],[-83.714389,38.02383],[-83.71428,38.023874],[-83.714179,38.023921],[-83.713913,38.024074],[-83.713837,38.024123],[-83.713763,38.024166],[-83.713687,38.0242],[-83.713609,38.024227],[-83.713531,38.024248],[-83.713452,38.024259],[-83.71337,38.024263],[-83.713194,38.024264],[-83.713,38.024271],[-83.712902,38.024277],[-83.712701,38.024296],[-83.7126,38.0243],[-83.712389,38.024276],[-83.712277,38.024259],[-83.712171,38.024229],[-83.711844,38.024149],[-83.711653,38.024127],[-83.711565,38.024127],[-83.711395,38.024142],[-83.711129,38.024152],[-83.710305,38.024165],[-83.709677,38.024166],[-83.709489,38.024183],[-83.709391,38.024184],[-83.709291,38.024176],[-83.70919,38.024161],[-83.709093,38.024142],[-83.708995,38.024129],[-83.7089,38.02411],[-83.708816,38.024088],[-83.708734,38.024071],[-83.708486,38.024036],[-83.708085,38.023992],[-83.707894,38.023984],[-83.707816,38.023983],[-83.707452,38.023999],[-83.707181,38.02404],[-83.706984,38.024095],[-83.706887,38.024132],[-83.706793,38.024177],[-83.706705,38.024225],[-83.706623,38.024284],[-83.706409,38.0245],[-83.706342,38.024559],[-83.706119,38.024803],[-83.706041,38.024879],[-83.705971,38.024957],[-83.705833,38.025097],[-83.705706,38.025249],[-83.705623,38.025309],[-83.705489,38.025456],[-83.705417,38.025529],[-83.705247,38.025664],[-83.704988,38.025857],[-83.704903,38.025914],[-83.704817,38.025966],[-83.704728,38.026011],[-83.704636,38.026047],[-83.704438,38.026094],[-83.704338,38.026114],[-83.704228,38.026142],[-83.70412,38.026178],[-83.703774,38.026253],[-83.703554,38.026297],[-83.703341,38.026327],[-83.703238,38.026337],[-83.703039,38.026344],[-83.702944,38.02633],[-83.702848,38.026309],[-83.702653,38.026253],[-83.702244,38.026117],[-83.702034,38.026038],[-83.701712,38.025907],[-83.701601,38.02586],[-83.701285,38.025709],[-83.701077,38.0256],[-83.700966,38.025546],[-83.700848,38.025495],[-83.700721,38.025451],[-83.700585,38.025414],[-83.700441,38.025383],[-83.700292,38.025346],[-83.700001,38.025258],[-83.699868,38.025221],[-83.699739,38.025194],[-83.699608,38.025184],[-83.699474,38.025187],[-83.699185,38.025217],[-83.699032,38.025224],[-83.698875,38.025223],[-83.698713,38.025216],[-83.6983205,38.0251908],[-83.698216,38.025185],[-83.698063,38.025168],[-83.697917,38.025137],[-83.697773,38.025094],[-83.697481,38.025],[-83.697352,38.024955],[-83.697238,38.024906],[-83.697142,38.024849],[-83.697067,38.02478],[-83.696934,38.024522],[-83.696885,38.024437],[-83.696823,38.024357],[-83.696746,38.02428],[-83.696648,38.02421],[-83.696422,38.024082],[-83.696321,38.02402],[-83.696218,38.023951],[-83.6957629,38.023611],[-83.695617,38.023482],[-83.695509,38.023409],[-83.695404,38.023354],[-83.695295,38.023314],[-83.695052,38.023232],[-83.694773,38.023131],[-83.694471,38.023009],[-83.69431,38.02295],[-83.694152,38.022898],[-83.6938953,38.0228221],[-83.693435,38.022687],[-83.693067,38.022565],[-83.692707,38.022446],[-83.691897,38.022168],[-83.691739,38.022121],[-83.691414,38.022035],[-83.690678,38.021861],[-83.690288,38.021764],[-83.690092,38.021723],[-83.689897,38.021686],[-83.689525,38.021625],[-83.689352,38.021603],[-83.689179,38.021591],[-83.689002,38.02159],[-83.688823,38.021601],[-83.688645,38.021628],[-83.688481,38.021666],[-83.688336,38.021711],[-83.6882,38.021759],[-83.68807,38.021809],[-83.687821,38.021911],[-83.687709,38.021963],[-83.687603,38.022021],[-83.687503,38.022088],[-83.687408,38.022163],[-83.687216,38.022324],[-83.687107,38.022403],[-83.686987,38.022476],[-83.686625,38.022656],[-83.686532,38.022719],[-83.686466,38.022792],[-83.686421,38.022876],[-83.686361,38.02306],[-83.686311,38.023145],[-83.686233,38.023211],[-83.686133,38.023256],[-83.686015,38.023277],[-83.685891,38.023272],[-83.685768,38.023257],[-83.685649,38.023238],[-83.685426,38.023213],[-83.685168,38.023194],[-83.684654,38.023185],[-83.684363,38.023189],[-83.684028,38.02317],[-83.683855,38.023163],[-83.683679,38.023159],[-83.683504,38.023159],[-83.683336,38.023168],[-83.683175,38.023188],[-83.683023,38.023219],[-83.682879,38.023256],[-83.682742,38.023295],[-83.682199,38.023455],[-83.682073,38.023506],[-83.681956,38.023569],[-83.681719,38.023718],[-83.681592,38.023794],[-83.681319,38.023946],[-83.681173,38.02402],[-83.680853,38.024161],[-83.680355,38.024389],[-83.680185,38.024463],[-83.68001,38.024534],[-83.679662,38.02467],[-83.679321,38.024798],[-83.679158,38.024866],[-83.678987,38.02493],[-83.678649,38.025065],[-83.678326,38.025201],[-83.67818,38.025257],[-83.678035,38.025308],[-83.677881,38.025348],[-83.677719,38.02538],[-83.677062,38.025483],[-83.676927,38.02552],[-83.676803,38.025575],[-83.676688,38.025646],[-83.676461,38.025806],[-83.676335,38.025882],[-83.676202,38.025957],[-83.675621,38.026265],[-83.675483,38.026352],[-83.675363,38.026453],[-83.675261,38.026566],[-83.675173,38.026687],[-83.675007,38.026941],[-83.67500000000001,38.02695048387095]]}},{"type":"Feature","properties":{"osm_id":16310220,"highway":"residential","name":"Ferguson Hollow Road","alt_name":null,"official_name":null,"surface":null,"tracktype":null,"service":null,"access":null,"motor_vehicle":null,"foot":null,"tiger_reviewed":"no","rrgh_part":0,"rrgh_tile_part":0},"geometry":{"type":"LineString","coordinates":[[-83.7125323,37.9924436],[-83.712558,37.992448],[-83.712737,37.992458],[-83.713803,37.992679],[-83.714119,37.992708],[-83.714995,37.992753],[-83.716751,37.992767],[-83.716848,37.992762],[-83.717355,37.992737],[-83.718416,37.992706],[-83.719574,37.992652],[-83.71975,37.992657],[-83.719823,37.992663],[-83.720537,37.992717],[-83.720813,37.992756],[-83.720994,37.992793],[-83.721141,37.992836],[-83.721209,37.992866],[-83.721592,37.993099],[-83.721681,37.993127],[-83.721797,37.993134]]}},{"type":"Feature","properties":{"osm_id":970143772,"highway":"service","name":null,"alt_name":null,"official_name":null,"surface":null,"tracktype":null,"service":null,"access":null,"motor_vehicle":null,"foot":null,"tiger_reviewed":null,"rrgh_part":0,"rrgh_tile_part":0},"geometry":{"type":"LineString","coordinates":[[-83.717399,37.99724],[-83.717262,37.9972119],[-83.7171496,37.9970997],[-83.7171004,37.9969211],[-83.7170617,37.9965915],[-83.7170318,37.9964239],[-83.7169861,37.9961068],[-83.7169,37.9958644],[-83.7168174,37.9957314],[-83.716668,37.9956553],[-83.7164167,37.9956248],[-83.7160178,37.995683],[-83.7155978,37.995773],[-83.7153553,37.9958007],[-83.7146418,37.9960458],[-83.7138685,37.9962549],[-83.7132886,37.9964004],[-83.712909,37.9965291],[-83.7127139,37.9966427],[-83.7124363,37.996759],[-83.7120707,37.996874],[-83.7117122,37.9970152]]}},{"type":"Feature","properties":{"osm_id":16310217,"highway":"service","name":"Dillion Road","alt_name":null,"official_name":null,"surface":null,"tracktype":null,"service":null,"access":"private","motor_vehicle":null,"foot":null,"tiger_reviewed":"no","rrgh_part":0,"rrgh_tile_part":0},"geometry":{"type":"LineString","coordinates":[[-83.719272,37.997469],[-83.719074,37.997473],[-83.718597,37.997434],[-83.718457,37.997396],[-83.71829,37.99735],[-83.718186,37.997332],[-83.717729,37.99725],[-83.717565,37.997234],[-83.717399,37.99724]]}},{"type":"Feature","properties":{"osm_id":970143771,"highway":"service","name":null,"alt_name":null,"official_name":null,"surface":null,"tracktype":null,"service":null,"access":null,"motor_vehicle":null,"foot":null,"tiger_reviewed":null,"rrgh_part":0,"rrgh_tile_part":0},"geometry":{"type":"LineString","coordinates":[[-83.7125323,37.9924436],[-83.7125058,37.9924424],[-83.712284,37.9923494],[-83.7120152,37.99216],[-83.7118585,37.9920589],[-83.711543,37.9919707],[-83.7112824,37.9919226],[-83.7112051,37.9920108],[-83.711089,37.992091],[-83.7108916,37.9921279],[-83.710458,37.9921552],[-83.7100896,37.992168],[-83.7094036,37.992099],[-83.709029,37.9920605],[-83.7087868,37.9919691],[-83.7086118,37.9919226],[-83.7083594,37.9920316],[-83.707539,37.9924648]]}},{"type":"Feature","properties":{"osm_id":16308551,"highway":"residential","name":null,"alt_name":null,"official_name":null,"surface":null,"tracktype":null,"service":null,"access":null,"motor_vehicle":null,"foot":null,"tiger_reviewed":"no","rrgh_part":0,"rrgh_tile_part":0},"geometry":{"type":"LineString","coordinates":[[-83.687821,37.97864],[-83.688486,37.978503],[-83.688803,37.978732],[-83.68915,37.979807],[-83.689237,37.979853],[-83.689266,37.980105],[-83.689873,37.980837],[-83.690018,37.981797],[-83.690567,37.982369]]}},{"type":"Feature","properties":{"osm_id":970143767,"highway":"service","name":null,"alt_name":null,"official_name":null,"surface":null,"tracktype":null,"service":null,"access":null,"motor_vehicle":null,"foot":null,"tiger_reviewed":null,"rrgh_part":0,"rrgh_tile_part":0},"geometry":{"type":"LineString","coordinates":[[-83.6815979,37.9764975],[-83.6815065,37.976395],[-83.6814257,37.9762343],[-83.681336,37.9760224],[-83.6811181,37.9757799],[-83.6809881,37.9756428],[-83.6809582,37.9755444],[-83.6809863,37.975471],[-83.6810689,37.9754073],[-83.6811954,37.9753464],[-83.6814134,37.9752729],[-83.6815856,37.975212],[-83.6817332,37.9751954],[-83.6818035,37.9752397],[-83.6818562,37.9755001],[-83.6819195,37.9756539],[-83.6819752,37.9756707]]}},{"type":"Feature","properties":{"osm_id":970143768,"highway":"service","name":null,"alt_name":null,"official_name":null,"surface":null,"tracktype":null,"service":null,"access":null,"motor_vehicle":null,"foot":null,"tiger_reviewed":null,"rrgh_part":0,"rrgh_tile_part":0},"geometry":{"type":"LineString","coordinates":[[-83.679004,37.977045],[-83.6788784,37.9774324],[-83.6786949,37.9777708],[-83.6785739,37.9779512],[-83.678502,37.9779661],[-83.6784263,37.9779527],[-83.6783677,37.9777768],[-83.6783223,37.97758],[-83.6782656,37.9773713]]}},{"type":"Feature","properties":{"osm_id":16308557,"highway":"service","name":null,"alt_name":null,"official_name":null,"surface":null,"tracktype":null,"service":null,"access":"private","motor_vehicle":null,"foot":null,"tiger_reviewed":"no","rrgh_part":0,"rrgh_tile_part":0},"geometry":{"type":"LineString","coordinates":[[-83.689266,37.980105],[-83.689284,37.980932],[-83.689096,37.981716],[-83.688665,37.982691],[-83.688073,37.983157],[-83.687293,37.983517],[-83.686554,37.983833]]}},{"type":"Feature","properties":{"osm_id":16089675,"highway":"residential","name":"Slate Creek Road","alt_name":null,"official_name":null,"surface":null,"tracktype":null,"service":null,"access":null,"motor_vehicle":null,"foot":null,"tiger_reviewed":"no","rrgh_part":0,"rrgh_tile_part":0},"geometry":{"type":"LineString","coordinates":[[-83.7172988,38.0031961],[-83.717275,38.003403],[-83.717274,38.003423]]}},{"type":"Feature","properties":{"osm_id":16086161,"highway":"residential","name":"Garland Hollow Road","alt_name":null,"official_name":null,"surface":null,"tracktype":null,"service":null,"access":null,"motor_vehicle":null,"foot":null,"tiger_reviewed":"no","rrgh_part":0,"rrgh_tile_part":0},"geometry":{"type":"LineString","coordinates":[[-83.717274,38.003423],[-83.71727,38.003519],[-83.71727,38.003582],[-83.717275,38.003654],[-83.717279,38.003733],[-83.717277,38.003799],[-83.717277,38.003879],[-83.717273,38.003964],[-83.717263,38.00405],[-83.717255,38.004136],[-83.717244,38.004219],[-83.717216,38.004384],[-83.717211,38.004468],[-83.717203,38.004549],[-83.717205,38.004632],[-83.717196,38.004711],[-83.717189,38.004786],[-83.71718,38.004859],[-83.717174,38.004933],[-83.717174,38.005006],[-83.717179,38.005078],[-83.71719,38.00515],[-83.71722,38.005285],[-83.717239,38.005349],[-83.717257,38.005414],[-83.717275,38.005484],[-83.717291,38.005559],[-83.717343,38.005781],[-83.717369,38.005923],[-83.717381,38.005993],[-83.717391,38.006062],[-83.717394,38.006191],[-83.717376,38.00626],[-83.717359,38.00633],[-83.717336,38.006407],[-83.71729,38.006572],[-83.717271,38.006654],[-83.717232,38.006899],[-83.71721,38.007059],[-83.717201,38.007138],[-83.717194,38.007218],[-83.717192,38.007298],[-83.717193,38.007378],[-83.717199,38.007459],[-83.717218,38.007624],[-83.717231,38.007707],[-83.717246,38.007792],[-83.717263,38.007875],[-83.717298,38.008033],[-83.717317,38.008107],[-83.717335,38.008182],[-83.717361,38.00826],[-83.717436,38.008514],[-83.717481,38.008679],[-83.717526,38.008837],[-83.717596,38.009071],[-83.717625,38.009225],[-83.717644,38.009302],[-83.717656,38.009377],[-83.717683,38.009528],[-83.717693,38.009603],[-83.71771,38.009752],[-83.717719,38.009831],[-83.717726,38.009908],[-83.717735,38.009984],[-83.717756,38.010138],[-83.717774,38.010292],[-83.717786,38.010369],[-83.7178,38.010445],[-83.717813,38.010522],[-83.717832,38.010598],[-83.717854,38.010675],[-83.717882,38.010749],[-83.717917,38.010822],[-83.717958,38.010892],[-83.71806,38.011028],[-83.718106,38.011097],[-83.718145,38.011169],[-83.718176,38.011246],[-83.718198,38.011327],[-83.718215,38.01141],[-83.718244,38.011579],[-83.718261,38.011662],[-83.718302,38.011824],[-83.718316,38.011901],[-83.71835,38.011993],[-83.71838,38.012082],[-83.718404,38.012137],[-83.718442,38.012214],[-83.718474,38.012274],[-83.718503,38.012335],[-83.718524,38.012402],[-83.718539,38.012471],[-83.718538,38.012537],[-83.718534,38.012564],[-83.718529,38.012603],[-83.718517,38.012668],[-83.718504,38.012731],[-83.718488,38.012791],[-83.718467,38.012847],[-83.718448,38.012901],[-83.71844,38.01292],[-83.718428,38.012949],[-83.718405,38.012999],[-83.718307,38.013236],[-83.718243,38.01337],[-83.718176,38.013514],[-83.718144,38.013587],[-83.718115,38.013659],[-83.718089,38.013729],[-83.718015,38.013941],[-83.71799,38.01402],[-83.717967,38.014102],[-83.717926,38.014269],[-83.717908,38.014354],[-83.717897,38.01444],[-83.717894,38.014527],[-83.717899,38.014614],[-83.717913,38.014698],[-83.717936,38.01478],[-83.717967,38.014859],[-83.718003,38.014934],[-83.718203,38.015286],[-83.718241,38.015357],[-83.718281,38.015427],[-83.718316,38.015499],[-83.718347,38.015571],[-83.718372,38.015644],[-83.718389,38.015718],[-83.718401,38.01579],[-83.718401,38.015861],[-83.718397,38.015932],[-83.718384,38.016001],[-83.718362,38.016073],[-83.718341,38.016151],[-83.718323,38.01623],[-83.71829,38.016389],[-83.718261,38.016552],[-83.718245,38.016634],[-83.718226,38.016721],[-83.718201,38.01681],[-83.718184,38.016894],[-83.718141,38.017057],[-83.718119,38.017134],[-83.718096,38.017208],[-83.718075,38.017281],[-83.718066,38.017333],[-83.718056,38.01744],[-83.718058,38.017492],[-83.718065,38.017544],[-83.718125,38.017751],[-83.718156,38.017823],[-83.718192,38.017899],[-83.71823,38.017974],[-83.718301,38.018119],[-83.718332,38.018185],[-83.718379,38.018302],[-83.718435,38.018427],[-83.718466,38.018502],[-83.718491,38.018568],[-83.718522,38.018636],[-83.718548,38.018706],[-83.718583,38.018768],[-83.718613,38.018832],[-83.718645,38.018896],[-83.718721,38.019019],[-83.718768,38.019085],[-83.718807,38.019145],[-83.718845,38.019208],[-83.718878,38.019273],[-83.718965,38.019482],[-83.718997,38.019557],[-83.719111,38.019778],[-83.719191,38.019928],[-83.71928,38.020069],[-83.719318,38.02014],[-83.719425,38.020349],[-83.719457,38.020417],[-83.719579,38.02067],[-83.719604,38.020725],[-83.719658,38.020832],[-83.719705,38.020908],[-83.719758,38.020994],[-83.719795,38.021049],[-83.719832,38.021107],[-83.719865,38.02117],[-83.719903,38.021235],[-83.720027,38.021441],[-83.720193,38.021706],[-83.720233,38.021768],[-83.720275,38.021831],[-83.720403,38.02203],[-83.720529,38.022223],[-83.720606,38.022337],[-83.720688,38.022466],[-83.720727,38.022537],[-83.720836,38.022742],[-83.720872,38.022808],[-83.720951,38.022942],[-83.72099,38.023006],[-83.721029,38.023064],[-83.721071,38.023116],[-83.721118,38.023167],[-83.721168,38.023215],[-83.721222,38.02326],[-83.721277,38.023302],[-83.721314,38.023326],[-83.721332,38.023364],[-83.721342,38.023393],[-83.721348,38.023429],[-83.721344,38.023466],[-83.72133,38.023497],[-83.721313,38.023523],[-83.721298,38.023542],[-83.721289,38.023552],[-83.721273,38.023567]]}},{"type":"Feature","properties":{"osm_id":16089611,"highway":"residential","name":"Greenhouse Road","alt_name":null,"official_name":null,"surface":null,"tracktype":null,"service":null,"access":null,"motor_vehicle":null,"foot":null,"tiger_reviewed":"no","rrgh_part":0,"rrgh_tile_part":0},"geometry":{"type":"LineString","coordinates":[[-83.718534,38.012564],[-83.718515,38.012564],[-83.718431,38.012558],[-83.718334,38.012555],[-83.718249,38.012558],[-83.718113,38.012577],[-83.718063,38.012589],[-83.718012,38.012606],[-83.717811,38.012634],[-83.717604,38.01265],[-83.717504,38.012653],[-83.717354,38.012645],[-83.717254,38.012644],[-83.717156,38.012649],[-83.716746,38.012687],[-83.716642,38.01269],[-83.716439,38.012683],[-83.716331,38.012688],[-83.716001,38.012729],[-83.715885,38.012737],[-83.715765,38.012732],[-83.715577,38.012711],[-83.715514,38.012706],[-83.71545,38.012705],[-83.715206,38.012718],[-83.714988,38.01274],[-83.714927,38.012742],[-83.714864,38.01274],[-83.714801,38.012734],[-83.714738,38.012724],[-83.714679,38.012711],[-83.714525,38.012659],[-83.714478,38.012645],[-83.714429,38.012636],[-83.714388,38.012623],[-83.714342,38.012615],[-83.714297,38.012613],[-83.714253,38.012616],[-83.714211,38.012624],[-83.714173,38.012638],[-83.714139,38.012658],[-83.714109,38.012682],[-83.713993,38.012808],[-83.713907,38.012876],[-83.71379,38.012938],[-83.71351,38.013066],[-83.713399,38.013134]]}},{"type":"Feature","properties":{"osm_id":16310635,"highway":"service","name":"Jo Dean Lane","alt_name":null,"official_name":null,"surface":null,"tracktype":null,"service":null,"access":null,"motor_vehicle":null,"foot":null,"tiger_reviewed":"no","rrgh_part":0,"rrgh_tile_part":0},"geometry":{"type":"LineString","coordinates":[[-83.717322,38.003061],[-83.717053,38.003179],[-83.716835,38.00331],[-83.716776,38.003372],[-83.716737,38.003436],[-83.71664,38.003705],[-83.716552,38.003967],[-83.7165,38.004093],[-83.716433,38.004191],[-83.716348,38.004255],[-83.716248,38.004292],[-83.716115,38.004306],[-83.71552,38.004313],[-83.715248,38.004391],[-83.715177,38.004433],[-83.715003,38.004519],[-83.714882,38.004548],[-83.714567,38.004545],[-83.714487,38.004544],[-83.714169,38.004565],[-83.71391,38.004632],[-83.713717,38.004656],[-83.713585,38.004662],[-83.713331,38.004698],[-83.713214,38.004722],[-83.712825,38.004904],[-83.712723,38.004935],[-83.71257,38.004941],[-83.712268,38.004926],[-83.712131,38.004932],[-83.711954,38.004955],[-83.711862,38.004972],[-83.711669,38.005009],[-83.711529,38.00502],[-83.711486,38.005016],[-83.711057,38.004979],[-83.711024,38.004979],[-83.710927,38.00498],[-83.710729,38.004993],[-83.710641,38.004999],[-83.710298,38.004983],[-83.710111,38.004974],[-83.710041,38.004981],[-83.710016,38.004989],[-83.709971,38.005004],[-83.709767,38.005045],[-83.709654,38.005055],[-83.709298,38.0052]]}},{"type":"Feature","properties":{"osm_id":970143775,"highway":"service","name":null,"alt_name":null,"official_name":null,"surface":null,"tracktype":null,"service":null,"access":null,"motor_vehicle":null,"foot":null,"tiger_reviewed":null,"rrgh_part":0,"rrgh_tile_part":0},"geometry":{"type":"LineString","coordinates":[[-83.718405,38.012999],[-83.7181852,38.0129607],[-83.7178221,38.0128939],[-83.7175345,38.0128679],[-83.7172893,38.0128957],[-83.7172374,38.0129663],[-83.7175463,38.0138004],[-83.7175628,38.0139806],[-83.717967,38.014102]]}},{"type":"Feature","properties":{"osm_id":970143774,"highway":"track","name":null,"alt_name":null,"official_name":null,"surface":null,"tracktype":null,"service":null,"access":null,"motor_vehicle":null,"foot":null,"tiger_reviewed":null,"rrgh_part":0,"rrgh_tile_part":0},"geometry":{"type":"LineString","coordinates":[[-83.71257,38.004941],[-83.7125995,38.0050903],[-83.7126089,38.0052631],[-83.7124957,38.0056179],[-83.712333,38.0060025],[-83.7121138,38.006192],[-83.7116894,38.0065208],[-83.7113805,38.0068218]]}},{"type":"Feature","properties":{"osm_id":970143773,"highway":"service","name":null,"alt_name":null,"official_name":null,"surface":null,"tracktype":null,"service":null,"access":null,"motor_vehicle":null,"foot":null,"tiger_reviewed":null,"rrgh_part":0,"rrgh_tile_part":0},"geometry":{"type":"LineString","coordinates":[[-83.709298,38.0052],[-83.7090652,38.0053151],[-83.708985,38.0054451],[-83.7090628,38.0056161],[-83.7092113,38.0057015],[-83.7096027,38.0058427]]}},{"type":"Feature","properties":{"osm_id":16086166,"highway":"residential","name":"Garland Hollow Road","alt_name":null,"official_name":null,"surface":null,"tracktype":null,"service":null,"access":null,"motor_vehicle":null,"foot":null,"tiger_reviewed":"no","rrgh_part":0,"rrgh_tile_part":0},"geometry":{"type":"LineString","coordinates":[[-83.72179,38.023592],[-83.721769,38.023582],[-83.721546,38.023464],[-83.721447,38.023408],[-83.721314,38.023326]]}},{"type":"Feature","properties":{"osm_id":16082718,"highway":"service","name":null,"alt_name":null,"official_name":null,"surface":null,"tracktype":null,"service":null,"access":"private","motor_vehicle":null,"foot":null,"tiger_reviewed":"no","rrgh_part":0,"rrgh_tile_part":0},"geometry":{"type":"LineString","coordinates":[[-83.6961057,38.0225079],[-83.695985,38.0230275],[-83.6957629,38.023611]]}},{"type":"Feature","properties":{"osm_id":16083320,"highway":"service","name":null,"alt_name":null,"official_name":null,"surface":null,"tracktype":null,"service":null,"access":"private","motor_vehicle":null,"foot":null,"tiger_reviewed":"no","rrgh_part":0,"rrgh_tile_part":0},"geometry":{"type":"LineString","coordinates":[[-83.6984249,38.025562],[-83.6985791,38.0265059],[-83.6985124,38.0269879],[-83.6985771,38.0276763],[-83.6985586,38.0283153],[-83.6985959,38.0284386],[-83.6984168,38.0292367]]}},{"type":"Feature","properties":{"osm_id":970143776,"highway":"service","name":null,"alt_name":null,"official_name":null,"surface":null,"tracktype":null,"service":null,"access":null,"motor_vehicle":null,"foot":null,"tiger_reviewed":null,"rrgh_part":0,"rrgh_tile_part":0},"geometry":{"type":"LineString","coordinates":[[-83.6938953,38.0228221],[-83.69393,38.0227475],[-83.6939527,38.0224049],[-83.6939603,38.0220413],[-83.6939906,38.0217746],[-83.6940757,38.021271],[-83.6941532,38.0209015],[-83.6943008,38.020754],[-83.6944105,38.0206556],[-83.694522,38.0203561]]}},{"type":"Feature","properties":{"osm_id":16082668,"highway":"service","name":null,"alt_name":null,"official_name":null,"surface":null,"tracktype":null,"service":null,"access":"private","motor_vehicle":null,"foot":null,"tiger_reviewed":"no","rrgh_part":0,"rrgh_tile_part":0},"geometry":{"type":"LineString","coordinates":[[-83.6983205,38.0251908],[-83.6984249,38.025562]]}},{"type":"Feature","properties":{"osm_id":970143777,"highway":"service","name":null,"alt_name":null,"official_name":null,"surface":null,"tracktype":null,"service":null,"access":null,"motor_vehicle":null,"foot":null,"tiger_reviewed":null,"rrgh_part":0,"rrgh_tile_part":0},"geometry":{"type":"LineString","coordinates":[[-83.693067,38.022565],[-83.6930323,38.022766],[-83.6930111,38.0230019],[-83.6929804,38.0232675],[-83.6929427,38.0234476],[-83.692945,38.0238098],[-83.6928743,38.0244599],[-83.6927352,38.024705]]}},{"type":"Feature","properties":{"osm_id":970143778,"highway":"service","name":null,"alt_name":null,"official_name":null,"surface":null,"tracktype":null,"service":null,"access":null,"motor_vehicle":null,"foot":null,"tiger_reviewed":null,"rrgh_part":0,"rrgh_tile_part":0},"geometry":{"type":"LineString","coordinates":[[-83.675483,38.026352],[-83.6755763,38.0263992],[-83.6758857,38.0265804],[-83.6764272,38.0268803],[-83.6766104,38.0269925],[-83.676761,38.027047],[-83.6769116,38.0270535],[-83.6770663,38.0270198],[-83.6771966,38.0269605],[-83.6772454,38.0268546]]}},{"type":"Feature","properties":{"osm_id":16082791,"highway":"residential","name":null,"alt_name":null,"official_name":null,"surface":null,"tracktype":null,"service":null,"access":null,"motor_vehicle":null,"foot":null,"tiger_reviewed":"no","rrgh_part":0,"rrgh_tile_part":0},"geometry":{"type":"LineString","coordinates":[[-83.750241,38.03663],[-83.75135,38.037686],[-83.751195,38.039107],[-83.752995,38.041677],[-83.753416,38.04287],[-83.753504,38.042939],[-83.757433,38.043052],[-83.757698,38.042965]]}},{"type":"Feature","properties":{"osm_id":16089446,"highway":"residential","name":"Perry Road","alt_name":null,"official_name":null,"surface":null,"tracktype":null,"service":null,"access":null,"motor_vehicle":null,"foot":null,"tiger_reviewed":"no","rrgh_part":0,"rrgh_tile_part":0},"geometry":{"type":"LineString","coordinates":[[-83.756072,38.047193],[-83.756158,38.047179],[-83.756263,38.04715],[-83.756458,38.047074],[-83.75665,38.046991],[-83.756841,38.046923],[-83.757075,38.046858],[-83.757331,38.046794],[-83.757617,38.046748],[-83.758162,38.046688],[-83.758425,38.046673],[-83.758735,38.046664],[-83.759236,38.046628],[-83.759624,38.046617],[-83.759903,38.046623],[-83.759994,38.046634],[-83.76,38.04663533714285]]}},{"type":"Feature","properties":{"osm_id":16082236,"highway":"residential","name":"Hartgrove Cemetery Road","alt_name":null,"official_name":null,"surface":null,"tracktype":null,"service":null,"access":null,"motor_vehicle":null,"foot":null,"tiger_reviewed":"no","rrgh_part":0,"rrgh_tile_part":0},"geometry":{"type":"LineString","coordinates":[[-83.756867,38.044912],[-83.756833,38.04489],[-83.756766,38.04486],[-83.756679,38.044832],[-83.756517,38.044796],[-83.756399,38.044774],[-83.756033,38.04469],[-83.75591,38.044659],[-83.755596,38.044568],[-83.755467,38.044535],[-83.755256,38.044497],[-83.755167,38.044477],[-83.754883,38.04439],[-83.754826,38.044375],[-83.754766,38.044368],[-83.754706,38.044372],[-83.754649,38.044386],[-83.754597,38.044405],[-83.754544,38.04442],[-83.754493,38.044424],[-83.754445,38.04442],[-83.754324,38.044382],[-83.754257,38.044369],[-83.754225,38.044369],[-83.75417,38.044377]]}},{"type":"Feature","properties":{"osm_id":765592280,"highway":"service","name":null,"alt_name":null,"official_name":null,"surface":null,"tracktype":null,"service":null,"access":null,"motor_vehicle":null,"foot":null,"tiger_reviewed":null,"rrgh_part":0,"rrgh_tile_part":0},"geometry":{"type":"LineString","coordinates":[[-83.754226,38.0337],[-83.7537491,38.0341304]]}},{"type":"Feature","properties":{"osm_id":955681452,"highway":"service","name":null,"alt_name":null,"official_name":null,"surface":null,"tracktype":null,"service":null,"access":null,"motor_vehicle":null,"foot":null,"tiger_reviewed":null,"rrgh_part":0,"rrgh_tile_part":0},"geometry":{"type":"LineString","coordinates":[[-83.740906,38.04465],[-83.7411074,38.0445074],[-83.7413083,38.0443991],[-83.7414349,38.0443449],[-83.7415559,38.0443232],[-83.7417734,38.0442387],[-83.741955,38.0441325],[-83.7420155,38.0440458],[-83.7420953,38.0438963]]}},{"type":"Feature","properties":{"osm_id":16082731,"highway":"residential","name":null,"alt_name":null,"official_name":null,"surface":null,"tracktype":null,"service":null,"access":null,"motor_vehicle":null,"foot":null,"tiger_reviewed":"no","rrgh_part":0,"rrgh_tile_part":0},"geometry":{"type":"LineString","coordinates":[[-83.736074,38.045287],[-83.736726,38.045397],[-83.737531,38.045525],[-83.738336,38.045531],[-83.738853,38.04554],[-83.73926,38.045491],[-83.739766,38.045384],[-83.74002,38.04519],[-83.740341,38.044958],[-83.740906,38.04465]]}},{"type":"Feature","properties":{"osm_id":16082729,"highway":"residential","name":null,"alt_name":null,"official_name":null,"surface":null,"tracktype":null,"service":null,"access":null,"motor_vehicle":null,"foot":null,"tiger_reviewed":"no","rrgh_part":0,"rrgh_tile_part":0},"geometry":{"type":"LineString","coordinates":[[-83.737754,38.048379],[-83.739883,38.047961],[-83.740026,38.047928]]}},{"type":"Feature","properties":{"osm_id":16083443,"highway":"residential","name":"Swampy Hollow Road","alt_name":null,"official_name":null,"surface":null,"tracktype":null,"service":null,"access":null,"motor_vehicle":null,"foot":null,"tiger_reviewed":"no","rrgh_part":0,"rrgh_tile_part":0},"geometry":{"type":"LineString","coordinates":[[-83.709408,38.049498],[-83.709465,38.049576],[-83.7095,38.049646],[-83.709516,38.049697],[-83.709533,38.049735],[-83.709587,38.049837],[-83.70965174564459,38.05]]}},{"type":"Feature","properties":{"osm_id":16089867,"highway":"residential","name":"Star Shader Lane","alt_name":null,"official_name":null,"surface":null,"tracktype":null,"service":null,"access":null,"motor_vehicle":null,"foot":null,"tiger_reviewed":"no","rrgh_part":0,"rrgh_tile_part":0},"geometry":{"type":"LineString","coordinates":[[-83.67500000000001,38.0301316923077],[-83.67503,38.030184],[-83.675083,38.030245],[-83.675144,38.030302],[-83.67546,38.030412],[-83.67554,38.030457],[-83.675615,38.030515],[-83.675684,38.030579],[-83.675752,38.030649],[-83.675814,38.03069],[-83.675907,38.03076],[-83.676098,38.030836],[-83.67621,38.030851],[-83.676434,38.030867],[-83.676546,38.030886],[-83.676653,38.030916],[-83.676754,38.030956],[-83.676942,38.03106],[-83.677364,38.031197],[-83.677447,38.031208],[-83.677528,38.031224],[-83.677608,38.031252],[-83.677761,38.031333],[-83.677907,38.031445],[-83.677988,38.031501],[-83.678079,38.031549],[-83.678179,38.031589],[-83.678397,38.031649],[-83.678502,38.031685],[-83.678596,38.03173],[-83.67868,38.031784],[-83.678757,38.031845],[-83.678963,38.032022],[-83.679017,38.032078],[-83.679062,38.032132],[-83.67914,38.03225],[-83.679197,38.0323],[-83.679266,38.032354],[-83.679347,38.032398],[-83.679444,38.032426],[-83.679548,38.032441],[-83.679652,38.032469],[-83.679869,38.032496],[-83.679977,38.032517],[-83.680083,38.032544],[-83.680187,38.032578],[-83.680278,38.03263],[-83.680361,38.032691],[-83.680449,38.032746],[-83.680541,38.032796],[-83.680853,38.032906],[-83.681057,38.032968],[-83.681267,38.033012],[-83.681371,38.033043],[-83.681467,38.033087],[-83.681555,38.033134],[-83.681637,38.033185],[-83.681812,38.033255],[-83.681899,38.033277],[-83.681986,38.033311],[-83.682059,38.033349],[-83.68213,38.033401],[-83.682208,38.033448],[-83.682258,38.033489],[-83.682358,38.033629],[-83.682404,38.0337],[-83.682514,38.033836],[-83.682579,38.033905],[-83.682634,38.033977],[-83.682699,38.034054],[-83.682747,38.034125],[-83.682805,38.0342],[-83.682942,38.03433],[-83.683052,38.034458],[-83.68318,38.034685],[-83.68328,38.034825],[-83.683398,38.034978],[-83.683467,38.03505],[-83.683706,38.035244],[-83.683935,38.035405],[-83.684102,38.035571],[-83.684181,38.035643],[-83.684221,38.035675],[-83.684353,38.035804],[-83.684457,38.035924],[-83.684515,38.035985],[-83.684624,38.036088],[-83.684803,38.036291],[-83.684835,38.03635],[-83.684905,38.036444],[-83.684918,38.036504],[-83.684937,38.036685],[-83.684935,38.036732],[-83.684897,38.036822],[-83.684863,38.036863],[-83.684822,38.036899]]}},{"type":"Feature","properties":{"osm_id":16089708,"highway":"residential","name":"Starshader Lane","alt_name":null,"official_name":null,"surface":null,"tracktype":null,"service":null,"access":null,"motor_vehicle":null,"foot":null,"tiger_reviewed":"no","rrgh_part":0,"rrgh_tile_part":0},"geometry":{"type":"LineString","coordinates":[[-83.684796,38.036963],[-83.684822,38.036899],[-83.684733,38.036964],[-83.684653,38.037029],[-83.684623,38.037063],[-83.684599,38.037099],[-83.684587,38.037134],[-83.684585,38.037164],[-83.684595,38.037192],[-83.684618,38.037211],[-83.684647,38.03722],[-83.684667,38.037221],[-83.684692,38.037216],[-83.684734,38.037195],[-83.68476,38.03717],[-83.684775,38.037142],[-83.684786,38.037101],[-83.684784,38.037036],[-83.684796,38.036963]]}},{"type":"Feature","properties":{"osm_id":16083097,"highway":"service","name":null,"alt_name":null,"official_name":null,"surface":null,"tracktype":null,"service":null,"access":"private","motor_vehicle":null,"foot":null,"tiger_reviewed":"no","rrgh_part":0,"rrgh_tile_part":0},"geometry":{"type":"LineString","coordinates":[[-83.67500000000001,38.03666236820084],[-83.67509,38.036694]]}}],"rrgh_tile":{"id":"r8c3","bounds":[37.974999999999994,-83.76,38.05,-83.67500000000001]}}
