{"type":"FeatureCollection","features":[{"type":"Feature","properties":{"osm_id":16310687,"highway":"residential","name":"Stone Quarry Road","alt_name":null,"official_name":null,"surface":null,"tracktype":null,"service":null,"access":null,"motor_vehicle":null,"foot":null,"tiger_reviewed":"no","rrgh_part":0,"rrgh_tile_part":0},"geometry":{"type":"LineString","coordinates":[[-83.64463605882355,37.974999999999994],[-83.644187,37.975086],[-83.643169,37.975216],[-83.6430459,37.9752777],[-83.642718,37.975442],[-83.641122,37.9765926],[-83.6397007,37.9774209],[-83.6375068,37.9782084],[-83.63729,37.97839],[-83.637149,37.978492],[-83.636919,37.978616],[-83.636124,37.979619],[-83.635912,37.979863],[-83.63539,37.980388],[-83.635254,37.98056],[-83.63517,37.980688],[-83.635035,37.981016],[-83.6348416,37.9817083],[-83.6348319,37.9817429],[-83.634807,37.981832],[-83.634744,37.982113],[-83.634691,37.982346],[-83.6346838,37.9823839],[-83.634539,37.983142],[-83.634508,37.983304],[-83.634466,37.983582],[-83.634372,37.983982],[-83.634171,37.984503],[-83.634131,37.984606],[-83.6341125,37.984677],[-83.634079,37.984806],[-83.633919,37.98543],[-83.633857,37.9856151],[-83.63373,37.985994],[-83.633504,37.986545],[-83.632991,37.987682],[-83.632933,37.987792],[-83.632789,37.987994],[-83.632404,37.988423],[-83.632146,37.988877],[-83.632073,37.989088],[-83.631965,37.989286],[-83.631843,37.98948],[-83.631767,37.989566],[-83.631588,37.989715],[-83.630554,37.990332],[-83.630417,37.9904],[-83.630391,37.990413],[-83.630244,37.990512],[-83.6301848,37.9905545],[-83.630123,37.990599],[-83.630032,37.990703],[-83.629951,37.99084],[-83.629865,37.991013],[-83.629752,37.991302],[-83.629712,37.991488],[-83.629646,37.991998],[-83.629606,37.992668],[-83.629557,37.992918],[-83.629521,37.993039],[-83.628783,37.9944938],[-83.628755,37.994549],[-83.628724,37.994599],[-83.6286333,37.9946986],[-83.6284925,37.9948533]]}},{"type":"Feature","properties":{"osm_id":1266848678,"highway":"track","name":null,"alt_name":null,"official_name":null,"surface":null,"tracktype":null,"service":null,"access":null,"motor_vehicle":null,"foot":null,"tiger_reviewed":null,"rrgh_part":0,"rrgh_tile_part":0},"geometry":{"type":"LineString","coordinates":[[-83.650876,37.9802934],[-83.6514658,37.9799183],[-83.6520006,37.9797695],[-83.6522366,37.979565],[-83.6523074,37.979317],[-83.6522248,37.979131],[-83.6519495,37.9788613],[-83.651631,37.9786846],[-83.6516664,37.9784553],[-83.6519259,37.9781019],[-83.651863,37.9777423],[-83.6515759,37.9775098],[-83.6511827,37.9773735],[-83.6508013,37.9773425],[-83.6504041,37.9771038],[-83.6502153,37.9768682],[-83.6501974,37.9760837],[-83.6498008,37.9755079],[-83.6488095,37.975076],[-83.64813141247967,37.974999999999994]]}},{"type":"Feature","properties":{"osm_id":1324246289,"highway":"track","name":null,"alt_name":null,"official_name":null,"surface":null,"tracktype":null,"service":null,"access":null,"motor_vehicle":null,"foot":null,"tiger_reviewed":null,"rrgh_part":0,"rrgh_tile_part":0},"geometry":{"type":"LineString","coordinates":[[-83.64284624288834,37.974999999999994],[-83.6428786,37.9750529],[-83.6430459,37.9752777]]}},{"type":"Feature","properties":{"osm_id":16309220,"highway":"track","name":null,"alt_name":null,"official_name":null,"surface":null,"tracktype":null,"service":null,"access":null,"motor_vehicle":null,"foot":null,"tiger_reviewed":"no","rrgh_part":0,"rrgh_tile_part":0},"geometry":{"type":"LineString","coordinates":[[-83.6312336,37.9760021],[-83.631098,37.975858],[-83.629969,37.975374],[-83.629368,37.975244],[-83.629078,37.975107],[-83.62894643980738,37.974999999999994]]}},{"type":"Feature","properties":{"osm_id":16308827,"highway":"residential","name":null,"alt_name":null,"official_name":null,"surface":null,"tracktype":null,"service":null,"access":null,"motor_vehicle":null,"foot":null,"tiger_reviewed":"no","rrgh_part":0,"rrgh_tile_part":0},"geometry":{"type":"LineString","coordinates":[[-83.59946658417508,37.974999999999994],[-83.5999413,37.9752491],[-83.6000991,37.9755462],[-83.6005831,37.9760679],[-83.6006508,37.976187],[-83.600905,37.97669]]}},{"type":"Feature","properties":{"osm_id":16088729,"highway":"unclassified","name":"Pine Grove Road","alt_name":null,"official_name":null,"surface":null,"tracktype":null,"service":null,"access":null,"motor_vehicle":null,"foot":null,"tiger_reviewed":null,"rrgh_part":0,"rrgh_tile_part":0},"geometry":{"type":"LineString","coordinates":[[-83.67500000000001,38.02695048387095],[-83.674914,38.027067],[-83.674803,38.027188],[-83.674667,38.027295],[-83.674528,38.027391],[-83.674307,38.027537],[-83.674132,38.027664],[-83.674063,38.027723],[-83.673877,38.027878],[-83.673647,38.028083],[-83.673557,38.028158],[-83.673453,38.028235],[-83.673329,38.028306],[-83.673187,38.028363],[-83.673024,38.028417],[-83.672852,38.028465],[-83.67268,38.028504],[-83.6725,38.028535],[-83.672124,38.028585],[-83.671624,38.028623],[-83.671556,38.028634],[-83.671423,38.028663],[-83.67126,38.02869],[-83.67117,38.028712],[-83.671072,38.028741],[-83.670968,38.028778],[-83.670735,38.028874],[-83.670474,38.028999],[-83.670194,38.029142],[-83.669908,38.029306],[-83.669768,38.029392],[-83.669309,38.029654],[-83.669164,38.029754],[-83.668869,38.029935],[-83.66873,38.030016],[-83.668601,38.030102],[-83.668476,38.030197],[-83.668225,38.030418],[-83.668101,38.030543],[-83.667967,38.030664],[-83.667823,38.030781],[-83.66715,38.031398],[-83.6664468,38.0320125],[-83.666206,38.03222],[-83.666021,38.032366],[-83.665932,38.032427],[-83.665839,38.03248],[-83.665737,38.032502],[-83.665628,38.032516],[-83.665512,38.032513],[-83.665392,38.032496],[-83.665274,38.032466],[-83.665159,38.032441],[-83.665103,38.032439],[-83.665036,38.03245],[-83.664893,38.032485],[-83.664848,38.032503],[-83.664487,38.03269],[-83.664267,38.032816],[-83.664149,38.032889],[-83.663467,38.033333],[-83.663312,38.033423],[-83.663145,38.033506],[-83.662967,38.033586],[-83.661953,38.033991],[-83.6615,38.034163],[-83.661267,38.034248],[-83.660067,38.034642],[-83.659377,38.034877],[-83.658708,38.035089],[-83.658053,38.035301],[-83.657608,38.03545],[-83.657218,38.035582],[-83.65651,38.035805],[-83.656261,38.03588],[-83.656023,38.03596],[-83.655303,38.03619],[-83.654586,38.036413],[-83.654079,38.036561],[-83.653571,38.036701],[-83.6533783,38.0367499],[-83.6531154,38.0368166],[-83.652909,38.036869],[-83.652685,38.03693],[-83.652449,38.03697],[-83.652212,38.037033],[-83.651972,38.037086],[-83.651725,38.037137],[-83.6514414,38.0371913],[-83.65121,38.037231],[-83.650943,38.03727],[-83.650678,38.0373],[-83.65018,38.037342],[-83.649943,38.037375],[-83.649715,38.037424],[-83.649499,38.037481],[-83.648393,38.0378],[-83.648321,38.037829],[-83.648284,38.03785]]}},{"type":"Feature","properties":{"osm_id":16089867,"highway":"residential","name":"Star Shader Lane","alt_name":null,"official_name":null,"surface":null,"tracktype":null,"service":null,"access":null,"motor_vehicle":null,"foot":null,"tiger_reviewed":"no","rrgh_part":0,"rrgh_tile_part":0},"geometry":{"type":"LineString","coordinates":[[-83.674063,38.027723],[-83.674086,38.027789],[-83.674096,38.027866],[-83.674115,38.027961],[-83.674144,38.028058],[-83.674151,38.02811],[-83.674165,38.028162],[-83.67418,38.028278],[-83.674209,38.028343],[-83.674247,38.028412],[-83.674295,38.028481],[-83.674408,38.028618],[-83.674596,38.028829],[-83.674648,38.028904],[-83.674778,38.029138],[-83.674864,38.029285],[-83.674902,38.029358],[-83.674928,38.029434],[-83.674955,38.029588],[-83.674947,38.029663],[-83.67496,38.029741],[-83.674957,38.029893],[-83.674964,38.030048],[-83.674991,38.030116],[-83.67500000000001,38.0301316923077]]}},{"type":"Feature","properties":{"osm_id":16309933,"highway":"residential","name":"Salt Lick Road","alt_name":null,"official_name":null,"surface":null,"tracktype":null,"service":null,"access":null,"motor_vehicle":null,"foot":null,"tiger_reviewed":"no","rrgh_part":0,"rrgh_tile_part":0},"geometry":{"type":"LineString","coordinates":[[-83.665727,37.993537],[-83.665776,37.993726],[-83.665832,37.994027],[-83.665914,37.994188],[-83.665935,37.994216],[-83.665951,37.994237],[-83.665997,37.994278],[-83.666158,37.994375],[-83.666343,37.994442],[-83.667685,37.994724],[-83.667866,37.994772]]}},{"type":"Feature","properties":{"osm_id":970162029,"highway":"track","name":null,"alt_name":null,"official_name":null,"surface":null,"tracktype":null,"service":null,"access":null,"motor_vehicle":null,"foot":null,"tiger_reviewed":null,"rrgh_part":0,"rrgh_tile_part":0},"geometry":{"type":"LineString","coordinates":[[-83.667866,37.994772],[-83.668005,37.9948309],[-83.6687721,37.9957296],[-83.6692042,37.9962183],[-83.6695216,37.9965078],[-83.6699654,37.9968066],[-83.6701918,37.9968576],[-83.6706062,37.9968738],[-83.6711088,37.9968414],[-83.6712763,37.9967603],[-83.6714262,37.9966491],[-83.671532,37.9964638],[-83.6716143,37.9961581],[-83.6717084,37.9959913],[-83.6718583,37.9958871],[-83.6720552,37.9958338],[-83.6722903,37.9958477],[-83.6727665,37.9960075],[-83.6730251,37.9960469],[-83.673228,37.9960006],[-83.6734072,37.9959311],[-83.673566,37.9958153],[-83.6737188,37.9956369],[-83.6737982,37.9952617]]}},{"type":"Feature","properties":{"osm_id":16308512,"highway":"service","name":null,"alt_name":null,"official_name":null,"surface":null,"tracktype":null,"service":null,"access":"private","motor_vehicle":null,"foot":null,"tiger_reviewed":"no","rrgh_part":0,"rrgh_tile_part":0},"geometry":{"type":"LineString","coordinates":[[-83.6603518,37.9923519],[-83.6599973,37.992395],[-83.6598619,37.992453],[-83.6598158,37.9925273],[-83.6598537,37.9926769],[-83.6605468,37.9937183],[-83.6607591,37.9940122],[-83.6610179,37.9944137]]}},{"type":"Feature","properties":{"osm_id":16309498,"highway":"residential","name":"Tensley Eveerson Road","alt_name":null,"official_name":null,"surface":null,"tracktype":null,"service":null,"access":null,"motor_vehicle":null,"foot":null,"tiger_reviewed":"no","rrgh_part":0,"rrgh_tile_part":0},"geometry":{"type":"LineString","coordinates":[[-83.653038,37.992883],[-83.653015,37.99269],[-83.652937,37.992438],[-83.652944,37.992273]]}},{"type":"Feature","properties":{"osm_id":970162024,"highway":"service","name":null,"alt_name":null,"official_name":null,"surface":null,"tracktype":null,"service":null,"access":null,"motor_vehicle":null,"foot":null,"tiger_reviewed":null,"rrgh_part":0,"rrgh_tile_part":0},"geometry":{"type":"LineString","coordinates":[[-83.652944,37.992273],[-83.6524856,37.991995],[-83.6522475,37.991914],[-83.6521388,37.9918097],[-83.6519624,37.9914762],[-83.6519385,37.9914579],[-83.6517743,37.9913325],[-83.6512717,37.9910013]]}},{"type":"Feature","properties":{"osm_id":16310225,"highway":"residential","name":"Conway Road","alt_name":null,"official_name":null,"surface":null,"tracktype":null,"service":null,"access":null,"motor_vehicle":null,"foot":null,"tiger_reviewed":"no","rrgh_part":0,"rrgh_tile_part":0},"geometry":{"type":"LineString","coordinates":[[-83.654388,37.998646],[-83.654609,37.998736],[-83.654723,37.998796],[-83.655248,37.999121],[-83.655506,37.999235],[-83.655668,37.999349],[-83.655717,37.999396],[-83.656046,37.999821],[-83.656338,38.000145],[-83.656479,38.000301],[-83.656551,38.000418],[-83.65677,38.000879],[-83.656871,38.001044],[-83.65694,38.001126],[-83.6569919,38.0012007],[-83.657143,38.001418],[-83.657255,38.001606],[-83.657307,38.001666],[-83.657381,38.001718],[-83.657454,38.001757],[-83.657691,38.001849],[-83.65811,38.001967],[-83.658229,38.002014],[-83.6585,38.002156],[-83.658545,38.002186],[-83.65866,38.002303],[-83.658798,38.002404],[-83.658988,38.002498],[-83.659092,38.002535],[-83.659495,38.002742],[-83.659785,38.002853],[-83.66019,38.003007],[-83.660376,38.003124],[-83.660506,38.003282],[-83.660562,38.003339],[-83.660638,38.00339],[-83.660801,38.003559]]}},{"type":"Feature","properties":{"osm_id":16310255,"highway":"residential","name":"Tinsley Eversole Road","alt_name":null,"official_name":null,"surface":null,"tracktype":null,"service":null,"access":null,"motor_vehicle":null,"foot":null,"tiger_reviewed":"no","rrgh_part":0,"rrgh_tile_part":0},"geometry":{"type":"LineString","coordinates":[[-83.653038,37.992883],[-83.65306,37.993064],[-83.653075,37.993193],[-83.653116,37.993317],[-83.653247,37.99346],[-83.653411,37.99351],[-83.653505,37.99356],[-83.65388,37.993793],[-83.654467,37.994135],[-83.654571,37.994183],[-83.654821,37.994297],[-83.654841,37.994306],[-83.654966,37.994379],[-83.655186,37.994528],[-83.655378,37.994625],[-83.655584,37.994712],[-83.655773,37.994811],[-83.655946,37.994932],[-83.656369,37.995289],[-83.656504,37.995379],[-83.656735,37.995474],[-83.65718,37.995591],[-83.657304,37.995639],[-83.657397,37.995684],[-83.657518,37.995761],[-83.65763,37.9959]]}},{"type":"Feature","properties":{"osm_id":970162021,"highway":"service","name":null,"alt_name":null,"official_name":null,"surface":null,"tracktype":null,"service":null,"access":null,"motor_vehicle":null,"foot":null,"tiger_reviewed":null,"rrgh_part":0,"rrgh_tile_part":0},"geometry":{"type":"LineString","coordinates":[[-83.650457,38.000905],[-83.6504477,38.0008198],[-83.6505245,38.0006628],[-83.6505735,38.0004878],[-83.6505376,38.0003759],[-83.650402,38.000282],[-83.6501457,38.0001713],[-83.6500967,38.0000323],[-83.6501751,37.9998033],[-83.6503041,37.9995485],[-83.6502975,37.9994031],[-83.6502191,37.9992307],[-83.6500101,37.999048],[-83.6497734,37.9989257],[-83.6492019,37.9987765],[-83.648903,37.9986838],[-83.6486744,37.9985976],[-83.6484328,37.998568],[-83.6482564,37.9986131],[-83.6481633,37.998689],[-83.6480768,37.9989734]]}},{"type":"Feature","properties":{"osm_id":16310674,"highway":"residential","name":"Robert Byrd Road","alt_name":null,"official_name":null,"surface":null,"tracktype":null,"service":null,"access":null,"motor_vehicle":null,"foot":null,"tiger_reviewed":"no","rrgh_part":0,"rrgh_tile_part":0},"geometry":{"type":"LineString","coordinates":[[-83.650508,38.000908],[-83.650599,38.000831],[-83.650737,38.000656],[-83.650968,38.000446],[-83.651168,38.000182],[-83.651413,37.999897],[-83.651572,37.999734],[-83.65179,37.999559],[-83.651955,37.999398],[-83.652067,37.999189],[-83.652135,37.99914],[-83.652142,37.999135],[-83.652217,37.999115],[-83.652352,37.999145],[-83.652682,37.999285],[-83.653504,37.999671]]}},{"type":"Feature","properties":{"osm_id":970162002,"highway":"service","name":null,"alt_name":null,"official_name":null,"surface":null,"tracktype":null,"service":null,"access":null,"motor_vehicle":null,"foot":null,"tiger_reviewed":null,"rrgh_part":0,"rrgh_tile_part":0},"geometry":{"type":"LineString","coordinates":[[-83.6348319,37.9817429],[-83.6348776,37.9817452],[-83.6350446,37.9816843],[-83.6352414,37.9816303],[-83.6353503,37.981633],[-83.6355103,37.9817023],[-83.6360217,37.9819364],[-83.6363274,37.9820361],[-83.6367633,37.9822093],[-83.637004,37.9822896],[-83.6375875,37.9826193],[-83.6378476,37.9827315],[-83.6381006,37.9827869],[-83.6387298,37.98287],[-83.6391445,37.9829171]]}},{"type":"Feature","properties":{"osm_id":16310222,"highway":"service","name":"Farrell Memory Lane","alt_name":null,"official_name":null,"surface":null,"tracktype":null,"service":null,"access":"private","motor_vehicle":null,"foot":null,"tiger_reviewed":"no","rrgh_part":0,"rrgh_tile_part":0},"geometry":{"type":"LineString","coordinates":[[-83.6286333,37.9946986],[-83.6287117,37.9947357],[-83.6288143,37.9947347],[-83.629246,37.99471],[-83.62993,37.994707],[-83.6301233,37.9947061],[-83.630586,37.994704]]}},{"type":"Feature","properties":{"osm_id":902469433,"highway":"residential","name":"Raney-Ratliff Branch Road","alt_name":null,"official_name":null,"surface":"gravel","tracktype":null,"service":null,"access":null,"motor_vehicle":null,"foot":null,"tiger_reviewed":"no","rrgh_part":0,"rrgh_tile_part":0},"geometry":{"type":"LineString","coordinates":[[-83.62588,38.003759],[-83.6255,38.003616],[-83.625407,38.003552],[-83.625176,38.003358],[-83.625063,38.003285],[-83.62482,38.003156],[-83.624661,38.003035],[-83.624543,38.002921],[-83.624366,38.00278],[-83.624004,38.002531],[-83.6236963,38.0022421],[-83.623133,38.001933],[-83.6220638,38.0014017],[-83.6217313,38.0011889],[-83.6211456,38.0010879],[-83.6204461,38.0010849],[-83.6199901,38.0010221],[-83.6194184,38.0007393],[-83.619046,38.0005697],[-83.6185758,38.0003198],[-83.6180714,38.0003672],[-83.617739,38.000458],[-83.6173385,38.0005895],[-83.616913,38.0006346],[-83.6164798,38.0009457],[-83.6162917,38.0010309],[-83.6160543,38.0010096],[-83.61569,38.0006948],[-83.6154072,38.0006333],[-83.6151234,38.0006441],[-83.6145622,38.0008514],[-83.6143034,38.0010011],[-83.6141538,38.0012492],[-83.6140722,38.0013635],[-83.6139121,38.0014228],[-83.6134855,38.0013209],[-83.6133,38.0013227]]}},{"type":"Feature","properties":{"osm_id":970162010,"highway":"service","name":null,"alt_name":null,"official_name":null,"surface":null,"tracktype":null,"service":null,"access":null,"motor_vehicle":null,"foot":null,"tiger_reviewed":null,"rrgh_part":0,"rrgh_tile_part":0},"geometry":{"type":"LineString","coordinates":[[-83.6301848,37.9905545],[-83.6301426,37.9905147],[-83.6301838,37.9903479],[-83.6302925,37.9901209],[-83.6303778,37.9899309],[-83.6305247,37.9897085],[-83.6306452,37.9894074],[-83.6307128,37.9890715],[-83.6307158,37.9888306],[-83.6306864,37.9886708],[-83.6309215,37.9884345]]}},{"type":"Feature","properties":{"osm_id":16310724,"highway":"residential","name":"Creekview Lane","alt_name":null,"official_name":null,"surface":null,"tracktype":null,"service":null,"access":null,"motor_vehicle":null,"foot":null,"tiger_reviewed":"no","rrgh_part":0,"rrgh_tile_part":0},"geometry":{"type":"LineString","coordinates":[[-83.645656,38.00877],[-83.645839,38.008769],[-83.646078,38.008747],[-83.646283,38.008716],[-83.646383,38.008689],[-83.646477,38.008651],[-83.646939,38.008421],[-83.647083,38.008364],[-83.647257,38.008333],[-83.647523,38.008318],[-83.647707,38.008274],[-83.647787,38.008239],[-83.647993,38.008104],[-83.64845,38.007747],[-83.648547,38.007709],[-83.648673,38.007708],[-83.648741,38.007716],[-83.648908,38.007806],[-83.649053,38.007862],[-83.649231,38.0079],[-83.649565,38.007941],[-83.64987,38.008002],[-83.65018,38.008017],[-83.650324,38.008039],[-83.650453,38.008086],[-83.650647,38.008185],[-83.650829,38.008298],[-83.650963,38.008398],[-83.651287,38.008707],[-83.651367,38.008773],[-83.651491,38.008861],[-83.651566,38.008897],[-83.651733,38.008935],[-83.652923,38.009061],[-83.653346,38.009144],[-83.653473,38.00919],[-83.653624,38.009274],[-83.654051,38.009562],[-83.654119,38.009594],[-83.654244,38.009606],[-83.654375,38.0096],[-83.65455,38.009612],[-83.6546624,38.0096541],[-83.654737,38.009682],[-83.654856,38.009743],[-83.654982,38.009782],[-83.655123,38.009851],[-83.655227,38.00987],[-83.655375,38.009934],[-83.655503,38.01005],[-83.655532,38.010107],[-83.655565,38.010219],[-83.655626,38.010345],[-83.655686,38.010419],[-83.655791,38.010489],[-83.655892,38.010536],[-83.655955,38.010589],[-83.656114,38.010682],[-83.656287,38.010756],[-83.656339,38.010774],[-83.656452,38.010793],[-83.656631,38.010807],[-83.656798,38.010807],[-83.657229,38.010837],[-83.657474,38.010828],[-83.657739,38.010769],[-83.657932,38.010815],[-83.658193,38.010989],[-83.658324,38.011055],[-83.658864,38.011376],[-83.65893,38.011426],[-83.659011,38.011517],[-83.659085,38.011581],[-83.659214,38.011674],[-83.659403,38.011775],[-83.659625,38.011838],[-83.659724,38.011875],[-83.660172,38.012086],[-83.66033,38.012181],[-83.660428,38.012283],[-83.660567,38.012482],[-83.660684,38.012615],[-83.66069,38.012676]]}},{"type":"Feature","properties":{"osm_id":970162020,"highway":"service","name":null,"alt_name":null,"official_name":null,"surface":null,"tracktype":null,"service":null,"access":null,"motor_vehicle":null,"foot":null,"tiger_reviewed":null,"rrgh_part":0,"rrgh_tile_part":0},"geometry":{"type":"LineString","coordinates":[[-83.6467171,38.0064569],[-83.6468411,38.0064796],[-83.6470213,38.0064236],[-83.6471388,38.0064301],[-83.6471852,38.0064753],[-83.6473163,38.0065807],[-83.6474146,38.0066194],[-83.6476495,38.0065807],[-83.6479745,38.0065205],[-83.6482039,38.0065076],[-83.6503286,38.0069143],[-83.6504487,38.0070025],[-83.650517,38.007123]]}},{"type":"Feature","properties":{"osm_id":970162030,"highway":"service","name":null,"alt_name":null,"official_name":null,"surface":null,"tracktype":null,"service":null,"access":null,"motor_vehicle":null,"foot":null,"tiger_reviewed":null,"rrgh_part":0,"rrgh_tile_part":0},"geometry":{"type":"LineString","coordinates":[[-83.6546624,38.0096541],[-83.654796,38.009623],[-83.6550037,38.009607],[-83.655081,38.0095958],[-83.6551787,38.0095124],[-83.6553049,38.0094899],[-83.655482,38.00953],[-83.6558016,38.0096551],[-83.6559278,38.0096712],[-83.6560784,38.0096278],[-83.6562759,38.0095926],[-83.6568967,38.0097738],[-83.6575746,38.009955],[-83.6579104,38.0099775],[-83.6580041,38.009939]]}},{"type":"Feature","properties":{"osm_id":16310759,"highway":"residential","name":"C Highley Road","alt_name":null,"official_name":null,"surface":null,"tracktype":null,"service":null,"access":null,"motor_vehicle":null,"foot":null,"tiger_reviewed":"no","rrgh_part":0,"rrgh_tile_part":0},"geometry":{"type":"LineString","coordinates":[[-83.6390888,38.0116013],[-83.636685,38.013011],[-83.63632,38.013248],[-83.636171,38.013285],[-83.635779,38.013301],[-83.635638,38.013289],[-83.635412,38.013249],[-83.635299,38.013256],[-83.635125,38.013298],[-83.633495,38.013527],[-83.632663,38.013625]]}},{"type":"Feature","properties":{"osm_id":970162016,"highway":"track","name":null,"alt_name":null,"official_name":null,"surface":null,"tracktype":null,"service":null,"access":null,"motor_vehicle":null,"foot":null,"tiger_reviewed":null,"rrgh_part":0,"rrgh_tile_part":0},"geometry":{"type":"LineString","coordinates":[[-83.6390888,38.0116013],[-83.6391445,38.0115337],[-83.6391034,38.011454],[-83.6387808,38.0112371],[-83.6384043,38.0109779],[-83.6381323,38.0108309],[-83.637661,38.0107561],[-83.6372656,38.0107337],[-83.6370093,38.0108957],[-83.6364874,38.0113468]]}},{"type":"Feature","properties":{"osm_id":16308602,"highway":"service","name":null,"alt_name":null,"official_name":null,"surface":null,"tracktype":null,"service":null,"access":null,"motor_vehicle":null,"foot":null,"tiger_reviewed":"no","rrgh_part":0,"rrgh_tile_part":0},"geometry":{"type":"LineString","coordinates":[[-83.6270363,38.004267],[-83.6270306,38.0043351],[-83.6267576,38.004501],[-83.6263638,38.004805],[-83.6260898,38.005138],[-83.6259125,38.005563],[-83.6258289,38.005673]]}},{"type":"Feature","properties":{"osm_id":902469435,"highway":"residential","name":"Raney-Ratliff Branch Road","alt_name":null,"official_name":null,"surface":null,"tracktype":null,"service":null,"access":null,"motor_vehicle":null,"foot":null,"tiger_reviewed":"no","rrgh_part":0,"rrgh_tile_part":0},"geometry":{"type":"LineString","coordinates":[[-83.629125,38.003801],[-83.628768,38.003931],[-83.628535,38.003998],[-83.62825,38.004065],[-83.62736,38.00424],[-83.627186,38.004253],[-83.6270363,38.004267],[-83.626924,38.004259],[-83.62687,38.004258],[-83.626671,38.004202],[-83.626514,38.004112],[-83.626266,38.00395],[-83.626037,38.003828],[-83.62588,38.003759]]}},{"type":"Feature","properties":{"osm_id":970162011,"highway":"service","name":null,"alt_name":null,"official_name":null,"surface":null,"tracktype":null,"service":null,"access":null,"motor_vehicle":null,"foot":null,"tiger_reviewed":null,"rrgh_part":0,"rrgh_tile_part":0},"geometry":{"type":"LineString","coordinates":[[-83.6258289,38.005673],[-83.6255798,38.0059412],[-83.6253463,38.0061512],[-83.6249175,38.0064411]]}},{"type":"Feature","properties":{"osm_id":16309399,"highway":"residential","name":"Charley Ferrel Road","alt_name":null,"official_name":null,"surface":null,"tracktype":null,"service":null,"access":null,"motor_vehicle":null,"foot":null,"tiger_reviewed":"no","rrgh_part":0,"rrgh_tile_part":0},"geometry":{"type":"LineString","coordinates":[[-83.629297,38.004245],[-83.629467,38.004235],[-83.629761,38.004239],[-83.630218,38.004222],[-83.630546,38.004197],[-83.630838,38.004174],[-83.631219,38.004156],[-83.631331,38.004141],[-83.631532,38.00407],[-83.631721,38.003971],[-83.632188,38.003676],[-83.632373,38.003543],[-83.632508,38.003464],[-83.633343,38.003217]]}},{"type":"Feature","properties":{"osm_id":16309181,"highway":"service","name":null,"alt_name":null,"official_name":null,"surface":null,"tracktype":null,"service":null,"access":null,"motor_vehicle":null,"foot":null,"tiger_reviewed":"no","rrgh_part":0,"rrgh_tile_part":0},"geometry":{"type":"LineString","coordinates":[[-83.6318619,38.0082532],[-83.6324391,38.0080998],[-83.6325676,38.0080229]]}},{"type":"Feature","properties":{"osm_id":970162013,"highway":"service","name":null,"alt_name":null,"official_name":null,"surface":null,"tracktype":null,"service":null,"access":null,"motor_vehicle":null,"foot":null,"tiger_reviewed":"no","rrgh_part":0,"rrgh_tile_part":0},"geometry":{"type":"LineString","coordinates":[[-83.631276,38.0084346],[-83.6316429,38.0083115]]}},{"type":"Feature","properties":{"osm_id":970162014,"highway":"service","name":null,"alt_name":null,"official_name":null,"surface":null,"tracktype":null,"service":null,"access":null,"motor_vehicle":null,"foot":null,"tiger_reviewed":"no","rrgh_part":0,"rrgh_tile_part":0},"geometry":{"type":"LineString","coordinates":[[-83.6316429,38.0083115],[-83.6318619,38.0082532]]}},{"type":"Feature","properties":{"osm_id":970162015,"highway":"service","name":"Creekview Lane","alt_name":null,"official_name":null,"surface":null,"tracktype":null,"service":null,"access":null,"motor_vehicle":null,"foot":null,"tiger_reviewed":null,"rrgh_part":0,"rrgh_tile_part":0},"geometry":{"type":"LineString","coordinates":[[-83.6318291,38.0097548],[-83.6322212,38.009671],[-83.6327282,38.0095913],[-83.6330865,38.0095288],[-83.633461,38.0095593],[-83.6337806,38.009694],[-83.6341898,38.0098624]]}},{"type":"Feature","properties":{"osm_id":16087883,"highway":"residential","name":"Carrington Drive","alt_name":null,"official_name":null,"surface":null,"tracktype":null,"service":null,"access":null,"motor_vehicle":null,"foot":null,"tiger_reviewed":"no","rrgh_part":0,"rrgh_tile_part":0},"geometry":{"type":"LineString","coordinates":[[-83.624114,38.026559],[-83.624101,38.026585],[-83.62407,38.02667],[-83.624044,38.026766],[-83.624036,38.026867],[-83.62405,38.026968],[-83.624125,38.027244],[-83.624167,38.027315],[-83.624237,38.027376],[-83.624388,38.027487],[-83.624467,38.027552],[-83.624541,38.02762],[-83.624673,38.027763],[-83.624881,38.028007],[-83.624965,38.02809],[-83.62506,38.028168],[-83.625169,38.028237],[-83.625283,38.028302],[-83.625638,38.028493],[-83.625874,38.028625],[-83.625986,38.028696],[-83.626088,38.028775],[-83.6262149,38.0288865],[-83.626268,38.028951],[-83.626352,38.029042],[-83.626431,38.029136],[-83.626504,38.029233],[-83.626568,38.029333],[-83.626622,38.029435],[-83.626666,38.029537],[-83.626698,38.029635],[-83.62671,38.029726],[-83.626706,38.029906],[-83.62669,38.03011]]}},{"type":"Feature","properties":{"osm_id":16310495,"highway":"residential","name":"Carrington Green Road","alt_name":null,"official_name":null,"surface":null,"tracktype":null,"service":null,"access":null,"motor_vehicle":null,"foot":null,"tiger_reviewed":"no","rrgh_part":0,"rrgh_tile_part":0},"geometry":{"type":"LineString","coordinates":[[-83.632864,38.021851],[-83.632452,38.021881],[-83.632374,38.021898],[-83.632301,38.021927],[-83.632236,38.021969],[-83.632185,38.022022],[-83.63215,38.022083],[-83.6320871,38.0223985],[-83.632084,38.022414],[-83.632049,38.022465],[-83.631993,38.022499],[-83.631917,38.022515],[-83.631828,38.022516],[-83.63133,38.022489],[-83.63105,38.022484],[-83.630969,38.022493],[-83.630889,38.022513],[-83.630821,38.022546],[-83.630764,38.02259],[-83.63072,38.022645],[-83.63069,38.022709],[-83.630181,38.024259],[-83.630049,38.024525],[-83.629833,38.024872]]}},{"type":"Feature","properties":{"osm_id":970162032,"highway":"service","name":null,"alt_name":null,"official_name":null,"surface":null,"tracktype":null,"service":null,"access":null,"motor_vehicle":null,"foot":null,"tiger_reviewed":null,"rrgh_part":0,"rrgh_tile_part":0},"geometry":{"type":"LineString","coordinates":[[-83.624335,38.026323],[-83.6238161,38.0261168],[-83.623475,38.0259632],[-83.6234086,38.0259224],[-83.623401,38.0258796],[-83.6234391,38.0258139],[-83.6234432,38.0257382],[-83.6233374,38.0255877],[-83.6230935,38.0252474],[-83.6229935,38.024995],[-83.6229377,38.0248005],[-83.6228701,38.0247403]]}},{"type":"Feature","properties":{"osm_id":16309708,"highway":"residential","name":"Sunny Lane","alt_name":null,"official_name":null,"surface":null,"tracktype":null,"service":null,"access":null,"motor_vehicle":null,"foot":null,"tiger_reviewed":"no","rrgh_part":0,"rrgh_tile_part":0},"geometry":{"type":"LineString","coordinates":[[-83.634351,38.024267],[-83.634446,38.024204],[-83.634461,38.024185],[-83.634503,38.023976],[-83.634555,38.023891],[-83.634652,38.023824],[-83.634836,38.023729],[-83.634889,38.023692],[-83.63497,38.0236],[-83.635012,38.023489],[-83.635032,38.023264],[-83.635075,38.0231]]}},{"type":"Feature","properties":{"osm_id":16088893,"highway":"residential","name":"Carrington Green Road","alt_name":null,"official_name":null,"surface":null,"tracktype":null,"service":null,"access":null,"motor_vehicle":null,"foot":null,"tiger_reviewed":"no","rrgh_part":0,"rrgh_tile_part":0},"geometry":{"type":"LineString","coordinates":[[-83.629833,38.024872],[-83.629798,38.024926],[-83.62956,38.025308],[-83.629486,38.025411],[-83.629403,38.025509],[-83.62931,38.025598],[-83.629213,38.025682],[-83.629024,38.025834],[-83.62834,38.026334],[-83.628162,38.026456],[-83.628062,38.026514],[-83.627954,38.026571],[-83.627836,38.026625],[-83.627712,38.026677],[-83.62758,38.026723],[-83.627446,38.026762],[-83.6272968,38.0267977],[-83.627196,38.026816],[-83.626992,38.026846],[-83.626784,38.02687],[-83.626315,38.02692],[-83.626203,38.026929],[-83.626098,38.026928],[-83.625996,38.026921],[-83.625893,38.026904],[-83.625791,38.026877],[-83.62569,38.026842],[-83.625485,38.02676],[-83.625265,38.026667],[-83.624484,38.026358],[-83.624406,38.026329],[-83.624335,38.026323],[-83.6242667,38.0263453],[-83.624218,38.026385],[-83.62414,38.026508],[-83.624114,38.026559]]}},{"type":"Feature","properties":{"osm_id":16310637,"highway":"residential","name":"Cooper Branch Road","alt_name":null,"official_name":null,"surface":null,"tracktype":null,"service":null,"access":null,"motor_vehicle":null,"foot":null,"tiger_reviewed":"no","rrgh_part":0,"rrgh_tile_part":0},"geometry":{"type":"LineString","coordinates":[[-83.619683,37.976452],[-83.619855,37.976413],[-83.619948,37.976392],[-83.620017,37.976385],[-83.620135,37.976395],[-83.620834,37.976504],[-83.620938,37.97653],[-83.62097,37.976542],[-83.62101,37.976557],[-83.621041,37.976578],[-83.621257,37.976776],[-83.621484,37.976958],[-83.621611,37.977077],[-83.622042,37.977367],[-83.622204,37.977488],[-83.622547,37.977805],[-83.622719,37.978008],[-83.622807,37.978067],[-83.622932,37.978127],[-83.623261,37.978243],[-83.623613,37.978447],[-83.623779,37.978575]]}},{"type":"Feature","properties":{"osm_id":16310144,"highway":"residential","name":"Spencer East Cemetery Road","alt_name":null,"official_name":null,"surface":null,"tracktype":null,"service":null,"access":null,"motor_vehicle":null,"foot":null,"tiger_reviewed":"no","rrgh_part":0,"rrgh_tile_part":0},"geometry":{"type":"LineString","coordinates":[[-83.616903,37.986783],[-83.616846,37.986907],[-83.616787,37.987003],[-83.616708,37.987061],[-83.616638,37.987089],[-83.616555,37.987103],[-83.616453,37.987095],[-83.61609,37.987103],[-83.615843,37.987204],[-83.61552,37.987381],[-83.615045,37.98756],[-83.614894,37.98763],[-83.614675,37.987787],[-83.614618,37.987861],[-83.614589,37.987939],[-83.614583,37.988028],[-83.614629,37.988103],[-83.614995,37.988339],[-83.615045,37.988355],[-83.615776,37.988486],[-83.615917,37.98849]]}},{"type":"Feature","properties":{"osm_id":16310357,"highway":"residential","name":"Spencer Eastate","alt_name":null,"official_name":null,"surface":null,"tracktype":null,"service":null,"access":null,"motor_vehicle":null,"foot":null,"tiger_reviewed":null,"rrgh_part":0,"rrgh_tile_part":0},"geometry":{"type":"LineString","coordinates":[[-83.619585,37.986922],[-83.619508,37.986843],[-83.619465,37.986814],[-83.619091,37.986603],[-83.618931,37.986542],[-83.618871,37.986529],[-83.618752,37.986526],[-83.6186598,37.9865422],[-83.618347,37.986597],[-83.618231,37.986595],[-83.617753,37.986436],[-83.617642,37.986417],[-83.617493,37.986416],[-83.617377,37.986443],[-83.617266,37.986518],[-83.617153,37.986551],[-83.617079,37.986585],[-83.617008,37.986633],[-83.616926,37.986732],[-83.616903,37.986783]]}},{"type":"Feature","properties":{"osm_id":970161996,"highway":"service","name":null,"alt_name":null,"official_name":null,"surface":null,"tracktype":null,"service":null,"access":null,"motor_vehicle":null,"foot":null,"tiger_reviewed":null,"rrgh_part":0,"rrgh_tile_part":0},"geometry":{"type":"LineString","coordinates":[[-83.6216171,37.98381],[-83.621478,37.9835077],[-83.6213435,37.9833137],[-83.6212394,37.9829837],[-83.6211506,37.9827237],[-83.6210091,37.9824702],[-83.6208488,37.9822472],[-83.6206436,37.9820316],[-83.6204055,37.9818031],[-83.6202853,37.9815317],[-83.6202334,37.9812567],[-83.6202004,37.9809742],[-83.6202122,37.9803944]]}},{"type":"Feature","properties":{"osm_id":970161997,"highway":"track","name":null,"alt_name":null,"official_name":null,"surface":null,"tracktype":null,"service":null,"access":null,"motor_vehicle":null,"foot":null,"tiger_reviewed":null,"rrgh_part":0,"rrgh_tile_part":0},"geometry":{"type":"LineString","coordinates":[[-83.618711,37.985541],[-83.6184315,37.9855636],[-83.6177514,37.9855836],[-83.6171932,37.9855996],[-83.6170359,37.9856176],[-83.6166705,37.9857596],[-83.6164319,37.9858016],[-83.6161959,37.9858216],[-83.6159726,37.9860456],[-83.6158001,37.9861556],[-83.6152469,37.9863316],[-83.6146582,37.9864856],[-83.6138284,37.9867236],[-83.6135442,37.9868656],[-83.6130799,37.9870856],[-83.6126764,37.9872096],[-83.6123592,37.9872556],[-83.6114134,37.9872401]]}},{"type":"Feature","properties":{"osm_id":16308775,"highway":"residential","name":null,"alt_name":null,"official_name":null,"surface":null,"tracktype":null,"service":null,"access":null,"motor_vehicle":null,"foot":null,"tiger_reviewed":"no","rrgh_part":0,"rrgh_tile_part":0},"geometry":{"type":"LineString","coordinates":[[-83.619585,37.986922],[-83.6202644,37.9875638]]}},{"type":"Feature","properties":{"osm_id":16309466,"highway":"residential","name":"Benson-Craig Cemetery Road","alt_name":null,"official_name":null,"surface":null,"tracktype":null,"service":null,"access":null,"motor_vehicle":null,"foot":null,"tiger_reviewed":"no","rrgh_part":0,"rrgh_tile_part":0},"geometry":{"type":"LineString","coordinates":[[-83.621096,37.983957],[-83.620866,37.984037],[-83.620829,37.98405],[-83.620517,37.984125],[-83.620283,37.9842],[-83.619828,37.984424],[-83.619378,37.984613],[-83.619271,37.984637],[-83.619197,37.984629],[-83.619143,37.984596],[-83.619127,37.984569],[-83.619131,37.984536],[-83.61932,37.984231],[-83.619387,37.984061],[-83.619442,37.983839],[-83.619462,37.983757],[-83.619468,37.983647],[-83.619446,37.983544],[-83.619393,37.983454],[-83.619149,37.983268],[-83.619087,37.983241],[-83.618953,37.983214],[-83.618886,37.98321],[-83.618727,37.983221],[-83.618684,37.983224]]}},{"type":"Feature","properties":{"osm_id":16310272,"highway":"service","name":"Tower Road","alt_name":null,"official_name":null,"surface":null,"tracktype":null,"service":null,"access":null,"motor_vehicle":null,"foot":null,"tiger_reviewed":"no","rrgh_part":0,"rrgh_tile_part":0},"geometry":{"type":"LineString","coordinates":[[-83.6216136,37.9851321],[-83.6217604,37.985124],[-83.6218281,37.9850994],[-83.6218755,37.9850308],[-83.6218395,37.984439],[-83.6217521,37.984238],[-83.6216171,37.98381]]}},{"type":"Feature","properties":{"osm_id":16310356,"highway":"residential","name":"Wayne Benson Road","alt_name":null,"official_name":null,"surface":null,"tracktype":null,"service":null,"access":null,"motor_vehicle":null,"foot":null,"tiger_reviewed":"no","rrgh_part":0,"rrgh_tile_part":0},"geometry":{"type":"LineString","coordinates":[[-83.621552,37.985368],[-83.621455,37.985277],[-83.621382,37.985226],[-83.621147,37.985102],[-83.620925,37.98492],[-83.620794,37.984852],[-83.620651,37.984798],[-83.620554,37.984767],[-83.620433,37.98475],[-83.620168,37.984827],[-83.619158,37.985227],[-83.618914,37.985343],[-83.618801,37.985421],[-83.618762,37.985461],[-83.618711,37.985541],[-83.618688,37.985667],[-83.61872,37.98578]]}},{"type":"Feature","properties":{"osm_id":16082916,"highway":"residential","name":"Ratliff Road","alt_name":null,"official_name":null,"surface":"gravel","tracktype":null,"service":null,"access":null,"motor_vehicle":null,"foot":null,"tiger_reviewed":"no","rrgh_part":0,"rrgh_tile_part":0},"geometry":{"type":"LineString","coordinates":[[-83.6016265,38.0139582],[-83.6015571,38.0139236],[-83.601473,38.013838],[-83.6014467,38.0137421],[-83.6013873,38.0135869],[-83.601359,38.01345],[-83.601264,38.013241],[-83.601182,38.013112],[-83.60101,38.012877],[-83.600941,38.012816],[-83.600857,38.012768],[-83.600768,38.012731],[-83.600656,38.012709],[-83.600208,38.012723],[-83.600091,38.012722],[-83.599991,38.012708],[-83.599896,38.012678],[-83.599725,38.012609],[-83.599631,38.012591],[-83.599501,38.012585],[-83.599282,38.01259],[-83.59916,38.0126],[-83.598859,38.012636],[-83.598777,38.012652],[-83.598704,38.01267],[-83.598617,38.012701],[-83.598446,38.012807],[-83.59839,38.012869],[-83.598346,38.012927],[-83.598309,38.012992],[-83.598261,38.013062],[-83.598218,38.013112],[-83.598199,38.013126],[-83.598173,38.013136],[-83.598119,38.013139],[-83.598095,38.013135],[-83.597842,38.013028],[-83.597762,38.013003],[-83.597676,38.012988],[-83.597588,38.012989],[-83.597424,38.013],[-83.597193,38.013019],[-83.597092,38.013031],[-83.596872,38.013043],[-83.596382,38.01304],[-83.596236,38.013056],[-83.596163,38.013078],[-83.596102,38.013108],[-83.596052,38.013145],[-83.596014,38.013186],[-83.595987,38.01323],[-83.595955,38.013317],[-83.595911,38.013397],[-83.595879,38.013429],[-83.595833,38.013457],[-83.59576,38.013481],[-83.595466,38.01355],[-83.595392,38.013579],[-83.595309,38.013621],[-83.595231,38.013673],[-83.595078,38.013795],[-83.595005,38.013861],[-83.594782,38.014049],[-83.594707,38.014102],[-83.594632,38.01415],[-83.594559,38.014191],[-83.594403,38.014264],[-83.59432,38.014291],[-83.594061,38.014358],[-83.59398,38.014386],[-83.593905,38.014416],[-83.593834,38.014451],[-83.593769,38.014489],[-83.59354,38.014655],[-83.593457,38.014701],[-83.593314,38.014759],[-83.593146,38.014819],[-83.592989,38.014866],[-83.592847,38.014903],[-83.592469,38.014993],[-83.592401,38.015018],[-83.592339,38.015048],[-83.592281,38.015086],[-83.592226,38.015132],[-83.592083,38.015282],[-83.592011,38.015366],[-83.591968,38.015452],[-83.591943,38.015562],[-83.591936,38.015751],[-83.591941,38.015827],[-83.591933,38.015893],[-83.591923,38.015931],[-83.59189,38.015983],[-83.591833,38.016027],[-83.591396,38.016288],[-83.591239,38.016396],[-83.591171,38.016455],[-83.591119,38.016515],[-83.591054,38.016612],[-83.591005,38.01671],[-83.590965,38.01684],[-83.590924,38.01694],[-83.590884,38.017027],[-83.590832,38.017105],[-83.590756,38.017185],[-83.590676,38.017258],[-83.590599,38.017321],[-83.590477,38.017437],[-83.590424,38.017501],[-83.590382,38.017564],[-83.590345,38.017633],[-83.590341,38.017685],[-83.590345,38.017719],[-83.590357,38.017747],[-83.590373,38.01778],[-83.590403,38.017824],[-83.590407,38.017839],[-83.590445,38.017919],[-83.590461,38.017965],[-83.590461,38.017999],[-83.590451,38.018031],[-83.590436,38.018051],[-83.59041,38.01807],[-83.590376,38.018089],[-83.590335,38.018097],[-83.590138,38.018106],[-83.590089,38.018123],[-83.59,38.01816790825688]]}},{"type":"Feature","properties":{"osm_id":16089648,"highway":"residential","name":"FR 909 - Ratliff Spur Road","alt_name":null,"official_name":null,"surface":"gravel","tracktype":null,"service":null,"access":null,"motor_vehicle":null,"foot":null,"tiger_reviewed":"no","rrgh_part":0,"rrgh_tile_part":0},"geometry":{"type":"LineString","coordinates":[[-83.595833,38.013457],[-83.595837,38.0133908],[-83.5958336,38.0133466],[-83.595833,38.0132838],[-83.5958299,38.0132413],[-83.5958318,38.0131989],[-83.595848,38.013114],[-83.595861,38.013066],[-83.595871,38.01304],[-83.595886,38.013007],[-83.5959796,38.01286],[-83.5960753,38.0127258],[-83.5961542,38.0125792],[-83.5961746,38.0124986],[-83.5961702,38.0124394],[-83.5961235,38.0122572],[-83.5960446,38.0120442],[-83.5959745,38.0118989],[-83.5958801,38.0118184],[-83.5957325,38.0117873],[-83.5956106,38.0118128],[-83.5955033,38.0118737],[-83.5954507,38.0119756],[-83.595471,38.0120582],[-83.5955011,38.0121628],[-83.5955511,38.0122725],[-83.5955508,38.0123551],[-83.5955176,38.0124588],[-83.5954056,38.0126172],[-83.5952651,38.0127617],[-83.5951237,38.0128976],[-83.5949353,38.0130209],[-83.5947837,38.013057],[-83.5946821,38.0130527],[-83.5945814,38.0130003],[-83.5945071,38.0129368],[-83.5943929,38.0128764],[-83.5942447,38.0128658],[-83.5940552,38.0129262],[-83.5938892,38.0130242],[-83.5937444,38.0131583],[-83.5936562,38.0132655],[-83.5935184,38.0134226],[-83.5933659,38.0135104],[-83.5932381,38.0135428],[-83.5931201,38.0135436],[-83.5929295,38.0135032],[-83.592705,38.0134897],[-83.5924512,38.0135374],[-83.5920944,38.0136053],[-83.5919367,38.0136181],[-83.5916828,38.0136086],[-83.5914631,38.0135784],[-83.591262,38.0135125],[-83.5910375,38.0134135],[-83.5908637,38.0133038],[-83.5906733,38.0131498],[-83.5904311,38.012922],[-83.5903277,38.012798],[-83.5902415,38.0126618],[-83.5902022,38.0125358],[-83.5901224,38.012374],[-83.5900375,38.0122667],[-83.59,38.01223260148699]]}},{"type":"Feature","properties":{"osm_id":970367139,"highway":"service","name":null,"alt_name":null,"official_name":null,"surface":null,"tracktype":null,"service":null,"access":null,"motor_vehicle":null,"foot":null,"tiger_reviewed":null,"rrgh_part":0,"rrgh_tile_part":0},"geometry":{"type":"LineString","coordinates":[[-83.5974984,37.9826631],[-83.5973976,37.9828796],[-83.5972002,37.9832415],[-83.5970907,37.9835273],[-83.5970907,37.9839264],[-83.5972045,37.9840888],[-83.5974705,37.984361],[-83.597537,37.9846485],[-83.5975628,37.9849851],[-83.5976465,37.9851018],[-83.5979211,37.9852235],[-83.5980906,37.9853182],[-83.5984575,37.9854383],[-83.598627,37.9854755],[-83.5987815,37.9854603],[-83.5989231,37.9853893],[-83.5990218,37.9852996],[-83.5990347,37.9851846],[-83.5989875,37.9850307],[-83.5989939,37.984931],[-83.5990154,37.9847449],[-83.5990283,37.984635],[-83.5989467,37.9843746],[-83.5988137,37.9839771],[-83.5987644,37.9838554],[-83.5988438,37.9837776],[-83.5990197,37.9836626],[-83.5991377,37.9835916],[-83.5992622,37.98337],[-83.5993458,37.9831907],[-83.599333,37.982932],[-83.5992858,37.9827138],[-83.5992192,37.9825937],[-83.5991141,37.982494],[-83.5989982,37.9822335],[-83.5988266,37.9821134],[-83.5986399,37.9820255],[-83.5984361,37.9820272],[-83.5983224,37.982012],[-83.5981893,37.9819494],[-83.59817,37.9818429],[-83.5981958,37.9816061],[-83.5982215,37.9813575],[-83.5982902,37.9812425],[-83.5983588,37.9811613],[-83.5984554,37.9811714],[-83.5985691,37.981278],[-83.5987472,37.9814217],[-83.598951,37.9814573],[-83.5992192,37.9813964],[-83.599554,37.9812729]]}},{"type":"Feature","properties":{"osm_id":970367140,"highway":"service","name":null,"alt_name":null,"official_name":null,"surface":null,"tracktype":null,"service":null,"access":null,"motor_vehicle":null,"foot":null,"tiger_reviewed":null,"rrgh_part":0,"rrgh_tile_part":0},"geometry":{"type":"LineString","coordinates":[[-83.5991377,37.9835916],[-83.5993566,37.9834579],[-83.5996548,37.9830842],[-83.5997599,37.9829421],[-83.5998672,37.982702]]}},{"type":"Feature","properties":{"osm_id":16310138,"highway":"residential","name":"Spencer East Cemetery Road","alt_name":null,"official_name":null,"surface":null,"tracktype":null,"service":null,"access":null,"motor_vehicle":null,"foot":null,"tiger_reviewed":"no","rrgh_part":0,"rrgh_tile_part":0},"geometry":{"type":"LineString","coordinates":[[-83.616654,37.988575],[-83.616649,37.988537],[-83.616609,37.988475],[-83.616562,37.988436],[-83.616535,37.98843],[-83.616398,37.988439],[-83.616269,37.988462],[-83.615917,37.98849]]}},{"type":"Feature","properties":{"osm_id":441674110,"highway":"residential","name":"Spencer East Cemetery Road","alt_name":null,"official_name":null,"surface":null,"tracktype":null,"service":null,"access":null,"motor_vehicle":null,"foot":null,"tiger_reviewed":"no","rrgh_part":0,"rrgh_tile_part":0},"geometry":{"type":"LineString","coordinates":[[-83.615917,37.98849],[-83.616276,37.98853],[-83.616432,37.988575],[-83.616555,37.988627],[-83.616599,37.988632],[-83.616622,37.988619],[-83.616654,37.988575]]}},{"type":"Feature","properties":{"osm_id":902469436,"highway":"residential","name":"Raney-Ratliff Branch Road","alt_name":null,"official_name":null,"surface":"gravel","tracktype":null,"service":null,"access":null,"motor_vehicle":null,"foot":null,"tiger_reviewed":"no","rrgh_part":0,"rrgh_tile_part":0},"geometry":{"type":"LineString","coordinates":[[-83.6133,38.0013227],[-83.6128217,38.0015427],[-83.6123407,38.0015787],[-83.611886,38.0015506],[-83.611314,38.0014921],[-83.6110769,38.0013779],[-83.6108181,38.0012315],[-83.6105209,38.0011183],[-83.6102689,38.0010733],[-83.6099415,38.0010622],[-83.6097237,38.0010394],[-83.6096548,38.0010276]]}},{"type":"Feature","properties":{"osm_id":16309424,"highway":"residential","name":"Richardson Branch Creek Road","alt_name":null,"official_name":null,"surface":"gravel","tracktype":null,"service":null,"access":null,"motor_vehicle":null,"foot":null,"tiger_reviewed":"no","rrgh_part":0,"rrgh_tile_part":0},"geometry":{"type":"LineString","coordinates":[[-83.600391,37.990331],[-83.60003,37.990415],[-83.599666,37.990477],[-83.59948,37.990508],[-83.599194,37.990573],[-83.599114,37.990614],[-83.598989,37.990709],[-83.598551,37.990897],[-83.598144,37.991034],[-83.597737,37.991146],[-83.597641,37.99116],[-83.597476,37.991168],[-83.597133,37.991153],[-83.596832,37.991167],[-83.596629,37.991218],[-83.596,37.991284],[-83.594889,37.9914],[-83.594416,37.991681],[-83.594132,37.991866],[-83.594017,37.991929],[-83.593789,37.992026],[-83.593441,37.992248],[-83.593226,37.992414],[-83.592747,37.992822],[-83.59256,37.992957],[-83.59231,37.993079],[-83.591935,37.993216],[-83.591765,37.993268],[-83.591692,37.993307],[-83.5916292,37.9933674],[-83.591604,37.993401]]}},{"type":"Feature","properties":{"osm_id":902469434,"highway":"residential","name":"Ratliff Road","alt_name":null,"official_name":null,"surface":"gravel","tracktype":null,"service":null,"access":null,"motor_vehicle":null,"foot":null,"tiger_reviewed":"no","rrgh_part":0,"rrgh_tile_part":0},"geometry":{"type":"LineString","coordinates":[[-83.6096548,38.0010276],[-83.6094746,38.0009574],[-83.6092357,38.0008451],[-83.6090316,38.0007573],[-83.6086534,38.0006518],[-83.6085971,38.0006275],[-83.6083371,38.0005153],[-83.6078767,38.0004145],[-83.6073637,38.0001633],[-83.6070443,37.9999212],[-83.6067064,37.9995512],[-83.6065743,37.9992821],[-83.6061034,37.9986213],[-83.6058668,37.9982352],[-83.6057766,37.9977971],[-83.605698,37.9974004],[-83.6052955,37.9971063],[-83.604998,37.9969892],[-83.6043775,37.9966368],[-83.6040649,37.9963277],[-83.6031851,37.9960901],[-83.6026228,37.9960948],[-83.6023318,37.9961417],[-83.6020924,37.9960992],[-83.6019143,37.9960427],[-83.6017778,37.9959446],[-83.6015194,37.9958775],[-83.6006219,37.995807],[-83.6002304,37.9957043],[-83.5998957,37.9956843],[-83.5995393,37.9957064],[-83.599288,37.995765],[-83.5989228,37.995861],[-83.5986736,37.9958992],[-83.598452,37.995928],[-83.5982061,37.9959515],[-83.5976033,37.9959486],[-83.597262,37.9959483],[-83.596855,37.995871],[-83.596523,37.995884],[-83.59601,37.99594],[-83.595495,37.995959],[-83.595238,37.995985],[-83.595129,37.99598],[-83.595092,37.995969],[-83.595054,37.995958],[-83.594808,37.995801],[-83.594405,37.995565],[-83.593752,37.995257],[-83.593639,37.995173],[-83.593548,37.995104],[-83.593278,37.994928],[-83.593088,37.994771],[-83.59279,37.994552],[-83.592664,37.994425],[-83.592558,37.994333],[-83.592289,37.993985],[-83.59219,37.993903],[-83.592002,37.993774],[-83.591921,37.993701],[-83.59169,37.993454],[-83.591604,37.993401]]}},{"type":"Feature","properties":{"osm_id":1266603199,"highway":"track","name":null,"alt_name":null,"official_name":null,"surface":null,"tracktype":null,"service":null,"access":null,"motor_vehicle":null,"foot":null,"tiger_reviewed":null,"rrgh_part":0,"rrgh_tile_part":0},"geometry":{"type":"LineString","coordinates":[[-83.6085971,38.0006275],[-83.6082656,38.0007141],[-83.6080403,38.0008789],[-83.6077586,38.0010417],[-83.6072437,38.0015912],[-83.6072732,38.0019928],[-83.6073992,38.0024578],[-83.607367,38.0026416],[-83.6072651,38.0028382],[-83.6076996,38.0034723],[-83.6075554,38.0039021],[-83.6074309,38.004463],[-83.6071995,38.004864],[-83.6074558,38.0054585],[-83.6076835,38.0056295],[-83.607683,38.006034],[-83.6076163,38.0063016],[-83.6075275,38.0063993],[-83.607309,38.0065405],[-83.6072346,38.0065471],[-83.6070705,38.0064928],[-83.6070118,38.0064434],[-83.6068218,38.0064386],[-83.6067228,38.0063462],[-83.6067086,38.0061391],[-83.606559,38.0059894],[-83.606272,38.0059162],[-83.6060536,38.0059687],[-83.6058859,38.0063653],[-83.60569,38.0066492]]}},{"type":"Feature","properties":{"osm_id":16308874,"highway":"residential","name":null,"alt_name":null,"official_name":null,"surface":null,"tracktype":null,"service":null,"access":null,"motor_vehicle":null,"foot":null,"tiger_reviewed":"no","rrgh_part":0,"rrgh_tile_part":0},"geometry":{"type":"LineString","coordinates":[[-83.591985,37.976301],[-83.592631,37.977354],[-83.592639,37.977454],[-83.592651,37.977566],[-83.59264,37.977619],[-83.592521,37.978196]]}},{"type":"Feature","properties":{"osm_id":16308954,"highway":"residential","name":null,"alt_name":null,"official_name":null,"surface":null,"tracktype":null,"service":null,"access":null,"motor_vehicle":null,"foot":null,"tiger_reviewed":"no","rrgh_part":0,"rrgh_tile_part":0},"geometry":{"type":"LineString","coordinates":[[-83.593033,37.977581],[-83.592667,37.977463],[-83.592639,37.977454]]}},{"type":"Feature","properties":{"osm_id":16309176,"highway":"service","name":null,"alt_name":null,"official_name":null,"surface":null,"tracktype":null,"service":null,"access":"private","motor_vehicle":null,"foot":null,"tiger_reviewed":"no","rrgh_part":0,"rrgh_tile_part":0},"geometry":{"type":"LineString","coordinates":[[-83.5960121,37.9751614],[-83.5960415,37.9752089],[-83.5966306,37.9752885],[-83.5966967,37.9753588],[-83.5966771,37.9754008],[-83.595757,37.9757377],[-83.5952042,37.9760064],[-83.5944799,37.9764867],[-83.5944148,37.9766768],[-83.5945269,37.9767678],[-83.5951872,37.9767915]]}},{"type":"Feature","properties":{"osm_id":16310184,"highway":"residential","name":"Foxfire Road","alt_name":null,"official_name":null,"surface":null,"tracktype":null,"service":null,"access":null,"motor_vehicle":null,"foot":null,"tiger_reviewed":"no","rrgh_part":0,"rrgh_tile_part":0},"geometry":{"type":"LineString","coordinates":[[-83.593997,37.978359],[-83.593759,37.97822],[-83.593244,37.97792],[-83.59317,37.977863],[-83.593117,37.977804],[-83.593082,37.977735],[-83.593033,37.977581],[-83.593022,37.977546],[-83.5926377,37.976876],[-83.592669,37.976621],[-83.592667,37.976501],[-83.592628,37.976363],[-83.592562,37.976216]]}},{"type":"Feature","properties":{"osm_id":970367138,"highway":"service","name":"Foxfire Lane","alt_name":null,"official_name":null,"surface":null,"tracktype":null,"service":null,"access":null,"motor_vehicle":null,"foot":null,"tiger_reviewed":null,"rrgh_part":0,"rrgh_tile_part":0},"geometry":{"type":"LineString","coordinates":[[-83.593997,37.978359],[-83.5942327,37.9784975],[-83.5947627,37.9788899],[-83.5953141,37.9793178],[-83.5957519,37.9795901],[-83.5966144,37.9801939],[-83.5967002,37.9803427],[-83.5967045,37.9805135],[-83.5966766,37.9808197],[-83.5967045,37.9811444],[-83.596859,37.981508],[-83.5971122,37.982127],[-83.5974662,37.9825413],[-83.5974984,37.9826631]]}},{"type":"Feature","properties":{"osm_id":16310445,"highway":"residential","name":"Brandenburg Road","alt_name":null,"official_name":null,"surface":null,"tracktype":null,"service":null,"access":null,"motor_vehicle":null,"foot":null,"tiger_reviewed":"no","rrgh_part":0,"rrgh_tile_part":0},"geometry":{"type":"LineString","coordinates":[[-83.59,37.99547208585859],[-83.590532,37.995771],[-83.5907342,37.9958562],[-83.590824,37.995894],[-83.591065,37.996021],[-83.591123,37.996037]]}},{"type":"Feature","properties":{"osm_id":16308844,"highway":"service","name":null,"alt_name":null,"official_name":null,"surface":null,"tracktype":null,"service":null,"access":null,"motor_vehicle":null,"foot":null,"tiger_reviewed":"no","rrgh_part":0,"rrgh_tile_part":0},"geometry":{"type":"LineString","coordinates":[[-83.59,37.99502739928571],[-83.5904143,37.9953835],[-83.5907264,37.9957736],[-83.5907342,37.9958562]]}},{"type":"Feature","properties":{"osm_id":16089596,"highway":"track","name":"Carrington Branch","alt_name":null,"official_name":null,"surface":"gravel","tracktype":null,"service":null,"access":null,"motor_vehicle":null,"foot":null,"tiger_reviewed":"no","rrgh_part":0,"rrgh_tile_part":0},"geometry":{"type":"LineString","coordinates":[[-83.6060038,38.0135024],[-83.6060605,38.01352],[-83.606121,38.0135197],[-83.606196,38.013498],[-83.606383,38.013473],[-83.606475,38.013473],[-83.606681,38.013466],[-83.606776,38.01346],[-83.606979,38.01344],[-83.607102,38.013432],[-83.607211,38.013432],[-83.607332,38.013437],[-83.607497,38.013451],[-83.607556,38.01345],[-83.607662,38.013439],[-83.607767,38.013424],[-83.608267,38.013292],[-83.60841,38.013266],[-83.608478,38.013246],[-83.608639,38.013193],[-83.608807,38.013131],[-83.609017,38.013045],[-83.60906,38.013018],[-83.609083,38.013],[-83.609091,38.01296],[-83.609065,38.012902],[-83.609015,38.012861],[-83.608941,38.012837],[-83.608864,38.012804],[-83.60867,38.012678],[-83.608543,38.012582],[-83.608485,38.012533],[-83.608437,38.012482],[-83.608404,38.012423],[-83.60839,38.012353],[-83.608395,38.012288],[-83.608422,38.012219],[-83.608513,38.012081],[-83.608598,38.012],[-83.608719,38.011902],[-83.608998,38.011744],[-83.609093,38.011703],[-83.609192,38.011673],[-83.609384,38.011634],[-83.609468,38.011608],[-83.609539,38.011575],[-83.609597,38.011531],[-83.60965,38.011471],[-83.609677,38.011406],[-83.609726,38.01122],[-83.609735,38.010982],[-83.609742,38.010898],[-83.609736,38.010831],[-83.609721,38.010766],[-83.609692,38.010709],[-83.609611,38.010579],[-83.609578,38.01052],[-83.609537,38.01046],[-83.609502,38.01042],[-83.609476,38.010378],[-83.609456,38.010322],[-83.609438,38.010153],[-83.609437,38.010081],[-83.609461,38.009988],[-83.609482,38.009935],[-83.609521,38.00987],[-83.609561,38.009833],[-83.609607,38.009799],[-83.609667,38.009773],[-83.609727,38.009753],[-83.609813,38.00975],[-83.609899,38.009754],[-83.609991,38.00976],[-83.610088,38.009775],[-83.610163,38.009782],[-83.610244,38.009782],[-83.610371,38.009767],[-83.610563,38.009728],[-83.610849,38.009642],[-83.610934,38.009635],[-83.610974,38.009641],[-83.61101,38.009653],[-83.611049,38.009701],[-83.611065,38.009769],[-83.611066,38.00982],[-83.611074,38.009883],[-83.611089,38.009951],[-83.61109,38.010018],[-83.611074,38.010232],[-83.611062,38.010301],[-83.611065,38.010371],[-83.611062,38.01048],[-83.611065,38.010612],[-83.611055,38.010802],[-83.611045,38.011123],[-83.611022,38.011281],[-83.611015,38.011356],[-83.611017,38.011458],[-83.611024,38.011546],[-83.611031,38.011587],[-83.611043,38.011628],[-83.611091,38.01174],[-83.611102,38.011789],[-83.611104,38.011847],[-83.611098,38.011912],[-83.611076,38.011975],[-83.611017,38.012177],[-83.610992,38.01231],[-83.610984,38.012372],[-83.610985,38.012411],[-83.611018,38.012596],[-83.611059,38.012752],[-83.61108,38.012875],[-83.611093,38.012913],[-83.611165,38.013079],[-83.611229,38.013282],[-83.611275,38.013375],[-83.611319,38.013436],[-83.611358,38.013483],[-83.611412,38.013531],[-83.611515,38.013604],[-83.6116,38.013655],[-83.611669,38.013691],[-83.611741,38.013718],[-83.611825,38.013733],[-83.611894,38.013729],[-83.611975,38.013716],[-83.612111,38.013676],[-83.612309,38.013596],[-83.612432,38.013534],[-83.612505,38.013482],[-83.612563,38.013417],[-83.612618,38.013348],[-83.61265,38.013301],[-83.612692,38.013257],[-83.612776,38.013189],[-83.612875,38.013133],[-83.612998,38.013077],[-83.613179,38.013018],[-83.613236,38.013015],[-83.613296,38.013016],[-83.613401,38.01304],[-83.613532,38.01308],[-83.613602,38.013112],[-83.61367,38.01315],[-83.613764,38.013232],[-83.613833,38.013323],[-83.613884,38.013409],[-83.613936,38.01346],[-83.613987,38.013499],[-83.614043,38.013536],[-83.614091,38.013558],[-83.614129,38.013581],[-83.614173,38.01363],[-83.614195,38.013673],[-83.614237,38.013795],[-83.614276,38.013949],[-83.614276,38.014055],[-83.614259,38.014155],[-83.614235,38.014229],[-83.614202,38.014302],[-83.61414,38.014389],[-83.614063,38.014457],[-83.613981,38.01451],[-83.613662,38.014671],[-83.613179,38.014938],[-83.613007,38.015037],[-83.612962,38.015068],[-83.612879,38.015151],[-83.612843,38.015202],[-83.612805,38.015268],[-83.612771,38.015339],[-83.612737,38.01545],[-83.612731,38.015577],[-83.612745,38.015651],[-83.612763,38.015715],[-83.612837,38.015862],[-83.612887,38.015938],[-83.613046,38.016157],[-83.613102,38.016219],[-83.613161,38.016276],[-83.61322,38.016325],[-83.613301,38.016362],[-83.613495,38.01642],[-83.614101,38.016573],[-83.614337,38.016641],[-83.614439,38.016664],[-83.614502,38.01667],[-83.614572,38.016655],[-83.614649,38.016612],[-83.614736,38.016531],[-83.614846,38.016407],[-83.614907,38.016331],[-83.615119,38.016123],[-83.615196,38.016051],[-83.615237,38.016017],[-83.615282,38.015993],[-83.615339,38.01597],[-83.615402,38.015954],[-83.615537,38.015928],[-83.615882,38.015869],[-83.616052,38.015843],[-83.616147,38.015837],[-83.61623,38.015842],[-83.616298,38.015853],[-83.616385,38.015884],[-83.616443,38.015921],[-83.616496,38.015969],[-83.616533,38.016028],[-83.616733,38.016287],[-83.616789,38.016369],[-83.616852,38.016451],[-83.616928,38.016583],[-83.616981,38.016645],[-83.617042,38.016697],[-83.617105,38.016735],[-83.617173,38.016759],[-83.617211,38.016766],[-83.617242,38.016766],[-83.61731,38.016752],[-83.617342,38.016738],[-83.617371,38.016718],[-83.617422,38.016666],[-83.617447,38.016601],[-83.617462,38.016515],[-83.61752,38.016269],[-83.61755,38.016187],[-83.617562,38.016143],[-83.61758,38.01611],[-83.617591,38.016063],[-83.617614,38.015999],[-83.617692,38.015844],[-83.617746,38.015763],[-83.617799,38.015699],[-83.617875,38.015617],[-83.617969,38.015541],[-83.618077,38.015463],[-83.61818,38.015396],[-83.618238,38.015368],[-83.618301,38.015349],[-83.618341,38.015343],[-83.618386,38.015341],[-83.618463,38.015348],[-83.618632,38.015394],[-83.61872,38.015424],[-83.618892,38.015491],[-83.619059,38.015566],[-83.619127,38.015605],[-83.619189,38.015648],[-83.619279,38.015751],[-83.619304,38.015819],[-83.61934,38.016104],[-83.619375,38.016245],[-83.6194,38.016314],[-83.619446,38.016378],[-83.619569,38.016585],[-83.619647,38.016737],[-83.619712,38.016815],[-83.619773,38.016896],[-83.619799,38.016955],[-83.619808,38.017008],[-83.619818,38.017169],[-83.619838,38.017253],[-83.6199,38.017402],[-83.619922,38.017515],[-83.619924,38.017616],[-83.619919,38.017795],[-83.619837,38.018142],[-83.619755,38.018543],[-83.619669,38.018924],[-83.619672,38.018982],[-83.619685,38.019022],[-83.61971,38.019071],[-83.619771,38.01911],[-83.61985,38.019132],[-83.619943,38.019138],[-83.620041,38.019136],[-83.620401,38.019087],[-83.620757,38.019067],[-83.620858,38.019058],[-83.620974,38.019032],[-83.621473,38.018864],[-83.621566,38.018842],[-83.621673,38.018831],[-83.621781,38.018829],[-83.621881,38.018846],[-83.622066,38.0189],[-83.622407,38.019011],[-83.622486,38.01904],[-83.622742,38.01914],[-83.62301,38.019265],[-83.623165,38.019347],[-83.623229,38.019376],[-83.62327,38.019385],[-83.6233808,38.019387],[-83.6234827,38.0192602],[-83.6235846,38.0189136],[-83.6238849,38.0182247],[-83.6238903,38.0180979],[-83.6238528,38.0179373],[-83.6236382,38.017595],[-83.6233486,38.0170371],[-83.6231341,38.0167708],[-83.622807,38.0164454],[-83.6227051,38.0163186],[-83.622378,38.0158156],[-83.6222492,38.0155324],[-83.6221903,38.0154395],[-83.6221152,38.0153634],[-83.621729,38.0150675],[-83.6214877,38.0148478],[-83.621418,38.014759],[-83.6213965,38.0146491],[-83.6214073,38.0145392],[-83.6215038,38.0140954],[-83.6215145,38.0139813],[-83.6214824,38.0138376],[-83.6213912,38.0136686],[-83.6209461,38.0132375],[-83.6204795,38.0129881]]}},{"type":"Feature","properties":{"osm_id":1266603200,"highway":"track","name":null,"alt_name":null,"official_name":null,"surface":null,"tracktype":null,"service":null,"access":null,"motor_vehicle":null,"foot":null,"tiger_reviewed":null,"rrgh_part":0,"rrgh_tile_part":0},"geometry":{"type":"LineString","coordinates":[[-83.606272,38.0059162],[-83.6059488,38.0058075],[-83.6055243,38.0057852]]}},{"type":"Feature","properties":{"osm_id":16309484,"highway":"residential","name":"Carrington Branch Road","alt_name":null,"official_name":null,"surface":"gravel","tracktype":null,"service":null,"access":null,"motor_vehicle":null,"foot":null,"tiger_reviewed":"no","rrgh_part":0,"rrgh_tile_part":0},"geometry":{"type":"LineString","coordinates":[[-83.6022764,38.0125497],[-83.602399,38.012436],[-83.602455,38.012414],[-83.602576,38.012382],[-83.6026993,38.0123555],[-83.6028381,38.0123479],[-83.6029871,38.0123082],[-83.603188,38.012224],[-83.6033604,38.0121237],[-83.6034896,38.0120762],[-83.6036148,38.0120623],[-83.6037846,38.0120763],[-83.6038836,38.0121204],[-83.603954,38.012242],[-83.603978,38.012346],[-83.6040423,38.0124875],[-83.6041378,38.0126402],[-83.6043238,38.0128955],[-83.6043868,38.01299],[-83.604413,38.0131094],[-83.6044786,38.0131956],[-83.6045425,38.013301],[-83.6046509,38.0133929],[-83.6047095,38.0134152],[-83.6047724,38.0134309],[-83.6048507,38.0134207],[-83.6049571,38.0133756],[-83.6050869,38.0133256],[-83.605206,38.013284],[-83.605261,38.013251],[-83.605315,38.013244],[-83.605426,38.013246],[-83.605493,38.013254],[-83.605544,38.013278],[-83.605583,38.013325],[-83.605652,38.013361],[-83.605721,38.013387],[-83.6057927,38.0134062],[-83.6058827,38.0134496],[-83.6060038,38.0135024]]}},{"type":"Feature","properties":{"osm_id":16088324,"highway":"residential","name":"Ratliff Road","alt_name":null,"official_name":null,"surface":"gravel","tracktype":null,"service":null,"access":null,"motor_vehicle":null,"foot":null,"tiger_reviewed":"no","rrgh_part":0,"rrgh_tile_part":0},"geometry":{"type":"LineString","coordinates":[[-83.6016265,38.0139582],[-83.6016543,38.0139726],[-83.6017042,38.0139851],[-83.6017551,38.0139828],[-83.601804,38.013967],[-83.601853,38.013926],[-83.601885,38.013884],[-83.601933,38.013786],[-83.601962,38.013724],[-83.601977,38.013654],[-83.60202,38.013572],[-83.602172,38.0134515],[-83.602279,38.013332],[-83.6023022,38.0132786],[-83.602387,38.013121],[-83.6023932,38.0129875],[-83.602332,38.012887],[-83.602305,38.012746],[-83.6022612,38.0126223],[-83.6022764,38.0125497]]}},{"type":"Feature","properties":{"osm_id":16086560,"highway":"residential","name":"McDole Branch Road","alt_name":null,"official_name":null,"surface":"gravel","tracktype":null,"service":null,"access":null,"motor_vehicle":null,"foot":null,"tiger_reviewed":"no","rrgh_part":0,"rrgh_tile_part":0},"geometry":{"type":"LineString","coordinates":[[-83.6023661,38.0240018],[-83.602481,38.023849],[-83.6026,38.023769],[-83.602936,38.023481],[-83.603246,38.023248],[-83.603378,38.023126],[-83.603525,38.022968],[-83.603608,38.022869],[-83.603896,38.022581],[-83.603957,38.022533],[-83.604023,38.022501],[-83.604143,38.022478],[-83.604209,38.022469],[-83.604278,38.022465],[-83.604417,38.02248],[-83.604566,38.022525],[-83.604725,38.02261],[-83.60482,38.022687],[-83.604881,38.022751],[-83.605006,38.02287],[-83.605152,38.023071],[-83.605187,38.023139],[-83.605219,38.023248],[-83.605251,38.023393],[-83.605267,38.023444],[-83.605293,38.02348],[-83.605383,38.023566],[-83.605496,38.023658],[-83.605714,38.023858],[-83.605837,38.023957],[-83.605886,38.02399],[-83.605945,38.024022],[-83.606007,38.024045],[-83.606063,38.024057],[-83.606121,38.024054],[-83.606179,38.024037],[-83.606226,38.024008],[-83.606263,38.023965],[-83.606339,38.02382],[-83.606391,38.023682],[-83.606418,38.023588],[-83.606447,38.023504],[-83.606475,38.023458],[-83.606548,38.023388],[-83.606593,38.023358],[-83.606643,38.02334],[-83.606696,38.023326],[-83.606767,38.023321],[-83.606834,38.023325],[-83.606909,38.023341],[-83.606984,38.023367],[-83.607119,38.023429],[-83.607265,38.023502],[-83.60742,38.023572],[-83.607531,38.02363],[-83.60775,38.023754],[-83.607816,38.023796],[-83.607879,38.023842],[-83.607996,38.023935],[-83.60806,38.023975],[-83.608126,38.024008],[-83.608266,38.024071],[-83.608412,38.024132],[-83.608641,38.024233],[-83.608769,38.024308],[-83.608827,38.024349],[-83.608879,38.024393],[-83.608923,38.024441],[-83.608954,38.024494],[-83.609026,38.02459],[-83.60906,38.024643],[-83.609091,38.02471],[-83.609105,38.024773],[-83.609103,38.024836],[-83.609075,38.02495],[-83.609024,38.025058],[-83.608997,38.025103],[-83.608952,38.025152],[-83.608897,38.025198],[-83.608779,38.025283],[-83.608726,38.025327],[-83.608684,38.025373],[-83.608654,38.025415],[-83.608639,38.025451],[-83.608632,38.025487],[-83.608636,38.025523],[-83.608652,38.025553],[-83.608676,38.025584],[-83.60871,38.025611],[-83.608751,38.025633],[-83.608789,38.025648],[-83.60885,38.025665],[-83.608985,38.025684],[-83.609048,38.025687],[-83.60912,38.025688],[-83.609343,38.025672],[-83.609447,38.025656],[-83.609584,38.025626],[-83.609651,38.025607],[-83.609742,38.025569],[-83.609838,38.025514],[-83.609891,38.025468],[-83.61009,38.025259],[-83.610284,38.025033],[-83.610343,38.024946],[-83.610417,38.024877],[-83.610517,38.024815],[-83.610643,38.024776],[-83.610887,38.024752],[-83.611016,38.024753],[-83.61116,38.024771],[-83.611287,38.024808],[-83.611403,38.024858],[-83.611564,38.02494],[-83.611646,38.024998],[-83.611704,38.025044],[-83.611776,38.025117],[-83.611822,38.025181],[-83.611932,38.025401],[-83.611973,38.025517],[-83.612054,38.02578],[-83.612069,38.025854],[-83.612073,38.02601],[-83.612093,38.026071],[-83.612121,38.02613],[-83.612184,38.026246],[-83.612221,38.026306],[-83.612341,38.026454],[-83.612413,38.02657],[-83.612478,38.026688],[-83.612513,38.026742],[-83.612575,38.026865],[-83.612686,38.027062],[-83.612706,38.027113],[-83.612737,38.027167],[-83.612773,38.027241],[-83.6129192,38.0274283],[-83.6132205,38.0277789],[-83.6134662,38.0280429],[-83.6138625,38.0283268],[-83.6140206,38.0283755],[-83.6142976,38.0283949],[-83.6146172,38.0283536],[-83.6148568,38.0282941],[-83.6150735,38.02818],[-83.6154169,38.0279901],[-83.6155607,38.027965],[-83.6157995,38.028006],[-83.6159788,38.0279837],[-83.616228,38.0278688],[-83.6164982,38.027671],[-83.6166823,38.0274633],[-83.6168242,38.027237],[-83.6169108,38.0270734],[-83.6169625,38.0270102],[-83.617049,38.0269598],[-83.6172994,38.0269049],[-83.6174606,38.0269106],[-83.6175921,38.0269789],[-83.6177193,38.0271377],[-83.6178098,38.0272736],[-83.6179897,38.0274813],[-83.6180638,38.0276305],[-83.6180813,38.0277374],[-83.6179815,38.0279022],[-83.6178002,38.0280663],[-83.6176323,38.0282036],[-83.6173853,38.0284221],[-83.6171958,38.0286032],[-83.6170305,38.0288451],[-83.6170485,38.029019],[-83.617106,38.0292774],[-83.6171358,38.0295656],[-83.6171961,38.0297813],[-83.6173089,38.0299026],[-83.6175065,38.029986],[-83.617744,38.030187],[-83.6179115,38.0303604],[-83.6180503,38.0304283],[-83.6181169,38.0304785],[-83.6182395,38.0305505],[-83.6183661,38.0305901],[-83.6185745,38.0306698],[-83.6188391,38.0308039],[-83.6189279,38.0308643],[-83.6190035,38.0308668],[-83.6190961,38.0308486],[-83.6191665,38.0308531],[-83.6192278,38.0308998],[-83.6192761,38.0309028],[-83.6193139,38.0308953]]}},{"type":"Feature","properties":{"osm_id":16087051,"highway":"residential","name":"Glady Hollow Road","alt_name":null,"official_name":null,"surface":"gravel","tracktype":null,"service":null,"access":null,"motor_vehicle":null,"foot":null,"tiger_reviewed":"no","rrgh_part":0,"rrgh_tile_part":0},"geometry":{"type":"LineString","coordinates":[[-83.590403,38.017824],[-83.590402,38.017802],[-83.590399,38.017773],[-83.590404,38.017675],[-83.590419,38.017634],[-83.590458,38.017582],[-83.590502,38.01754],[-83.59062,38.017472],[-83.590762,38.017379],[-83.590904,38.017275],[-83.590957,38.017234],[-83.591063,38.017143],[-83.591197,38.017007],[-83.591296,38.016926],[-83.591459,38.016802],[-83.591513,38.016763],[-83.591632,38.01669],[-83.591766,38.016633],[-83.59184,38.016628],[-83.591904,38.016645],[-83.591959,38.016671],[-83.592004,38.016703],[-83.592033,38.01675],[-83.592046,38.016801],[-83.592035,38.016883],[-83.592,38.016942],[-83.591931,38.016999],[-83.591855,38.017042],[-83.59178,38.017079],[-83.591715,38.017135],[-83.591674,38.017193],[-83.591652,38.017232],[-83.591644,38.017284],[-83.591655,38.017327],[-83.591669,38.017358],[-83.591698,38.017417],[-83.591732,38.017468],[-83.59178,38.017517],[-83.591824,38.017552],[-83.591902,38.017596],[-83.591986,38.01763],[-83.592058,38.017686],[-83.592085,38.017743],[-83.592102,38.017781],[-83.592108,38.017846],[-83.592104,38.017905],[-83.592086,38.01803],[-83.592068,38.018089],[-83.59204,38.018152],[-83.591948,38.018258],[-83.591883,38.018314],[-83.591801,38.018359],[-83.591708,38.018388],[-83.591328,38.018445],[-83.591244,38.018479],[-83.591177,38.018527],[-83.591117,38.018585],[-83.59106,38.018647],[-83.590705,38.018918],[-83.590645,38.01895],[-83.590576,38.018974],[-83.590505,38.018981],[-83.590434,38.018973],[-83.590368,38.018947],[-83.590241,38.018884],[-83.590169,38.018863],[-83.590091,38.018858],[-83.590013,38.018873],[-83.59,38.0188798]]}},{"type":"Feature","properties":{"osm_id":16087051,"highway":"residential","name":"Glady Hollow Road","alt_name":null,"official_name":null,"surface":"gravel","tracktype":null,"service":null,"access":null,"motor_vehicle":null,"foot":null,"tiger_reviewed":"no","rrgh_part":0,"rrgh_tile_part":1},"geometry":{"type":"LineString","coordinates":[[-83.59,38.01922128571429],[-83.590152,38.019376],[-83.590215,38.019426],[-83.590286,38.01947],[-83.590443,38.019557],[-83.590621,38.019635],[-83.590802,38.019721],[-83.591028,38.019821],[-83.59122,38.019901],[-83.591367,38.019955],[-83.591532,38.02003],[-83.591698,38.020067],[-83.591858,38.020084],[-83.592031,38.020085],[-83.592171,38.020075],[-83.592337,38.020081],[-83.592511,38.020105],[-83.592643,38.020136],[-83.592776,38.020173],[-83.592915,38.020206],[-83.593102,38.020228],[-83.593317,38.020234],[-83.593494,38.02023],[-83.593707,38.02021],[-83.593768,38.020196],[-83.594028,38.020096],[-83.594175,38.020055],[-83.594232,38.020054],[-83.594295,38.020061],[-83.59436,38.020091],[-83.594418,38.020133],[-83.594507,38.020218],[-83.594553,38.020257],[-83.594719,38.02037],[-83.594781,38.020438],[-83.594849,38.020549],[-83.594907,38.02062],[-83.595036,38.020707],[-83.595134,38.020756],[-83.595246,38.020798],[-83.595356,38.020828],[-83.595541,38.020859],[-83.595692,38.020875],[-83.595865,38.020907],[-83.596084,38.020935],[-83.596284,38.020946],[-83.596517,38.020969],[-83.596703,38.02097],[-83.596943,38.02095],[-83.597383,38.020895],[-83.597463,38.020871],[-83.597545,38.020839],[-83.59769,38.020749],[-83.597774,38.020704],[-83.597965,38.020577],[-83.59801,38.020557],[-83.598071,38.020551],[-83.598149,38.020552],[-83.598181,38.020557],[-83.598243,38.020585],[-83.598373,38.020661],[-83.598412,38.0207],[-83.598454,38.020789],[-83.59849,38.020894],[-83.598496,38.021002],[-83.598488,38.021101],[-83.598489,38.021165],[-83.598502,38.021291],[-83.598527,38.021414],[-83.598578,38.021537],[-83.598629,38.021619],[-83.598743,38.021747],[-83.598808,38.021806],[-83.59888,38.021857],[-83.59896,38.021902],[-83.599045,38.021938],[-83.599226,38.022001],[-83.599489,38.022075],[-83.599564,38.022084],[-83.59974,38.022071],[-83.599947,38.022041],[-83.600011,38.022036],[-83.600082,38.022024],[-83.600139,38.022018],[-83.600307,38.02199],[-83.600373,38.021992],[-83.600439,38.022012],[-83.600491,38.022052],[-83.600527,38.022103],[-83.600534,38.022147],[-83.60053,38.02227],[-83.600508,38.022381],[-83.600505,38.022477],[-83.600527,38.022565],[-83.600557,38.022622],[-83.6006,38.022693],[-83.600649,38.022746],[-83.600707,38.022805],[-83.600771,38.022855],[-83.600906,38.022952],[-83.601046,38.023046],[-83.601268,38.023178],[-83.601495,38.02332],[-83.601788,38.023552],[-83.601856,38.023616],[-83.60211,38.023827],[-83.602208,38.023897],[-83.6023661,38.0240018],[-83.602458,38.024072],[-83.602482,38.024087],[-83.602574,38.024127],[-83.602651,38.024151],[-83.602762,38.024174],[-83.602961,38.024199],[-83.603044,38.024213],[-83.603125,38.024236],[-83.603281,38.02431],[-83.603332,38.024339],[-83.603383,38.024376],[-83.603428,38.024419],[-83.603467,38.024467],[-83.603502,38.02452],[-83.603567,38.024637],[-83.603657,38.024825],[-83.603755,38.02509],[-83.603809,38.025278],[-83.603823,38.02535],[-83.603841,38.025479],[-83.603849,38.025661],[-83.603815,38.026066],[-83.603785,38.026269],[-83.603733,38.026475],[-83.60365,38.026737],[-83.603637,38.026802],[-83.603632,38.026865],[-83.60364,38.026928],[-83.603656,38.026987],[-83.603722,38.0271],[-83.603757,38.027145],[-83.603822,38.027247],[-83.603846,38.027295],[-83.603861,38.027345],[-83.603862,38.02739],[-83.603851,38.027443],[-83.603821,38.027489],[-83.603778,38.027531],[-83.603698,38.027585],[-83.603627,38.027625],[-83.603551,38.027661],[-83.60347,38.027686],[-83.603397,38.027698],[-83.603235,38.027705],[-83.603107,38.027703],[-83.603009,38.027699],[-83.602941,38.027686],[-83.602871,38.027668],[-83.602802,38.027644],[-83.602446,38.027503],[-83.602131,38.027367],[-83.601685,38.027153],[-83.601321,38.026957],[-83.600928,38.026755],[-83.600696,38.026649],[-83.600533,38.026594],[-83.600448,38.026581],[-83.600369,38.026576],[-83.600211,38.026581],[-83.600121,38.026597],[-83.599988,38.026637],[-83.59987,38.026686],[-83.599775,38.026733],[-83.599694,38.026777],[-83.599542,38.026876],[-83.599431,38.026984],[-83.599391,38.027038],[-83.599344,38.02712],[-83.599317,38.027203],[-83.599295,38.027292],[-83.599293,38.027349],[-83.5993,38.027426],[-83.599323,38.027543],[-83.599384,38.027666],[-83.599476,38.027786],[-83.599632,38.027971],[-83.599887,38.028193],[-83.600007,38.028286],[-83.600129,38.028387],[-83.600225,38.028455],[-83.600332,38.028537],[-83.600507,38.028724],[-83.600551,38.028788],[-83.600661,38.02891],[-83.600723,38.028968],[-83.600797,38.029025],[-83.600928,38.029101],[-83.600984,38.029147],[-83.60103,38.029199],[-83.601063,38.02925],[-83.60108,38.029283],[-83.601088,38.029316],[-83.601093,38.029442],[-83.601075,38.029527],[-83.601053,38.029572],[-83.601024,38.029613],[-83.600901,38.02982],[-83.600868,38.0299],[-83.600828,38.030059],[-83.600818,38.030162],[-83.600832,38.030354],[-83.600857,38.030433],[-83.600904,38.030521],[-83.600993,38.030604],[-83.60106,38.030649],[-83.60124,38.030733],[-83.601306,38.030758],[-83.601377,38.030775],[-83.601407,38.030781],[-83.602471,38.030838],[-83.602608,38.030862],[-83.602641,38.030873],[-83.602671,38.030888],[-83.602696,38.030907],[-83.602709,38.030934],[-83.602712,38.030965],[-83.602704,38.031002],[-83.602679,38.031043],[-83.602644,38.031084],[-83.6026,38.031128],[-83.602344,38.031352],[-83.602305,38.031408],[-83.602279,38.031462],[-83.602243,38.031564],[-83.602166,38.031729],[-83.602138,38.03181],[-83.602122,38.03189],[-83.602112,38.032008],[-83.602107,38.03212],[-83.602091,38.032221],[-83.601985,38.032594],[-83.601999,38.032756],[-83.602016,38.032821],[-83.602082,38.03293],[-83.60218,38.033039],[-83.602278,38.033137],[-83.602312,38.033212],[-83.602332,38.033371],[-83.602315,38.033468],[-83.602293,38.033539],[-83.602274,38.033665],[-83.602272,38.033726],[-83.602279,38.033768],[-83.60233,38.033881],[-83.602343,38.033944],[-83.602335,38.034026],[-83.602345,38.03409],[-83.602372,38.034151],[-83.6024,38.034224],[-83.602431,38.03426],[-83.602522,38.034332],[-83.60258,38.034362],[-83.602637,38.034386],[-83.602701,38.034403],[-83.602751,38.034412],[-83.602907,38.034429],[-83.603084,38.034462],[-83.603214,38.034478],[-83.603281,38.034481],[-83.603343,38.03449],[-83.6034,38.034507],[-83.603451,38.03453],[-83.603501,38.034585],[-83.603518,38.034652],[-83.603512,38.034706],[-83.603472,38.034816],[-83.603426,38.035052],[-83.603352,38.035295],[-83.603251,38.035599],[-83.603248,38.035648],[-83.603258,38.035706],[-83.603283,38.035757],[-83.603339,38.035856],[-83.603369,38.035898],[-83.603428,38.036003],[-83.603457,38.036058],[-83.603505,38.036171],[-83.603544,38.036239],[-83.603592,38.036304],[-83.603642,38.036356],[-83.603752,38.036448],[-83.603822,38.036485],[-83.603891,38.036514],[-83.603993,38.036533],[-83.60416,38.036558],[-83.604251,38.036567],[-83.604424,38.036575],[-83.60461,38.036571],[-83.604763,38.036586],[-83.604827,38.036608],[-83.604883,38.036637],[-83.604928,38.036675],[-83.604961,38.036721],[-83.604979,38.036781],[-83.604978,38.036841],[-83.604962,38.036905],[-83.60491,38.037027],[-83.604844,38.037153],[-83.604798,38.03727],[-83.604768,38.037392],[-83.604769,38.037465],[-83.604777,38.037509],[-83.604816,38.037658],[-83.604981,38.038208],[-83.605028,38.038346],[-83.605098,38.03852],[-83.605118,38.038548],[-83.605167,38.038605],[-83.605215,38.038631],[-83.60525,38.038644],[-83.605364,38.03867],[-83.605436,38.038676],[-83.605492,38.038673],[-83.605739,38.038673],[-83.605927,38.038703],[-83.606001,38.038726],[-83.60613,38.038787],[-83.6062,38.038833],[-83.606227,38.038858],[-83.606292,38.038945],[-83.606349,38.039045],[-83.606376,38.0391],[-83.606445,38.039204],[-83.606497,38.03926],[-83.60659,38.039341],[-83.6067605,38.039468],[-83.607116,38.0396238],[-83.6074188,38.0396768],[-83.6077842,38.039733],[-83.6079059,38.0397398]]}},{"type":"Feature","properties":{"osm_id":16083097,"highway":"service","name":null,"alt_name":null,"official_name":null,"surface":null,"tracktype":null,"service":null,"access":"private","motor_vehicle":null,"foot":null,"tiger_reviewed":"no","rrgh_part":0,"rrgh_tile_part":0},"geometry":{"type":"LineString","coordinates":[[-83.6664468,38.0320125],[-83.666542,38.0320486],[-83.6668689,38.0321031],[-83.6671606,38.0322317],[-83.667403,38.032438],[-83.6675098,38.0325764],[-83.6682893,38.0335869],[-83.6688533,38.0338302],[-83.6690061,38.0340232],[-83.6693941,38.0342292],[-83.6699552,38.0344291],[-83.670406,38.0345414],[-83.670885,38.03471],[-83.6713902,38.0349327],[-83.6718223,38.0351339],[-83.6721202,38.0355001],[-83.6725379,38.0357633],[-83.674134,38.036358],[-83.67500000000001,38.03666236820084]]}},{"type":"Feature","properties":{"osm_id":970763746,"highway":"service","name":null,"alt_name":null,"official_name":null,"surface":null,"tracktype":null,"service":null,"access":null,"motor_vehicle":null,"foot":null,"tiger_reviewed":null,"rrgh_part":0,"rrgh_tile_part":0},"geometry":{"type":"LineString","coordinates":[[-83.670885,38.03471],[-83.670904,38.0346564],[-83.6708543,38.034456],[-83.6708357,38.034241],[-83.670752,38.0340871],[-83.670603,38.0340528],[-83.6703642,38.0338011],[-83.6700384,38.0333979],[-83.6699484,38.0332635]]}},{"type":"Feature","properties":{"osm_id":16088389,"highway":"residential","name":"Pistol Road","alt_name":null,"official_name":null,"surface":null,"tracktype":null,"service":null,"access":null,"motor_vehicle":null,"foot":null,"tiger_reviewed":"no","rrgh_part":0,"rrgh_tile_part":0},"geometry":{"type":"LineString","coordinates":[[-83.665839,38.03248],[-83.665843,38.032514],[-83.665851,38.032578],[-83.665846,38.032716],[-83.665767,38.033046],[-83.665749,38.033168],[-83.665737,38.033292],[-83.66574,38.03348],[-83.66575,38.033605],[-83.665772,38.033728],[-83.665878,38.034137],[-83.665898,38.034249],[-83.665918,38.034419],[-83.665958,38.034598],[-83.665988,38.034713],[-83.66604,38.034872],[-83.66605,38.034925],[-83.666097,38.03508],[-83.666138,38.035251],[-83.666147,38.035308],[-83.666151,38.035365],[-83.66615,38.035424],[-83.666142,38.035486],[-83.666144,38.035614],[-83.666138,38.035897],[-83.666144,38.036037],[-83.66611,38.036404],[-83.66609,38.03654],[-83.666084,38.036609],[-83.666083,38.036678],[-83.666101,38.036894],[-83.666122,38.036948],[-83.666153,38.037072],[-83.666192,38.037254],[-83.666213,38.037375],[-83.666226,38.037501],[-83.6662561,38.0377247],[-83.666276,38.037817],[-83.666291,38.037948],[-83.666332,38.03814],[-83.666371,38.038268],[-83.666441,38.038459],[-83.666617,38.038859],[-83.666852,38.039334],[-83.666908,38.039479],[-83.666932,38.039555],[-83.667,38.039718],[-83.667157,38.040133],[-83.667271,38.040391],[-83.667307,38.040482],[-83.667389,38.040653],[-83.667418,38.040731],[-83.667494,38.040877],[-83.66763,38.041111],[-83.667712,38.041297],[-83.667761,38.041429],[-83.66783,38.041645],[-83.667899,38.041873],[-83.667938,38.04203],[-83.668014,38.042259],[-83.668071,38.042406],[-83.668167,38.042613],[-83.668319,38.0429],[-83.668363,38.042971],[-83.668522,38.043269],[-83.668549,38.043349],[-83.668617,38.043497],[-83.668676,38.043646],[-83.668829,38.043996],[-83.66885,38.044056],[-83.6689092,38.0442679],[-83.6688672,38.044494],[-83.6688614,38.0449149],[-83.6688834,38.045144],[-83.668895,38.0452163],[-83.668943,38.045505],[-83.668938,38.045609],[-83.668894,38.045721],[-83.668833,38.045841],[-83.668726,38.046038],[-83.6687,38.0461],[-83.668628,38.04624],[-83.668597,38.046312],[-83.668572,38.046385],[-83.668556,38.046458],[-83.668544,38.046538],[-83.668541,38.046697],[-83.668546,38.046782],[-83.668541,38.046958],[-83.668543,38.047053],[-83.66855,38.047157],[-83.668562,38.04724],[-83.668591,38.047328],[-83.668639,38.047509],[-83.668665,38.047694],[-83.668665,38.047787],[-83.668652,38.047878],[-83.668631,38.047968],[-83.668579,38.048147],[-83.668457,38.048625],[-83.668371,38.048921],[-83.66835,38.049026],[-83.668306,38.049347],[-83.66826,38.049771],[-83.66822174599542,38.05]]}},{"type":"Feature","properties":{"osm_id":16082666,"highway":"residential","name":null,"alt_name":null,"official_name":null,"surface":null,"tracktype":null,"service":null,"access":null,"motor_vehicle":null,"foot":null,"tiger_reviewed":"no","rrgh_part":0,"rrgh_tile_part":0},"geometry":{"type":"LineString","coordinates":[[-83.657608,38.03545],[-83.656731,38.03195],[-83.656646,38.031774],[-83.656556,38.031545],[-83.656592,38.031418],[-83.656645,38.031147],[-83.656702,38.031043],[-83.656841,38.030948],[-83.656971,38.030925]]}},{"type":"Feature","properties":{"osm_id":952178985,"highway":"service","name":null,"alt_name":null,"official_name":null,"surface":null,"tracktype":null,"service":null,"access":null,"motor_vehicle":null,"foot":null,"tiger_reviewed":null,"rrgh_part":0,"rrgh_tile_part":0},"geometry":{"type":"LineString","coordinates":[[-83.659377,38.034877],[-83.6593123,38.0347553],[-83.6593029,38.0347293],[-83.6592971,38.0347036],[-83.6592912,38.0346537],[-83.6592846,38.0346043],[-83.6592697,38.0345522],[-83.6592416,38.0344989],[-83.6591825,38.0343935],[-83.6591201,38.0342966],[-83.6590772,38.0342437],[-83.6590265,38.0342016],[-83.6589758,38.0341738],[-83.6589131,38.0341582],[-83.6588289,38.0341478],[-83.658748,38.0341478],[-83.6586241,38.0341595]]}},{"type":"Feature","properties":{"osm_id":784131988,"highway":"service","name":null,"alt_name":null,"official_name":null,"surface":null,"tracktype":null,"service":null,"access":null,"motor_vehicle":null,"foot":null,"tiger_reviewed":null,"rrgh_part":0,"rrgh_tile_part":0},"geometry":{"type":"LineString","coordinates":[[-83.6531154,38.0368166],[-83.6535721,38.0375768]]}},{"type":"Feature","properties":{"osm_id":970143781,"highway":"service","name":null,"alt_name":null,"official_name":null,"surface":null,"tracktype":null,"service":null,"access":null,"motor_vehicle":null,"foot":null,"tiger_reviewed":null,"rrgh_part":0,"rrgh_tile_part":0},"geometry":{"type":"LineString","coordinates":[[-83.6514414,38.0371913],[-83.6515284,38.0374594],[-83.6516853,38.0377201],[-83.6518461,38.0379197],[-83.6518707,38.0380866],[-83.6518972,38.0384143],[-83.6519218,38.0389327],[-83.6519066,38.0393066]]}},{"type":"Feature","properties":{"osm_id":970143779,"highway":"service","name":null,"alt_name":null,"official_name":null,"surface":null,"tracktype":null,"service":null,"access":null,"motor_vehicle":null,"foot":null,"tiger_reviewed":null,"rrgh_part":0,"rrgh_tile_part":0},"geometry":{"type":"LineString","coordinates":[[-83.668895,38.0452163],[-83.6686614,38.0451704],[-83.6683848,38.0450445],[-83.6682072,38.0450025],[-83.6678037,38.0451004],[-83.6672582,38.0452603],[-83.666979,38.0454441],[-83.6667278,38.045632],[-83.6665324,38.0457019],[-83.6662406,38.0457559],[-83.6659843,38.0459038],[-83.665827,38.0460516],[-83.6656773,38.0461336],[-83.6653829,38.0461775],[-83.6651063,38.0463774],[-83.6649515,38.0464733],[-83.6648247,38.0464613],[-83.6647282,38.0464093],[-83.6646521,38.0463694],[-83.6643476,38.0464513]]}},{"type":"Feature","properties":{"osm_id":970143780,"highway":"track","name":null,"alt_name":null,"official_name":null,"surface":null,"tracktype":null,"service":null,"access":null,"motor_vehicle":null,"foot":null,"tiger_reviewed":null,"rrgh_part":0,"rrgh_tile_part":0},"geometry":{"type":"LineString","coordinates":[[-83.66588475833333,38.05],[-83.6657478,38.049827],[-83.6652575,38.0491809],[-83.6648354,38.0487815],[-83.6644405,38.0484892],[-83.6640796,38.0482962],[-83.6636915,38.04813],[-83.663351,38.048079],[-83.6629016,38.048205],[-83.6621288,38.0486072],[-83.6616522,38.0489664],[-83.6614037,38.0491729]]}},{"type":"Feature","properties":{"osm_id":16083214,"highway":"service","name":null,"alt_name":null,"official_name":null,"surface":null,"tracktype":null,"service":null,"access":"private","motor_vehicle":null,"foot":null,"tiger_reviewed":"no","rrgh_part":0,"rrgh_tile_part":0},"geometry":{"type":"LineString","coordinates":[[-83.6450464,38.0362509],[-83.6447769,38.03705],[-83.6446816,38.0371648],[-83.6444663,38.037301],[-83.6441865,38.037576],[-83.6439509,38.0376177],[-83.6438447,38.0376678],[-83.6432277,38.0384393],[-83.6431026,38.0386173],[-83.6429086,38.0393572],[-83.6431969,38.040066],[-83.6434278,38.0404506],[-83.6434992,38.0406094],[-83.6436659,38.0407679],[-83.6438891,38.0408811]]}},{"type":"Feature","properties":{"osm_id":970162035,"highway":"service","name":null,"alt_name":null,"official_name":null,"surface":null,"tracktype":null,"service":null,"access":null,"motor_vehicle":null,"foot":null,"tiger_reviewed":null,"rrgh_part":0,"rrgh_tile_part":0},"geometry":{"type":"LineString","coordinates":[[-83.6272453,38.0294817],[-83.6271687,38.0294909],[-83.6270684,38.0295312],[-83.6270426,38.0296215],[-83.6270072,38.0297106],[-83.6269412,38.0297422],[-83.6268304,38.0297292],[-83.62671,38.029726]]}},{"type":"Feature","properties":{"osm_id":970763747,"highway":"service","name":null,"alt_name":null,"official_name":null,"surface":null,"tracktype":null,"service":null,"access":null,"motor_vehicle":null,"foot":null,"tiger_reviewed":null,"rrgh_part":0,"rrgh_tile_part":0},"geometry":{"type":"LineString","coordinates":[[-83.6269412,38.0297422],[-83.6269882,38.0299188],[-83.6269715,38.0301942],[-83.6273279,38.0303923],[-83.627637,38.0307169],[-83.6277714,38.0310133],[-83.6278655,38.0313556]]}},{"type":"Feature","properties":{"osm_id":16083040,"highway":"residential","name":null,"alt_name":null,"official_name":null,"surface":null,"tracktype":null,"service":null,"access":null,"motor_vehicle":null,"foot":null,"tiger_reviewed":"no","rrgh_part":0,"rrgh_tile_part":0},"geometry":{"type":"LineString","coordinates":[[-83.6262149,38.0288865],[-83.6262841,38.0288533],[-83.626364,38.0288239],[-83.6264789,38.0288222],[-83.6265743,38.0288637],[-83.6272453,38.0294817],[-83.6284968,38.0306559],[-83.6295377,38.0316135],[-83.6296838,38.0317467],[-83.6298765,38.0319335],[-83.6301275,38.0321644],[-83.6303321,38.0322148],[-83.6306404,38.0322633],[-83.6309679,38.0323558],[-83.6312051,38.032476],[-83.6314215,38.032702],[-83.6317927,38.0333465],[-83.6320406,38.0337014],[-83.6323121,38.0340032],[-83.6329553,38.0344213],[-83.6331351,38.0346423],[-83.6332339,38.0348723]]}},{"type":"Feature","properties":{"osm_id":970162034,"highway":"service","name":null,"alt_name":null,"official_name":null,"surface":null,"tracktype":null,"service":null,"access":null,"motor_vehicle":null,"foot":null,"tiger_reviewed":null,"rrgh_part":0,"rrgh_tile_part":0},"geometry":{"type":"LineString","coordinates":[[-83.6295377,38.0316135],[-83.6296075,38.0315446],[-83.6303974,38.0303675],[-83.6307007,38.0296764],[-83.6306885,38.0295818],[-83.630601,38.0295113]]}},{"type":"Feature","properties":{"osm_id":970767992,"highway":"service","name":null,"alt_name":null,"official_name":null,"surface":null,"tracktype":null,"service":null,"access":null,"motor_vehicle":null,"foot":null,"tiger_reviewed":null,"rrgh_part":0,"rrgh_tile_part":0},"geometry":{"type":"LineString","coordinates":[[-83.6286497,38.0397897],[-83.6291682,38.0400634],[-83.6295535,38.0403056],[-83.6298641,38.0404402],[-83.6302028,38.0405014],[-83.6305507,38.0404989],[-83.6308925,38.0404965]]}},{"type":"Feature","properties":{"osm_id":970767994,"highway":"service","name":null,"alt_name":null,"official_name":null,"surface":null,"tracktype":null,"service":null,"access":null,"motor_vehicle":null,"foot":null,"tiger_reviewed":null,"rrgh_part":0,"rrgh_tile_part":0},"geometry":{"type":"LineString","coordinates":[[-83.6300478,38.03742],[-83.6306091,38.0378756],[-83.6309321,38.0381123],[-83.6311295,38.0382183],[-83.6315915,38.0383667],[-83.6323676,38.0385575]]}},{"type":"Feature","properties":{"osm_id":970767995,"highway":"service","name":null,"alt_name":null,"official_name":null,"surface":null,"tracktype":null,"service":null,"access":null,"motor_vehicle":null,"foot":null,"tiger_reviewed":null,"rrgh_part":0,"rrgh_tile_part":0},"geometry":{"type":"LineString","coordinates":[[-83.6297505,38.0378629],[-83.6293082,38.0377342],[-83.6289403,38.0375929],[-83.628725,38.0373739]]}},{"type":"Feature","properties":{"osm_id":970767993,"highway":"service","name":null,"alt_name":null,"official_name":null,"surface":null,"tracktype":null,"service":null,"access":null,"motor_vehicle":null,"foot":null,"tiger_reviewed":null,"rrgh_part":0,"rrgh_tile_part":0},"geometry":{"type":"LineString","coordinates":[[-83.6280503,38.0408036],[-83.6286216,38.0410356],[-83.6291958,38.0412546]]}},{"type":"Feature","properties":{"osm_id":16082663,"highway":"residential","name":null,"alt_name":null,"official_name":null,"surface":null,"tracktype":null,"service":null,"access":null,"motor_vehicle":null,"foot":null,"tiger_reviewed":"no","rrgh_part":0,"rrgh_tile_part":0},"geometry":{"type":"LineString","coordinates":[[-83.6261495,38.0427795],[-83.6262564,38.0428397],[-83.6273095,38.0435283],[-83.6276293,38.0436927],[-83.628026,38.043788],[-83.6283965,38.0438213],[-83.6286755,38.0438719],[-83.6290417,38.0439966],[-83.6292911,38.0442112],[-83.6296508,38.0445374],[-83.6302919,38.0449223],[-83.6307603,38.0453533]]}},{"type":"Feature","properties":{"osm_id":16082875,"highway":"service","name":null,"alt_name":null,"official_name":null,"surface":null,"tracktype":null,"service":null,"access":null,"motor_vehicle":null,"foot":null,"tiger_reviewed":"no","rrgh_part":0,"rrgh_tile_part":0},"geometry":{"type":"LineString","coordinates":[[-83.6237907,38.0449502],[-83.6241168,38.045093],[-83.6245675,38.0452654],[-83.6248553,38.0454067],[-83.6251907,38.0459482],[-83.6255261,38.0462897],[-83.6258347,38.0470653]]}},{"type":"Feature","properties":{"osm_id":970763748,"highway":"service","name":null,"alt_name":null,"official_name":null,"surface":null,"tracktype":null,"service":null,"access":null,"motor_vehicle":null,"foot":null,"tiger_reviewed":null,"rrgh_part":0,"rrgh_tile_part":0},"geometry":{"type":"LineString","coordinates":[[-83.6149635,38.0440413],[-83.615107,38.043599],[-83.6152745,38.0432559],[-83.6154867,38.042495],[-83.6158218,38.0416066],[-83.6159279,38.0411932],[-83.6161904,38.0407886],[-83.6162574,38.0404059],[-83.6163467,38.0398869],[-83.6164361,38.0397242],[-83.6166148,38.0394867],[-83.6166651,38.039126],[-83.6165534,38.0386642],[-83.6163914,38.0383256],[-83.6161513,38.0380705],[-83.6159112,38.0379297],[-83.6159223,38.0377978],[-83.6162015,38.0374503],[-83.6164473,38.0372172],[-83.6166651,38.0371732],[-83.6169164,38.037182],[-83.6176088,38.0374283],[-83.6181003,38.0374943],[-83.618547,38.0374239],[-83.6187983,38.03727],[-83.619072,38.0369972],[-83.6192674,38.0368653],[-83.6196583,38.0368961]]}},{"type":"Feature","properties":{"osm_id":16087073,"highway":"residential","name":"Glady Hollow Road","alt_name":null,"official_name":null,"surface":"gravel","tracktype":null,"service":null,"access":null,"motor_vehicle":null,"foot":null,"tiger_reviewed":"no","rrgh_part":0,"rrgh_tile_part":0},"geometry":{"type":"LineString","coordinates":[[-83.59,38.03669949784978],[-83.5903603,38.0368052],[-83.5912009,38.0368665],[-83.5920071,38.0370052],[-83.592541,38.037011],[-83.5935534,38.0371686],[-83.5943283,38.0373401],[-83.5953322,38.0376168],[-83.595656,38.0377586],[-83.5958419,38.0379604],[-83.5956937,38.0382861],[-83.5954312,38.038465],[-83.5947277,38.0386158],[-83.5939211,38.038677],[-83.592855,38.0390457],[-83.5920215,38.0394256],[-83.591527,38.0394784],[-83.59115,38.039419],[-83.590708,38.0393304],[-83.5904645,38.0392487],[-83.59,38.03923135110433]]}},{"type":"Feature","properties":{"osm_id":16087073,"highway":"residential","name":"Glady Hollow Road","alt_name":null,"official_name":null,"surface":"gravel","tracktype":null,"service":null,"access":null,"motor_vehicle":null,"foot":null,"tiger_reviewed":"no","rrgh_part":0,"rrgh_tile_part":1},"geometry":{"type":"LineString","coordinates":[[-83.59,38.04168142822452],[-83.5900679,38.0416714],[-83.5903389,38.0416782],[-83.5905442,38.0416374],[-83.5908226,38.041592],[-83.5911529,38.0415703],[-83.5913095,38.0414991],[-83.5916384,38.0412642],[-83.5918502,38.0411843],[-83.592054,38.04117],[-83.5922665,38.0412023],[-83.5924051,38.0412061],[-83.592518,38.041171],[-83.5926531,38.0408829],[-83.5928516,38.0405685],[-83.5930529,38.0403915],[-83.5934192,38.0402427],[-83.5938505,38.0401827],[-83.5941923,38.0401882],[-83.5945851,38.04034],[-83.5948562,38.040433],[-83.5955048,38.0408695],[-83.5957443,38.0410972],[-83.5958722,38.0412687],[-83.5960391,38.0413484],[-83.5961562,38.0413514],[-83.5962209,38.0413055],[-83.596248,38.041201],[-83.596238,38.041094],[-83.596269,38.040957],[-83.596336,38.040832],[-83.596426,38.040721],[-83.596512,38.040607],[-83.596625,38.040485],[-83.596779,38.040335],[-83.596955,38.040176],[-83.597045,38.040123],[-83.597155,38.040095],[-83.597439,38.04008],[-83.597609,38.040066],[-83.597687,38.040058],[-83.597857,38.040021],[-83.597924,38.040015],[-83.598002,38.040015],[-83.598087,38.040001],[-83.598232,38.039949],[-83.598306,38.039929],[-83.598388,38.039889],[-83.598455,38.039842],[-83.598529,38.039805],[-83.598648,38.039767],[-83.598791,38.039711],[-83.598854,38.039665],[-83.598914,38.039589],[-83.598974,38.039522],[-83.599116,38.039403],[-83.599197,38.039374],[-83.599405,38.039316],[-83.599509,38.039279],[-83.599606,38.039236],[-83.59971,38.039175],[-83.599803,38.039137],[-83.599892,38.039111],[-83.600066,38.039092],[-83.600229,38.039052],[-83.600355,38.039014],[-83.600467,38.038957],[-83.600586,38.038872],[-83.600623,38.038814],[-83.600631,38.038758],[-83.600629,38.038659],[-83.600607,38.038594],[-83.600576,38.038528],[-83.600514,38.038417],[-83.600456,38.038326],[-83.600379,38.038226],[-83.600313,38.03817],[-83.600199,38.03809],[-83.59993,38.037925],[-83.599787,38.037801],[-83.599717,38.037733],[-83.599666,38.03766],[-83.59957,38.037476],[-83.599534,38.037368],[-83.599527,38.037301],[-83.599544,38.037241],[-83.59958,38.037175],[-83.599647,38.03707],[-83.599726,38.036971],[-83.599797,38.036857],[-83.599846,38.036752],[-83.599869,38.036641],[-83.599867,38.036547],[-83.599842,38.036439],[-83.599839,38.036351],[-83.599873,38.03624],[-83.599922,38.036126],[-83.600031,38.035853],[-83.600053,38.035764],[-83.600042,38.035695],[-83.599766,38.035009],[-83.599642,38.034647],[-83.599631,38.034582],[-83.599638,38.034468],[-83.599649,38.03441],[-83.599668,38.034361],[-83.599718,38.034299],[-83.599824,38.034219],[-83.599941,38.034151],[-83.600061,38.034105],[-83.600213,38.034075],[-83.600348,38.034063],[-83.600658,38.034073],[-83.600948,38.034103],[-83.601007,38.034102],[-83.601157,38.034108],[-83.60125,38.034121],[-83.601508,38.034182],[-83.601583,38.034205],[-83.601669,38.034227],[-83.601939,38.034317],[-83.602043,38.03434],[-83.602106,38.034343],[-83.60214,38.034341],[-83.602182,38.034327],[-83.602215,38.034311],[-83.602249,38.034288],[-83.602299,38.034246],[-83.60234,38.034203],[-83.602372,38.034151]]}},{"type":"Feature","properties":{"osm_id":16082998,"highway":"service","name":null,"alt_name":null,"official_name":null,"surface":null,"tracktype":null,"service":null,"access":null,"motor_vehicle":null,"foot":null,"tiger_reviewed":"no","rrgh_part":0,"rrgh_tile_part":0},"geometry":{"type":"LineString","coordinates":[[-83.6149635,38.0440413],[-83.6146448,38.0445547],[-83.614559,38.0447632],[-83.6146002,38.045003],[-83.6146786,38.0459693],[-83.6146318,38.0463966],[-83.6144036,38.0467888],[-83.6143101,38.0470281],[-83.6142888,38.0475241],[-83.6141786,38.0477599],[-83.614021,38.0479113],[-83.61399,38.0480213],[-83.6140611,38.0481279],[-83.6144232,38.0484051],[-83.6165317,38.0495351],[-83.6167647,38.0496859],[-83.6171775,38.0498266],[-83.6173227,38.0499775],[-83.61732487905405,38.05]]}}],"rrgh_tile":{"id":"r8c4","bounds":[37.974999999999994,-83.67500000000001,38.05,-83.59]}}
