{"type":"FeatureCollection","features":[{"type":"Feature","properties":{"osm_id":16082916,"highway":"residential","name":"Ratliff Road","alt_name":null,"official_name":null,"surface":"gravel","tracktype":null,"service":null,"access":null,"motor_vehicle":null,"foot":null,"tiger_reviewed":"no","rrgh_part":0,"rrgh_tile_part":0},"geometry":{"type":"LineString","coordinates":[[-83.59,38.01816790825688],[-83.58998,38.018178],[-83.589796,38.018287],[-83.589691,38.018359],[-83.589606,38.018407],[-83.589389,38.018557],[-83.589321,38.018609],[-83.589214,38.018709],[-83.589133,38.018798],[-83.589086,38.018885],[-83.589069,38.018965],[-83.589043,38.01905],[-83.588997,38.019112],[-83.588935,38.019165],[-83.588878,38.019201],[-83.588807,38.019227],[-83.588713,38.019256],[-83.588534,38.019295],[-83.588096,38.019402],[-83.587862,38.019465],[-83.587728,38.019512],[-83.587612,38.019576],[-83.587509,38.019653],[-83.587344,38.019816],[-83.587276,38.019898],[-83.587213,38.019967],[-83.587147,38.020049],[-83.587063,38.020221],[-83.587027,38.020281],[-83.58698,38.02035],[-83.586863,38.020507],[-83.586793,38.020615],[-83.586761,38.020677],[-83.586723,38.020774],[-83.586698,38.020902],[-83.586659,38.021065],[-83.586601,38.021226],[-83.586465,38.021445],[-83.58595,38.022233],[-83.585908,38.022306],[-83.585828,38.022462],[-83.585793,38.022539],[-83.585709,38.022771],[-83.585696,38.022849],[-83.585646,38.023358],[-83.585633,38.023527],[-83.585619,38.023604],[-83.585592,38.023674],[-83.585548,38.02374],[-83.585472,38.02381],[-83.585384,38.02388],[-83.585272,38.023977],[-83.585192,38.024078],[-83.585135,38.024183],[-83.585072,38.024322],[-83.585024,38.024476],[-83.584964,38.024696],[-83.584935,38.024885],[-83.584932,38.025113],[-83.584917,38.02531],[-83.584893,38.025425],[-83.584739,38.025748],[-83.58462,38.025979],[-83.584574,38.026052],[-83.58445,38.026288],[-83.584342,38.026516],[-83.584295,38.02659],[-83.583976,38.02706],[-83.583904,38.027205],[-83.583814,38.02742],[-83.583787,38.027493],[-83.583745,38.027647],[-83.583715,38.027855],[-83.583717,38.027929],[-83.583736,38.027995],[-83.583769,38.02806],[-83.583815,38.02812],[-83.583867,38.02818],[-83.583975,38.028297],[-83.584019,38.02836],[-83.584052,38.028426],[-83.584084,38.028563],[-83.584088,38.028626],[-83.584086,38.028694],[-83.584073,38.028841],[-83.584035,38.028955],[-83.583975,38.029057],[-83.583905,38.029215],[-83.583878,38.029326],[-83.583863,38.029431],[-83.583785,38.030639],[-83.583783,38.030799],[-83.583743,38.031286],[-83.583752,38.031438],[-83.583852,38.031875],[-83.583951,38.032445],[-83.584001,38.032576],[-83.584076,38.032726],[-83.584204,38.03294],[-83.584239,38.033012],[-83.584341,38.033278],[-83.584359,38.033344],[-83.584381,38.03355],[-83.584403,38.033695],[-83.584423,38.034004],[-83.584433,38.03411],[-83.584461,38.034294],[-83.584551,38.03456],[-83.58462,38.034713],[-83.584685,38.034818],[-83.584745,38.034931],[-83.584808,38.035091],[-83.584869,38.035326],[-83.584894,38.035487],[-83.584883,38.035598],[-83.584871,38.03564],[-83.584855,38.035662],[-83.584803,38.035719],[-83.58461,38.035883],[-83.584502,38.035979],[-83.584429,38.036049],[-83.584402,38.03609],[-83.584384,38.036128],[-83.584353,38.036241],[-83.584337,38.036287],[-83.584328,38.036338],[-83.584317,38.036428],[-83.584323,38.036565],[-83.584331,38.036652],[-83.584355,38.036813],[-83.584409,38.037034],[-83.584543,38.037275],[-83.584588,38.037347],[-83.58468,38.037475],[-83.584706,38.037521],[-83.584776,38.037677],[-83.584816,38.037789],[-83.584818,38.037829],[-83.584814,38.037869],[-83.584797,38.037908],[-83.58476,38.037946],[-83.584613,38.038049],[-83.584563,38.038091],[-83.584516,38.038137],[-83.584451,38.038229],[-83.584396,38.038354],[-83.584379,38.038426],[-83.584328,38.0387],[-83.584298,38.038896],[-83.584246,38.039165],[-83.584223,38.039355],[-83.584179,38.03959],[-83.584141,38.03983],[-83.584145,38.03997],[-83.584161,38.040084],[-83.584205,38.040253],[-83.584256,38.040419],[-83.584366,38.040744],[-83.584392,38.040934],[-83.584405,38.041181],[-83.584389,38.041365],[-83.584393,38.041449],[-83.584416,38.041533],[-83.584557,38.04181],[-83.584584,38.041889],[-83.584598,38.041964],[-83.584602,38.042049],[-83.58459,38.042101],[-83.584573,38.042144],[-83.584476,38.042241],[-83.584183,38.042382],[-83.583737,38.042608],[-83.583593,38.04269]]}},{"type":"Feature","properties":{"osm_id":16089648,"highway":"residential","name":"FR 909 - Ratliff Spur Road","alt_name":null,"official_name":null,"surface":"gravel","tracktype":null,"service":null,"access":null,"motor_vehicle":null,"foot":null,"tiger_reviewed":"no","rrgh_part":0,"rrgh_tile_part":0},"geometry":{"type":"LineString","coordinates":[[-83.59,38.01223260148699],[-83.589903,38.0121444],[-83.5897493,38.0120551],[-83.5894978,38.0119453],[-83.5893558,38.0118677],[-83.5892651,38.0117878],[-83.5892398,38.0117053],[-83.5892358,38.0115892],[-83.5892316,38.0114832],[-83.5891761,38.0113659],[-83.5890565,38.0112615],[-83.5888673,38.0111761],[-83.5886659,38.0111195],[-83.5884956,38.011134],[-83.5883283,38.0111904],[-83.588163,38.0112744],[-83.5877247,38.0114979],[-83.5874648,38.0116006],[-83.5873107,38.011675],[-83.5871889,38.0117545],[-83.5870661,38.0118386],[-83.5869851,38.0118617],[-83.5868744,38.0118609],[-83.5867819,38.0118259],[-83.5867106,38.0117646],[-83.5866746,38.011668],[-83.5866981,38.011571],[-83.586784,38.0114632],[-83.5868811,38.0113537],[-83.5869901,38.0112337],[-83.5870581,38.01114],[-83.5871598,38.0109553],[-83.5872152,38.0108235],[-83.587234,38.0107136],[-83.5872086,38.0106004],[-83.5871525,38.0105351],[-83.5870693,38.0104785],[-83.5869584,38.0104372],[-83.5867824,38.0104015],[-83.586564,38.0103737],[-83.5864096,38.0103387],[-83.5863137,38.0102952],[-83.5862623,38.0102375],[-83.5862396,38.0101789],[-83.586244,38.0101037],[-83.5862925,38.0100431],[-83.5863608,38.0099944],[-83.5865003,38.0099546],[-83.586671,38.0099353],[-83.5869744,38.0099031],[-83.5872105,38.0098635],[-83.5874138,38.0098064],[-83.5876522,38.0097354],[-83.5877989,38.0096527],[-83.5878969,38.0095616],[-83.5879612,38.009454],[-83.5879762,38.0093371],[-83.5879662,38.0092172],[-83.5879253,38.0090681],[-83.5878635,38.0089419],[-83.587707,38.0086977],[-83.587614,38.0085337],[-83.5874525,38.0081943],[-83.5874024,38.0080927],[-83.5873352,38.008031],[-83.5872412,38.0079896],[-83.5871003,38.0079863],[-83.5869022,38.0080228],[-83.5866694,38.008066],[-83.5864578,38.0080619],[-83.586252,38.0080361],[-83.5860789,38.0080047],[-83.585967,38.0079688],[-83.585885,38.0079005],[-83.5858519,38.0078254],[-83.5858654,38.0077554],[-83.5859093,38.0076835],[-83.585978,38.0076111],[-83.5861075,38.0075072],[-83.5863617,38.0073137],[-83.5865106,38.0071941],[-83.5866933,38.0070036],[-83.5867944,38.0068635],[-83.5868573,38.0067275],[-83.5868676,38.0066059],[-83.5868435,38.0065037],[-83.5867327,38.0063697],[-83.5864174,38.0059832],[-83.5863021,38.0058865],[-83.5861949,38.00584],[-83.5860871,38.0058243],[-83.5859592,38.0058375],[-83.5858453,38.0058929],[-83.5857153,38.005976],[-83.5854323,38.0061849],[-83.5851967,38.0063523],[-83.5850068,38.0064459],[-83.5848105,38.0065005],[-83.5846066,38.0065327],[-83.5844135,38.0065246],[-83.5842579,38.0064998],[-83.5841303,38.0064696],[-83.5840204,38.0064315],[-83.5839421,38.006374],[-83.5838734,38.0062958],[-83.5838388,38.0061862],[-83.5838112,38.0060228],[-83.5838095,38.0058674],[-83.5838428,38.0056762],[-83.5838953,38.0055303],[-83.5840064,38.0053229],[-83.5841328,38.0051221],[-83.5842299,38.0049555],[-83.5842957,38.004831],[-83.5843235,38.0047273],[-83.5843122,38.0046042],[-83.5842907,38.0043699],[-83.5842697,38.0041274],[-83.5842547,38.0038414],[-83.5841999,38.0036933],[-83.5841018,38.0035479],[-83.5839771,38.0034672],[-83.5838431,38.0034137],[-83.5835359,38.0033262],[-83.5834455,38.0032997],[-83.5833243,38.0032409],[-83.5829831,38.0030166],[-83.5828089,38.0029083],[-83.5826783,38.0028379],[-83.5825813,38.0028113],[-83.582486,38.0028188],[-83.582367,38.002869],[-83.5820245,38.0030603],[-83.5819279,38.0031221],[-83.5818372,38.0032083],[-83.5817907,38.0033012],[-83.5816698,38.0040051],[-83.5816198,38.0042804],[-83.5816049,38.0043775],[-83.5815695,38.0044869],[-83.5814884,38.0046377],[-83.5812624,38.0049299],[-83.5811326,38.0050806],[-83.5810253,38.005169],[-83.5808939,38.0052189],[-83.5807536,38.0052287],[-83.5805872,38.0051936],[-83.5801366,38.005056],[-83.5799662,38.0049915],[-83.5798339,38.0049206],[-83.5797212,38.0048523],[-83.579597,38.0047823],[-83.5794426,38.0047188],[-83.5793136,38.0046719],[-83.5792083,38.004605],[-83.5791618,38.0045255],[-83.5791502,38.0044123],[-83.5791662,38.0041632],[-83.5791394,38.0040407],[-83.579068,38.0039325],[-83.5789162,38.003843],[-83.5786889,38.0037943],[-83.5784053,38.0038055],[-83.578149,38.0038651],[-83.5779474,38.0038999],[-83.5778246,38.0039012],[-83.5776422,38.003896],[-83.577525,38.003918],[-83.5774414,38.003981],[-83.5773973,38.0040582],[-83.5773604,38.0041787],[-83.577338,38.0043886],[-83.5773119,38.004476],[-83.5772521,38.0046064],[-83.5771543,38.0047459],[-83.5770703,38.0048996],[-83.5769781,38.0052237],[-83.5769066,38.0054037],[-83.5767901,38.0056113],[-83.5767129,38.0057455],[-83.5767179,38.0058487],[-83.5767857,38.005943],[-83.5768633,38.0060043],[-83.5771372,38.0061906],[-83.5773046,38.0063194],[-83.5774266,38.0064251],[-83.5775651,38.0065857],[-83.5776916,38.0067682],[-83.5777856,38.0069136],[-83.5778759,38.0071078],[-83.5779779,38.0073208],[-83.5780216,38.0074522],[-83.5780494,38.0077368],[-83.5780677,38.007902],[-83.578106,38.0080151],[-83.5781925,38.0081668],[-83.5783026,38.0083091],[-83.5783865,38.0084173],[-83.5784602,38.008484],[-83.5785496,38.0085392],[-83.5789024,38.0087601],[-83.5791375,38.0089372],[-83.5792585,38.0090292],[-83.5793701,38.0090846],[-83.5797036,38.0092265],[-83.5799356,38.0093379],[-83.5800694,38.0094044],[-83.5801965,38.0094385],[-83.5803596,38.0094665],[-83.5805393,38.0094911],[-83.5806568,38.0095151],[-83.5807929,38.0095798],[-83.5808963,38.0096634],[-83.5809722,38.0097651],[-83.5810396,38.0098967],[-83.5811543,38.0100601],[-83.5812317,38.0102149],[-83.5812494,38.010352],[-83.5812298,38.0104626],[-83.5811621,38.0105319],[-83.581049,38.0105983],[-83.5809089,38.0106319],[-83.5807601,38.0106248],[-83.5803896,38.010579],[-83.5801832,38.010588],[-83.5800456,38.0106393],[-83.5799302,38.0107392],[-83.5798617,38.0108932],[-83.5797248,38.0114248],[-83.5796848,38.011611],[-83.5795991,38.01181],[-83.5794654,38.0119859],[-83.5793644,38.0120967],[-83.5792159,38.0122047],[-83.5789492,38.0123256],[-83.5786084,38.0123915],[-83.5784462,38.012398],[-83.5782676,38.0123678],[-83.5781534,38.0123112],[-83.5780466,38.0122031],[-83.5779441,38.0120527],[-83.5778543,38.0119603],[-83.5777526,38.0118855],[-83.5775562,38.0117888],[-83.5773933,38.0117006],[-83.5773197,38.0116307],[-83.5772981,38.0115369],[-83.5773159,38.011441],[-83.5773893,38.0112552],[-83.5774668,38.0110371],[-83.5774817,38.0108692],[-83.5774511,38.0107456],[-83.5773866,38.0106329],[-83.577256,38.010502],[-83.5770177,38.0103745],[-83.5767377,38.0102892],[-83.5765288,38.0102565],[-83.5763107,38.0102691],[-83.5761185,38.0103263],[-83.5759325,38.0103653],[-83.575581,38.0104036],[-83.5751476,38.0104305],[-83.574986,38.0104283],[-83.5748154,38.0104441],[-83.5746125,38.0104627],[-83.5744578,38.0104563],[-83.5743497,38.0104306],[-83.5742568,38.0103527],[-83.5741562,38.0102581],[-83.5740917,38.0101487],[-83.5740802,38.0100518],[-83.5741144,38.009962],[-83.574179,38.0098663],[-83.57436,38.0096368],[-83.574497,38.0094341],[-83.574585,38.0092993],[-83.5747912,38.009038],[-83.5748861,38.0088911],[-83.5749625,38.0087411],[-83.5749823,38.0086123],[-83.5749328,38.0085206],[-83.5748557,38.0084551],[-83.5747111,38.0084004],[-83.5745037,38.0083465],[-83.5743061,38.0083025],[-83.5741789,38.0082469],[-83.574091,38.0081813],[-83.573982,38.0080513],[-83.5738657,38.0078512],[-83.573744,38.0076747],[-83.5736358,38.0075537],[-83.5735095,38.007496],[-83.5733984,38.0074874],[-83.5732696,38.0075153],[-83.5731471,38.007588],[-83.5730074,38.0077145],[-83.5728181,38.0079087],[-83.5726492,38.0080775],[-83.5724281,38.0083788],[-83.5721889,38.0086343],[-83.5720071,38.0087642],[-83.5718303,38.0088786],[-83.5716441,38.0090381],[-83.5715305,38.0091518],[-83.5713835,38.0093525],[-83.5712245,38.009602],[-83.5711237,38.0097418],[-83.5710291,38.0098464],[-83.5709236,38.0099022],[-83.5707873,38.0099456],[-83.5706886,38.0099437],[-83.5705885,38.0099252],[-83.5704883,38.0098719],[-83.5704268,38.0098005],[-83.5703883,38.0096959],[-83.5703695,38.0095761],[-83.5703996,38.0087332],[-83.5704023,38.0086097],[-83.5704242,38.008033],[-83.5704451,38.007783],[-83.5704782,38.0076174],[-83.5705542,38.0074024],[-83.5706887,38.0070088],[-83.5707553,38.0068125],[-83.5708311,38.0066304],[-83.5708702,38.0064669],[-83.5709013,38.0063091],[-83.5709415,38.0060592],[-83.570962,38.0057998],[-83.5709418,38.0055975],[-83.5709368,38.0054546],[-83.5709454,38.0053095],[-83.5709583,38.005161],[-83.5709529,38.0050051],[-83.5709203,38.0049072],[-83.5708326,38.0048132],[-83.5706944,38.0047517],[-83.5705372,38.004734],[-83.5703537,38.0047574],[-83.5701599,38.0047811],[-83.5699713,38.0047925],[-83.5698299,38.0047726],[-83.5695754,38.0047094],[-83.5692006,38.0046121],[-83.5690533,38.0045336],[-83.5689408,38.0044501],[-83.5687828,38.0042923],[-83.5686198,38.0040931],[-83.5684743,38.003933],[-83.5682879,38.0037765],[-83.5680944,38.0036194],[-83.5679416,38.0035328],[-83.5678308,38.0035054],[-83.5677399,38.0035136],[-83.5676817,38.0035593],[-83.5675702,38.0036752],[-83.5673859,38.0038964],[-83.5673236,38.0040065],[-83.5673055,38.0041333],[-83.5673308,38.004275],[-83.5674178,38.0045573],[-83.5675018,38.0047848],[-83.5675837,38.0049063],[-83.5677091,38.0049911],[-83.5678494,38.0050347],[-83.5680284,38.0050906],[-83.5681989,38.0051746],[-83.5684814,38.0053351],[-83.5687132,38.0054741],[-83.5687989,38.00555],[-83.5688721,38.0056781],[-83.568903,38.0058296],[-83.5688973,38.0060478],[-83.5689104,38.0061487],[-83.5688993,38.0062846],[-83.5688452,38.0065871],[-83.5687158,38.0067953],[-83.5684964,38.0068842],[-83.5681966,38.0069252],[-83.5679713,38.0070195],[-83.5677276,38.0071113],[-83.5675386,38.0071753],[-83.5673743,38.0073551],[-83.567273,38.007535],[-83.567246,38.0076417],[-83.5672527,38.0078418],[-83.5672652,38.0080673],[-83.5672297,38.0082769],[-83.5671456,38.0084586],[-83.5670938,38.0085153],[-83.5669103,38.0086408],[-83.5667706,38.0087142],[-83.5666832,38.0087554],[-83.5665323,38.0087714],[-83.5664243,38.0087601],[-83.5662874,38.0087259],[-83.5661965,38.0087157],[-83.5661174,38.0087479],[-83.5659328,38.0088489],[-83.5657813,38.0089645],[-83.5656304,38.0090891],[-83.5655243,38.0091801],[-83.5654759,38.0092544],[-83.5654263,38.0093701],[-83.5653617,38.0094372],[-83.5652396,38.0094337],[-83.5651399,38.0093784],[-83.565061,38.0092688],[-83.5649653,38.0091522],[-83.5648872,38.0090842],[-83.5647915,38.0090197],[-83.5647499,38.0089484],[-83.5647659,38.0088499],[-83.5648399,38.0087485],[-83.5649193,38.0086559],[-83.5649361,38.0085814],[-83.5649173,38.0084987],[-83.5648178,38.0084097],[-83.5647031,38.0083036],[-83.5646062,38.0082047],[-83.5645454,38.0081163],[-83.564558,38.0080279],[-83.5646194,38.007928],[-83.5647401,38.0078158],[-83.564835,38.0076881],[-83.564866,38.0075986],[-83.5648864,38.0075044],[-83.5649032,38.0074374],[-83.5649678,38.0073561],[-83.5650634,38.0072863],[-83.565136,38.0071841],[-83.565174,38.0070533],[-83.5651871,38.006897],[-83.5651947,38.0067709],[-83.5651689,38.0066694],[-83.5650963,38.0065828],[-83.5649863,38.0065205],[-83.5648834,38.0064225],[-83.5648078,38.0063578],[-83.5647152,38.0063216],[-83.5645593,38.0063154],[-83.5643307,38.0063394],[-83.5641777,38.0063937],[-83.5640363,38.0064734],[-83.5638186,38.0065456],[-83.5636055,38.0066276],[-83.5634769,38.0066558],[-83.5633463,38.0066636],[-83.5630367,38.0067502],[-83.5626782,38.0068524],[-83.5624924,38.006928],[-83.5623057,38.0069684],[-83.5621682,38.006993]]}},{"type":"Feature","properties":{"osm_id":16310445,"highway":"residential","name":"Brandenburg Road","alt_name":null,"official_name":null,"surface":null,"tracktype":null,"service":null,"access":null,"motor_vehicle":null,"foot":null,"tiger_reviewed":"no","rrgh_part":0,"rrgh_tile_part":0},"geometry":{"type":"LineString","coordinates":[[-83.587431,37.994193],[-83.587472,37.994264],[-83.58757,37.994384],[-83.587664,37.994436],[-83.587801,37.994478],[-83.588127,37.994679],[-83.588284,37.9948],[-83.588468,37.994918],[-83.588701,37.995006],[-83.588951,37.995068],[-83.589114,37.995108],[-83.589463,37.995221],[-83.589534,37.995248],[-83.58974,37.995326],[-83.59,37.99547208585859]]}},{"type":"Feature","properties":{"osm_id":16308844,"highway":"service","name":null,"alt_name":null,"official_name":null,"surface":null,"tracktype":null,"service":null,"access":null,"motor_vehicle":null,"foot":null,"tiger_reviewed":"no","rrgh_part":0,"rrgh_tile_part":0},"geometry":{"type":"LineString","coordinates":[[-83.5888874,37.9945969],[-83.5893735,37.9947244],[-83.5898683,37.9949142],[-83.59,37.99502739928571]]}},{"type":"Feature","properties":{"osm_id":16087051,"highway":"residential","name":"Glady Hollow Road","alt_name":null,"official_name":null,"surface":"gravel","tracktype":null,"service":null,"access":null,"motor_vehicle":null,"foot":null,"tiger_reviewed":"no","rrgh_part":0,"rrgh_tile_part":0},"geometry":{"type":"LineString","coordinates":[[-83.59,38.0188798],[-83.589948,38.018907],[-83.589905,38.018959],[-83.589891,38.01902],[-83.589902,38.019078],[-83.589936,38.019147],[-83.589984,38.019205],[-83.59,38.01922128571429]]}},{"type":"Feature","properties":{"osm_id":16087073,"highway":"residential","name":"Glady Hollow Road","alt_name":null,"official_name":null,"surface":"gravel","tracktype":null,"service":null,"access":null,"motor_vehicle":null,"foot":null,"tiger_reviewed":"no","rrgh_part":0,"rrgh_tile_part":0},"geometry":{"type":"LineString","coordinates":[[-83.5896813,38.036606],[-83.59,38.03669949784978]]}},{"type":"Feature","properties":{"osm_id":16087073,"highway":"residential","name":"Glady Hollow Road","alt_name":null,"official_name":null,"surface":"gravel","tracktype":null,"service":null,"access":null,"motor_vehicle":null,"foot":null,"tiger_reviewed":"no","rrgh_part":0,"rrgh_tile_part":1},"geometry":{"type":"LineString","coordinates":[[-83.59,38.03923135110433],[-83.5899076,38.0392279],[-83.5894381,38.039408],[-83.5891439,38.0396506],[-83.5888981,38.0399445],[-83.5886494,38.0401304],[-83.5886403,38.0402148],[-83.5888086,38.0402435],[-83.5893589,38.0404069],[-83.5895773,38.0404949],[-83.5897031,38.0406644],[-83.5897433,38.0408491],[-83.5896872,38.0410192],[-83.5893957,38.0414982],[-83.5893242,38.0416743],[-83.5893926,38.0417473],[-83.5895274,38.0417521],[-83.5896674,38.0417236],[-83.5898167,38.0417085],[-83.59,38.04168142822452]]}},{"type":"Feature","properties":{"osm_id":16309443,"highway":"residential","name":"Clyde Banks Road","alt_name":null,"official_name":null,"surface":null,"tracktype":null,"service":null,"access":null,"motor_vehicle":null,"foot":null,"tiger_reviewed":"no","rrgh_part":0,"rrgh_tile_part":0},"geometry":{"type":"LineString","coordinates":[[-83.588708,37.976216],[-83.588606,37.975913],[-83.58837735165794,37.974999999999994]]}},{"type":"Feature","properties":{"osm_id":16310539,"highway":"service","name":"Loney Brown Hollow","alt_name":null,"official_name":null,"surface":null,"tracktype":null,"service":null,"access":null,"motor_vehicle":null,"foot":null,"tiger_reviewed":"no","rrgh_part":0,"rrgh_tile_part":0},"geometry":{"type":"LineString","coordinates":[[-83.58178020044988,37.974999999999994],[-83.581806,37.975068],[-83.581834,37.975164],[-83.581968,37.975624],[-83.582001,37.975714],[-83.582241,37.976364],[-83.582281,37.976474],[-83.582792,37.97745],[-83.583402,37.978158],[-83.584365,37.978946],[-83.584925,37.979332],[-83.585151,37.979488],[-83.585516,37.979681],[-83.585631,37.979741],[-83.585894,37.980151],[-83.586279,37.980954]]}},{"type":"Feature","properties":{"osm_id":16308755,"highway":"service","name":null,"alt_name":null,"official_name":null,"surface":null,"tracktype":null,"service":null,"access":null,"motor_vehicle":null,"foot":null,"tiger_reviewed":"no","rrgh_part":0,"rrgh_tile_part":0},"geometry":{"type":"LineString","coordinates":[[-83.57179235779816,37.974999999999994],[-83.57186,37.975101],[-83.5719994,37.9752964],[-83.5720861,37.9756712],[-83.5724139,37.9761288],[-83.5727482,37.9773704],[-83.5730604,37.9777487],[-83.5736192,37.9784178],[-83.5738053,37.9785256],[-83.574357,37.979279],[-83.574551,37.979461],[-83.575045,37.980617],[-83.575663,37.981335],[-83.576257,37.981731]]}},{"type":"Feature","properties":{"osm_id":16309363,"highway":"residential","name":"Meyers Branch Fork North Road","alt_name":null,"official_name":null,"surface":null,"tracktype":null,"service":null,"access":null,"motor_vehicle":null,"foot":null,"tiger_reviewed":"no","rrgh_part":0,"rrgh_tile_part":0},"geometry":{"type":"LineString","coordinates":[[-83.52661153978158,37.974999999999994],[-83.526557,37.975368],[-83.526521,37.975542],[-83.526462,37.97568],[-83.526404,37.975817],[-83.52625,37.976088],[-83.5262456,37.9761014],[-83.526003,37.976279],[-83.52594,37.97634],[-83.525661,37.976546],[-83.52551,37.976687],[-83.5251713,37.9768513],[-83.5249603,37.9769011],[-83.5246627,37.9769815],[-83.524466,37.9770384],[-83.5242667,37.9771176],[-83.5241045,37.9772106],[-83.5239473,37.9773292],[-83.5237857,37.977526],[-83.5236876,37.9776947],[-83.5236179,37.9778485],[-83.5235483,37.9780415],[-83.5234704,37.9782844],[-83.5234012,37.9784796],[-83.5232852,37.9787219],[-83.5231706,37.9789653],[-83.52303,37.9792255],[-83.5228556,37.9794636],[-83.5226532,37.9796976],[-83.522492,37.9798378],[-83.5223324,37.9799733],[-83.5221914,37.9801766],[-83.522061,37.9803964],[-83.5218633,37.9807583],[-83.5217305,37.9810186],[-83.5213657,37.9814751],[-83.521124,37.9818161],[-83.5210476,37.982003],[-83.5208836,37.9822423],[-83.5208198,37.9824203],[-83.5206808,37.9826973],[-83.5206276,37.9828665],[-83.5205487,37.9831383],[-83.5205306,37.9832766],[-83.5204556,37.9837345],[-83.5204622,37.984284],[-83.5199791,37.9865215]]}},{"type":"Feature","properties":{"osm_id":16310271,"highway":"track","name":"Serene Street","alt_name":null,"official_name":null,"surface":null,"tracktype":null,"service":null,"access":null,"motor_vehicle":null,"foot":null,"tiger_reviewed":"no","rrgh_part":0,"rrgh_tile_part":0},"geometry":{"type":"LineString","coordinates":[[-83.528632695619,37.974999999999994],[-83.5282812,37.975554],[-83.5280931,37.9758722],[-83.5271103,37.9760373]]}},{"type":"Feature","properties":{"osm_id":16308617,"highway":"track","name":null,"alt_name":null,"official_name":null,"surface":null,"tracktype":null,"service":null,"access":null,"motor_vehicle":null,"foot":null,"tiger_reviewed":"no","rrgh_part":0,"rrgh_tile_part":0},"geometry":{"type":"LineString","coordinates":[[-83.50512788929889,37.974999999999994],[-83.505198,37.9751],[-83.505355,37.975387],[-83.505379,37.975505],[-83.5054,37.975715],[-83.505453,37.975837],[-83.505588,37.976003],[-83.505787,37.976198],[-83.5058147,37.9763131],[-83.5057678,37.9764312],[-83.5056334,37.9765213],[-83.5055631,37.976678],[-83.5055279,37.9769411],[-83.5055105,37.9773038],[-83.5055354,37.9776051],[-83.5055473,37.9779027],[-83.5055536,37.9782414],[-83.5055505,37.9784929],[-83.5055416,37.9788659],[-83.5051711,37.9799975],[-83.505,37.98041751058824]]}},{"type":"Feature","properties":{"osm_id":561038445,"highway":"track","name":null,"alt_name":null,"official_name":null,"surface":null,"tracktype":"grade2","service":null,"access":null,"motor_vehicle":null,"foot":null,"tiger_reviewed":null,"rrgh_part":0,"rrgh_tile_part":0},"geometry":{"type":"LineString","coordinates":[[-83.5578625,38.0316057],[-83.5579866,38.0315318],[-83.5580139,38.0315086],[-83.5580987,38.0314221],[-83.5581204,38.0313955],[-83.5581747,38.0312915],[-83.5581973,38.0312094],[-83.5581725,38.0311078],[-83.5581268,38.0310214],[-83.5580442,38.0309328],[-83.5578502,38.0307063],[-83.5577876,38.0305891],[-83.5577249,38.0304732],[-83.5576952,38.0303278],[-83.5577279,38.0301917],[-83.557784,38.0300905],[-83.5580572,38.0297374],[-83.5581879,38.0296178],[-83.558279,38.0295553],[-83.5583794,38.029502],[-83.5585895,38.0294339],[-83.5586409,38.0294045],[-83.5586899,38.0293658],[-83.558704,38.0293327],[-83.5587343,38.0292702],[-83.558732,38.0292316],[-83.558753,38.029158],[-83.5589057,38.028991],[-83.5590154,38.0288907],[-83.559072,38.0288349],[-83.5591392,38.0287819],[-83.5592242,38.0287373],[-83.5592879,38.0286871],[-83.5593622,38.0286286],[-83.5593976,38.0285645],[-83.5594188,38.0285059],[-83.5594401,38.0284502],[-83.5594719,38.0283777],[-83.5595144,38.0283247],[-83.5595815,38.028287],[-83.559663,38.0282383],[-83.5598025,38.0281908],[-83.5600029,38.028132],[-83.5601524,38.0280736],[-83.5602433,38.0280379],[-83.5604321,38.0279733],[-83.5605372,38.027943],[-83.5606342,38.0279165],[-83.5607402,38.0278954],[-83.5608235,38.0278721],[-83.5609546,38.0278526],[-83.5610608,38.0278554],[-83.561203,38.0278534],[-83.5613176,38.0278755],[-83.5614464,38.0278771],[-83.5615471,38.0278768],[-83.561644,38.0278827],[-83.5617099,38.0278705],[-83.5618075,38.0278337],[-83.5618989,38.0277664],[-83.5619684,38.0277262],[-83.5620665,38.0276784],[-83.5621482,38.0276232],[-83.5622369,38.0275809],[-83.5623023,38.0275221],[-83.562405,38.0274338],[-83.5625031,38.0273675],[-83.5625825,38.0272885],[-83.5626852,38.0271965],[-83.562816,38.02711],[-83.5629047,38.0270677],[-83.5630985,38.0269905],[-83.5632153,38.0269427],[-83.5633414,38.0268746],[-83.5634464,38.0268158],[-83.5635305,38.0267679],[-83.5636356,38.0267293],[-83.563785,38.0266741],[-83.5639508,38.0266355],[-83.5641166,38.0265748],[-83.5642147,38.0264626],[-83.5643104,38.0263522],[-83.5644598,38.0262253],[-83.5645486,38.0261297],[-83.5647354,38.0260212],[-83.5651253,38.0258078],[-83.565193,38.0257802],[-83.5652561,38.0257397],[-83.5653004,38.0256919],[-83.5654359,38.0255963],[-83.5655269,38.025554],[-83.5656297,38.0254914],[-83.5658888,38.0254031],[-83.5659799,38.0253461],[-83.566085,38.0252707],[-83.5661714,38.0251842],[-83.5662041,38.0251456],[-83.5662368,38.0251052],[-83.5662858,38.0250463],[-83.5663395,38.0249764],[-83.5663629,38.0248789],[-83.5664306,38.0247833],[-83.5664889,38.024695],[-83.566545,38.0246122],[-83.5666617,38.0245552],[-83.5669256,38.0244522],[-83.567096,38.0244154],[-83.5672642,38.0244246],[-83.567451,38.024465],[-83.5676121,38.0244945],[-83.5677475,38.024489],[-83.5678502,38.0244742],[-83.5679974,38.0244246],[-83.5680207,38.024386],[-83.5680044,38.0243161],[-83.5679903,38.0242774],[-83.5679086,38.0242039],[-83.5678152,38.0241045],[-83.5677382,38.0240365],[-83.5676494,38.023996],[-83.5676167,38.0239427],[-83.5675817,38.0238801],[-83.5675257,38.0238231],[-83.5674953,38.0237679],[-83.5675117,38.0237072],[-83.5675213,38.0236512],[-83.5675353,38.0235721],[-83.5675633,38.0234893],[-83.5675534,38.0232467],[-83.567489,38.0231157],[-83.5674943,38.0229974],[-83.5674783,38.0228537],[-83.5675051,38.022748],[-83.5675573,38.0225522],[-83.567576,38.0223461],[-83.5676274,38.0221769],[-83.5677348,38.0220555],[-83.5679434,38.0218235],[-83.5680572,38.0217385],[-83.5681644,38.021695],[-83.5682718,38.021614],[-83.5683466,38.0215441],[-83.5683928,38.0214889],[-83.5684438,38.0214442],[-83.5685228,38.0213928],[-83.568592,38.0213349],[-83.5687248,38.0212535],[-83.5695234,38.0204662],[-83.5696868,38.0203338],[-83.569841,38.0202749],[-83.5700044,38.0201314],[-83.5701865,38.0200137],[-83.5703266,38.0199622],[-83.5705788,38.0199585],[-83.570831,38.0199033],[-83.5710738,38.0199732],[-83.5713073,38.0201167],[-83.5715081,38.0203301],[-83.5717743,38.0206391],[-83.5720592,38.0211542],[-83.5722352,38.0212973],[-83.572367,38.0213789],[-83.5725402,38.0215883],[-83.5728204,38.0216545],[-83.5731044,38.0217273],[-83.5732847,38.021783],[-83.573285,38.0220054],[-83.5734452,38.0219812],[-83.573667,38.0219278],[-83.5738272,38.0219084],[-83.5741723,38.0220152],[-83.5745235,38.0220443],[-83.5746406,38.0221219],[-83.5748748,38.0221656],[-83.5752815,38.0222385],[-83.5753554,38.0223404],[-83.5755095,38.022452],[-83.5757375,38.0226948]]}},{"type":"Feature","properties":{"osm_id":16308845,"highway":"residential","name":null,"alt_name":null,"official_name":null,"surface":null,"tracktype":null,"service":null,"access":null,"motor_vehicle":null,"foot":null,"tiger_reviewed":"no","rrgh_part":0,"rrgh_tile_part":0},"geometry":{"type":"LineString","coordinates":[[-83.588951,37.995068],[-83.588953,37.995364],[-83.588887,37.995749],[-83.588719,37.997281]]}},{"type":"Feature","properties":{"osm_id":16309806,"highway":"unclassified","name":"Buck Creek Road","alt_name":null,"official_name":null,"surface":"gravel","tracktype":null,"service":null,"access":null,"motor_vehicle":null,"foot":null,"tiger_reviewed":"no","rrgh_part":0,"rrgh_tile_part":0},"geometry":{"type":"LineString","coordinates":[[-83.572221,38.043441],[-83.572193,38.043442],[-83.572115,38.043469],[-83.571741,38.043672],[-83.571641,38.043693],[-83.571535,38.043687],[-83.57146,38.04367],[-83.571046,38.043484],[-83.570709,38.043274],[-83.570429,38.043115],[-83.57023,38.043039],[-83.569997,38.042986],[-83.569501,38.042972],[-83.569245,38.042953],[-83.569041,38.042916],[-83.568923,38.042865],[-83.56839,38.042619],[-83.567999,38.042394],[-83.567913,38.042329],[-83.567696,38.042103],[-83.567635,38.042023],[-83.56756,38.041952],[-83.567465,38.04188],[-83.567366,38.041827],[-83.567252,38.041788],[-83.567133,38.041767],[-83.566883,38.041753],[-83.565952,38.04177],[-83.565718,38.041786],[-83.565515,38.041835],[-83.565431,38.04188],[-83.56537,38.041937],[-83.565331,38.042069],[-83.56528,38.042454],[-83.565282,38.042664],[-83.5653,38.042841],[-83.565333,38.04299],[-83.565429,38.043233],[-83.56544,38.043306],[-83.565428,38.043382],[-83.565366,38.043467],[-83.565282,38.04353],[-83.565137,38.043577],[-83.564357,38.043706],[-83.564251,38.043689],[-83.563911,38.043564],[-83.563707,38.043502],[-83.563512,38.043458],[-83.563422,38.043456],[-83.563351,38.043471],[-83.563224,38.043529],[-83.563184,38.043569],[-83.563145,38.043627],[-83.563096,38.043862],[-83.563097,38.043934],[-83.563078,38.044016],[-83.563031,38.044076],[-83.562977,38.04411],[-83.562895,38.04414],[-83.56281,38.044144],[-83.562668,38.044123],[-83.562536,38.044079],[-83.56233,38.04399],[-83.562218,38.043952],[-83.562118,38.04393],[-83.562008,38.043921],[-83.561897,38.043935],[-83.561797,38.043958],[-83.561704,38.043991],[-83.561337,38.044241],[-83.561228,38.044352],[-83.561157,38.044468],[-83.561121,38.044546],[-83.561114,38.044615],[-83.561183,38.044857],[-83.561222,38.045038],[-83.561207,38.045132],[-83.561171,38.045181],[-83.561146,38.045192],[-83.561091,38.045189],[-83.561016,38.045169],[-83.560884,38.045085],[-83.560607,38.044849],[-83.560457,38.044773],[-83.56038,38.044751],[-83.560287,38.044741],[-83.560204,38.044776],[-83.560121,38.044825],[-83.559318,38.045479],[-83.559025,38.045802],[-83.558493,38.04636],[-83.558404,38.046428],[-83.556879,38.047334],[-83.556671,38.047431],[-83.556567,38.047463],[-83.556373,38.047486],[-83.556278,38.047486],[-83.556105,38.047461],[-83.555932,38.047429],[-83.555666,38.047363],[-83.555586,38.047387],[-83.555517,38.047424],[-83.55546,38.047471],[-83.555362,38.047586],[-83.555275,38.047719],[-83.555224,38.047778],[-83.555166,38.047832],[-83.5551,38.047872],[-83.554999,38.047883],[-83.554895,38.047869],[-83.554797,38.047834],[-83.554546,38.047797],[-83.554486,38.047821],[-83.554434,38.047862],[-83.554357,38.047977],[-83.554222,38.048289],[-83.553984,38.049016],[-83.553915,38.049307],[-83.553889,38.049525],[-83.553902,38.049655],[-83.553963,38.049913],[-83.5540086090909,38.05]]}},{"type":"Feature","properties":{"osm_id":16088775,"highway":"residential","name":"Clear Creek Camp C Road","alt_name":null,"official_name":null,"surface":null,"tracktype":null,"service":null,"access":null,"motor_vehicle":null,"foot":null,"tiger_reviewed":"no","rrgh_part":0,"rrgh_tile_part":0},"geometry":{"type":"LineString","coordinates":[[-83.585828,38.044303],[-83.585839,38.044333],[-83.585878,38.044479],[-83.585993,38.044842],[-83.586035,38.045002],[-83.586051,38.045111],[-83.586048,38.045215],[-83.586027,38.045313],[-83.585977,38.045452],[-83.585956,38.045539],[-83.585945,38.045633],[-83.585946,38.045685],[-83.585952,38.045729],[-83.585984,38.045813],[-83.586039,38.045932],[-83.586105,38.046056],[-83.586115,38.046088],[-83.58612,38.046121],[-83.586115,38.046163]]}},{"type":"Feature","properties":{"osm_id":16088781,"highway":"residential","name":"Clear Creek Camp C Road","alt_name":null,"official_name":null,"surface":null,"tracktype":null,"service":null,"access":null,"motor_vehicle":null,"foot":null,"tiger_reviewed":"no","rrgh_part":0,"rrgh_tile_part":0},"geometry":{"type":"LineString","coordinates":[[-83.585828,38.044303],[-83.585759,38.044256],[-83.585715,38.044234],[-83.58566,38.044212],[-83.585341,38.044115],[-83.585274,38.04409],[-83.585222,38.044062],[-83.585177,38.044032],[-83.585139,38.044001],[-83.585103,38.043965],[-83.585078,38.043926],[-83.585059,38.043884],[-83.585052,38.043842],[-83.585055,38.043802],[-83.585073,38.043742],[-83.585087,38.043725],[-83.585129,38.043702],[-83.585176,38.043687],[-83.585226,38.043685],[-83.585278,38.043697],[-83.585326,38.043718],[-83.58537,38.043745],[-83.585413,38.04378],[-83.585563,38.043937],[-83.585652,38.044016],[-83.58569,38.044057],[-83.58575,38.04414],[-83.585828,38.044303]]}},{"type":"Feature","properties":{"osm_id":16089646,"highway":"residential","name":"Clear Creek Campground C Road","alt_name":null,"official_name":null,"surface":null,"tracktype":null,"service":null,"access":null,"motor_vehicle":null,"foot":null,"tiger_reviewed":"no","rrgh_part":0,"rrgh_tile_part":0},"geometry":{"type":"LineString","coordinates":[[-83.586101,38.046215],[-83.58611,38.046187],[-83.586115,38.046163]]}},{"type":"Feature","properties":{"osm_id":16090132,"highway":"residential","name":"Clear Creek Camp B Road","alt_name":null,"official_name":null,"surface":null,"tracktype":null,"service":null,"access":null,"motor_vehicle":null,"foot":null,"tiger_reviewed":"no","rrgh_part":0,"rrgh_tile_part":0},"geometry":{"type":"LineString","coordinates":[[-83.585899,38.046321],[-83.585922,38.046311],[-83.586101,38.046215],[-83.586115,38.046208],[-83.586197,38.046186],[-83.586243,38.046185],[-83.586287,38.046189],[-83.586333,38.046198],[-83.58642,38.046232],[-83.586502,38.046276],[-83.586656,38.046378],[-83.586773,38.046477],[-83.586921,38.046617]]}},{"type":"Feature","properties":{"osm_id":16083174,"highway":"residential","name":null,"alt_name":null,"official_name":null,"surface":null,"tracktype":null,"service":null,"access":null,"motor_vehicle":null,"foot":null,"tiger_reviewed":"no","rrgh_part":0,"rrgh_tile_part":0},"geometry":{"type":"LineString","coordinates":[[-83.586978,38.046633],[-83.586921,38.046617],[-83.58698,38.046675],[-83.587029,38.046749],[-83.587073,38.046866],[-83.587093,38.046905],[-83.58713,38.047033],[-83.587162,38.04712],[-83.587181,38.047154],[-83.587225,38.047218],[-83.587307,38.047296],[-83.587356,38.047332],[-83.587377,38.047339],[-83.587427,38.047342],[-83.587449,38.047339],[-83.587485,38.047323],[-83.587518,38.047296],[-83.587547,38.047265],[-83.587558,38.04723],[-83.587553,38.047122],[-83.587544,38.047081],[-83.587517,38.046994],[-83.58749,38.04695],[-83.587433,38.046881],[-83.587402,38.046851],[-83.587371,38.046827],[-83.587248,38.046754],[-83.587078,38.046673],[-83.586978,38.046633]]}},{"type":"Feature","properties":{"osm_id":16083184,"highway":"service","name":null,"alt_name":null,"official_name":null,"surface":null,"tracktype":null,"service":null,"access":null,"motor_vehicle":null,"foot":null,"tiger_reviewed":"no","rrgh_part":0,"rrgh_tile_part":0},"geometry":{"type":"LineString","coordinates":[[-83.587804,38.049433],[-83.587911,38.049402],[-83.587992,38.049386],[-83.588197,38.049312],[-83.588324,38.049253],[-83.588424,38.049214],[-83.588638,38.049152],[-83.588792,38.049117],[-83.588843,38.049115],[-83.588895,38.049118],[-83.588989,38.049141],[-83.589052,38.049169],[-83.589089,38.049191],[-83.589128,38.049224],[-83.589161,38.04926],[-83.589188,38.049297],[-83.58921,38.049342],[-83.589223,38.049401],[-83.589215,38.049475],[-83.589187,38.049552],[-83.589147,38.049627],[-83.589121,38.049662],[-83.589061,38.049717],[-83.588994,38.049763],[-83.588862,38.049821],[-83.588811,38.049834],[-83.588695,38.049843],[-83.588646,38.049838],[-83.588593,38.049825],[-83.588517,38.049789],[-83.588432,38.049737],[-83.588395,38.049709],[-83.588341,38.049657]]}},{"type":"Feature","properties":{"osm_id":16083879,"highway":"service","name":"Clear Creek Picnic Road","alt_name":null,"official_name":null,"surface":null,"tracktype":null,"service":null,"access":null,"motor_vehicle":null,"foot":null,"tiger_reviewed":"no","rrgh_part":0,"rrgh_tile_part":0},"geometry":{"type":"LineString","coordinates":[[-83.587992,38.049386],[-83.588036,38.049389],[-83.588082,38.049402],[-83.588126,38.049427],[-83.588194,38.04948],[-83.588299,38.049611],[-83.588341,38.049657]]}},{"type":"Feature","properties":{"osm_id":16308428,"highway":"residential","name":"Old Beaver Road","alt_name":null,"official_name":null,"surface":null,"tracktype":null,"service":null,"access":null,"motor_vehicle":null,"foot":null,"tiger_reviewed":"no","rrgh_part":0,"rrgh_tile_part":0},"geometry":{"type":"LineString","coordinates":[[-83.558786,37.982753],[-83.559356,37.982885],[-83.559549,37.982849],[-83.559639,37.982765],[-83.559981,37.982446],[-83.560234,37.982031],[-83.560257,37.981617],[-83.56033,37.980676],[-83.560149,37.979851],[-83.560081,37.97971],[-83.559853,37.979556],[-83.55909,37.979319]]}},{"type":"Feature","properties":{"osm_id":16308972,"highway":"residential","name":"Scranton Road","alt_name":null,"official_name":null,"surface":null,"tracktype":null,"service":null,"access":null,"motor_vehicle":null,"foot":null,"tiger_reviewed":"no","rrgh_part":0,"rrgh_tile_part":0},"geometry":{"type":"LineString","coordinates":[[-83.521922,37.986788],[-83.522437,37.986942],[-83.522764,37.987067],[-83.522949,37.987124],[-83.52319,37.987251],[-83.523536,37.987495],[-83.523643,37.987589],[-83.523916,37.987894],[-83.524086,37.988151],[-83.524179,37.988363],[-83.524785,37.98936],[-83.524938,37.989591],[-83.525365,37.990202],[-83.525658,37.990739],[-83.526082,37.991285],[-83.52625,37.991699],[-83.526478,37.992126],[-83.526907,37.992644],[-83.527039,37.992825],[-83.52716,37.993021],[-83.527265,37.993302],[-83.527382,37.993494],[-83.527567,37.99373],[-83.527794,37.99407],[-83.527954,37.994308],[-83.528201,37.994614],[-83.528514,37.994957],[-83.52875,37.9952],[-83.529077,37.995511],[-83.529167,37.995576],[-83.529453,37.99572],[-83.529938,37.995911],[-83.530134,37.996017],[-83.530277,37.99611],[-83.5303359,37.996155],[-83.530577,37.996339],[-83.530668,37.996412],[-83.5308034,37.9965305],[-83.531084,37.996757],[-83.5311632,37.9968159],[-83.5313691,37.9969336],[-83.5316271,37.9970477],[-83.5320354,37.9972129],[-83.5321921,37.9973174],[-83.532456,37.997473],[-83.5331998,37.9980178],[-83.5335263,37.9981711],[-83.5337528,37.9982699],[-83.5340175,37.9984793],[-83.534094,37.99859],[-83.534114,37.998625],[-83.534172,37.998726],[-83.534224,37.998795],[-83.534377,37.9989455],[-83.5346316,37.9990936],[-83.5349899,37.9992324],[-83.5352486,37.9993668],[-83.5357867,37.9996799],[-83.5363905,38.0001683],[-83.5365229,38.0002668],[-83.5366283,38.0003246],[-83.537061,38.000576],[-83.537154,38.000681],[-83.537207,38.000739],[-83.5373828,38.0009663],[-83.5375094,38.0011395],[-83.5376175,38.0013448],[-83.5376598,38.0015402],[-83.5376359,38.0017659],[-83.5375401,38.0019568],[-83.5374416,38.0021642],[-83.537351,38.002381],[-83.5372814,38.0025965],[-83.5372057,38.0028369],[-83.5370922,38.0032667],[-83.537062,38.003481],[-83.537069,38.003668],[-83.537109,38.003855],[-83.537186,38.003989],[-83.537398,38.00443],[-83.537481,38.004638],[-83.537488,38.004726],[-83.537478,38.004757],[-83.537452,38.004783],[-83.537373,38.004818],[-83.537277,38.004815],[-83.537143,38.004729],[-83.537026,38.004628],[-83.536738,38.004492],[-83.536585,38.004442],[-83.536365,38.00441],[-83.53629,38.004411],[-83.536142,38.004447],[-83.536085,38.004474],[-83.536043,38.004511],[-83.536015,38.004554],[-83.536001,38.004666],[-83.536019,38.004728],[-83.536379,38.005263],[-83.536477,38.005446],[-83.536515,38.005638],[-83.536521,38.005729],[-83.536439,38.005906],[-83.536375,38.005981],[-83.536038,38.00623],[-83.535898,38.006363],[-83.535842,38.006424],[-83.535775,38.00654],[-83.535765,38.006593],[-83.53578,38.006639],[-83.535896,38.006785],[-83.536286,38.007214],[-83.536368,38.007376],[-83.536385,38.00746],[-83.536376,38.007554],[-83.536341,38.007642],[-83.536284,38.007731],[-83.536211,38.007797],[-83.536125,38.007846],[-83.535963,38.007901],[-83.535779,38.007926],[-83.535605,38.007924],[-83.535481,38.007906],[-83.535116,38.007788],[-83.534866,38.007728],[-83.534743,38.007707],[-83.534621,38.007698],[-83.534409,38.007704],[-83.534319,38.007718],[-83.53348,38.00803],[-83.533254,38.008048],[-83.532781,38.0079785],[-83.5321673,38.0077452],[-83.5319876,38.0076866],[-83.5319114,38.0076819],[-83.5318534,38.0076943],[-83.5318046,38.0077158],[-83.531757,38.0077509],[-83.5317139,38.0077912],[-83.5316231,38.0078777],[-83.5312508,38.0081845],[-83.5310751,38.008286],[-83.5308522,38.0085075],[-83.530606,38.00869],[-83.530057,38.008988],[-83.529854,38.0091627],[-83.5296505,38.0093467],[-83.5292433,38.0097851],[-83.5291252,38.0099597],[-83.5290187,38.0101405],[-83.5288922,38.0103306],[-83.528677,38.010604],[-83.528641,38.010627],[-83.528577,38.010668],[-83.528365,38.01077],[-83.528029,38.010933],[-83.527662,38.01115],[-83.5275533,38.0112082],[-83.527324,38.011312],[-83.527071,38.011381],[-83.526891,38.01143],[-83.52679,38.011472],[-83.526649,38.01153],[-83.526521,38.011593],[-83.526397,38.011653],[-83.526269,38.011728],[-83.526232,38.011749],[-83.526032,38.011913],[-83.525878,38.012039],[-83.525678,38.012149],[-83.525513,38.012289],[-83.525287,38.012428],[-83.525147,38.012495],[-83.5251085,38.012509],[-83.524533,38.01267],[-83.524258,38.012711],[-83.523966,38.012796],[-83.523581,38.012975],[-83.523312,38.013088],[-83.522668,38.01331],[-83.521958,38.01352],[-83.521701,38.013607],[-83.521527,38.013677],[-83.521468,38.013709],[-83.52046,38.01412],[-83.520046,38.014256],[-83.519991,38.014276],[-83.519876,38.014318],[-83.519706,38.01438],[-83.5175715,38.0155176],[-83.5172403,38.015806],[-83.5170981,38.0158673],[-83.5167468,38.0159201],[-83.5164973,38.0160459],[-83.5154774,38.0166484],[-83.5145209,38.0169998],[-83.5140911,38.0172622],[-83.5135771,38.0174319],[-83.5133354,38.0177309],[-83.5134353,38.0180063],[-83.5138015,38.0184063],[-83.5141301,38.018746],[-83.5142899,38.0188457],[-83.5145462,38.0188973],[-83.5150496,38.0189527],[-83.5154606,38.0189567],[-83.5158496,38.0189905],[-83.516205,38.0190243],[-83.516496,38.0189778],[-83.5166506,38.0189969],[-83.5169393,38.0190948],[-83.5172738,38.0192536],[-83.517444,38.0192776],[-83.5177297,38.0192061],[-83.5183687,38.0191856],[-83.5185974,38.0191749],[-83.5190429,38.0193163],[-83.519447,38.0193181],[-83.5198704,38.0193893],[-83.5202283,38.0193347],[-83.520295,38.0193238]]}},{"type":"Feature","properties":{"osm_id":16308699,"highway":"track","name":null,"alt_name":null,"official_name":null,"surface":null,"tracktype":null,"service":null,"access":null,"motor_vehicle":null,"foot":null,"tiger_reviewed":"no","rrgh_part":0,"rrgh_tile_part":0},"geometry":{"type":"LineString","coordinates":[[-83.565473,37.994367],[-83.565046,37.995281],[-83.564901,37.99648],[-83.565036,37.996888],[-83.5649835,37.9974155],[-83.5652074,37.9978113],[-83.5653445,37.9981863],[-83.5655678,37.9984211],[-83.5656633,37.9985511],[-83.5656785,37.9987829],[-83.565015,38.000082],[-83.56389,38.001259],[-83.563355,38.003002]]}},{"type":"Feature","properties":{"osm_id":16310527,"highway":"service","name":"Jims Branch Road","alt_name":null,"official_name":null,"surface":null,"tracktype":null,"service":null,"access":null,"motor_vehicle":null,"foot":null,"tiger_reviewed":"no","rrgh_part":0,"rrgh_tile_part":0},"geometry":{"type":"LineString","coordinates":[[-83.558483,37.990662],[-83.5582901,37.9908379],[-83.5581326,37.9910538],[-83.5580336,37.9914222],[-83.5579662,37.9916481],[-83.5579108,37.9919063],[-83.5576331,37.9928145],[-83.5576043,37.9929602],[-83.5576401,37.9930884],[-83.5575295,37.9937238],[-83.557606,37.9939771]]}},{"type":"Feature","properties":{"osm_id":1429126940,"highway":"track","name":null,"alt_name":null,"official_name":null,"surface":null,"tracktype":null,"service":null,"access":null,"motor_vehicle":null,"foot":null,"tiger_reviewed":null,"rrgh_part":0,"rrgh_tile_part":0},"geometry":{"type":"LineString","coordinates":[[-83.5656785,37.9987829],[-83.5657988,37.9988716],[-83.5660238,37.9989153],[-83.5664111,37.9989532],[-83.5667577,37.9989906],[-83.5672274,37.999131],[-83.5675671,37.9992312],[-83.5682373,37.9994426],[-83.5684706,37.999562],[-83.5686947,37.9997611],[-83.5688588,37.9999696],[-83.5688749,38.0000119],[-83.5689462,38.0000464],[-83.5691545,38.000286],[-83.569248,38.0004941],[-83.5694075,38.0006702],[-83.569435,38.0008178],[-83.5695358,38.0012137],[-83.569652,38.0014631],[-83.5698673,38.0016196],[-83.5700101,38.0017314],[-83.5701122,38.0019467],[-83.5700862,38.0021328],[-83.5700127,38.0023452]]}},{"type":"Feature","properties":{"osm_id":970367134,"highway":"service","name":null,"alt_name":null,"official_name":null,"surface":null,"tracktype":null,"service":null,"access":null,"motor_vehicle":null,"foot":null,"tiger_reviewed":null,"rrgh_part":0,"rrgh_tile_part":0},"geometry":{"type":"LineString","coordinates":[[-83.557606,37.9939771],[-83.5576271,37.9942801],[-83.5576185,37.9948654],[-83.5576156,37.9951172],[-83.5574717,37.9955483],[-83.557417,37.9957275],[-83.5574746,37.995825],[-83.5579064,37.9960065]]}},{"type":"Feature","properties":{"osm_id":970379964,"highway":"service","name":null,"alt_name":null,"official_name":null,"surface":null,"tracktype":null,"service":null,"access":null,"motor_vehicle":null,"foot":null,"tiger_reviewed":null,"rrgh_part":0,"rrgh_tile_part":0},"geometry":{"type":"LineString","coordinates":[[-83.543898,38.001653],[-83.5441167,38.0016459],[-83.5442864,38.0015912],[-83.5443288,38.0014483],[-83.5443828,38.0010988],[-83.5445216,38.0008891],[-83.5447299,38.0006916],[-83.5451233,38.0005335],[-83.545293,38.0004211],[-83.5453431,38.0002022],[-83.5453277,37.9999986],[-83.5452313,37.9998193],[-83.5452853,37.9997038],[-83.5455128,37.9996005],[-83.5457713,37.9993452],[-83.5459834,37.9991051],[-83.5461878,37.9988771],[-83.5463613,37.9987434],[-83.5464732,37.9987677],[-83.5466236,37.9988741],[-83.546774,37.9989136],[-83.5468743,37.9988832],[-83.5469244,37.9988315],[-83.5468743,37.9987343],[-83.5467123,37.9986005],[-83.5464963,37.998479],[-83.5463228,37.9984638],[-83.5459949,37.9985945],[-83.5456208,37.998871],[-83.545455,37.9989744],[-83.5451349,37.9990412],[-83.5449806,37.9990352],[-83.5448418,37.9988984],[-83.5448263,37.9987282],[-83.5449073,37.9983544],[-83.5448572,37.9980808],[-83.544699,37.9978498],[-83.5443417,37.9976898]]}},{"type":"Feature","properties":{"osm_id":970379958,"highway":"track","name":null,"alt_name":null,"official_name":null,"surface":null,"tracktype":null,"service":null,"access":null,"motor_vehicle":null,"foot":null,"tiger_reviewed":null,"rrgh_part":0,"rrgh_tile_part":0},"geometry":{"type":"LineString","coordinates":[[-83.5407158,37.9875789],[-83.5406408,37.9874402],[-83.5405337,37.9873878],[-83.5402016,37.9873946],[-83.5395117,37.9875229]]}},{"type":"Feature","properties":{"osm_id":1157556732,"highway":"track","name":"Serene Street","alt_name":null,"official_name":null,"surface":null,"tracktype":null,"service":null,"access":null,"motor_vehicle":null,"foot":null,"tiger_reviewed":"no","rrgh_part":0,"rrgh_tile_part":0},"geometry":{"type":"LineString","coordinates":[[-83.5271103,37.9760373],[-83.5264558,37.9761066],[-83.5262456,37.9761014]]}},{"type":"Feature","properties":{"osm_id":16310122,"highway":"residential","name":"Edmond Road","alt_name":null,"official_name":null,"surface":null,"tracktype":null,"service":null,"access":null,"motor_vehicle":null,"foot":null,"tiger_reviewed":"no","rrgh_part":0,"rrgh_tile_part":0},"geometry":{"type":"LineString","coordinates":[[-83.534822,37.991948],[-83.534897,37.991836],[-83.534988,37.99164],[-83.535083,37.991515],[-83.535323,37.991387],[-83.535494,37.991278],[-83.53559,37.991243],[-83.53566,37.991243]]}},{"type":"Feature","properties":{"osm_id":16310423,"highway":"residential","name":"C Lane","alt_name":null,"official_name":null,"surface":null,"tracktype":null,"service":null,"access":null,"motor_vehicle":null,"foot":null,"tiger_reviewed":"no","rrgh_part":0,"rrgh_tile_part":0},"geometry":{"type":"LineString","coordinates":[[-83.536106,37.992778],[-83.5362605,37.9927392],[-83.5363584,37.9927223],[-83.5365636,37.9927054],[-83.5369337,37.9927159]]}},{"type":"Feature","properties":{"osm_id":16310424,"highway":"residential","name":"C Lane","alt_name":null,"official_name":null,"surface":null,"tracktype":null,"service":null,"access":null,"motor_vehicle":null,"foot":null,"tiger_reviewed":"no","rrgh_part":0,"rrgh_tile_part":0},"geometry":{"type":"LineString","coordinates":[[-83.5372805,37.9927011],[-83.5372664,37.9927386],[-83.5372245,37.9927728],[-83.5371645,37.9927867],[-83.5370767,37.9928036],[-83.537025,37.9927978],[-83.5369927,37.9927656],[-83.5369337,37.9927159]]}},{"type":"Feature","properties":{"osm_id":455111765,"highway":"residential","name":"C Lane","alt_name":null,"official_name":null,"surface":null,"tracktype":null,"service":null,"access":null,"motor_vehicle":null,"foot":null,"tiger_reviewed":"no","rrgh_part":0,"rrgh_tile_part":0},"geometry":{"type":"LineString","coordinates":[[-83.5369337,37.9927159],[-83.5370773,37.9926599],[-83.5371591,37.9926398],[-83.5372465,37.9926578],[-83.5372805,37.9927011]]}},{"type":"Feature","properties":{"osm_id":16309360,"highway":"residential","name":"Coatney Mountain Road","alt_name":null,"official_name":null,"surface":null,"tracktype":null,"service":null,"access":null,"motor_vehicle":null,"foot":null,"tiger_reviewed":"no","rrgh_part":0,"rrgh_tile_part":0},"geometry":{"type":"LineString","coordinates":[[-83.536127,37.993037],[-83.536141,37.992931],[-83.536135,37.99283],[-83.536106,37.992778],[-83.535946,37.992669],[-83.535838,37.992613],[-83.53575,37.992567],[-83.5355769,37.9924815],[-83.535383,37.992276],[-83.53519,37.992124],[-83.535021,37.992013],[-83.534965,37.991982],[-83.534822,37.991948],[-83.534792,37.991944],[-83.534655,37.991975],[-83.534611,37.991993],[-83.534558,37.99204],[-83.534471,37.992093],[-83.534353,37.992129],[-83.534009,37.992152],[-83.533919,37.992166],[-83.53382,37.992229],[-83.53367,37.992277],[-83.533518,37.992305],[-83.53341,37.992305],[-83.53328,37.992265],[-83.533193,37.992252],[-83.533088,37.992249],[-83.533008,37.992229],[-83.532922,37.992184],[-83.532847,37.992159],[-83.532768,37.992114],[-83.532678,37.992046],[-83.532527,37.991881],[-83.532487,37.991851],[-83.532396,37.99181],[-83.532307,37.991787],[-83.531973,37.99176],[-83.531915,37.991744],[-83.531868,37.991718],[-83.531813,37.99166],[-83.531726,37.991451],[-83.531742,37.991389],[-83.531777,37.990604],[-83.531782,37.990154],[-83.531795,37.990114],[-83.531844,37.990055],[-83.531927,37.990007],[-83.531987,37.989991],[-83.53205,37.989985],[-83.532107,37.989993],[-83.532355,37.990109],[-83.532424,37.990132],[-83.53272,37.990216],[-83.532804,37.990231],[-83.532971,37.99024],[-83.533551,37.990141],[-83.533891,37.990068],[-83.53436,37.989948],[-83.534547,37.989892],[-83.535067,37.989783],[-83.535158,37.989752],[-83.535446,37.989588],[-83.535579,37.989495],[-83.535671,37.989402],[-83.53572,37.989256],[-83.535751,37.989093],[-83.535831,37.988913],[-83.535853,37.988785]]}},{"type":"Feature","properties":{"osm_id":16309834,"highway":"residential","name":"Slabcamp Road","alt_name":null,"official_name":null,"surface":null,"tracktype":null,"service":null,"access":null,"motor_vehicle":null,"foot":null,"tiger_reviewed":"no","rrgh_part":0,"rrgh_tile_part":0},"geometry":{"type":"LineString","coordinates":[[-83.537154,38.000681],[-83.537185,38.000651],[-83.537228,38.000609],[-83.537291,38.000584],[-83.537368,38.00059],[-83.537422,38.000611],[-83.537576,38.000708],[-83.537628,38.000733],[-83.537678,38.000739],[-83.537761,38.000723],[-83.537977,38.000649],[-83.53808,38.000623],[-83.538183,38.000618],[-83.538315,38.00063],[-83.538354,38.000633],[-83.538418,38.000648],[-83.538586,38.000721],[-83.538748,38.000777],[-83.539137,38.00088],[-83.539286,38.000932],[-83.539411,38.000998],[-83.539498,38.001053],[-83.539858,38.001218],[-83.539936,38.001254],[-83.540331,38.001484],[-83.540578,38.001601],[-83.5407,38.001644],[-83.540822,38.001675],[-83.5409,38.00168],[-83.541112,38.001629],[-83.54121,38.001623],[-83.541409,38.00162],[-83.541699,38.001662],[-83.542019,38.001738],[-83.542409,38.001882],[-83.542596,38.001879],[-83.542881,38.00186],[-83.542979,38.001874],[-83.543115,38.001866],[-83.543585,38.00176],[-83.54372,38.001714],[-83.54386,38.001655],[-83.543898,38.001653]]}},{"type":"Feature","properties":{"osm_id":16310573,"highway":"residential","name":"Pipeline Road","alt_name":null,"official_name":null,"surface":null,"tracktype":null,"service":null,"access":null,"motor_vehicle":null,"foot":null,"tiger_reviewed":"no","rrgh_part":0,"rrgh_tile_part":0},"geometry":{"type":"LineString","coordinates":[[-83.540331,38.001484],[-83.540712,38.001367],[-83.540959,38.001261],[-83.541267,38.001149],[-83.541575,38.001022],[-83.541857,38.000851],[-83.542294,38.000624]]}},{"type":"Feature","properties":{"osm_id":16310728,"highway":"service","name":"Thomas Bridge","alt_name":null,"official_name":null,"surface":null,"tracktype":null,"service":null,"access":null,"motor_vehicle":null,"foot":null,"tiger_reviewed":"no","rrgh_part":0,"rrgh_tile_part":0},"geometry":{"type":"LineString","coordinates":[[-83.5383221,37.9882434],[-83.5383757,37.9883367],[-83.5386911,37.9885093],[-83.5391929,37.9890467],[-83.5394617,37.9896182],[-83.5398733,37.9902073],[-83.5403373,37.990228],[-83.5406016,37.9903326],[-83.5418315,37.9902107],[-83.5427306,37.9903725],[-83.5430648,37.9907885],[-83.5434486,37.9911791]]}},{"type":"Feature","properties":{"osm_id":970379959,"highway":"residential","name":"Milkgap Road","alt_name":null,"official_name":null,"surface":null,"tracktype":null,"service":null,"access":null,"motor_vehicle":null,"foot":null,"tiger_reviewed":null,"rrgh_part":0,"rrgh_tile_part":0},"geometry":{"type":"LineString","coordinates":[[-83.536127,37.993037],[-83.5361383,37.9931672],[-83.5362398,37.9932895],[-83.5363708,37.9935407],[-83.5364279,37.9938087],[-83.5365545,37.994018],[-83.536719,37.9941626],[-83.5367149,37.9942559],[-83.5366208,37.9943382],[-83.5361519,37.9945771],[-83.5359464,37.9947353],[-83.5358557,37.9948857],[-83.5358013,37.9950298],[-83.5358235,37.9951399],[-83.5359191,37.995256],[-83.5360064,37.9953456],[-83.5360545,37.9955087],[-83.5360287,37.9956107],[-83.5358425,37.9958685],[-83.5354352,37.9962452],[-83.5351734,37.9964369],[-83.5351336,37.9964598],[-83.5349887,37.996627],[-83.5349215,37.9969369],[-83.534818,37.9971204],[-83.5348469,37.9972094],[-83.5349668,37.9973184],[-83.535133,37.9973687],[-83.5355074,37.9973914],[-83.5356379,37.9974474],[-83.5358201,37.9975837],[-83.5360184,37.9976491],[-83.5363389,37.9976782],[-83.5364473,37.99774],[-83.5365234,37.998058],[-83.5364727,37.9981779],[-83.5363689,37.9983124],[-83.5362722,37.9983574]]}},{"type":"Feature","properties":{"osm_id":1450154089,"highway":"track","name":null,"alt_name":null,"official_name":null,"surface":null,"tracktype":null,"service":null,"access":null,"motor_vehicle":null,"foot":null,"tiger_reviewed":null,"rrgh_part":0,"rrgh_tile_part":0},"geometry":{"type":"LineString","coordinates":[[-83.533087,37.9983456],[-83.5330507,37.9983486],[-83.5329569,37.9983332],[-83.5329143,37.9983554],[-83.5328207,37.9984676],[-83.5326976,37.9985495],[-83.5325673,37.9986629],[-83.5324238,37.9988141],[-83.532218,37.9989322],[-83.5320643,37.9990195],[-83.531952,37.9990998],[-83.5317895,37.9991657],[-83.5316385,37.9992299],[-83.5314069,37.9993252],[-83.5312647,37.9993881],[-83.5310827,37.9994177],[-83.5309492,37.9994588],[-83.5307563,37.999432],[-83.5305665,37.9994638],[-83.5304191,37.9995172],[-83.5303152,37.9995829],[-83.5302198,37.9996611],[-83.5301631,37.999748],[-83.5301247,37.9998457],[-83.5301403,37.9999153],[-83.5301555,38.0000298],[-83.5301585,38.0001406],[-83.5301783,38.000337],[-83.5302593,38.0004353],[-83.5304179,38.0005369],[-83.5305215,38.0006137],[-83.5306143,38.0006296],[-83.5306778,38.0006698],[-83.5307159,38.0007228],[-83.5307413,38.0007837],[-83.5307322,38.000852],[-83.5306824,38.0009251],[-83.5306014,38.0009674],[-83.5304641,38.0010106],[-83.5303306,38.0009764],[-83.5302359,38.0009881],[-83.5300449,38.0010082],[-83.5299145,38.0010315],[-83.529754,38.0010819],[-83.5296787,38.0011709],[-83.5295783,38.001212],[-83.5293904,38.0012731],[-83.5293234,38.0013208],[-83.5292892,38.0013834],[-83.5292732,38.0014613],[-83.52922,38.0015261],[-83.5291222,38.0015932],[-83.5290078,38.0016001],[-83.5288655,38.0016046],[-83.5287449,38.001577],[-83.5286658,38.0016022],[-83.5285765,38.0016552],[-83.5285392,38.0017532],[-83.5285552,38.001865],[-83.5285552,38.0020422],[-83.5285856,38.0021644],[-83.5285704,38.0022999],[-83.528538,38.0024186],[-83.5285415,38.0024995],[-83.5285856,38.0026026],[-83.5286521,38.0026607],[-83.528783,38.0027327],[-83.5288432,38.0027398],[-83.5292287,38.0027333],[-83.5294629,38.0027076],[-83.5296943,38.0027329],[-83.5298369,38.0026958],[-83.5300286,38.0026383],[-83.5302089,38.0026716],[-83.5304089,38.0027155],[-83.5305382,38.0027186],[-83.5307637,38.0027287],[-83.5308738,38.0027383],[-83.5309554,38.0026237],[-83.5309273,38.0025592],[-83.5310207,38.0024276],[-83.5310863,38.002324],[-83.5311693,38.002278],[-83.5314066,38.0022322],[-83.5316046,38.0021862],[-83.5317298,38.0021574],[-83.5318618,38.0021151],[-83.5320547,38.0020153],[-83.5322177,38.0018188],[-83.5323904,38.0016345],[-83.5325545,38.0014618],[-83.5327314,38.0013266],[-83.5328515,38.0011564],[-83.5329278,38.0010695],[-83.5330083,38.0008856],[-83.5331564,38.0006516],[-83.5332482,38.0006033],[-83.5333363,38.0005136],[-83.5334051,38.0003583],[-83.5334925,38.000177],[-83.5336301,38.0000893],[-83.5336868,38.000056],[-83.5337535,38.0000603],[-83.5339167,38.0000882],[-83.5340092,38.0000857],[-83.5340716,38.0000623],[-83.5341412,38.0000303],[-83.5342421,37.9999399],[-83.5343281,37.9998314],[-83.5343851,37.9996732],[-83.5344034,37.9995584],[-83.5343717,37.9994351],[-83.5342925,37.999343],[-83.5342007,37.9992476],[-83.533994,37.9990908],[-83.5338812,37.9990167],[-83.5337813,37.998921],[-83.5336187,37.9987856],[-83.5334997,37.998679],[-83.5334021,37.9985464],[-83.5333033,37.9984203],[-83.5332413,37.9983117],[-83.5331876,37.99826],[-83.5332068,37.9981506],[-83.5331801,37.9980837],[-83.5331998,37.9980178]]}},{"type":"Feature","properties":{"osm_id":1460878518,"highway":"track","name":null,"alt_name":null,"official_name":null,"surface":null,"tracktype":null,"service":null,"access":null,"motor_vehicle":null,"foot":null,"tiger_reviewed":null,"rrgh_part":0,"rrgh_tile_part":0},"geometry":{"type":"LineString","coordinates":[[-83.5353542,38.0024356],[-83.5353404,38.0022499],[-83.5351824,38.0021684],[-83.5349155,38.0021451],[-83.5345383,38.0022723],[-83.5342866,38.0022766],[-83.5340671,38.002168],[-83.533924,38.001953],[-83.5338667,38.0016739],[-83.5338331,38.0014032],[-83.5338461,38.0011729],[-83.5337741,38.0010116],[-83.5335809,38.000817],[-83.5335407,38.0006285],[-83.5336526,38.0004078],[-83.5337645,38.0002331],[-83.5339167,38.0000882]]}},{"type":"Feature","properties":{"osm_id":970379965,"highway":"track","name":null,"alt_name":null,"official_name":null,"surface":null,"tracktype":null,"service":null,"access":null,"motor_vehicle":null,"foot":null,"tiger_reviewed":null,"rrgh_part":0,"rrgh_tile_part":0},"geometry":{"type":"LineString","coordinates":[[-83.5443417,37.9976898],[-83.5442433,37.9977278],[-83.5440274,37.9976789],[-83.5439058,37.9976965],[-83.5437172,37.9978569],[-83.5435385,37.9979057],[-83.543397,37.9978764],[-83.5432456,37.9978099],[-83.5431215,37.9977845],[-83.5430421,37.9978119],[-83.5429527,37.9979507],[-83.5425929,37.9979625],[-83.542233,37.9980016],[-83.5419203,37.9980896],[-83.5417317,37.9980524],[-83.5416026,37.9979605],[-83.5414363,37.9976143],[-83.5414165,37.9974794],[-83.5416572,37.9972095],[-83.5418036,37.9970217],[-83.5418458,37.9968477],[-83.5418731,37.9967303],[-83.54196,37.9966149],[-83.5419426,37.9965054],[-83.5418334,37.9964624],[-83.5416026,37.9964741],[-83.5412998,37.9965484],[-83.540657,37.9965465],[-83.5404287,37.9964956],[-83.540255,37.9963274],[-83.5400986,37.995948],[-83.5401036,37.9956546]]}},{"type":"Feature","properties":{"osm_id":1460878520,"highway":"track","name":"Milkgap Road","alt_name":null,"official_name":null,"surface":null,"tracktype":null,"service":null,"access":null,"motor_vehicle":null,"foot":null,"tiger_reviewed":null,"rrgh_part":0,"rrgh_tile_part":0},"geometry":{"type":"LineString","coordinates":[[-83.5362722,37.9983574],[-83.5360691,37.9984905],[-83.5360138,37.9985832],[-83.5359769,37.9987486],[-83.5358846,37.9987976],[-83.535767,37.9987813],[-83.53495,37.9986159],[-83.5343396,37.9984487],[-83.5340355,37.9983554],[-83.5338337,37.9982616],[-83.5337528,37.9982699]]}},{"type":"Feature","properties":{"osm_id":16310618,"highway":"service","name":"Board Cut Branch Road","alt_name":null,"official_name":null,"surface":null,"tracktype":null,"service":null,"access":null,"motor_vehicle":null,"foot":null,"tiger_reviewed":"no","rrgh_part":0,"rrgh_tile_part":0},"geometry":{"type":"LineString","coordinates":[[-83.5208081,37.9902764],[-83.5206809,37.9899777],[-83.5205327,37.9897286],[-83.5202554,37.9894795],[-83.5202026,37.9893712],[-83.5202475,37.9892787],[-83.5205522,37.9890655],[-83.5209826,37.9888538],[-83.5211695,37.9886563],[-83.5213499,37.9885155],[-83.5215029,37.9884711],[-83.52173,37.988631],[-83.521964,37.988819],[-83.522223,37.989081],[-83.522498,37.989402],[-83.522615,37.989608],[-83.52264,37.989713],[-83.522619,37.989758],[-83.522565,37.9898],[-83.522542,37.989855],[-83.522593,37.989956],[-83.522801,37.990251],[-83.522879,37.990479],[-83.522959,37.990575],[-83.523011,37.990613],[-83.523075,37.990637],[-83.523307,37.990639],[-83.523665,37.990544],[-83.523735,37.990558],[-83.523788,37.990589],[-83.523875,37.990679],[-83.523957,37.990784],[-83.524015,37.990901],[-83.524103,37.991263],[-83.524158,37.991326],[-83.524289,37.991443],[-83.52444,37.991556],[-83.524632,37.991683],[-83.524756,37.991935],[-83.524911,37.992154]]}},{"type":"Feature","properties":{"osm_id":970379971,"highway":"service","name":null,"alt_name":null,"official_name":null,"surface":null,"tracktype":null,"service":null,"access":null,"motor_vehicle":null,"foot":null,"tiger_reviewed":null,"rrgh_part":0,"rrgh_tile_part":0},"geometry":{"type":"LineString","coordinates":[[-83.5208081,37.9902764],[-83.5209853,37.9906872],[-83.5212971,37.9913764],[-83.5215013,37.9918847],[-83.5216913,37.992153],[-83.5220819,37.9926331],[-83.5220343,37.992689]]}},{"type":"Feature","properties":{"osm_id":16310442,"highway":"service","name":"Pleasant View Lane","alt_name":null,"official_name":null,"surface":null,"tracktype":null,"service":null,"access":null,"motor_vehicle":null,"foot":null,"tiger_reviewed":"no","rrgh_part":0,"rrgh_tile_part":0},"geometry":{"type":"LineString","coordinates":[[-83.5188284,37.9892697],[-83.5190777,37.9894944],[-83.5195857,37.9899095],[-83.5197645,37.9900921],[-83.52,37.9903507],[-83.5205327,37.9911309],[-83.5212387,37.9918415],[-83.5219131,37.9926152],[-83.5220343,37.992689],[-83.522271,37.992833],[-83.522489,37.992972],[-83.522635,37.993114],[-83.52276,37.993255],[-83.522867,37.993399],[-83.522915,37.993485],[-83.522926,37.993571],[-83.5229096,37.9937281],[-83.5227771,37.9939345],[-83.5226276,37.9940736],[-83.522458,37.994273],[-83.522365,37.994632],[-83.522285,37.995122],[-83.522213,37.995699],[-83.522162,37.995862],[-83.52212,37.996107],[-83.522116,37.996211],[-83.52215,37.99636]]}},{"type":"Feature","properties":{"osm_id":970379972,"highway":"service","name":"Pleasant View Lane","alt_name":null,"official_name":null,"surface":null,"tracktype":null,"service":null,"access":null,"motor_vehicle":null,"foot":null,"tiger_reviewed":null,"rrgh_part":0,"rrgh_tile_part":0},"geometry":{"type":"LineString","coordinates":[[-83.52215,37.99636],[-83.5222596,37.9965705],[-83.5224947,37.9966926],[-83.5228259,37.9967536],[-83.5229595,37.9968526],[-83.5229541,37.9971178],[-83.5226683,37.9973451],[-83.5225935,37.9975072],[-83.5226683,37.9979071],[-83.5226309,37.9981176],[-83.5224172,37.9985617],[-83.5223211,37.9986712],[-83.5221849,37.9987175],[-83.5220353,37.9986691],[-83.5219231,37.9985596],[-83.5217762,37.9982186],[-83.5216079,37.9979703],[-83.521656,37.9976187],[-83.5215117,37.9970967],[-83.5213835,37.9969199],[-83.520673,37.9963789],[-83.5205795,37.9962527],[-83.520641,37.9961158],[-83.5208627,37.9959095],[-83.520852,37.9952886],[-83.5209695,37.9949918],[-83.5210523,37.9945771],[-83.5210096,37.9942108],[-83.520852,37.993693],[-83.520649,37.9934699],[-83.520259,37.9933183],[-83.5201148,37.993152]]}},{"type":"Feature","properties":{"osm_id":970379973,"highway":"service","name":null,"alt_name":null,"official_name":null,"surface":null,"tracktype":null,"service":null,"access":null,"motor_vehicle":null,"foot":null,"tiger_reviewed":null,"rrgh_part":0,"rrgh_tile_part":0},"geometry":{"type":"LineString","coordinates":[[-83.5201148,37.993152],[-83.52004,37.9928978],[-83.5195939,37.9922157],[-83.5193001,37.9918431],[-83.5189475,37.9913547],[-83.5185709,37.9908116],[-83.5183732,37.9907022]]}},{"type":"Feature","properties":{"osm_id":16309688,"highway":"residential","name":"Mary Ellen Court","alt_name":null,"official_name":null,"surface":null,"tracktype":null,"service":null,"access":null,"motor_vehicle":null,"foot":null,"tiger_reviewed":"no","rrgh_part":0,"rrgh_tile_part":0},"geometry":{"type":"LineString","coordinates":[[-83.5331832,38.0070563],[-83.533287,38.0070273],[-83.5333554,38.0072047],[-83.5333823,38.0073134],[-83.5333455,38.0073548],[-83.5332827,38.0073636],[-83.5332245,38.0073572],[-83.5331607,38.0073242],[-83.5330903,38.007215],[-83.5330806,38.0071386],[-83.5331182,38.0070821],[-83.5331832,38.0070563]]}},{"type":"Feature","properties":{"osm_id":16309691,"highway":"residential","name":"Mary Ellen Court","alt_name":null,"official_name":null,"surface":null,"tracktype":null,"service":null,"access":null,"motor_vehicle":null,"foot":null,"tiger_reviewed":"no","rrgh_part":0,"rrgh_tile_part":0},"geometry":{"type":"LineString","coordinates":[[-83.535765,38.006593],[-83.535279,38.006626],[-83.535058,38.006652],[-83.534505,38.006673],[-83.534204,38.006707],[-83.534144,38.006722],[-83.533793,38.006856],[-83.533558,38.006927],[-83.533287,38.0070273]]}},{"type":"Feature","properties":{"osm_id":16310566,"highway":"residential","name":"Trail Pines Lane","alt_name":null,"official_name":null,"surface":null,"tracktype":null,"service":null,"access":null,"motor_vehicle":null,"foot":null,"tiger_reviewed":"no","rrgh_part":0,"rrgh_tile_part":0},"geometry":{"type":"LineString","coordinates":[[-83.5375491,38.0041651],[-83.5375494,38.0039853],[-83.5375908,38.0038307],[-83.537729,38.003657],[-83.537953,38.003483],[-83.538034,38.003384],[-83.538045,38.003352],[-83.538045,38.00319],[-83.538038,38.003104],[-83.538021,38.002902],[-83.538019,38.002873],[-83.538025,38.002774],[-83.538463,38.001653]]}},{"type":"Feature","properties":{"osm_id":970379967,"highway":"service","name":"Barn Cave Road","alt_name":null,"official_name":null,"surface":null,"tracktype":null,"service":null,"access":null,"motor_vehicle":null,"foot":null,"tiger_reviewed":null,"rrgh_part":0,"rrgh_tile_part":0},"geometry":{"type":"LineString","coordinates":[[-83.536043,38.004511],[-83.5357905,38.0043567],[-83.5356784,38.0042684],[-83.5356756,38.0041846],[-83.5358049,38.0040419],[-83.5359142,38.0039263],[-83.5359372,38.0038131],[-83.5358452,38.003727],[-83.5355548,38.0035798],[-83.5354025,38.0033827],[-83.5353248,38.0032196],[-83.5353392,38.0029251],[-83.5353795,38.002719],[-83.5353478,38.0024539],[-83.5353542,38.0024356],[-83.5353996,38.0023067],[-83.5355606,38.0021889],[-83.5357244,38.0021323]]}},{"type":"Feature","properties":{"osm_id":16308757,"highway":"residential","name":null,"alt_name":null,"official_name":null,"surface":null,"tracktype":null,"service":null,"access":null,"motor_vehicle":null,"foot":null,"tiger_reviewed":"no","rrgh_part":0,"rrgh_tile_part":0},"geometry":{"type":"LineString","coordinates":[[-83.538463,38.001653],[-83.540074,38.001738]]}},{"type":"Feature","properties":{"osm_id":16309063,"highway":"track","name":"Forest Road 1227A","alt_name":null,"official_name":null,"surface":null,"tracktype":null,"service":null,"access":null,"motor_vehicle":null,"foot":null,"tiger_reviewed":"no","rrgh_part":0,"rrgh_tile_part":0},"geometry":{"type":"LineString","coordinates":[[-83.5251085,38.012509],[-83.5252291,38.012608],[-83.5253717,38.0125702],[-83.5257044,38.0123568],[-83.5261902,38.0126247],[-83.5269034,38.013009],[-83.5286756,38.0138063],[-83.5288302,38.0139539],[-83.5291697,38.0141203],[-83.530222,38.014428],[-83.5314791,38.0151316],[-83.5317668,38.0156765],[-83.5327071,38.0165763],[-83.5330424,38.017418],[-83.533501,38.017475],[-83.5338715,38.0173656],[-83.5339938,38.0162643],[-83.5341212,38.0157835],[-83.5340508,38.0154034],[-83.5342078,38.0152138],[-83.5344625,38.0152854],[-83.5346466,38.015585],[-83.5351642,38.0157393],[-83.535585,38.0158206],[-83.5361123,38.016002],[-83.5364943,38.0162987],[-83.5367672,38.0162995],[-83.5369376,38.0161748],[-83.5370692,38.0158707],[-83.5371887,38.0153794],[-83.5373361,38.0151133],[-83.5380999,38.0152327],[-83.5389895,38.0153779],[-83.5393246,38.0153082],[-83.538811,38.0143827]]}},{"type":"Feature","properties":{"osm_id":16310772,"highway":"residential","name":"Edge Lane","alt_name":null,"official_name":null,"surface":null,"tracktype":null,"service":null,"access":null,"motor_vehicle":null,"foot":null,"tiger_reviewed":"no","rrgh_part":0,"rrgh_tile_part":0},"geometry":{"type":"LineString","coordinates":[[-83.537452,38.004783],[-83.537524,38.004819],[-83.537572,38.004815],[-83.537588,38.004802],[-83.537608,38.004763],[-83.537609,38.004625],[-83.5375582,38.0043115],[-83.5375512,38.0041872],[-83.5375491,38.0041651],[-83.5376095,38.0040478],[-83.5376831,38.0039119],[-83.537785,38.003826],[-83.538117,38.003668],[-83.538236,38.003653],[-83.538726,38.003542],[-83.538842,38.00353]]}},{"type":"Feature","properties":{"osm_id":970379966,"highway":"service","name":null,"alt_name":null,"official_name":null,"surface":null,"tracktype":null,"service":null,"access":null,"motor_vehicle":null,"foot":null,"tiger_reviewed":null,"rrgh_part":0,"rrgh_tile_part":0},"geometry":{"type":"LineString","coordinates":[[-83.538236,38.003653],[-83.5383551,38.0035324],[-83.5384246,38.0033994],[-83.5384618,38.0031843],[-83.5384816,38.002889],[-83.5384941,38.0026191],[-83.5385387,38.0025663],[-83.5386306,38.0025526],[-83.5388936,38.0026152],[-83.5391493,38.0026778],[-83.5391865,38.0027365],[-83.5391716,38.0028029],[-83.5390252,38.0029633]]}},{"type":"Feature","properties":{"osm_id":16310729,"highway":"residential","name":"Bob Fields Trail","alt_name":null,"official_name":null,"surface":null,"tracktype":null,"service":null,"access":null,"motor_vehicle":null,"foot":null,"tiger_reviewed":"no","rrgh_part":0,"rrgh_tile_part":0},"geometry":{"type":"LineString","coordinates":[[-83.530057,38.008988],[-83.529838,38.009013],[-83.529755,38.009006],[-83.529055,38.008901],[-83.528876,38.008898],[-83.528781,38.008929],[-83.528704,38.008976],[-83.528648,38.009032],[-83.528591,38.00912],[-83.528555,38.009253],[-83.5285418,38.0093629],[-83.528535,38.00942],[-83.528499,38.009511],[-83.528469,38.009548],[-83.528394,38.009612],[-83.528295,38.009688],[-83.528008,38.009846],[-83.527304,38.010179],[-83.527249,38.010197],[-83.527145,38.010218],[-83.527052,38.010221],[-83.526969,38.010195],[-83.526878,38.010147],[-83.526673,38.009992],[-83.5263377,38.0097978],[-83.5261565,38.009453],[-83.5255669,38.0089717]]}},{"type":"Feature","properties":{"osm_id":970379969,"highway":"service","name":"Poplar Cove Road","alt_name":null,"official_name":null,"surface":null,"tracktype":null,"service":null,"access":null,"motor_vehicle":null,"foot":null,"tiger_reviewed":null,"rrgh_part":0,"rrgh_tile_part":0},"geometry":{"type":"LineString","coordinates":[[-83.5285418,38.0093629],[-83.5282683,38.0092653],[-83.5280641,38.0090168],[-83.5278921,38.008726],[-83.5278526,38.0085763],[-83.5278921,38.0084295],[-83.5280103,38.0082375],[-83.5282397,38.0080709],[-83.5285335,38.0079749],[-83.5288561,38.0078958],[-83.5293148,38.0079636],[-83.5296516,38.0079608],[-83.5299025,38.0078196],[-83.5302537,38.007478],[-83.5305009,38.0071532]]}},{"type":"Feature","properties":{"osm_id":16310307,"highway":"service","name":"Todds Lane","alt_name":null,"official_name":null,"surface":null,"tracktype":null,"service":null,"access":null,"motor_vehicle":null,"foot":null,"tiger_reviewed":"no","rrgh_part":0,"rrgh_tile_part":0},"geometry":{"type":"LineString","coordinates":[[-83.5275533,38.0112082],[-83.5276151,38.0112979],[-83.527769,38.0114863],[-83.5279125,38.0115794],[-83.5281166,38.0115975],[-83.528853,38.011401],[-83.5290582,38.011405],[-83.5293573,38.0115689],[-83.5296289,38.0118614],[-83.5297286,38.0120605],[-83.529775,38.0123313],[-83.5298695,38.0125981],[-83.5299813,38.0126943],[-83.5301755,38.0127769],[-83.5304625,38.0127579],[-83.5308407,38.0127674],[-83.5310126,38.012831],[-83.5318945,38.0130232]]}},{"type":"Feature","properties":{"osm_id":16309956,"highway":"residential","name":"Cr-1565","alt_name":null,"official_name":null,"surface":null,"tracktype":null,"service":null,"access":null,"motor_vehicle":null,"foot":null,"tiger_reviewed":"no","rrgh_part":0,"rrgh_tile_part":0},"geometry":{"type":"LineString","coordinates":[[-83.516073,37.989853],[-83.516141,37.989636],[-83.516151,37.989513],[-83.516135,37.98945],[-83.516098,37.98939],[-83.516039,37.989334],[-83.51596,37.98929],[-83.51576,37.989218],[-83.514933,37.988991],[-83.514847,37.988976],[-83.514689,37.988977],[-83.514573,37.989003],[-83.51452,37.989035]]}},{"type":"Feature","properties":{"osm_id":16308277,"highway":"service","name":null,"alt_name":null,"official_name":null,"surface":null,"tracktype":null,"service":null,"access":null,"motor_vehicle":null,"foot":null,"tiger_reviewed":null,"rrgh_part":0,"rrgh_tile_part":0},"geometry":{"type":"LineString","coordinates":[[-83.5105261,37.9907735],[-83.5111768,37.9912387],[-83.512764,37.9920449],[-83.5154581,37.994002]]}},{"type":"Feature","properties":{"osm_id":16310702,"highway":"residential","name":"Mountain Ridge Road","alt_name":null,"official_name":null,"surface":null,"tracktype":null,"service":null,"access":null,"motor_vehicle":null,"foot":null,"tiger_reviewed":"no","rrgh_part":0,"rrgh_tile_part":0},"geometry":{"type":"LineString","coordinates":[[-83.505,37.99676293939394],[-83.505114,37.996771],[-83.505218,37.996792],[-83.505376,37.996805],[-83.505548,37.996793],[-83.505881,37.996805],[-83.506535,37.996949]]}},{"type":"Feature","properties":{"osm_id":970379974,"highway":"service","name":null,"alt_name":null,"official_name":null,"surface":null,"tracktype":null,"service":null,"access":null,"motor_vehicle":null,"foot":null,"tiger_reviewed":null,"rrgh_part":0,"rrgh_tile_part":0},"geometry":{"type":"LineString","coordinates":[[-83.505,37.9949027138368],[-83.5051094,37.9949761],[-83.5056532,37.9951432],[-83.5061276,37.9952283],[-83.5063397,37.9951979]]}},{"type":"Feature","properties":{"osm_id":1461670042,"highway":"track","name":null,"alt_name":null,"official_name":null,"surface":null,"tracktype":null,"service":null,"access":null,"motor_vehicle":null,"foot":null,"tiger_reviewed":null,"rrgh_part":0,"rrgh_tile_part":0},"geometry":{"type":"LineString","coordinates":[[-83.5579866,38.0315318],[-83.5581611,38.0316255]]}},{"type":"Feature","properties":{"osm_id":1461670042,"highway":"track","name":null,"alt_name":null,"official_name":null,"surface":null,"tracktype":null,"service":null,"access":null,"motor_vehicle":null,"foot":null,"tiger_reviewed":null,"rrgh_part":1,"rrgh_tile_part":0},"geometry":{"type":"LineString","coordinates":[[-83.5581611,38.0316255],[-83.5582527,38.0316561],[-83.5582787,38.0317341],[-83.5582246,38.0317936],[-83.5581454,38.0317733],[-83.5581611,38.0316255]]}},{"type":"Feature","properties":{"osm_id":16310434,"highway":"service","name":"Boat Ramp Road","alt_name":null,"official_name":null,"surface":null,"tracktype":null,"service":null,"access":null,"motor_vehicle":null,"foot":null,"tiger_reviewed":"no","rrgh_part":0,"rrgh_tile_part":0},"geometry":{"type":"LineString","coordinates":[[-83.528334,38.032507],[-83.528178,38.032337],[-83.527967,38.032183],[-83.527783,38.032095],[-83.527678,38.032065],[-83.527565,38.032049],[-83.527447,38.032047],[-83.527327,38.032061],[-83.527207,38.032089],[-83.527087,38.032131],[-83.526969,38.032185],[-83.526695,38.032337],[-83.526383,38.032495],[-83.52624,38.032551],[-83.52609,38.032586],[-83.525767,38.032617],[-83.52545,38.032617],[-83.524686,38.032586],[-83.524011,38.032542],[-83.523773,38.032544],[-83.523548,38.032572],[-83.523432,38.032607],[-83.522819,38.032838],[-83.522303,38.032949],[-83.521809,38.033028],[-83.52159,38.033074],[-83.520474,38.033232],[-83.51978,38.033306],[-83.519363,38.033308],[-83.519007,38.03329],[-83.518789,38.033305],[-83.518575,38.03334],[-83.518355,38.033401],[-83.518146,38.033477],[-83.517982,38.033523],[-83.517821,38.033532],[-83.517748,38.033529],[-83.517607,38.033508],[-83.517571,38.033512],[-83.517447,38.033544],[-83.51737,38.033583],[-83.517232,38.033674],[-83.517028,38.033831],[-83.516955,38.033878],[-83.516874,38.033915],[-83.516787,38.033936],[-83.516698,38.033942],[-83.516614,38.033935],[-83.516401,38.033871]]}},{"type":"Feature","properties":{"osm_id":16310433,"highway":"service","name":"Boat Ramp Road","alt_name":null,"official_name":null,"surface":null,"tracktype":null,"service":null,"access":null,"motor_vehicle":null,"foot":null,"tiger_reviewed":"no","rrgh_part":0,"rrgh_tile_part":0},"geometry":{"type":"LineString","coordinates":[[-83.517571,38.033512],[-83.517586,38.033481],[-83.517581,38.033463],[-83.517526,38.033425],[-83.517369,38.033361],[-83.51721,38.033313]]}},{"type":"Feature","properties":{"osm_id":16310433,"highway":"service","name":"Boat Ramp Road","alt_name":null,"official_name":null,"surface":null,"tracktype":null,"service":null,"access":null,"motor_vehicle":null,"foot":null,"tiger_reviewed":"no","rrgh_part":1,"rrgh_tile_part":0},"geometry":{"type":"LineString","coordinates":[[-83.51721,38.033313],[-83.516636,38.03369],[-83.516401,38.033871],[-83.516147,38.033791],[-83.51608,38.033765],[-83.516029,38.03373],[-83.516001,38.033686],[-83.515995,38.033645],[-83.516011,38.033594],[-83.516045,38.033544],[-83.516097,38.033497],[-83.516307,38.033375],[-83.516389,38.033341],[-83.516562,38.033294],[-83.516731,38.033275],[-83.516904,38.033271],[-83.517074,38.033286],[-83.51721,38.033313]]}},{"type":"Feature","properties":{"osm_id":16310700,"highway":"residential","name":"Robinson Lane","alt_name":null,"official_name":null,"surface":null,"tracktype":null,"service":null,"access":null,"motor_vehicle":null,"foot":null,"tiger_reviewed":"no","rrgh_part":0,"rrgh_tile_part":0},"geometry":{"type":"LineString","coordinates":[[-83.505109,38.036647],[-83.505182,38.036643],[-83.505252,38.036653],[-83.505338,38.036694],[-83.5053811,38.0367238],[-83.505432,38.036759],[-83.505656,38.037014],[-83.505746,38.037177],[-83.505941,38.037345],[-83.506189,38.037511],[-83.506508,38.03783],[-83.506606,38.037905],[-83.506747,38.037969],[-83.50704,38.03804],[-83.507189,38.038056],[-83.507301,38.038054],[-83.507359,38.038042],[-83.507408,38.038014],[-83.507446,38.037961],[-83.507471,38.037891],[-83.507479,38.037821],[-83.507432,38.037425],[-83.507471,38.037111],[-83.507494,38.036857],[-83.507517,38.036745],[-83.507541,38.036688],[-83.507576,38.036639],[-83.507622,38.036601],[-83.507748,38.036551],[-83.507815,38.036533],[-83.50825,38.036485],[-83.509308,38.03634],[-83.509811,38.036255],[-83.510189,38.036145],[-83.51041,38.036053],[-83.510556,38.036021],[-83.510687,38.036011],[-83.510813,38.036027],[-83.510927,38.036072],[-83.510977,38.036107],[-83.511049,38.036191],[-83.511126,38.036345],[-83.511232,38.036633],[-83.51125,38.036732],[-83.51125,38.036928],[-83.511202,38.037224],[-83.511074,38.03769],[-83.511036,38.037784],[-83.510953,38.037932],[-83.510366,38.03882],[-83.510303,38.039006],[-83.510285,38.039135],[-83.510303,38.039356],[-83.510388,38.039716],[-83.510424,38.039808],[-83.510518,38.039967],[-83.510588,38.040026],[-83.510653,38.040038],[-83.510714,38.040035],[-83.51082,38.039985],[-83.510898,38.039886],[-83.511137,38.039528],[-83.511705,38.039207]]}},{"type":"Feature","properties":{"osm_id":970763798,"highway":"service","name":null,"alt_name":null,"official_name":null,"surface":null,"tracktype":null,"service":null,"access":null,"motor_vehicle":null,"foot":null,"tiger_reviewed":null,"rrgh_part":0,"rrgh_tile_part":0},"geometry":{"type":"LineString","coordinates":[[-83.5053811,38.0367238],[-83.5054654,38.036645],[-83.5054821,38.0353416],[-83.5059823,38.034603]]}},{"type":"Feature","properties":{"osm_id":970763795,"highway":"residential","name":null,"alt_name":null,"official_name":null,"surface":null,"tracktype":null,"service":null,"access":null,"motor_vehicle":null,"foot":null,"tiger_reviewed":null,"rrgh_part":0,"rrgh_tile_part":0},"geometry":{"type":"LineString","coordinates":[[-83.51041,38.036053],[-83.5105529,38.0362725],[-83.5105241,38.0366154],[-83.5105169,38.0370377],[-83.5104773,38.0371965],[-83.5101895,38.037307],[-83.5093978,38.03746],[-83.5091279,38.0374969],[-83.5089228,38.0375536],[-83.5087464,38.0376641],[-83.5087033,38.0379334]]}},{"type":"Feature","properties":{"osm_id":970763796,"highway":"residential","name":null,"alt_name":null,"official_name":null,"surface":null,"tracktype":null,"service":null,"access":null,"motor_vehicle":null,"foot":null,"tiger_reviewed":null,"rrgh_part":0,"rrgh_tile_part":0},"geometry":{"type":"LineString","coordinates":[[-83.51041,38.036053],[-83.5103154,38.0358955],[-83.510229,38.0356943],[-83.5101607,38.0351671]]}},{"type":"Feature","properties":{"osm_id":16309405,"highway":"residential","name":"Paul Taylor Road","alt_name":null,"official_name":null,"surface":null,"tracktype":null,"service":null,"access":null,"motor_vehicle":null,"foot":null,"tiger_reviewed":"no","rrgh_part":0,"rrgh_tile_part":0},"geometry":{"type":"LineString","coordinates":[[-83.505618,38.037746],[-83.505499,38.037779],[-83.505371,38.037851],[-83.505213,38.037987],[-83.505,38.03820185217391]]}}],"rrgh_tile":{"id":"r8c5","bounds":[37.974999999999994,-83.59,38.05,-83.505]}}
