{"type":"FeatureCollection","features":[{"type":"Feature","properties":{"osm_id":16322499,"highway":"residential","name":"Lenville Perry Road","alt_name":null,"official_name":null,"surface":null,"tracktype":null,"service":null,"access":null,"motor_vehicle":null,"foot":null,"tiger_reviewed":"no","rrgh_part":0,"rrgh_tile_part":0},"geometry":{"type":"LineString","coordinates":[[-83.31167638235293,37.974999999999994],[-83.311689,37.975011],[-83.311863,37.975149],[-83.311927,37.975193],[-83.312249,37.975413]]}},{"type":"Feature","properties":{"osm_id":16320190,"highway":"residential","name":"Pleasant Run Road","alt_name":null,"official_name":null,"surface":null,"tracktype":null,"service":null,"access":null,"motor_vehicle":null,"foot":null,"tiger_reviewed":"no","rrgh_part":0,"rrgh_tile_part":0},"geometry":{"type":"LineString","coordinates":[[-83.326139,37.981764],[-83.326148,37.981898],[-83.326143,37.982064],[-83.326118,37.982216],[-83.326084,37.98231],[-83.326033,37.982414],[-83.325886,37.982632],[-83.325652,37.982912],[-83.325515,37.983076],[-83.32528,37.983348],[-83.325208,37.983446],[-83.325158,37.983549],[-83.325124,37.983878],[-83.325104,37.983978],[-83.325044,37.984136],[-83.325008,37.984188],[-83.324967,37.984222],[-83.324938,37.984246],[-83.32486,37.984289],[-83.324409,37.984462],[-83.324274,37.984522],[-83.324142,37.984593],[-83.324019,37.984677],[-83.323537,37.985092],[-83.322925,37.985653],[-83.322752,37.985794],[-83.322554,37.985935],[-83.322513,37.985955],[-83.322467,37.985969],[-83.322411,37.985986],[-83.32235,37.985996],[-83.322326,37.985999],[-83.321196,37.986002],[-83.321045,37.986009],[-83.320895,37.986026],[-83.320754,37.986062],[-83.320622,37.986117],[-83.320494,37.986186],[-83.320238,37.986349],[-83.32002,37.986489],[-83.319929,37.986537],[-83.319831,37.986564],[-83.319784,37.986565],[-83.319727,37.986567],[-83.319622,37.986547],[-83.319016,37.986338],[-83.318589,37.986213],[-83.318448,37.986185],[-83.318313,37.986175],[-83.318176,37.986181],[-83.317257,37.986305],[-83.317213,37.986311],[-83.317072,37.98632],[-83.316803,37.986317],[-83.316666,37.986331],[-83.316528,37.986364],[-83.316388,37.986414],[-83.316247,37.986477],[-83.315798,37.986702],[-83.315647,37.986788],[-83.3155,37.986883],[-83.315362,37.98699],[-83.315235,37.987105],[-83.314386,37.987956],[-83.314258,37.988069],[-83.313852,37.988341],[-83.313748,37.988437],[-83.313248,37.989078],[-83.313166,37.989191],[-83.3131,37.989311],[-83.31306,37.989439],[-83.312996,37.989993],[-83.312926,37.990333],[-83.312932,37.990488],[-83.312967,37.990643],[-83.313004,37.99081],[-83.313005,37.990936],[-83.312985,37.991063],[-83.312818,37.991591],[-83.312793,37.991728],[-83.312764,37.992005],[-83.312768,37.992151],[-83.312789,37.992308],[-83.312787,37.992459],[-83.312769,37.992608],[-83.312633,37.993235],[-83.312534,37.993548],[-83.312417,37.993862],[-83.312245,37.994147],[-83.312164,37.994282],[-83.311312,37.995499],[-83.311116,37.995716],[-83.31084,37.99607],[-83.310773,37.996188],[-83.310722,37.996311],[-83.31069,37.996426],[-83.310687,37.996555],[-83.310706,37.996644],[-83.310757,37.996754],[-83.311073,37.99723],[-83.311204,37.997494],[-83.311247,37.997639],[-83.311412,37.998194],[-83.311637,37.99876],[-83.311734,37.999066],[-83.311809,37.999388],[-83.311897,37.999881],[-83.312045,38.000517],[-83.312056,38.000653],[-83.312041,38.000781],[-83.311995,38.001004],[-83.312002,38.001115],[-83.312173,38.001754],[-83.312343,38.002545],[-83.312485,38.002963],[-83.312578,38.003177],[-83.31269,38.003393],[-83.312823,38.003593],[-83.313055,38.00382],[-83.313113,38.003893],[-83.313145,38.003972],[-83.313144,38.004055],[-83.313119,38.004134],[-83.313095,38.004212],[-83.313092,38.004382],[-83.31316,38.004901],[-83.313173,38.005127],[-83.313247,38.00537],[-83.31336,38.005623],[-83.313561,38.006021],[-83.313786,38.006402],[-83.314019,38.006848],[-83.314156,38.007037],[-83.3143,38.007226],[-83.31464,38.007606],[-83.315043,38.00796],[-83.315382,38.008206],[-83.315436,38.008266],[-83.315469,38.008331],[-83.31548,38.008395],[-83.315479,38.008413],[-83.315471,38.008469],[-83.315438,38.008535],[-83.315381,38.008591],[-83.315302,38.008629],[-83.315208,38.008645],[-83.31511,38.008637],[-83.315011,38.008612],[-83.314718,38.008511],[-83.31463,38.008494],[-83.314541,38.008495],[-83.314456,38.008521],[-83.31437,38.008561],[-83.314031,38.008952],[-83.313791,38.009257],[-83.313552,38.009605],[-83.313414,38.009857],[-83.313333,38.009979],[-83.313236,38.010092],[-83.312804,38.010679],[-83.312657,38.010917],[-83.312471,38.011316],[-83.312222,38.01168],[-83.312033,38.011882],[-83.311669,38.012187],[-83.311523,38.012369],[-83.311332,38.012973],[-83.311253,38.013277],[-83.311091,38.014127],[-83.311093,38.014185],[-83.311131,38.014384],[-83.311169,38.014486],[-83.311238,38.014567],[-83.311433,38.01473],[-83.311588,38.014889],[-83.311683,38.015025],[-83.311779,38.015265],[-83.311951,38.015872],[-83.311949,38.01611],[-83.311831,38.016297],[-83.311582,38.016616],[-83.311563,38.01667],[-83.311525,38.016921],[-83.311546,38.017014],[-83.311588,38.017093],[-83.311664,38.017181],[-83.312038,38.017469],[-83.312201,38.017584],[-83.312303,38.017636],[-83.312438,38.017687],[-83.312546,38.017728],[-83.312952,38.017835],[-83.313079,38.017882],[-83.313678,38.01812],[-83.313741,38.018152],[-83.313803,38.018183],[-83.313926,38.018259],[-83.314039,38.018351],[-83.314222,38.018577],[-83.314673,38.019213],[-83.314824,38.019469],[-83.314908,38.019573],[-83.315089,38.019746],[-83.315162,38.019833],[-83.315284,38.020097],[-83.315339,38.020146],[-83.315397,38.020169]]}},{"type":"Feature","properties":{"osm_id":16317706,"highway":"residential","name":null,"alt_name":null,"official_name":null,"surface":null,"tracktype":null,"service":null,"access":null,"motor_vehicle":null,"foot":null,"tiger_reviewed":"no","rrgh_part":0,"rrgh_tile_part":0},"geometry":{"type":"LineString","coordinates":[[-83.33500000000001,37.99113811672747],[-83.334516,37.990954]]}},{"type":"Feature","properties":{"osm_id":16317770,"highway":"service","name":null,"alt_name":null,"official_name":null,"surface":null,"tracktype":null,"service":null,"access":"private","motor_vehicle":null,"foot":null,"tiger_reviewed":"no","rrgh_part":0,"rrgh_tile_part":0},"geometry":{"type":"LineString","coordinates":[[-83.33500000000001,38.000662261996496],[-83.333756,38.000742],[-83.332755,38.000495]]}},{"type":"Feature","properties":{"osm_id":16322732,"highway":"residential","name":"Coopers Cemetery Road","alt_name":null,"official_name":null,"surface":null,"tracktype":null,"service":null,"access":null,"motor_vehicle":null,"foot":null,"tiger_reviewed":"no","rrgh_part":0,"rrgh_tile_part":0},"geometry":{"type":"LineString","coordinates":[[-83.333325,37.997527],[-83.333714,37.99768],[-83.33500000000001,37.99818350817237]]}},{"type":"Feature","properties":{"osm_id":16319422,"highway":"residential","name":"J H Lewis Cemetery Road","alt_name":null,"official_name":null,"surface":null,"tracktype":null,"service":null,"access":null,"motor_vehicle":null,"foot":null,"tiger_reviewed":"no","rrgh_part":0,"rrgh_tile_part":0},"geometry":{"type":"LineString","coordinates":[[-83.322467,37.985969],[-83.323536,37.987592],[-83.323581,37.98772],[-83.323805,37.988353],[-83.324039,37.989438]]}},{"type":"Feature","properties":{"osm_id":16321052,"highway":"residential","name":"Old 519 No 1 Road","alt_name":null,"official_name":null,"surface":null,"tracktype":null,"service":null,"access":null,"motor_vehicle":null,"foot":null,"tiger_reviewed":"no","rrgh_part":0,"rrgh_tile_part":0},"geometry":{"type":"LineString","coordinates":[[-83.334288,37.98151],[-83.334282,37.98175],[-83.33426,37.98182],[-83.334221,37.981894],[-83.334157,37.981968],[-83.334069,37.982037],[-83.333844,37.982158],[-83.333077,37.982545],[-83.332941,37.982597],[-83.332801,37.98264],[-83.332659,37.98266],[-83.332517,37.98266],[-83.332233,37.98261],[-83.33181,37.982494],[-83.331628,37.982454],[-83.331527,37.982441],[-83.33122,37.982429],[-83.330586,37.982432],[-83.330285,37.982444],[-83.33014,37.982459],[-83.329839,37.982522],[-83.329391,37.982665],[-83.32929,37.982694],[-83.329075,37.982756],[-83.329042,37.982764],[-83.328915,37.982796],[-83.328753,37.982824],[-83.328429,37.98284],[-83.328259,37.982834],[-83.327757,37.982867],[-83.326839,37.982891],[-83.326479,37.982936],[-83.326197,37.983009],[-83.325988,37.98308],[-83.325888,37.983104],[-83.325737,37.98311],[-83.325515,37.983076],[-83.325396,37.983042],[-83.325237,37.98297],[-83.325213,37.982959],[-83.325116,37.982905],[-83.324927,37.982762],[-83.324756,37.982581],[-83.324417,37.982175],[-83.32432,37.98208],[-83.32421,37.981998],[-83.324085,37.981923],[-83.32395,37.981858],[-83.323196,37.981541],[-83.322941,37.981393],[-83.32272,37.981201],[-83.322017,37.980454],[-83.32182,37.980304],[-83.321712,37.980246],[-83.321518,37.980116],[-83.321433,37.980041],[-83.321219,37.979788],[-83.32112,37.979685],[-83.321054,37.979625],[-83.320483,37.979203],[-83.319623,37.978598],[-83.319413,37.97841],[-83.319123,37.978091],[-83.31903,37.978017],[-83.318923,37.977952],[-83.318663,37.977845],[-83.317886,37.977692],[-83.317719,37.977649],[-83.316857,37.977394],[-83.316141,37.977211],[-83.315798,37.977098],[-83.315298,37.976888],[-83.313983,37.976265],[-83.312917,37.975803],[-83.312672,37.975678],[-83.312249,37.975413]]}},{"type":"Feature","properties":{"osm_id":16321512,"highway":"residential","name":"Hover Branch Lane","alt_name":null,"official_name":null,"surface":null,"tracktype":null,"service":null,"access":null,"motor_vehicle":null,"foot":null,"tiger_reviewed":"no","rrgh_part":0,"rrgh_tile_part":0},"geometry":{"type":"LineString","coordinates":[[-83.325008,37.984188],[-83.325023,37.984234],[-83.325072,37.984293],[-83.325098,37.984323],[-83.325147,37.984409],[-83.325221,37.984567],[-83.325701,37.985284],[-83.325884,37.985609],[-83.326116,37.986084],[-83.326282,37.986632],[-83.326318,37.987029],[-83.326358,37.987125],[-83.326574,37.987523],[-83.326606,37.987659],[-83.326619,37.987782],[-83.326635,37.987828],[-83.326714,37.987954],[-83.326764,37.988068],[-83.32677,37.988098],[-83.326802,37.988256],[-83.326862,37.988308],[-83.327218,37.988327]]}},{"type":"Feature","properties":{"osm_id":16317557,"highway":"residential","name":"Oakley Cemetery Road","alt_name":null,"official_name":null,"surface":null,"tracktype":null,"service":null,"access":null,"motor_vehicle":null,"foot":null,"tiger_reviewed":"no","rrgh_part":0,"rrgh_tile_part":0},"geometry":{"type":"LineString","coordinates":[[-83.331628,37.982454],[-83.331525,37.982654],[-83.331502,37.98276],[-83.331634,37.983713],[-83.331642,37.983919],[-83.331619,37.984125],[-83.331579,37.984255],[-83.331521,37.984377],[-83.331204,37.984869],[-83.33117,37.984922],[-83.331125,37.985062],[-83.331115,37.985135],[-83.331106,37.985281],[-83.331115,37.985982],[-83.33113,37.986084],[-83.331196,37.986234],[-83.3312,37.986282],[-83.331127,37.986554],[-83.331114,37.986685],[-83.33113,37.986821],[-83.331148,37.986886],[-83.331223,37.987058],[-83.331233,37.987105],[-83.331203,37.987199]]}},{"type":"Feature","properties":{"osm_id":16321259,"highway":"residential","name":"Yocum Rd Connector","alt_name":null,"official_name":null,"surface":null,"tracktype":null,"service":null,"access":null,"motor_vehicle":null,"foot":null,"tiger_reviewed":"no","rrgh_part":0,"rrgh_tile_part":0},"geometry":{"type":"LineString","coordinates":[[-83.32112,37.979685],[-83.321307,37.979543],[-83.321765,37.979196]]}},{"type":"Feature","properties":{"osm_id":16321258,"highway":"residential","name":"Yocum Rd Connector","alt_name":null,"official_name":null,"surface":null,"tracktype":null,"service":null,"access":null,"motor_vehicle":null,"foot":null,"tiger_reviewed":"no","rrgh_part":0,"rrgh_tile_part":0},"geometry":{"type":"LineString","coordinates":[[-83.31251990128756,37.974999999999994],[-83.312423,37.975159],[-83.312358,37.975254],[-83.312249,37.975413]]}},{"type":"Feature","properties":{"osm_id":16317607,"highway":"residential","name":null,"alt_name":null,"official_name":null,"surface":null,"tracktype":null,"service":null,"access":null,"motor_vehicle":null,"foot":null,"tiger_reviewed":"no","rrgh_part":0,"rrgh_tile_part":0},"geometry":{"type":"LineString","coordinates":[[-83.317072,37.98632],[-83.316948,37.986193],[-83.316761,37.986046],[-83.316742,37.985962],[-83.31683,37.985812],[-83.31698,37.985677],[-83.31697,37.985246],[-83.316968,37.985151],[-83.316822,37.985122],[-83.316687,37.985143],[-83.316589,37.985123],[-83.315954,37.985002],[-83.315714,37.984891],[-83.31554,37.984657],[-83.315389,37.98444],[-83.315237,37.984207]]}},{"type":"Feature","properties":{"osm_id":16317969,"highway":"residential","name":null,"alt_name":null,"official_name":null,"surface":null,"tracktype":null,"service":null,"access":null,"motor_vehicle":null,"foot":null,"tiger_reviewed":"no","rrgh_part":0,"rrgh_tile_part":0},"geometry":{"type":"LineString","coordinates":[[-83.312249,37.975413],[-83.311638,37.975408],[-83.311063,37.975457],[-83.31094,37.975489],[-83.31033,37.975595],[-83.309486,37.975894],[-83.3091569,37.9760335],[-83.3088737,37.9762929],[-83.3087569,37.976452],[-83.3087074,37.9765747],[-83.3086897,37.9766696]]}},{"type":"Feature","properties":{"osm_id":16318844,"highway":"residential","name":"Russell Lewis Road","alt_name":null,"official_name":null,"surface":null,"tracktype":null,"service":null,"access":null,"motor_vehicle":null,"foot":null,"tiger_reviewed":"no","rrgh_part":0,"rrgh_tile_part":0},"geometry":{"type":"LineString","coordinates":[[-83.312932,37.990488],[-83.312803,37.990473],[-83.312559,37.990401],[-83.312537,37.990396],[-83.312463,37.990388],[-83.312374,37.990397],[-83.312179,37.990441],[-83.312069,37.990452],[-83.31196,37.99045],[-83.311855,37.990427],[-83.311685,37.990319],[-83.311566,37.989924],[-83.311552,37.989748],[-83.31153,37.989633],[-83.31138,37.9892],[-83.311284,37.989024],[-83.311241,37.988968],[-83.311222,37.988943],[-83.311145,37.988871],[-83.311055,37.988816],[-83.310953,37.988778],[-83.310727,37.988739],[-83.310492,37.988721],[-83.310131,37.988727],[-83.310029,37.988716],[-83.309943,37.988685],[-83.30972,37.988518],[-83.309632,37.98847],[-83.309533,37.988431],[-83.309058,37.988293],[-83.308921,37.988267],[-83.308544,37.988235],[-83.308321,37.988222],[-83.30818,37.988204],[-83.307924,37.988153],[-83.307707,37.988136],[-83.307532,37.988122],[-83.307422,37.988137],[-83.307105,37.988223],[-83.306983,37.988241],[-83.306725,37.988246],[-83.305301,37.988361],[-83.30515,37.988373],[-83.304346,37.988404],[-83.303977,37.988429],[-83.303809,37.988465],[-83.303598,37.988565],[-83.303502,37.988601],[-83.303471,37.988613],[-83.303304,37.988642],[-83.303099,37.988644],[-83.30286,37.988607],[-83.302739,37.988573],[-83.302361,37.988445],[-83.302186,37.988399],[-83.30195,37.988338],[-83.301572,37.988199],[-83.301257,37.988078],[-83.301102,37.98803],[-83.300881,37.987985],[-83.300603,37.987943]]}},{"type":"Feature","properties":{"osm_id":16318550,"highway":"residential","name":"Fields Cemetery Road","alt_name":null,"official_name":null,"surface":null,"tracktype":null,"service":null,"access":null,"motor_vehicle":null,"foot":null,"tiger_reviewed":"no","rrgh_part":0,"rrgh_tile_part":0},"geometry":{"type":"LineString","coordinates":[[-83.319784,37.986565],[-83.319713,37.986623],[-83.319652,37.986628],[-83.319316,37.98654],[-83.319231,37.986529],[-83.319147,37.986545],[-83.31902,37.986624]]}},{"type":"Feature","properties":{"osm_id":16322820,"highway":"residential","name":"Hoover Road","alt_name":null,"official_name":null,"surface":null,"tracktype":null,"service":null,"access":null,"motor_vehicle":null,"foot":null,"tiger_reviewed":"no","rrgh_part":0,"rrgh_tile_part":0},"geometry":{"type":"LineString","coordinates":[[-83.333837,37.991027],[-83.334363,37.991344]]}},{"type":"Feature","properties":{"osm_id":16322819,"highway":"residential","name":"Hoover Road","alt_name":null,"official_name":null,"surface":null,"tracktype":null,"service":null,"access":null,"motor_vehicle":null,"foot":null,"tiger_reviewed":"no","rrgh_part":0,"rrgh_tile_part":0},"geometry":{"type":"LineString","coordinates":[[-83.326802,37.988256],[-83.326819,37.988338],[-83.326923,37.988634],[-83.326926,37.98885],[-83.326916,37.988922],[-83.326901,37.988954],[-83.326833,37.989098],[-83.326641,37.989316],[-83.326593,37.989402],[-83.326516,37.989598],[-83.326487,37.989639]]}},{"type":"Feature","properties":{"osm_id":16318333,"highway":"residential","name":null,"alt_name":null,"official_name":null,"surface":null,"tracktype":null,"service":null,"access":null,"motor_vehicle":null,"foot":null,"tiger_reviewed":"no","rrgh_part":0,"rrgh_tile_part":0},"geometry":{"type":"LineString","coordinates":[[-83.332762,38.000056],[-83.332685,38.000071]]}},{"type":"Feature","properties":{"osm_id":16318574,"highway":"residential","name":"Engle Cemetery Road","alt_name":null,"official_name":null,"surface":null,"tracktype":null,"service":null,"access":null,"motor_vehicle":null,"foot":null,"tiger_reviewed":"no","rrgh_part":0,"rrgh_tile_part":0},"geometry":{"type":"LineString","coordinates":[[-83.333325,37.997527],[-83.33325,37.99752],[-83.333026,37.997592],[-83.332916,37.997609],[-83.332888,37.997613]]}},{"type":"Feature","properties":{"osm_id":16319934,"highway":"residential","name":"Adkins Road","alt_name":null,"official_name":null,"surface":null,"tracktype":null,"service":null,"access":null,"motor_vehicle":null,"foot":null,"tiger_reviewed":"no","rrgh_part":0,"rrgh_tile_part":0},"geometry":{"type":"LineString","coordinates":[[-83.332825,38.000129],[-83.332762,38.000056],[-83.33262,37.999759]]}},{"type":"Feature","properties":{"osm_id":16317940,"highway":"residential","name":null,"alt_name":null,"official_name":null,"surface":null,"tracktype":null,"service":null,"access":null,"motor_vehicle":null,"foot":null,"tiger_reviewed":"no","rrgh_part":0,"rrgh_tile_part":0},"geometry":{"type":"LineString","coordinates":[[-83.310687,37.996555],[-83.310613,37.996561],[-83.310278,37.996764],[-83.310184,37.996811],[-83.310087,37.99685],[-83.310044,37.996861],[-83.309983,37.996877],[-83.309873,37.99689],[-83.309766,37.996878],[-83.309571,37.996839],[-83.309378,37.996824],[-83.309036,37.996846],[-83.308932,37.996865],[-83.308844,37.996899],[-83.308632,37.997006],[-83.308232,37.997063],[-83.307712,37.99719],[-83.307356,37.997289],[-83.306883,37.997313],[-83.306642,37.997342],[-83.306521,37.997366],[-83.306285,37.997433],[-83.306168,37.997481],[-83.306005,37.997561],[-83.30583,37.997646],[-83.30572,37.997678],[-83.305271,37.997722],[-83.30491,37.997795],[-83.304058,37.998081],[-83.303736,37.998231],[-83.303521,37.998284],[-83.303417,37.99829],[-83.303077,37.998271],[-83.302868,37.998281],[-83.302781,37.9983],[-83.302497,37.998437],[-83.302426,37.998472],[-83.302308,37.998539],[-83.302242,37.998591],[-83.301927,37.998919],[-83.301616,37.999182],[-83.301229,37.99964],[-83.300936,37.999877],[-83.300888,37.999926],[-83.300717,38.000176],[-83.300375,38.000468],[-83.299983,38.000873],[-83.299415,38.001401],[-83.299301,38.001529],[-83.299214,38.00165],[-83.299188,38.001718],[-83.299203,38.001925],[-83.299194,38.001991],[-83.29907,38.002314],[-83.299057,38.002377],[-83.299061,38.002438],[-83.299084,38.00249],[-83.299121,38.00253],[-83.299348,38.002679],[-83.299494,38.002812],[-83.299608,38.002951],[-83.299684,38.003089]]}},{"type":"Feature","properties":{"osm_id":16318326,"highway":"residential","name":null,"alt_name":null,"official_name":null,"surface":null,"tracktype":null,"service":null,"access":null,"motor_vehicle":null,"foot":null,"tiger_reviewed":"no","rrgh_part":0,"rrgh_tile_part":0},"geometry":{"type":"LineString","coordinates":[[-83.33500000000001,38.01028035766112],[-83.330954,38.010624]]}},{"type":"Feature","properties":{"osm_id":16322313,"highway":"residential","name":"Old Ditney Ridge Road","alt_name":null,"official_name":null,"surface":null,"tracktype":null,"service":null,"access":null,"motor_vehicle":null,"foot":null,"tiger_reviewed":"no","rrgh_part":0,"rrgh_tile_part":0},"geometry":{"type":"LineString","coordinates":[[-83.333203,38.021508],[-83.333242,38.02158],[-83.333248,38.021618],[-83.333237,38.021703],[-83.333237,38.021752],[-83.333235,38.021959],[-83.3332,38.022168],[-83.33311,38.022483],[-83.333011,38.022775],[-83.3326,38.023786],[-83.33227,38.02488],[-83.332223,38.025075],[-83.332186,38.025359],[-83.33215,38.025546],[-83.332037,38.025917],[-83.331897,38.026286],[-83.331513,38.027079],[-83.331462,38.027201],[-83.331394,38.027431],[-83.331356,38.027727],[-83.331351,38.02804],[-83.331311,38.028875],[-83.331275,38.029275],[-83.331141,38.030418],[-83.3311,38.030749],[-83.331089,38.030999],[-83.331145,38.031282],[-83.331214,38.031542],[-83.331318,38.031798],[-83.331453,38.032019],[-83.331551,38.032116],[-83.331658,38.032195],[-83.331794,38.032256],[-83.332471,38.032436],[-83.332584,38.0325],[-83.332659,38.032592],[-83.332683,38.032655],[-83.33269,38.032742],[-83.332581,38.033142],[-83.332552,38.033381],[-83.332476,38.033503],[-83.33241,38.033669],[-83.332393,38.033824],[-83.332388,38.034027],[-83.332441,38.03427],[-83.332575,38.034416],[-83.332796,38.034597],[-83.33291,38.034716],[-83.333015,38.034836],[-83.333353,38.035283],[-83.333411,38.035343],[-83.333472,38.035385],[-83.333862,38.035467],[-83.33401,38.035461],[-83.334955,38.035364],[-83.33500000000001,38.03535524161074]]}},{"type":"Feature","properties":{"osm_id":16318925,"highway":"residential","name":"Angle Cemetery Road","alt_name":null,"official_name":null,"surface":null,"tracktype":null,"service":null,"access":null,"motor_vehicle":null,"foot":null,"tiger_reviewed":"no","rrgh_part":0,"rrgh_tile_part":0},"geometry":{"type":"LineString","coordinates":[[-83.332258,38.002601],[-83.332117,38.002581],[-83.332028,38.002568]]}},{"type":"Feature","properties":{"osm_id":16318319,"highway":"residential","name":null,"alt_name":null,"official_name":null,"surface":null,"tracktype":null,"service":null,"access":null,"motor_vehicle":null,"foot":null,"tiger_reviewed":"no","rrgh_part":0,"rrgh_tile_part":0},"geometry":{"type":"LineString","coordinates":[[-83.31321,38.00411],[-83.314111,38.004208],[-83.314943,38.004446]]}},{"type":"Feature","properties":{"osm_id":16318318,"highway":"residential","name":null,"alt_name":null,"official_name":null,"surface":null,"tracktype":null,"service":null,"access":null,"motor_vehicle":null,"foot":null,"tiger_reviewed":"no","rrgh_part":0,"rrgh_tile_part":0},"geometry":{"type":"LineString","coordinates":[[-83.313119,38.004134],[-83.31321,38.00411],[-83.314414,38.003732],[-83.315851,38.003375],[-83.317364,38.003256],[-83.318196,38.003256]]}},{"type":"Feature","properties":{"osm_id":16318620,"highway":"residential","name":"Lewis Cemetery No 1 Road","alt_name":null,"official_name":null,"surface":null,"tracktype":null,"service":null,"access":null,"motor_vehicle":null,"foot":null,"tiger_reviewed":"no","rrgh_part":0,"rrgh_tile_part":0},"geometry":{"type":"LineString","coordinates":[[-83.325975,38.018275],[-83.325923,38.018292],[-83.32587,38.01829],[-83.325593,38.018185],[-83.325486,38.018156],[-83.325368,38.018136],[-83.325259,38.018152],[-83.325183,38.018183],[-83.325116,38.018239],[-83.325066,38.018317],[-83.324924,38.018653],[-83.324848,38.018872]]}},{"type":"Feature","properties":{"osm_id":16322793,"highway":"residential","name":"Duck Creek Road","alt_name":null,"official_name":null,"surface":null,"tracktype":null,"service":null,"access":null,"motor_vehicle":null,"foot":null,"tiger_reviewed":"no","rrgh_part":0,"rrgh_tile_part":0},"geometry":{"type":"LineString","coordinates":[[-83.31634,38.03587],[-83.316381,38.035788],[-83.316561,38.035625],[-83.316614,38.035552],[-83.316632,38.035511],[-83.316646,38.035426],[-83.316639,38.035332],[-83.316605,38.035243],[-83.3165678,38.0351589],[-83.316544,38.035105],[-83.316502,38.034878],[-83.316362,38.034667],[-83.316083,38.034411],[-83.315922,38.034238],[-83.315655,38.033842],[-83.315645,38.033795],[-83.315629,38.033724],[-83.315648,38.033673],[-83.315685,38.033624],[-83.315757,38.033563],[-83.315809,38.03352],[-83.3162,38.033302],[-83.316681,38.032957],[-83.316994,38.032775],[-83.317245,38.032722],[-83.317474,38.032654],[-83.317711,38.032549],[-83.318575,38.032227],[-83.318761,38.032173],[-83.318873,38.032131],[-83.318968,38.032063],[-83.319138,38.031892],[-83.319247,38.031812],[-83.319373,38.031742],[-83.319782,38.031556],[-83.319898,38.031471],[-83.319993,38.031369],[-83.320056,38.031273],[-83.320152,38.031129],[-83.320267,38.03098],[-83.320353,38.030893],[-83.320485,38.030801],[-83.320723,38.030611],[-83.320821,38.030505],[-83.321117,38.030157],[-83.321348,38.029884],[-83.321451,38.029737],[-83.321727,38.029274],[-83.322083,38.028884],[-83.322441,38.028511],[-83.3225623,38.0283763],[-83.322657,38.028271],[-83.322946,38.028049],[-83.323096,38.027951],[-83.323412,38.027778],[-83.323584,38.0277],[-83.324162,38.027346],[-83.324318,38.027275],[-83.324481,38.027213],[-83.325074,38.027065],[-83.325138,38.027049],[-83.325412,38.026967],[-83.325795,38.026834],[-83.32601,38.026741],[-83.326246,38.026622],[-83.326904,38.026254],[-83.327368,38.026036],[-83.327521,38.025953],[-83.327672,38.025865],[-83.328115,38.025573],[-83.32828,38.025488],[-83.328458,38.025416],[-83.328651,38.025353],[-83.329452,38.025119],[-83.329843,38.025022],[-83.330405,38.0249],[-83.330578,38.024852],[-83.330741,38.024795],[-83.331026,38.024653],[-83.33127,38.024496],[-83.331493,38.024336],[-83.331765,38.024095],[-83.331963,38.023967],[-83.332068,38.023922],[-83.33227,38.023856],[-83.332437,38.023813],[-83.332497,38.023803],[-83.3326,38.023786]]}},{"type":"Feature","properties":{"osm_id":16319534,"highway":"residential","name":"Clay Collins Cemetery Road","alt_name":null,"official_name":null,"surface":null,"tracktype":null,"service":null,"access":null,"motor_vehicle":null,"foot":null,"tiger_reviewed":"no","rrgh_part":0,"rrgh_tile_part":0},"geometry":{"type":"LineString","coordinates":[[-83.33311,38.022483],[-83.333229,38.022518],[-83.333293,38.022554],[-83.33339,38.022642],[-83.333435,38.022716],[-83.333474,38.022841],[-83.333511,38.023076],[-83.333478,38.02326],[-83.333477,38.023404],[-83.333517,38.023585],[-83.333633,38.023885]]}},{"type":"Feature","properties":{"osm_id":16317946,"highway":"service","name":null,"alt_name":null,"official_name":null,"surface":null,"tracktype":null,"service":null,"access":"private","motor_vehicle":null,"foot":null,"tiger_reviewed":"no","rrgh_part":0,"rrgh_tile_part":0},"geometry":{"type":"LineString","coordinates":[[-83.313741,38.018152],[-83.314607,38.017548],[-83.315019,38.017005]]}},{"type":"Feature","properties":{"osm_id":16318312,"highway":"residential","name":null,"alt_name":null,"official_name":null,"surface":null,"tracktype":null,"service":null,"access":null,"motor_vehicle":null,"foot":null,"tiger_reviewed":"no","rrgh_part":0,"rrgh_tile_part":0},"geometry":{"type":"LineString","coordinates":[[-83.312438,38.017687],[-83.309399,38.018358]]}},{"type":"Feature","properties":{"osm_id":16319341,"highway":"residential","name":"M G Keeton Cemetery Road","alt_name":null,"official_name":null,"surface":null,"tracktype":null,"service":null,"access":null,"motor_vehicle":null,"foot":null,"tiger_reviewed":"no","rrgh_part":0,"rrgh_tile_part":0},"geometry":{"type":"LineString","coordinates":[[-83.310795,38.02434],[-83.310808,38.024453],[-83.31081,38.024996],[-83.310471,38.025782]]}},{"type":"Feature","properties":{"osm_id":16317592,"highway":"residential","name":null,"alt_name":null,"official_name":null,"surface":null,"tracktype":null,"service":null,"access":null,"motor_vehicle":null,"foot":null,"tiger_reviewed":"no","rrgh_part":0,"rrgh_tile_part":0},"geometry":{"type":"LineString","coordinates":[[-83.307707,37.988136],[-83.307762,37.987649],[-83.307663,37.987246],[-83.307507,37.986969],[-83.307221,37.98646],[-83.306162,37.984697]]}},{"type":"Feature","properties":{"osm_id":16320016,"highway":"residential","name":"Dyer Branch Road","alt_name":null,"official_name":null,"surface":null,"tracktype":null,"service":null,"access":null,"motor_vehicle":null,"foot":null,"tiger_reviewed":"no","rrgh_part":0,"rrgh_tile_part":0},"geometry":{"type":"LineString","coordinates":[[-83.279026,37.97751],[-83.278808,37.977061],[-83.278665,37.976806],[-83.278612,37.976744],[-83.27854,37.976702],[-83.278451,37.976687],[-83.278358,37.97669],[-83.278264,37.976716],[-83.277964,37.976833],[-83.277843,37.976879],[-83.277622,37.976985],[-83.277202,37.977212],[-83.276592,37.977627],[-83.276492,37.977712],[-83.276216,37.977987],[-83.275663,37.978401],[-83.275403,37.97865],[-83.27526,37.978837],[-83.27504,37.979232],[-83.274977,37.979319],[-83.274894,37.979388],[-83.274787,37.979426],[-83.27374,37.979724],[-83.273062,37.979975],[-83.272938,37.980008],[-83.272745,37.980043],[-83.272688,37.980063],[-83.272564,37.980122],[-83.272162,37.980354],[-83.271595,37.980627],[-83.271446,37.980684],[-83.271377,37.980722],[-83.271083,37.980935],[-83.271019,37.98097],[-83.270872,37.981024],[-83.270424,37.981136],[-83.269884,37.981321],[-83.269753,37.98139],[-83.269549,37.981547],[-83.269527,37.981564],[-83.269334,37.981657],[-83.269109,37.981719],[-83.268957,37.981748],[-83.268805,37.981762],[-83.268422,37.981766],[-83.268268,37.981783],[-83.267886,37.981868],[-83.267613,37.981969],[-83.267364,37.982138],[-83.267273,37.982236],[-83.267037,37.982606],[-83.266451,37.983362],[-83.266394,37.983419],[-83.265473,37.984171],[-83.264886,37.984606],[-83.264605,37.98487],[-83.264398,37.985049],[-83.264143,37.985221],[-83.263628,37.985526],[-83.263462,37.985614],[-83.263278,37.985691],[-83.263117,37.985783],[-83.262831,37.985994],[-83.26263,37.986167],[-83.261944,37.986715],[-83.261775,37.986809],[-83.261647,37.986852],[-83.261491,37.986904],[-83.26131,37.98699],[-83.261025,37.98716],[-83.260909,37.987277],[-83.260744,37.987582],[-83.260614,37.987891],[-83.260566,37.988036],[-83.260515,37.988128],[-83.260413,37.988193],[-83.259898,37.988378],[-83.259506,37.988576],[-83.259397,37.988682],[-83.259352,37.988804],[-83.259343,37.98886],[-83.259311,37.98906],[-83.259271,37.989147],[-83.259217,37.989221],[-83.259107,37.989328],[-83.258572,37.989729],[-83.258115,37.990027],[-83.257955,37.990162],[-83.257641,37.990519],[-83.25749,37.990656],[-83.257247,37.991045],[-83.257112,37.991184],[-83.257005,37.991261],[-83.256821,37.991346],[-83.256763,37.991384],[-83.256663,37.99145],[-83.256566,37.991532],[-83.256519,37.991589],[-83.256489,37.991626],[-83.256445,37.991657],[-83.256277,37.991731],[-83.256231,37.991731]]}},{"type":"Feature","properties":{"osm_id":16322798,"highway":"residential","name":"Old Wrigley Road","alt_name":null,"official_name":null,"surface":null,"tracktype":null,"service":null,"access":null,"motor_vehicle":null,"foot":null,"tiger_reviewed":"no","rrgh_part":0,"rrgh_tile_part":0},"geometry":{"type":"LineString","coordinates":[[-83.276275,37.991771],[-83.275802,37.991664],[-83.275665,37.991644],[-83.275565,37.991629],[-83.275439,37.99162],[-83.27517,37.991628],[-83.274853,37.991683],[-83.274571,37.991761],[-83.274274,37.991874],[-83.273988,37.992007],[-83.273716,37.992156],[-83.273592,37.99224],[-83.273364,37.99244],[-83.273177,37.992667],[-83.273112,37.992798],[-83.273063,37.992933],[-83.273013,37.993214],[-83.273056,37.993859],[-83.273127,37.994366],[-83.273203,37.995038],[-83.273259,37.995365],[-83.273299,37.995859],[-83.273299,37.996196],[-83.273259,37.99653],[-83.273218,37.99669],[-83.273058,37.99719],[-83.272844,37.997693],[-83.272645,37.998226],[-83.272562,37.998405],[-83.272501,37.998598],[-83.271653,38.000771],[-83.271536,38.001139],[-83.271448,38.001498],[-83.27142,38.001679],[-83.27138,38.002213],[-83.271379,38.002393],[-83.271337,38.002765],[-83.27122,38.003092],[-83.271137,38.003255],[-83.270814,38.003714],[-83.270691,38.003862],[-83.270553,38.004001],[-83.270406,38.004129],[-83.270096,38.004343],[-83.269878,38.004468],[-83.269789,38.004522],[-83.269658,38.004621],[-83.269547,38.004738],[-83.26946,38.00487],[-83.269399,38.005013],[-83.269362,38.005166],[-83.269342,38.005327],[-83.269324,38.005661],[-83.269336,38.005989],[-83.269366,38.006154],[-83.269432,38.006314],[-83.269524,38.006462],[-83.269848,38.006887],[-83.269956,38.007199],[-83.26998,38.007352],[-83.26998,38.007496],[-83.269996,38.007634],[-83.270031,38.007762],[-83.270088,38.007874],[-83.27017,38.007962],[-83.270278,38.008028],[-83.270414,38.008064],[-83.270563,38.008069],[-83.270716,38.008045],[-83.270863,38.00799],[-83.270998,38.007911],[-83.271124,38.007817],[-83.271727,38.007258],[-83.271833,38.00717],[-83.272166,38.007058],[-83.272357,38.007048],[-83.272521,38.007051],[-83.272705,38.007069],[-83.272892,38.007114],[-83.273071,38.007172],[-83.273245,38.007246],[-83.273403,38.007333],[-83.273534,38.007432],[-83.273643,38.007546],[-83.273722,38.007672],[-83.273771,38.007811],[-83.273782,38.007959],[-83.273765,38.008112],[-83.273563,38.008778],[-83.273488,38.00896],[-83.273015,38.010353],[-83.27272,38.011332],[-83.272546,38.012148],[-83.272347,38.013209],[-83.272118,38.014433]]}},{"type":"Feature","properties":{"osm_id":16322756,"highway":"residential","name":"Kendall Hill Road","alt_name":null,"official_name":null,"surface":null,"tracktype":null,"service":null,"access":null,"motor_vehicle":null,"foot":null,"tiger_reviewed":"no","rrgh_part":0,"rrgh_tile_part":0},"geometry":{"type":"LineString","coordinates":[[-83.279669,37.986345],[-83.27973,37.986479],[-83.27976,37.98658],[-83.279891,37.987179],[-83.279964,37.987316],[-83.280108,37.987491],[-83.280388,37.987772],[-83.280768,37.988187],[-83.281599,37.98891],[-83.28209,37.98938],[-83.282278,37.989516],[-83.282384,37.989577],[-83.28279,37.989852],[-83.283045,37.990041],[-83.283192,37.990198],[-83.283249,37.990291],[-83.283287,37.990386],[-83.283308,37.990481],[-83.283332,37.99075],[-83.283355,37.990833],[-83.283506,37.991077],[-83.283655,37.991209],[-83.283826,37.991324],[-83.284288,37.991564],[-83.284466,37.991652],[-83.284539,37.991708],[-83.284606,37.991776],[-83.284687,37.991887],[-83.284754,37.992003],[-83.284785,37.99208],[-83.284856,37.992257]]}},{"type":"Feature","properties":{"osm_id":16318679,"highway":"residential","name":"Howard Cemetery Road","alt_name":null,"official_name":null,"surface":null,"tracktype":null,"service":null,"access":null,"motor_vehicle":null,"foot":null,"tiger_reviewed":"no","rrgh_part":0,"rrgh_tile_part":0},"geometry":{"type":"LineString","coordinates":[[-83.308544,37.988235],[-83.308409,37.988415],[-83.308367,37.988505],[-83.30834,37.988606],[-83.308201,37.98948],[-83.308192,37.989614],[-83.308196,37.989782],[-83.308172,37.989959],[-83.308085,37.990161],[-83.307901,37.990489],[-83.30777,37.990821],[-83.307665,37.991041],[-83.307638,37.991151],[-83.307635,37.991299]]}},{"type":"Feature","properties":{"osm_id":16317941,"highway":"residential","name":null,"alt_name":null,"official_name":null,"surface":null,"tracktype":null,"service":null,"access":null,"motor_vehicle":null,"foot":null,"tiger_reviewed":"no","rrgh_part":0,"rrgh_tile_part":0},"geometry":{"type":"LineString","coordinates":[[-83.306005,37.997561],[-83.306367,37.997865],[-83.3064,37.997916],[-83.306646,37.998303],[-83.306878,37.998742],[-83.307342,37.998888]]}},{"type":"Feature","properties":{"osm_id":16318314,"highway":"residential","name":null,"alt_name":null,"official_name":null,"surface":null,"tracktype":null,"service":null,"access":null,"motor_vehicle":null,"foot":null,"tiger_reviewed":"no","rrgh_part":0,"rrgh_tile_part":0},"geometry":{"type":"LineString","coordinates":[[-83.3064,37.997916],[-83.306135,37.998266]]}},{"type":"Feature","properties":{"osm_id":16318403,"highway":"residential","name":null,"alt_name":null,"official_name":null,"surface":null,"tracktype":null,"service":null,"access":null,"motor_vehicle":null,"foot":null,"tiger_reviewed":"no","rrgh_part":0,"rrgh_tile_part":0},"geometry":{"type":"LineString","coordinates":[[-83.302497,37.998437],[-83.302046,37.998276],[-83.301884,37.998265],[-83.300551,37.998077],[-83.299447,37.99756],[-83.29874,37.997072],[-83.298295,37.996809],[-83.298135,37.996666],[-83.297778,37.996507]]}},{"type":"Feature","properties":{"osm_id":16317776,"highway":"residential","name":null,"alt_name":null,"official_name":null,"surface":null,"tracktype":null,"service":null,"access":null,"motor_vehicle":null,"foot":null,"tiger_reviewed":"no","rrgh_part":0,"rrgh_tile_part":0},"geometry":{"type":"LineString","coordinates":[[-83.277746,37.97784],[-83.277948,37.976896],[-83.27778,37.977025],[-83.277493,37.977214],[-83.277253,37.977355],[-83.277193,37.977422],[-83.277176,37.97746],[-83.277177,37.977545],[-83.277236,37.977669],[-83.27731,37.977786],[-83.277371,37.977858],[-83.277438,37.977917],[-83.277538,37.977959],[-83.277619,37.977957],[-83.277671,37.97793],[-83.277746,37.97784]]}},{"type":"Feature","properties":{"osm_id":16318013,"highway":"residential","name":null,"alt_name":null,"official_name":null,"surface":null,"tracktype":null,"service":null,"access":null,"motor_vehicle":null,"foot":null,"tiger_reviewed":"no","rrgh_part":0,"rrgh_tile_part":0},"geometry":{"type":"LineString","coordinates":[[-83.279583,37.978018],[-83.279667,37.978047]]}},{"type":"Feature","properties":{"osm_id":16318082,"highway":"residential","name":null,"alt_name":null,"official_name":null,"surface":null,"tracktype":null,"service":null,"access":null,"motor_vehicle":null,"foot":null,"tiger_reviewed":"no","rrgh_part":0,"rrgh_tile_part":0},"geometry":{"type":"LineString","coordinates":[[-83.277948,37.976896],[-83.277964,37.976833]]}},{"type":"Feature","properties":{"osm_id":16318576,"highway":"residential","name":"Dyersbranch Road","alt_name":null,"official_name":null,"surface":null,"tracktype":null,"service":null,"access":null,"motor_vehicle":null,"foot":null,"tiger_reviewed":"no","rrgh_part":0,"rrgh_tile_part":0},"geometry":{"type":"LineString","coordinates":[[-83.279503,37.97778],[-83.279398,37.977807],[-83.27932,37.977815],[-83.279266,37.977809],[-83.27921,37.97779],[-83.27916,37.977755],[-83.279091,37.977644],[-83.279026,37.97751]]}},{"type":"Feature","properties":{"osm_id":16319759,"highway":"residential","name":"Parks Cemetery Road","alt_name":null,"official_name":null,"surface":null,"tracktype":null,"service":null,"access":null,"motor_vehicle":null,"foot":null,"tiger_reviewed":"no","rrgh_part":0,"rrgh_tile_part":0},"geometry":{"type":"LineString","coordinates":[[-83.274853,37.991683],[-83.274799,37.991653],[-83.274748,37.991643],[-83.274658,37.991645],[-83.274497,37.991667],[-83.274314,37.991713],[-83.274144,37.99179],[-83.27391,37.991918],[-83.273767,37.99198],[-83.273579,37.992066],[-83.273374,37.992185],[-83.273294,37.992255],[-83.273136,37.992423],[-83.27298,37.992522],[-83.272755,37.992721],[-83.27266,37.992772],[-83.272632,37.992787],[-83.272435,37.992827],[-83.272326,37.992829],[-83.272209,37.992808],[-83.27216,37.992791],[-83.272069,37.992741],[-83.271869,37.992579],[-83.271851,37.992568]]}},{"type":"Feature","properties":{"osm_id":16322323,"highway":"residential","name":"Deep Creek Lane","alt_name":null,"official_name":null,"surface":null,"tracktype":null,"service":null,"access":null,"motor_vehicle":null,"foot":null,"tiger_reviewed":"no","rrgh_part":0,"rrgh_tile_part":0},"geometry":{"type":"LineString","coordinates":[[-83.274748,37.991643],[-83.274859,37.991582],[-83.27534,37.991274],[-83.275415,37.991231],[-83.275813,37.991006],[-83.27588,37.990978]]}},{"type":"Feature","properties":{"osm_id":16318463,"highway":"service","name":"Deep Creek Road","alt_name":null,"official_name":null,"surface":null,"tracktype":null,"service":null,"access":"private","motor_vehicle":null,"foot":null,"tiger_reviewed":"no","rrgh_part":0,"rrgh_tile_part":0},"geometry":{"type":"LineString","coordinates":[[-83.269526,37.993388],[-83.269679,37.993189],[-83.269803,37.993091],[-83.269893,37.993057],[-83.270181,37.992997],[-83.270314,37.99295],[-83.270506,37.992862],[-83.270787,37.992691],[-83.270948,37.992605],[-83.271123,37.992528],[-83.271238,37.992489],[-83.271393,37.992473],[-83.271648,37.992498],[-83.271744,37.992519],[-83.271851,37.992568]]}},{"type":"Feature","properties":{"osm_id":16322923,"highway":"residential","name":"Cemetery Hill Lane","alt_name":null,"official_name":null,"surface":null,"tracktype":null,"service":null,"access":null,"motor_vehicle":null,"foot":null,"tiger_reviewed":"no","rrgh_part":0,"rrgh_tile_part":0},"geometry":{"type":"LineString","coordinates":[[-83.275947,37.992789],[-83.276055,37.992778],[-83.276085,37.992775],[-83.276182,37.992747],[-83.276232,37.992715],[-83.276334,37.992613],[-83.276377,37.992543],[-83.276488,37.992299],[-83.276586,37.992125],[-83.27705,37.991351]]}},{"type":"Feature","properties":{"osm_id":16318298,"highway":"residential","name":null,"alt_name":null,"official_name":null,"surface":null,"tracktype":null,"service":null,"access":null,"motor_vehicle":null,"foot":null,"tiger_reviewed":"no","rrgh_part":0,"rrgh_tile_part":0},"geometry":{"type":"LineString","coordinates":[[-83.291542,38.017178],[-83.293299,38.017085],[-83.293617,38.01707],[-83.293914,38.01695],[-83.294401,38.016757],[-83.295036,38.016668],[-83.295576,38.016525],[-83.296095,38.01638],[-83.296824,38.016261],[-83.297461,38.016277]]}},{"type":"Feature","properties":{"osm_id":16320899,"highway":"residential","name":"Big Lick Road","alt_name":null,"official_name":null,"surface":null,"tracktype":null,"service":null,"access":null,"motor_vehicle":null,"foot":null,"tiger_reviewed":"no","rrgh_part":0,"rrgh_tile_part":0},"geometry":{"type":"LineString","coordinates":[[-83.301116,38.030206],[-83.300929,38.027052],[-83.300803,38.024937]]}},{"type":"Feature","properties":{"osm_id":16321281,"highway":"residential","name":"Old Big Lick East Road","alt_name":null,"official_name":null,"surface":null,"tracktype":null,"service":null,"access":null,"motor_vehicle":null,"foot":null,"tiger_reviewed":"no","rrgh_part":0,"rrgh_tile_part":0},"geometry":{"type":"LineString","coordinates":[[-83.290195,38.028375],[-83.290228,38.028379],[-83.290278,38.028405],[-83.290416,38.028536],[-83.290479,38.028575],[-83.290555,38.028598],[-83.290639,38.028599],[-83.290726,38.028575],[-83.290812,38.028531],[-83.290885,38.02847],[-83.290945,38.028398],[-83.291056,38.028201],[-83.291119,38.028074],[-83.291188,38.02797],[-83.291238,38.027915],[-83.291389,38.027813],[-83.291574,38.027717],[-83.291833,38.027549],[-83.291897,38.027469],[-83.29206,38.027193],[-83.292221,38.027028],[-83.29252,38.026799],[-83.292838,38.026616],[-83.293052,38.026547],[-83.293424,38.026582],[-83.293667,38.026749],[-83.293858,38.026954],[-83.293923,38.027059],[-83.29408,38.02738],[-83.294122,38.027432],[-83.294202,38.027485],[-83.294257,38.027507],[-83.294386,38.027528],[-83.294452,38.027523],[-83.294581,38.027489],[-83.294704,38.027437],[-83.294763,38.027402],[-83.295134,38.027133],[-83.295722,38.026665],[-83.296105,38.026393],[-83.296326,38.026193],[-83.296457,38.026],[-83.296519,38.025868],[-83.296571,38.025756],[-83.296593,38.025709],[-83.296695,38.02549],[-83.297161,38.024972],[-83.297352,38.024752]]}},{"type":"Feature","properties":{"osm_id":16322318,"highway":"residential","name":"Darrell Black Road","alt_name":null,"official_name":null,"surface":null,"tracktype":null,"service":null,"access":null,"motor_vehicle":null,"foot":null,"tiger_reviewed":"no","rrgh_part":0,"rrgh_tile_part":0},"geometry":{"type":"LineString","coordinates":[[-83.307052,38.026452],[-83.307105,38.026501],[-83.307134,38.026551],[-83.307132,38.026661],[-83.307069,38.026809],[-83.306929,38.027025],[-83.306906,38.02712],[-83.306905,38.027159],[-83.306903,38.02724],[-83.306928,38.027378],[-83.306954,38.027454],[-83.307053,38.02767],[-83.307103,38.027811],[-83.307133,38.027956],[-83.307162,38.028271],[-83.307199,38.028427],[-83.307249,38.028573],[-83.307362,38.029051],[-83.30735,38.029404],[-83.307321,38.029553],[-83.307351,38.029701],[-83.30746,38.029924],[-83.307703,38.030343],[-83.307846,38.030529],[-83.307998,38.030685],[-83.308286,38.031023],[-83.308395,38.03116],[-83.308525,38.031362],[-83.308602,38.031512],[-83.308651,38.031675],[-83.308661,38.031825],[-83.308633,38.031972],[-83.308593,38.032042],[-83.308273,38.032388],[-83.308141,38.03255],[-83.308089,38.032637],[-83.308052,38.03273],[-83.307856,38.033386],[-83.307768,38.033588],[-83.307703,38.033645],[-83.307468,38.033768]]}},{"type":"Feature","properties":{"osm_id":16317990,"highway":"service","name":null,"alt_name":null,"official_name":null,"surface":null,"tracktype":null,"service":null,"access":"private","motor_vehicle":null,"foot":null,"tiger_reviewed":"no","rrgh_part":0,"rrgh_tile_part":0},"geometry":{"type":"LineString","coordinates":[[-83.309124,38.024677],[-83.309097,38.02451],[-83.309101,38.024452],[-83.308969,38.024167],[-83.308845,38.023888],[-83.308742,38.023579],[-83.308731,38.023315],[-83.308751,38.023067],[-83.30874,38.022803],[-83.308597,38.022572]]}},{"type":"Feature","properties":{"osm_id":16317929,"highway":"residential","name":null,"alt_name":null,"official_name":null,"surface":null,"tracktype":null,"service":null,"access":null,"motor_vehicle":null,"foot":null,"tiger_reviewed":"no","rrgh_part":0,"rrgh_tile_part":0},"geometry":{"type":"LineString","coordinates":[[-83.300929,38.027052],[-83.299316,38.026253]]}},{"type":"Feature","properties":{"osm_id":16317931,"highway":"residential","name":null,"alt_name":null,"official_name":null,"surface":null,"tracktype":null,"service":null,"access":null,"motor_vehicle":null,"foot":null,"tiger_reviewed":"no","rrgh_part":0,"rrgh_tile_part":0},"geometry":{"type":"LineString","coordinates":[[-83.27321,38.019346],[-83.273618,38.019029],[-83.274131,38.01864],[-83.27442,38.018551],[-83.274854,38.018577],[-83.275289,38.018763],[-83.275896,38.019342],[-83.27659,38.020336],[-83.276619,38.020498],[-83.27714,38.021006],[-83.277661,38.021285],[-83.27896,38.021732],[-83.279981,38.022066],[-83.281962,38.023219],[-83.283099,38.024147],[-83.28371,38.024531],[-83.285021,38.025049],[-83.285661,38.024931],[-83.286127,38.024652]]}},{"type":"Feature","properties":{"osm_id":16320584,"highway":"residential","name":"Rockhouse Branch Road","alt_name":null,"official_name":null,"surface":null,"tracktype":null,"service":null,"access":null,"motor_vehicle":null,"foot":null,"tiger_reviewed":"no","rrgh_part":0,"rrgh_tile_part":0},"geometry":{"type":"LineString","coordinates":[[-83.290195,38.028375],[-83.290126,38.028291],[-83.289618,38.02776],[-83.289295,38.027471],[-83.288679,38.027069],[-83.288224,38.026831],[-83.288076,38.026741],[-83.287927,38.026631],[-83.287762,38.026449],[-83.287653,38.025993],[-83.287599,38.025904],[-83.287533,38.025825],[-83.287225,38.025543],[-83.286975,38.025378],[-83.286807,38.025247],[-83.286732,38.02517],[-83.286561,38.024942],[-83.28651,38.02489],[-83.286398,38.024821],[-83.286204,38.02474],[-83.286157,38.024699],[-83.286127,38.024652],[-83.286117,38.024598],[-83.286123,38.024542],[-83.286301,38.023853],[-83.286385,38.023622],[-83.286458,38.023497],[-83.286555,38.023391],[-83.286668,38.0233],[-83.287012,38.023082],[-83.287089,38.023008],[-83.287311,38.02275],[-83.287535,38.022518],[-83.287681,38.022343],[-83.287847,38.022204],[-83.287947,38.022103],[-83.288041,38.021943],[-83.288212,38.021579],[-83.288378,38.021263],[-83.288464,38.021168],[-83.288583,38.021036],[-83.288962,38.020705],[-83.288994,38.020678],[-83.289158,38.020507],[-83.289213,38.020398],[-83.289309,38.020106],[-83.289429,38.019871],[-83.289773,38.019465],[-83.289826,38.019388],[-83.289948,38.019114],[-83.290077,38.018945],[-83.29017,38.018854],[-83.290287,38.01867],[-83.290332,38.018629],[-83.290448,38.018559],[-83.290562,38.018459],[-83.290804,38.018193],[-83.291179,38.017811],[-83.291262,38.017707],[-83.291358,38.017496],[-83.291542,38.017178],[-83.291634,38.017018],[-83.291652,38.016968],[-83.291656,38.016904],[-83.291658,38.01687],[-83.291638,38.016664],[-83.291634,38.016624],[-83.29152,38.016249],[-83.291262,38.014989]]}},{"type":"Feature","properties":{"osm_id":16322033,"highway":"residential","name":"Edmond Lewis Cemetery Road","alt_name":null,"official_name":null,"surface":null,"tracktype":null,"service":null,"access":null,"motor_vehicle":null,"foot":null,"tiger_reviewed":"no","rrgh_part":0,"rrgh_tile_part":0},"geometry":{"type":"LineString","coordinates":[[-83.290126,38.028291],[-83.290122,38.028232],[-83.29008,38.028129],[-83.28986,38.027851],[-83.289714,38.027612],[-83.289626,38.027518],[-83.289454,38.027363],[-83.289404,38.02731],[-83.289363,38.027244],[-83.289352,38.027121],[-83.289368,38.02705],[-83.289445,38.026915],[-83.28954,38.026701],[-83.289581,38.026633],[-83.289721,38.026459],[-83.289815,38.026218],[-83.289849,38.026097],[-83.289863,38.025816],[-83.289821,38.025476],[-83.289802,38.025396],[-83.289742,38.025283],[-83.289628,38.025176],[-83.289492,38.025077],[-83.289205,38.024917],[-83.28914,38.024861],[-83.289085,38.024795],[-83.288876,38.0244],[-83.2887,38.023974],[-83.288563,38.023773],[-83.288421,38.023521],[-83.288354,38.023448],[-83.288298,38.023421]]}},{"type":"Feature","properties":{"osm_id":16317690,"highway":"service","name":null,"alt_name":null,"official_name":null,"surface":null,"tracktype":null,"service":null,"access":"private","motor_vehicle":null,"foot":null,"tiger_reviewed":"no","rrgh_part":0,"rrgh_tile_part":0},"geometry":{"type":"LineString","coordinates":[[-83.275018,38.007585],[-83.274415,38.007477],[-83.27433,38.007474]]}},{"type":"Feature","properties":{"osm_id":1374152299,"highway":"service","name":null,"alt_name":null,"official_name":null,"surface":"asphalt","tracktype":null,"service":null,"access":null,"motor_vehicle":null,"foot":null,"tiger_reviewed":null,"rrgh_part":0,"rrgh_tile_part":0},"geometry":{"type":"LineString","coordinates":[[-83.2752959,38.0030454],[-83.2753129,38.0027808],[-83.2753162,38.0027303],[-83.2753221,38.0024398],[-83.2752976,38.0023445],[-83.2752508,38.0022882],[-83.2752017,38.0022549],[-83.2751104,38.0022258],[-83.2746347,38.0021663],[-83.2745216,38.0021587],[-83.2743965,38.002184],[-83.2743143,38.002232],[-83.2742589,38.002294],[-83.2742332,38.0023769],[-83.2742272,38.0027989],[-83.2742242,38.0030131],[-83.2742363,38.0030575],[-83.2742701,38.0031],[-83.274335,38.003134],[-83.2744165,38.00315],[-83.2744928,38.0031496],[-83.2745494,38.0031321],[-83.2747333,38.0030546],[-83.2748258,38.0030389],[-83.2750493,38.0030294],[-83.2752959,38.0030454]]}},{"type":"Feature","properties":{"osm_id":1374152300,"highway":"service","name":null,"alt_name":null,"official_name":null,"surface":"asphalt","tracktype":null,"service":null,"access":null,"motor_vehicle":null,"foot":null,"tiger_reviewed":null,"rrgh_part":0,"rrgh_tile_part":0},"geometry":{"type":"LineString","coordinates":[[-83.2759555,38.0038492],[-83.2755868,38.003814],[-83.275452,38.0037742],[-83.2753687,38.003729],[-83.2753046,38.0036506],[-83.2752758,38.0035839],[-83.2752692,38.0035203],[-83.27529,38.0031363],[-83.2752959,38.0030454]]}},{"type":"Feature","properties":{"osm_id":1374152301,"highway":"service","name":null,"alt_name":null,"official_name":null,"surface":"asphalt","tracktype":null,"service":null,"access":null,"motor_vehicle":null,"foot":null,"tiger_reviewed":null,"rrgh_part":0,"rrgh_tile_part":0},"geometry":{"type":"LineString","coordinates":[[-83.2742272,38.0027989],[-83.2744851,38.0027988]]}},{"type":"Feature","properties":{"osm_id":1374152301,"highway":"service","name":null,"alt_name":null,"official_name":null,"surface":"asphalt","tracktype":null,"service":null,"access":null,"motor_vehicle":null,"foot":null,"tiger_reviewed":null,"rrgh_part":1,"rrgh_tile_part":0},"geometry":{"type":"LineString","coordinates":[[-83.2744851,38.0027988],[-83.2746948,38.0027987],[-83.2749061,38.0027986],[-83.2750733,38.0027986],[-83.2751037,38.0027896],[-83.2751095,38.0027726],[-83.2751107,38.0024313],[-83.2751061,38.0024029],[-83.2750896,38.0023868],[-83.2750599,38.0023781],[-83.2749035,38.0023775],[-83.2746912,38.0023767],[-83.2745557,38.0023762],[-83.2745211,38.0023839],[-83.2744887,38.0024056],[-83.2744814,38.0024488],[-83.2744851,38.0027988]]}},{"type":"Feature","properties":{"osm_id":1374152304,"highway":"service","name":null,"alt_name":null,"official_name":null,"surface":"asphalt","tracktype":null,"service":null,"access":null,"motor_vehicle":null,"foot":null,"tiger_reviewed":null,"rrgh_part":0,"rrgh_tile_part":0},"geometry":{"type":"LineString","coordinates":[[-83.2753129,38.0027808],[-83.2751095,38.0027726]]}},{"type":"Feature","properties":{"osm_id":1374152305,"highway":"service","name":null,"alt_name":null,"official_name":null,"surface":"asphalt","tracktype":null,"service":null,"access":null,"motor_vehicle":null,"foot":null,"tiger_reviewed":null,"rrgh_part":0,"rrgh_tile_part":0},"geometry":{"type":"LineString","coordinates":[[-83.2761937,38.0016094],[-83.2744097,38.0014172],[-83.2742221,38.0014107],[-83.2740422,38.0014292],[-83.2739519,38.0014683],[-83.2738951,38.0015109]]}},{"type":"Feature","properties":{"osm_id":1374152306,"highway":"service","name":null,"alt_name":null,"official_name":null,"surface":"asphalt","tracktype":null,"service":null,"access":null,"motor_vehicle":null,"foot":null,"tiger_reviewed":null,"rrgh_part":0,"rrgh_tile_part":0},"geometry":{"type":"LineString","coordinates":[[-83.2738951,38.0015109],[-83.2737901,38.0015048],[-83.2736458,38.0015135],[-83.273496,38.001563],[-83.2734052,38.0016499],[-83.2733565,38.0017345],[-83.2733381,38.0018568],[-83.2733316,38.0022136],[-83.2733572,38.0023709],[-83.2734183,38.0024678],[-83.2734695,38.0025067],[-83.2735567,38.0025249],[-83.2738399,38.0025271],[-83.2739179,38.0025036],[-83.2739811,38.0024545],[-83.2740223,38.0023783],[-83.2740443,38.0022824],[-83.2740486,38.0017535],[-83.274032,38.0016452],[-83.2739887,38.0015764],[-83.2738951,38.0015109]]}},{"type":"Feature","properties":{"osm_id":16320319,"highway":"residential","name":"Whitt Road","alt_name":null,"official_name":null,"surface":null,"tracktype":null,"service":null,"access":null,"motor_vehicle":null,"foot":null,"tiger_reviewed":"no","rrgh_part":0,"rrgh_tile_part":0},"geometry":{"type":"LineString","coordinates":[[-83.273442,38.011626],[-83.273869,38.011682],[-83.274019,38.011715],[-83.274079,38.011739],[-83.274361,38.011853],[-83.274556,38.011911],[-83.27466,38.011933],[-83.274861,38.011956],[-83.275081,38.011962],[-83.275166,38.011973],[-83.275281,38.012],[-83.2755,38.012083],[-83.276088,38.012161],[-83.276313,38.012215],[-83.276655,38.012282],[-83.276701,38.012274],[-83.276807,38.012284],[-83.277291,38.012359],[-83.277538,38.01237],[-83.277786,38.012416],[-83.27802,38.012473],[-83.27827,38.012552],[-83.278573,38.012602],[-83.278728,38.012661],[-83.278868,38.012727],[-83.27912,38.012873],[-83.279361,38.01304],[-83.279665,38.013204],[-83.279824,38.013279]]}},{"type":"Feature","properties":{"osm_id":16321514,"highway":"residential","name":"Patrick Cemetery Road","alt_name":null,"official_name":null,"surface":null,"tracktype":null,"service":null,"access":null,"motor_vehicle":null,"foot":null,"tiger_reviewed":"no","rrgh_part":0,"rrgh_tile_part":0},"geometry":{"type":"LineString","coordinates":[[-83.269878,38.004468],[-83.27016,38.004505]]}},{"type":"Feature","properties":{"osm_id":16321516,"highway":"service","name":"Patrick Cemetery Road","alt_name":null,"official_name":null,"surface":null,"tracktype":null,"service":null,"access":"private","motor_vehicle":null,"foot":null,"tiger_reviewed":"no","rrgh_part":0,"rrgh_tile_part":0},"geometry":{"type":"LineString","coordinates":[[-83.276197,38.001564],[-83.276541,38.001621],[-83.276604,38.001647],[-83.27666,38.001687],[-83.276704,38.001738],[-83.276732,38.001797],[-83.276785,38.002054],[-83.276851,38.00218],[-83.2769,38.002236],[-83.277023,38.002325],[-83.277142,38.00238],[-83.277231,38.002407],[-83.27728,38.002408],[-83.277308,38.002399]]}},{"type":"Feature","properties":{"osm_id":16322800,"highway":"residential","name":"Old Wrigley Road","alt_name":null,"official_name":null,"surface":null,"tracktype":null,"service":null,"access":null,"motor_vehicle":null,"foot":null,"tiger_reviewed":"no","rrgh_part":0,"rrgh_tile_part":0},"geometry":{"type":"LineString","coordinates":[[-83.276272,38.006277],[-83.276253,38.006302],[-83.276136,38.006396],[-83.276068,38.006422],[-83.276036,38.006477],[-83.27601,38.006534],[-83.275998,38.006599],[-83.275988,38.006724],[-83.275975,38.006899],[-83.275939,38.007078],[-83.275873,38.007245],[-83.275828,38.007325],[-83.275714,38.007477],[-83.275354,38.007858],[-83.275246,38.007945],[-83.275188,38.007973],[-83.275083,38.007998],[-83.274879,38.00798]]}},{"type":"Feature","properties":{"osm_id":16317691,"highway":"service","name":null,"alt_name":null,"official_name":null,"surface":null,"tracktype":null,"service":null,"access":"private","motor_vehicle":null,"foot":null,"tiger_reviewed":"no","rrgh_part":0,"rrgh_tile_part":0},"geometry":{"type":"LineString","coordinates":[[-83.274595,38.008728],[-83.275118,38.008922],[-83.275261,38.008981],[-83.275381,38.009044],[-83.275483,38.009124],[-83.27571,38.009361],[-83.275842,38.009444]]}},{"type":"Feature","properties":{"osm_id":16319778,"highway":"residential","name":"Cr-1485","alt_name":null,"official_name":null,"surface":null,"tracktype":null,"service":null,"access":null,"motor_vehicle":null,"foot":null,"tiger_reviewed":"no","rrgh_part":0,"rrgh_tile_part":0},"geometry":{"type":"LineString","coordinates":[[-83.274338,38.009366],[-83.274598,38.009475],[-83.274781,38.009574],[-83.274892,38.009666],[-83.274956,38.009772],[-83.274963,38.009831],[-83.274947,38.00989],[-83.274805,38.010149],[-83.274708,38.010369],[-83.274686,38.010461],[-83.27468,38.010506],[-83.274688,38.010523]]}},{"type":"Feature","properties":{"osm_id":16320217,"highway":"service","name":"Fred Ratliff Road","alt_name":null,"official_name":null,"surface":null,"tracktype":null,"service":null,"access":"private","motor_vehicle":null,"foot":null,"tiger_reviewed":"no","rrgh_part":0,"rrgh_tile_part":0},"geometry":{"type":"LineString","coordinates":[[-83.272175,38.011478],[-83.272197,38.011398],[-83.27224,38.011316],[-83.272316,38.011229],[-83.272478,38.011128],[-83.272614,38.010972],[-83.272678,38.010858],[-83.272719,38.010745],[-83.272752,38.010592],[-83.27282,38.010442],[-83.272859,38.010403],[-83.272941,38.010357],[-83.273015,38.010353]]}},{"type":"Feature","properties":{"osm_id":16321453,"highway":"residential","name":"Elam Cemetery Road","alt_name":null,"official_name":null,"surface":null,"tracktype":null,"service":null,"access":null,"motor_vehicle":null,"foot":null,"tiger_reviewed":"no","rrgh_part":0,"rrgh_tile_part":0},"geometry":{"type":"LineString","coordinates":[[-83.259105,38.011504],[-83.259147,38.011544],[-83.259184,38.011578]]}},{"type":"Feature","properties":{"osm_id":16318666,"highway":"residential","name":"Old State Hwy 7","alt_name":null,"official_name":null,"surface":null,"tracktype":null,"service":null,"access":null,"motor_vehicle":null,"foot":null,"tiger_reviewed":"no","rrgh_part":0,"rrgh_tile_part":0},"geometry":{"type":"LineString","coordinates":[[-83.272118,38.014433],[-83.271816,38.01605]]}},{"type":"Feature","properties":{"osm_id":16322799,"highway":"residential","name":"Old Wrigley Road","alt_name":null,"official_name":null,"surface":null,"tracktype":null,"service":null,"access":null,"motor_vehicle":null,"foot":null,"tiger_reviewed":"no","rrgh_part":0,"rrgh_tile_part":0},"geometry":{"type":"LineString","coordinates":[[-83.272118,38.014433],[-83.272498,38.014499]]}},{"type":"Feature","properties":{"osm_id":16317933,"highway":"residential","name":null,"alt_name":null,"official_name":null,"surface":null,"tracktype":null,"service":null,"access":null,"motor_vehicle":null,"foot":null,"tiger_reviewed":"no","rrgh_part":0,"rrgh_tile_part":0},"geometry":{"type":"LineString","coordinates":[[-83.27896,38.021732],[-83.282588,38.014664]]}},{"type":"Feature","properties":{"osm_id":16319529,"highway":"residential","name":"Hills Road","alt_name":null,"official_name":null,"surface":null,"tracktype":null,"service":null,"access":null,"motor_vehicle":null,"foot":null,"tiger_reviewed":"no","rrgh_part":0,"rrgh_tile_part":0},"geometry":{"type":"LineString","coordinates":[[-83.278234,38.021954],[-83.278016,38.022165],[-83.277822,38.022309],[-83.277492,38.022498],[-83.277196,38.022651],[-83.277011,38.022765],[-83.276956,38.022807],[-83.276925,38.022852],[-83.276912,38.022891],[-83.276932,38.022958]]}},{"type":"Feature","properties":{"osm_id":16322689,"highway":"residential","name":"Willie Adkins Road","alt_name":null,"official_name":null,"surface":null,"tracktype":null,"service":null,"access":null,"motor_vehicle":null,"foot":null,"tiger_reviewed":"no","rrgh_part":0,"rrgh_tile_part":0},"geometry":{"type":"LineString","coordinates":[[-83.270242,38.021451],[-83.270661,38.021824],[-83.270762,38.021897],[-83.270968,38.02201],[-83.27102,38.022078]]}},{"type":"Feature","properties":{"osm_id":16318786,"highway":"residential","name":"Ratliff Cemetery Road","alt_name":null,"official_name":null,"surface":null,"tracktype":null,"service":null,"access":null,"motor_vehicle":null,"foot":null,"tiger_reviewed":"no","rrgh_part":0,"rrgh_tile_part":0},"geometry":{"type":"LineString","coordinates":[[-83.267167,38.022474],[-83.267041,38.022778],[-83.266972,38.022999],[-83.267028,38.023212],[-83.267047,38.023286],[-83.267182,38.023488],[-83.267145,38.023776],[-83.267025,38.024006],[-83.267013,38.024347],[-83.266944,38.024716],[-83.266894,38.024989],[-83.26687,38.025239],[-83.266867,38.025546],[-83.266865,38.025663],[-83.266865,38.025826],[-83.266834,38.026089],[-83.266786,38.026251]]}},{"type":"Feature","properties":{"osm_id":169118199,"highway":"track","name":"Leisure Branch Road","alt_name":null,"official_name":null,"surface":null,"tracktype":null,"service":null,"access":null,"motor_vehicle":null,"foot":null,"tiger_reviewed":"no","rrgh_part":0,"rrgh_tile_part":0},"geometry":{"type":"LineString","coordinates":[[-83.305594,38.0453297],[-83.3059521,38.0452993],[-83.306223,38.04522],[-83.306283,38.045201],[-83.306471,38.045115],[-83.306834,38.044925],[-83.306955,38.044875],[-83.307095,38.044835],[-83.307397,38.04479],[-83.307609,38.044793],[-83.307924,38.044867],[-83.308375,38.045057],[-83.308482,38.04512],[-83.308654,38.045278],[-83.308767,38.045355],[-83.309283,38.045764],[-83.309593,38.045967],[-83.309697,38.04601],[-83.309784,38.046047],[-83.309942,38.046087],[-83.310735,38.046231],[-83.310988,38.04626],[-83.311143,38.046291],[-83.31164,38.046355],[-83.312274,38.04641],[-83.312698,38.046472],[-83.312862,38.046513],[-83.313158,38.046615],[-83.313354,38.046741],[-83.313424,38.04681],[-83.313668,38.047154],[-83.314144,38.048052],[-83.314247,38.048182],[-83.31475,38.048514],[-83.314786,38.048527],[-83.314906,38.048552],[-83.315198,38.048588],[-83.315962,38.048653],[-83.316157,38.048739],[-83.316396,38.048916],[-83.316503,38.048983],[-83.31659,38.049124],[-83.316637,38.049246],[-83.316653,38.04937],[-83.316631,38.049496],[-83.316619,38.049654],[-83.316537,38.049823],[-83.3163491632653,38.05]]}},{"type":"Feature","properties":{"osm_id":16319788,"highway":"residential","name":"Callahan Road","alt_name":null,"official_name":null,"surface":null,"tracktype":null,"service":null,"access":null,"motor_vehicle":null,"foot":null,"tiger_reviewed":"no","rrgh_part":0,"rrgh_tile_part":0},"geometry":{"type":"LineString","coordinates":[[-83.33500000000001,38.04428199474606],[-83.334733,38.044318],[-83.333793,38.044486],[-83.333631,38.044521],[-83.333316,38.044624],[-83.333152,38.044689],[-83.332707,38.0449],[-83.332543,38.044999],[-83.332436,38.045089],[-83.332345,38.045183],[-83.332062,38.0455289],[-83.332039,38.045557],[-83.331607,38.046058],[-83.331448,38.046289],[-83.33138,38.046413],[-83.331327,38.046542],[-83.33129,38.046674],[-83.331272,38.046806],[-83.331271,38.046935],[-83.331311,38.047306],[-83.331313,38.047427],[-83.3313,38.047544],[-83.331267,38.047652],[-83.331214,38.047749],[-83.331135,38.047834],[-83.331028,38.047903],[-83.330967,38.04793],[-83.330899,38.04796],[-83.330756,38.048009],[-83.330599,38.048045],[-83.330433,38.048067],[-83.330263,38.048071],[-83.330091,38.048061],[-83.329756,38.048023],[-83.3296,38.047999],[-83.329324,38.047937],[-83.32884,38.047796],[-83.328427,38.047641],[-83.328227,38.047553],[-83.327935,38.047424]]}},{"type":"Feature","properties":{"osm_id":970729184,"highway":"service","name":null,"alt_name":null,"official_name":null,"surface":null,"tracktype":null,"service":null,"access":null,"motor_vehicle":null,"foot":null,"tiger_reviewed":null,"rrgh_part":0,"rrgh_tile_part":0},"geometry":{"type":"LineString","coordinates":[[-83.33500000000001,38.04299733311519],[-83.334869,38.0428455],[-83.3345288,38.0426072]]}},{"type":"Feature","properties":{"osm_id":16319673,"highway":"service","name":"Brown Cemetery Road","alt_name":null,"official_name":null,"surface":null,"tracktype":null,"service":null,"access":null,"motor_vehicle":null,"foot":null,"tiger_reviewed":"no","rrgh_part":0,"rrgh_tile_part":0},"geometry":{"type":"LineString","coordinates":[[-83.331145,38.031282],[-83.33113,38.031337],[-83.3310392,38.0316345],[-83.330943,38.0317659],[-83.3308895,38.0317709],[-83.3305731,38.0317507],[-83.3302225,38.0316514],[-83.3299617,38.0316177],[-83.3297778,38.0316514],[-83.3296709,38.0317996],[-83.3292048,38.032069],[-83.3288328,38.0322879],[-83.3282043,38.0323957]]}},{"type":"Feature","properties":{"osm_id":16320343,"highway":"residential","name":null,"alt_name":null,"official_name":null,"surface":null,"tracktype":null,"service":null,"access":null,"motor_vehicle":null,"foot":null,"tiger_reviewed":"no","rrgh_part":0,"rrgh_tile_part":0},"geometry":{"type":"LineString","coordinates":[[-83.33500000000001,38.040208218009475],[-83.334945,38.040209],[-83.334533,38.040236],[-83.334275,38.040239],[-83.3341713,38.0402246],[-83.334074,38.040211],[-83.333778,38.040205],[-83.333601,38.040248],[-83.333521,38.040287],[-83.333231,38.040509],[-83.332993,38.040655],[-83.332928,38.040686],[-83.332903,38.040698],[-83.332836,38.040731],[-83.332698,38.040773],[-83.332634,38.040783],[-83.332519,38.040781],[-83.332404,38.040753],[-83.332049,38.040653],[-83.331796,38.040564],[-83.331688,38.040541],[-83.33167,38.04053]]}},{"type":"Feature","properties":{"osm_id":970665817,"highway":"service","name":null,"alt_name":null,"official_name":null,"surface":null,"tracktype":null,"service":null,"access":null,"motor_vehicle":null,"foot":null,"tiger_reviewed":null,"rrgh_part":0,"rrgh_tile_part":0},"geometry":{"type":"LineString","coordinates":[[-83.320521,38.031063],[-83.3207184,38.0310506],[-83.3209398,38.0310778],[-83.321187,38.0311412],[-83.3213279,38.031148],[-83.3220322,38.0310937],[-83.322472,38.0310937],[-83.3229435,38.0312703],[-83.3231303,38.0312725],[-83.3238893,38.0313518],[-83.3242199,38.0314537],[-83.3247028,38.0317503]]}},{"type":"Feature","properties":{"osm_id":970665818,"highway":"service","name":null,"alt_name":null,"official_name":null,"surface":null,"tracktype":null,"service":null,"access":null,"motor_vehicle":null,"foot":null,"tiger_reviewed":null,"rrgh_part":0,"rrgh_tile_part":0},"geometry":{"type":"LineString","coordinates":[[-83.3282043,38.0323957],[-83.3280431,38.0325057],[-83.327858,38.0327001],[-83.3276652,38.0327974],[-83.3273489,38.032849],[-83.3271021,38.0329614],[-83.3269941,38.0332166],[-83.3269092,38.0334323],[-83.326647,38.0335629],[-83.3263538,38.0336601],[-83.3262651,38.0337938],[-83.3262844,38.0341401],[-83.3260954,38.0343102],[-83.3259142,38.0343953],[-83.3256673,38.0344074],[-83.3252122,38.0343436],[-83.3248651,38.0343315],[-83.3245566,38.034298],[-83.3242866,38.034137],[-83.324005,38.033891],[-83.3239009,38.0336662],[-83.3238083,38.033654],[-83.3235962,38.0338059],[-83.3233224,38.0338485],[-83.3230292,38.0337877]]}},{"type":"Feature","properties":{"osm_id":970729182,"highway":"residential","name":null,"alt_name":null,"official_name":null,"surface":null,"tracktype":null,"service":null,"access":null,"motor_vehicle":null,"foot":null,"tiger_reviewed":null,"rrgh_part":0,"rrgh_tile_part":0},"geometry":{"type":"LineString","coordinates":[[-83.3341713,38.0402246],[-83.3341238,38.0403673],[-83.3341506,38.0405719],[-83.3342492,38.0408789],[-83.3340566,38.0419726]]}},{"type":"Feature","properties":{"osm_id":970729183,"highway":"track","name":null,"alt_name":null,"official_name":null,"surface":null,"tracktype":null,"service":null,"access":null,"motor_vehicle":null,"foot":null,"tiger_reviewed":null,"rrgh_part":0,"rrgh_tile_part":0},"geometry":{"type":"LineString","coordinates":[[-83.331688,38.040541],[-83.3310511,38.0403367],[-83.330487,38.0401431],[-83.329301,38.0399342],[-83.3281921,38.0398735],[-83.3277678,38.0398203],[-83.3272182,38.0392583],[-83.327035,38.0391178],[-83.3268663,38.03919],[-83.326712,38.0395849],[-83.3262443,38.0398621],[-83.3258152,38.039995],[-83.3255259,38.0400102]]}},{"type":"Feature","properties":{"osm_id":16317678,"highway":"residential","name":null,"alt_name":null,"official_name":null,"surface":null,"tracktype":null,"service":null,"access":null,"motor_vehicle":null,"foot":null,"tiger_reviewed":"no","rrgh_part":0,"rrgh_tile_part":0},"geometry":{"type":"LineString","coordinates":[[-83.321117,38.030157],[-83.316607,38.027682]]}},{"type":"Feature","properties":{"osm_id":16321773,"highway":"service","name":"McCoy Road","alt_name":null,"official_name":null,"surface":null,"tracktype":null,"service":null,"access":"private","motor_vehicle":null,"foot":null,"tiger_reviewed":"no","rrgh_part":0,"rrgh_tile_part":0},"geometry":{"type":"LineString","coordinates":[[-83.318575,38.032227],[-83.318062,38.032279],[-83.317971,38.032272],[-83.317927,38.03225],[-83.317861,38.03218],[-83.31785,38.03216],[-83.317805,38.032082],[-83.317755,38.032037],[-83.317644,38.031983],[-83.317406,38.031891],[-83.317318,38.03184],[-83.317148,38.031709],[-83.317093,38.031645],[-83.317063,38.031589],[-83.316926,38.031212]]}},{"type":"Feature","properties":{"osm_id":16322219,"highway":"service","name":"Russell Brown Road","alt_name":null,"official_name":null,"surface":null,"tracktype":null,"service":null,"access":null,"motor_vehicle":null,"foot":null,"tiger_reviewed":"no","rrgh_part":0,"rrgh_tile_part":0},"geometry":{"type":"LineString","coordinates":[[-83.320267,38.03098],[-83.320343,38.031027],[-83.320386,38.031042],[-83.320402,38.031048],[-83.320478,38.031064],[-83.320521,38.031063]]}},{"type":"Feature","properties":{"osm_id":16322789,"highway":"residential","name":"Duck Creek Road","alt_name":null,"official_name":null,"surface":null,"tracktype":null,"service":null,"access":null,"motor_vehicle":null,"foot":null,"tiger_reviewed":"no","rrgh_part":0,"rrgh_tile_part":0},"geometry":{"type":"LineString","coordinates":[[-83.315645,38.033795],[-83.314811,38.033923],[-83.313976,38.034166],[-83.313606,38.034116],[-83.313385,38.034031],[-83.313091,38.033915],[-83.312683,38.033949],[-83.312308,38.034237],[-83.311875,38.034433],[-83.31182,38.034422],[-83.311322,38.034696],[-83.310944,38.034859],[-83.310603,38.035051],[-83.310156,38.035142],[-83.309628,38.0352],[-83.308836,38.035321],[-83.308379,38.035482],[-83.307821,38.035578],[-83.307737,38.035582]]}},{"type":"Feature","properties":{"osm_id":970729178,"highway":"service","name":null,"alt_name":null,"official_name":null,"surface":null,"tracktype":null,"service":null,"access":null,"motor_vehicle":null,"foot":null,"tiger_reviewed":null,"rrgh_part":0,"rrgh_tile_part":0},"geometry":{"type":"LineString","coordinates":[[-83.3165678,38.0351589],[-83.3164932,38.035172],[-83.3163753,38.0351451],[-83.3159626,38.0349765],[-83.3155562,38.0349154],[-83.3153421,38.0349765],[-83.3145014,38.0357145],[-83.314461,38.0358513],[-83.3146968,38.0358782]]}},{"type":"Feature","properties":{"osm_id":16318287,"highway":"service","name":null,"alt_name":null,"official_name":null,"surface":null,"tracktype":null,"service":null,"access":"private","motor_vehicle":null,"foot":null,"tiger_reviewed":"no","rrgh_part":0,"rrgh_tile_part":0},"geometry":{"type":"LineString","coordinates":[[-83.316502,38.034878],[-83.316601,38.034957],[-83.316891,38.035106],[-83.317434,38.035394],[-83.317573,38.035459],[-83.318385,38.035774],[-83.318871,38.036002],[-83.31892,38.036034],[-83.318954,38.036074],[-83.31897,38.036118],[-83.318951,38.036292],[-83.318984,38.036457],[-83.318997,38.036618],[-83.318992,38.03685]]}},{"type":"Feature","properties":{"osm_id":16317874,"highway":"residential","name":null,"alt_name":null,"official_name":null,"surface":null,"tracktype":null,"service":null,"access":null,"motor_vehicle":null,"foot":null,"tiger_reviewed":"no","rrgh_part":0,"rrgh_tile_part":0},"geometry":{"type":"LineString","coordinates":[[-83.311416,38.034342],[-83.31182,38.034422]]}},{"type":"Feature","properties":{"osm_id":16321071,"highway":"residential","name":"East Hunt Road","alt_name":null,"official_name":null,"surface":null,"tracktype":null,"service":null,"access":null,"motor_vehicle":null,"foot":null,"tiger_reviewed":"no","rrgh_part":0,"rrgh_tile_part":0},"geometry":{"type":"LineString","coordinates":[[-83.332707,38.0449],[-83.332535,38.044713],[-83.332473,38.044631],[-83.332425,38.04453],[-83.332395,38.044416],[-83.332344,38.043913],[-83.332276,38.04355],[-83.332207,38.043343],[-83.332163,38.043262],[-83.332116,38.043205],[-83.332063,38.043174],[-83.332013,38.043161],[-83.331946,38.043162]]}},{"type":"Feature","properties":{"osm_id":970729185,"highway":"service","name":null,"alt_name":null,"official_name":null,"surface":null,"tracktype":null,"service":null,"access":null,"motor_vehicle":null,"foot":null,"tiger_reviewed":null,"rrgh_part":0,"rrgh_tile_part":0},"geometry":{"type":"LineString","coordinates":[[-83.332062,38.0455289],[-83.3316969,38.0452531],[-83.3313339,38.0450918],[-83.3308057,38.0449418],[-83.3304427,38.0447579],[-83.3303061,38.0445626],[-83.3301804,38.0443022],[-83.3300726,38.0442088]]}},{"type":"Feature","properties":{"osm_id":16318313,"highway":"residential","name":null,"alt_name":null,"official_name":null,"surface":null,"tracktype":null,"service":null,"access":null,"motor_vehicle":null,"foot":null,"tiger_reviewed":"no","rrgh_part":0,"rrgh_tile_part":0},"geometry":{"type":"LineString","coordinates":[[-83.304743,38.028358],[-83.303823,38.027313]]}},{"type":"Feature","properties":{"osm_id":16320902,"highway":"residential","name":"Big Lick Road","alt_name":null,"official_name":null,"surface":null,"tracktype":null,"service":null,"access":null,"motor_vehicle":null,"foot":null,"tiger_reviewed":"no","rrgh_part":0,"rrgh_tile_part":0},"geometry":{"type":"LineString","coordinates":[[-83.297806,38.030959],[-83.297872,38.031074],[-83.297985,38.031238],[-83.298116,38.03136],[-83.298499,38.031559],[-83.298742,38.031701],[-83.299293,38.032101],[-83.299434,38.032149],[-83.299548,38.032129],[-83.29999,38.031859],[-83.300419,38.031516],[-83.300643,38.031352],[-83.300829,38.031183],[-83.300891,38.031112],[-83.300962,38.03098],[-83.300992,38.030832],[-83.300971,38.030573],[-83.300917,38.030481],[-83.300884,38.030397],[-83.300868,38.030328],[-83.300877,38.030236],[-83.300951,38.030195],[-83.300983,38.030187],[-83.30102,38.030185],[-83.301116,38.030206],[-83.30142,38.030346],[-83.301686,38.030449],[-83.301793,38.030506]]}},{"type":"Feature","properties":{"osm_id":16318378,"highway":"residential","name":null,"alt_name":null,"official_name":null,"surface":null,"tracktype":null,"service":null,"access":null,"motor_vehicle":null,"foot":null,"tiger_reviewed":"no","rrgh_part":0,"rrgh_tile_part":0},"geometry":{"type":"LineString","coordinates":[[-83.307468,38.033768],[-83.307318,38.033847],[-83.30713,38.033921],[-83.306859,38.033995],[-83.306785,38.034007],[-83.306721,38.034005],[-83.306294,38.033927]]}},{"type":"Feature","properties":{"osm_id":16322319,"highway":"residential","name":"Darrell Black Road","alt_name":null,"official_name":null,"surface":null,"tracktype":null,"service":null,"access":null,"motor_vehicle":null,"foot":null,"tiger_reviewed":"no","rrgh_part":0,"rrgh_tile_part":0},"geometry":{"type":"LineString","coordinates":[[-83.307468,38.033768],[-83.30752,38.033759],[-83.307591,38.033945],[-83.307994,38.034214],[-83.308632,38.034304]]}},{"type":"Feature","properties":{"osm_id":16318033,"highway":"residential","name":null,"alt_name":null,"official_name":null,"surface":null,"tracktype":null,"service":null,"access":null,"motor_vehicle":null,"foot":null,"tiger_reviewed":"no","rrgh_part":0,"rrgh_tile_part":0},"geometry":{"type":"LineString","coordinates":[[-83.307737,38.035582],[-83.307252,38.035993],[-83.307049,38.036152],[-83.306897,38.036311],[-83.306481,38.036651],[-83.304744,38.037385]]}},{"type":"Feature","properties":{"osm_id":16318131,"highway":"residential","name":null,"alt_name":null,"official_name":null,"surface":null,"tracktype":null,"service":null,"access":null,"motor_vehicle":null,"foot":null,"tiger_reviewed":"no","rrgh_part":0,"rrgh_tile_part":0},"geometry":{"type":"LineString","coordinates":[[-83.302846,38.036369],[-83.304054,38.036145],[-83.305245,38.035821],[-83.305465,38.035761],[-83.30644,38.035632],[-83.307049,38.035611],[-83.307737,38.035582]]}},{"type":"Feature","properties":{"osm_id":16318132,"highway":"residential","name":null,"alt_name":null,"official_name":null,"surface":null,"tracktype":null,"service":null,"access":null,"motor_vehicle":null,"foot":null,"tiger_reviewed":"no","rrgh_part":0,"rrgh_tile_part":0},"geometry":{"type":"LineString","coordinates":[[-83.303499,38.034825],[-83.305112,38.035523],[-83.305245,38.035821]]}},{"type":"Feature","properties":{"osm_id":16318130,"highway":"residential","name":null,"alt_name":null,"official_name":null,"surface":null,"tracktype":null,"service":null,"access":null,"motor_vehicle":null,"foot":null,"tiger_reviewed":"no","rrgh_part":0,"rrgh_tile_part":0},"geometry":{"type":"LineString","coordinates":[[-83.297267,38.038704],[-83.298863,38.036979],[-83.299069,38.03667]]}},{"type":"Feature","properties":{"osm_id":16319019,"highway":"residential","name":"Winding Stairs Road","alt_name":null,"official_name":null,"surface":null,"tracktype":null,"service":null,"access":null,"motor_vehicle":null,"foot":null,"tiger_reviewed":"no","rrgh_part":0,"rrgh_tile_part":0},"geometry":{"type":"LineString","coordinates":[[-83.289158,38.028295],[-83.289109,38.02834],[-83.289063,38.02841],[-83.288928,38.028687],[-83.288873,38.028884],[-83.288878,38.028962],[-83.288741,38.029063],[-83.288275,38.029405],[-83.288155,38.029493],[-83.287379,38.030102],[-83.287342,38.030144],[-83.287158,38.030354],[-83.287056,38.030564],[-83.286956,38.030771],[-83.286867,38.031118],[-83.286857,38.031156],[-83.286749,38.031443],[-83.286703,38.031795],[-83.28669,38.032041],[-83.286626,38.032172],[-83.286394,38.032474],[-83.286363,38.03256],[-83.28635,38.032596],[-83.286361,38.032648],[-83.28639,38.032785],[-83.286372,38.033004],[-83.286328,38.033153],[-83.286311,38.033211],[-83.286258,38.033299],[-83.286163,38.033456],[-83.286067,38.033598],[-83.285877,38.033881],[-83.285475,38.034452],[-83.285063,38.03506],[-83.284945,38.035234],[-83.284908,38.03529],[-83.284779,38.035486],[-83.284482,38.035864],[-83.284206,38.036074],[-83.283891,38.036356],[-83.283765,38.036428],[-83.283573,38.036519],[-83.283416,38.036579],[-83.282418,38.037011],[-83.281422,38.037199],[-83.281012,38.037223],[-83.28082,38.037286],[-83.280722,38.037375],[-83.280638,38.03745],[-83.280425,38.03786],[-83.28008,38.037998],[-83.27996,38.038095],[-83.279945,38.038144],[-83.279953,38.038198],[-83.280082,38.038714],[-83.28007,38.038961],[-83.279972,38.039179],[-83.279865,38.039377],[-83.279749,38.039678],[-83.279684,38.039979],[-83.279618,38.040376],[-83.279425,38.040624],[-83.279218,38.040834],[-83.278907,38.041082],[-83.278845,38.041149],[-83.2788,38.04122],[-83.278749,38.041378],[-83.278633,38.041865],[-83.278625,38.041949],[-83.278637,38.042196],[-83.278603,38.042357],[-83.278539,38.042502],[-83.278459,38.042622],[-83.278333,38.042702],[-83.278262,38.042727],[-83.278187,38.04274],[-83.278023,38.042734],[-83.277154,38.042623],[-83.276712,38.042537],[-83.276287,38.042428],[-83.276126,38.042397],[-83.275843,38.042359],[-83.275585,38.042342],[-83.275321,38.042309],[-83.274936,38.04229],[-83.274666,38.042243]]}},{"type":"Feature","properties":{"osm_id":16320589,"highway":"residential","name":"Rockhouse Branch Road","alt_name":null,"official_name":null,"surface":null,"tracktype":null,"service":null,"access":null,"motor_vehicle":null,"foot":null,"tiger_reviewed":"no","rrgh_part":0,"rrgh_tile_part":0},"geometry":{"type":"LineString","coordinates":[[-83.289555,38.028795],[-83.289635,38.028777],[-83.289795,38.028781],[-83.28985,38.028774],[-83.289902,38.028752],[-83.289941,38.028715],[-83.289972,38.028537],[-83.290043,38.028419],[-83.29011,38.028386],[-83.290169,38.028372],[-83.290195,38.028375]]}},{"type":"Feature","properties":{"osm_id":16322847,"highway":"residential","name":"Wilders Road","alt_name":null,"official_name":null,"surface":null,"tracktype":null,"service":null,"access":null,"motor_vehicle":null,"foot":null,"tiger_reviewed":"no","rrgh_part":0,"rrgh_tile_part":0},"geometry":{"type":"LineString","coordinates":[[-83.288878,38.028962],[-83.288889,38.029],[-83.28893,38.029056],[-83.289583,38.029545],[-83.289652,38.02959],[-83.289805,38.029638],[-83.290049,38.029678],[-83.290377,38.029758],[-83.290729,38.029763],[-83.290898,38.029741],[-83.291277,38.029726],[-83.291429,38.029703],[-83.291628,38.02971],[-83.291695,38.02973],[-83.291821,38.029808],[-83.291886,38.029862],[-83.291992,38.029993],[-83.292027,38.030067],[-83.292049,38.030145],[-83.292052,38.030306],[-83.291959,38.030579],[-83.291959,38.030636],[-83.291976,38.030683],[-83.292008,38.030719],[-83.292052,38.030732],[-83.292117,38.030738],[-83.292461,38.030683],[-83.292665,38.030688],[-83.292755,38.030717],[-83.292839,38.030788]]}},{"type":"Feature","properties":{"osm_id":1422173520,"highway":"residential","name":"Leisure Branch Road","alt_name":null,"official_name":null,"surface":null,"tracktype":null,"service":null,"access":null,"motor_vehicle":null,"foot":null,"tiger_reviewed":"no","rrgh_part":0,"rrgh_tile_part":0},"geometry":{"type":"LineString","coordinates":[[-83.3030794,38.0445152],[-83.3031538,38.0445738],[-83.3031962,38.0445905],[-83.3032529,38.0445961],[-83.303313,38.0445933],[-83.3036174,38.0445347],[-83.3037767,38.0445096],[-83.3038474,38.044518],[-83.303943,38.044561],[-83.304219,38.044714],[-83.304393,38.044783],[-83.304436,38.0448],[-83.304661,38.044907],[-83.304983,38.045084],[-83.305117,38.045181],[-83.305201,38.04522],[-83.305345,38.045269],[-83.305457,38.045291],[-83.305594,38.0453297]]}},{"type":"Feature","properties":{"osm_id":16322371,"highway":"residential","name":"Pond Lane","alt_name":null,"official_name":null,"surface":null,"tracktype":null,"service":null,"access":null,"motor_vehicle":null,"foot":null,"tiger_reviewed":"no","rrgh_part":0,"rrgh_tile_part":0},"geometry":{"type":"LineString","coordinates":[[-83.296066,38.046111],[-83.296207,38.046117],[-83.296281,38.046143],[-83.296318,38.046176],[-83.296391,38.046273],[-83.296497,38.046481],[-83.296563,38.046626],[-83.296611,38.046831],[-83.296627,38.04711],[-83.296617,38.047329],[-83.296577,38.047467],[-83.296503,38.047656],[-83.296226,38.048088],[-83.296043,38.048326],[-83.296022,38.0484],[-83.29603,38.048436],[-83.29608,38.048511],[-83.29643,38.048968]]}},{"type":"Feature","properties":{"osm_id":16322907,"highway":"residential","name":"Dry Branch Road","alt_name":null,"official_name":null,"surface":null,"tracktype":null,"service":null,"access":null,"motor_vehicle":null,"foot":null,"tiger_reviewed":"no","rrgh_part":0,"rrgh_tile_part":0},"geometry":{"type":"LineString","coordinates":[[-83.300703,38.047995],[-83.300694,38.048134],[-83.300656,38.048309],[-83.300532,38.048634],[-83.30041,38.048868],[-83.30039,38.049001],[-83.300398,38.049149],[-83.300449,38.049335],[-83.300491,38.049429],[-83.300545,38.049521],[-83.300677,38.049694],[-83.300751,38.049773],[-83.300912,38.049916],[-83.30103227272727,38.05]]}},{"type":"Feature","properties":{"osm_id":970665815,"highway":"service","name":null,"alt_name":null,"official_name":null,"surface":null,"tracktype":null,"service":null,"access":null,"motor_vehicle":null,"foot":null,"tiger_reviewed":null,"rrgh_part":0,"rrgh_tile_part":0},"geometry":{"type":"LineString","coordinates":[[-83.2959576,38.0455917],[-83.296094,38.0455308],[-83.2959774,38.0450431],[-83.2958709,38.0445186],[-83.2959242,38.0442118],[-83.296064,38.0438814],[-83.2962205,38.0436847],[-83.2965635,38.0436244]]}},{"type":"Feature","properties":{"osm_id":16318066,"highway":"residential","name":null,"alt_name":null,"official_name":null,"surface":null,"tracktype":null,"service":null,"access":null,"motor_vehicle":null,"foot":null,"tiger_reviewed":"no","rrgh_part":0,"rrgh_tile_part":0},"geometry":{"type":"LineString","coordinates":[[-83.289599,38.047703],[-83.289763,38.048841],[-83.290318,38.049614],[-83.29082084759916,38.05]]}},{"type":"Feature","properties":{"osm_id":16318534,"highway":"residential","name":"Collins Road","alt_name":null,"official_name":null,"surface":null,"tracktype":null,"service":null,"access":null,"motor_vehicle":null,"foot":null,"tiger_reviewed":"no","rrgh_part":0,"rrgh_tile_part":0},"geometry":{"type":"LineString","coordinates":[[-83.294309,38.048525],[-83.294224,38.048451],[-83.294196,38.048407],[-83.294149,38.048137],[-83.29398,38.047773],[-83.293936,38.047614],[-83.293897,38.047201],[-83.293872,38.047043],[-83.293773,38.046803],[-83.293623,38.046485],[-83.293564,38.046316],[-83.293554,38.046228],[-83.293563,38.046143],[-83.293619,38.045928],[-83.293618,38.045867],[-83.293581,38.0457],[-83.293582,38.045645],[-83.293634,38.045472],[-83.293635,38.045363],[-83.293623,38.045325],[-83.293555,38.045239],[-83.29352,38.045226],[-83.293484,38.045226]]}},{"type":"Feature","properties":{"osm_id":16318373,"highway":"residential","name":null,"alt_name":null,"official_name":null,"surface":null,"tracktype":null,"service":null,"access":null,"motor_vehicle":null,"foot":null,"tiger_reviewed":"no","rrgh_part":0,"rrgh_tile_part":0},"geometry":{"type":"LineString","coordinates":[[-83.280722,38.037375],[-83.281359,38.037894],[-83.281724,38.038292],[-83.281868,38.038627],[-83.281943,38.038986],[-83.281881,38.039234],[-83.281738,38.039467]]}},{"type":"Feature","properties":{"osm_id":16322652,"highway":"service","name":"Bear Creek Road","alt_name":null,"official_name":null,"surface":null,"tracktype":null,"service":null,"access":"private","motor_vehicle":null,"foot":null,"tiger_reviewed":"no","rrgh_part":0,"rrgh_tile_part":0},"geometry":{"type":"LineString","coordinates":[[-83.251404,38.02734],[-83.251552,38.027605],[-83.251611,38.027759],[-83.251652,38.02784],[-83.251667,38.027871],[-83.251761,38.028334],[-83.25193,38.028863],[-83.25204,38.029096],[-83.252282,38.029507],[-83.252346,38.029642],[-83.252513,38.030757],[-83.252792,38.031905],[-83.252875,38.032205],[-83.252988,38.032936],[-83.253049,38.033251],[-83.25313,38.033551]]}}],"rrgh_tile":{"id":"r8c8","bounds":[37.974999999999994,-83.33500000000001,38.05,-83.25]}}
