{"type":"FeatureCollection","name":"Accepted hard sunlight rim lip r1c4","features":[{"type":"Feature","properties":{"kind":"sunrise","strength":1.0,"hard":true,"sector":"r1c4"},"geometry":{"type":"Polygon","coordinates":[[[-83.54708087651028,37.851577368525085],[-83.54703596595625,37.851577368525085],[-83.54703596595625,37.851471003952106],[-83.54708087651028,37.85150645882682],[-83.54708087651028,37.851577368525085]]]}},{"type":"Feature","properties":{"kind":"sunrise","strength":1.0,"hard":true,"sector":"r1c4"},"geometry":{"type":"Polygon","coordinates":[[[-83.5528069721488,37.85031871124263],[-83.55285188270283,37.85031871124263],[-83.55287433797984,37.850283255796754],[-83.55291924853385,37.850283255796754],[-83.55287433797984,37.85035416667145],[-83.55273960631774,37.850371894379464],[-83.5528069721488,37.85031871124263]]]}},{"type":"Feature","properties":{"kind":"sunrise","strength":1.0,"hard":true,"sector":"r1c4"},"geometry":{"type":"Polygon","coordinates":[[[-83.5551198656812,37.852392825153395],[-83.55507495512718,37.852392825153395],[-83.55509741040419,37.8523396434743],[-83.5551198656812,37.8523396434743],[-83.5551198656812,37.852392825153395]]]}},{"type":"Feature","properties":{"kind":"sunrise","strength":1.0,"hard":true,"sector":"r1c4"},"geometry":{"type":"Polygon","coordinates":[[[-83.55518723151225,37.85235737070493],[-83.55516477623524,37.85235737070493],[-83.55516477623524,37.852321916239404],[-83.55520968678927,37.852321916239404],[-83.55523214206627,37.852392825153395],[-83.55520968678927,37.852392825153395],[-83.55520968678927,37.8524282795848],[-83.55514232095823,37.85244600679412],[-83.55518723151225,37.85235737070493]]]}},{"type":"Feature","properties":{"kind":"sunrise","strength":1.0,"hard":true,"sector":"r1c4"},"geometry":{"type":"Polygon","coordinates":[[[-83.55635490591698,37.870454649196006],[-83.55637736119398,37.870454649196006],[-83.55637736119398,37.87050781780533],[-83.55635490591698,37.87050781780533],[-83.55635490591698,37.870454649196006]]]}},{"type":"Feature","properties":{"kind":"sunrise","strength":1.0,"hard":true,"sector":"r1c4"},"geometry":{"type":"Polygon","coordinates":[[[-83.5593414577598,37.86565159321119],[-83.55945373414487,37.865438904526755],[-83.55949864469889,37.865421180442006],[-83.55949864469889,37.865492076755416],[-83.55943127886786,37.86554524894571],[-83.55940882359084,37.865669317240524],[-83.5593414577598,37.86568704126558],[-83.5593414577598,37.86570476528639],[-83.55927409192876,37.86570476528639],[-83.55927409192876,37.865669317240524],[-83.5593414577598,37.86565159321119]]]}},{"type":"Feature","properties":{"kind":"sunrise","strength":1.0,"hard":true,"sector":"r1c4"},"geometry":{"type":"Polygon","coordinates":[[[-83.56140734324507,37.86215987629394],[-83.56142979852207,37.86215987629394],[-83.56142979852207,37.86210670166101],[-83.56145225379909,37.86210670166101],[-83.56142979852207,37.86180537801637],[-83.56138488796805,37.86176992809484],[-83.56140734324507,37.861610403236895],[-83.56138488796805,37.861610403236895],[-83.56138488796805,37.86155722820752],[-83.56133997741402,37.861539503189206],[-83.56136243269103,37.86145087803368],[-83.56129506686,37.86141542794162],[-83.56129506686,37.861344527706365],[-83.56133997741402,37.861309077563156],[-83.56133997741402,37.86104320094562],[-83.56136243269103,37.86104320094562],[-83.56136243269103,37.86097230035229],[-83.56138488796805,37.86097230035229],[-83.56138488796805,37.860830498961],[-83.56133997741402,37.86081277376792],[-83.56133997741402,37.860724147738516],[-83.56136243269103,37.860724147738516],[-83.56136243269103,37.86079504857056],[-83.56140734324507,37.86079504857056],[-83.56142979852207,37.86084822414984],[-83.56145225379909,37.86084822414984],[-83.56142979852207,37.860865949334396],[-83.56145225379909,37.8609545751933],[-83.56142979852207,37.8609545751933],[-83.56142979852207,37.86102547580368],[-83.56140734324507,37.86102547580368],[-83.56140734324507,37.86129135248517],[-83.56136243269103,37.861326802636896],[-83.56136243269103,37.8613977028892],[-83.56140734324507,37.86143315298978],[-83.56140734324507,37.861521778166626],[-83.56142979852207,37.861521778166626],[-83.56145225379909,37.861628128238166],[-83.56147470907611,37.861628128238166],[-83.56145225379909,37.86178765305774],[-83.56149716435313,37.86182310297075],[-83.56149716435313,37.861929452607484],[-83.56147470907611,37.86194717753201],[-83.56149716435313,37.86194717753201],[-83.56149716435313,37.86200035228005],[-83.56151961963013,37.86200035228005],[-83.56151961963013,37.86210670166101],[-83.56149716435313,37.86210670166101],[-83.56149716435313,37.86215987629394],[-83.56145225379909,37.862195326027916],[-83.56147470907611,37.86228395028825],[-83.56142979852207,37.862266225444706],[-83.56140734324507,37.86215987629394]]]}},{"type":"Feature","properties":{"kind":"sunrise","strength":1.0,"hard":true,"sector":"r1c4"},"geometry":{"type":"Polygon","coordinates":[[[-83.56133997741402,37.860724147738516],[-83.561317522137,37.860724147738516],[-83.561317522137,37.86067097206972],[-83.56133997741402,37.86067097206972],[-83.56133997741402,37.860724147738516]]]}},{"type":"Feature","properties":{"kind":"sunrise","strength":1.0,"hard":true,"sector":"r1c4"},"geometry":{"type":"Polygon","coordinates":[[[-83.56181153823131,37.883338053529926],[-83.56183399350833,37.88332033375111],[-83.56190135933937,37.883338053529926],[-83.56192381461639,37.88339121284079],[-83.56187890406235,37.88339121284079],[-83.56181153823131,37.883338053529926]]]}},{"type":"Feature","properties":{"kind":"sunrise","strength":1.0,"hard":true,"sector":"r1c4"},"geometry":{"type":"Polygon","coordinates":[[[-83.56199118044741,37.88948655934461],[-83.56192381461639,37.88943340443394],[-83.56192381461639,37.88939796780549],[-83.56199118044741,37.88941568612185],[-83.56203609100145,37.88948655934461],[-83.56199118044741,37.88948655934461]]]}},{"type":"Feature","properties":{"kind":"sunrise","strength":1.0,"hard":true,"sector":"r1c4"},"geometry":{"type":"Polygon","coordinates":[[[-83.56221573321756,37.88927393947166],[-83.56232800960261,37.889309376159794],[-83.56232800960261,37.88934481283086],[-83.56223818849458,37.88932709449746],[-83.56221573321756,37.88927393947166]]]}},{"type":"Feature","properties":{"kind":"sunrise","strength":1.0,"hard":true,"sector":"r1c4"},"geometry":{"type":"Polygon","coordinates":[[[-83.5626423834808,37.884649305330676],[-83.56268729403484,37.88459614692796],[-83.56270974931185,37.88447211050575],[-83.56277711514291,37.88447211050575],[-83.56270974931185,37.884649305330676],[-83.56261992820382,37.88468474424448],[-83.5625974729268,37.884649305330676],[-83.5626423834808,37.884649305330676]]]}},{"type":"Feature","properties":{"kind":"sunrise","strength":1.0,"hard":true,"sector":"r1c4"},"geometry":{"type":"Polygon","coordinates":[[[-83.56277711514291,37.88293049753847],[-83.56270974931185,37.88287733789504],[-83.56279957041991,37.882895057780445],[-83.56282202569693,37.88294821741107],[-83.56277711514291,37.88296593727943],[-83.56277711514291,37.88293049753847]]]}},{"type":"Feature","properties":{"kind":"sunrise","strength":1.0,"hard":true,"sector":"r1c4"},"geometry":{"type":"Polygon","coordinates":[[[-83.56349568400734,37.863577852352826],[-83.56338340762227,37.863577852352826],[-83.56338340762227,37.86354240328386],[-83.56331604179124,37.86348922964843],[-83.5632711312372,37.86348922964843],[-83.56322622068318,37.86345378053684],[-83.56329358651423,37.86343605597465],[-83.56336095234525,37.86348922964843],[-83.56340586289927,37.86348922964843],[-83.56340586289927,37.86352467874298],[-83.56345077345331,37.86356012782047],[-83.56347322873033,37.86354240328386],[-83.5635630498384,37.86356012782047],[-83.5635855051154,37.863631025924306],[-83.56351813928437,37.86361330140475],[-83.56349568400734,37.863577852352826]]]}},{"type":"Feature","properties":{"kind":"sunrise","strength":1.0,"hard":true,"sector":"r1c4"},"geometry":{"type":"Polygon","coordinates":[[[-83.56331604179124,37.882717858734516],[-83.56338340762227,37.88273557865829],[-83.56338340762227,37.88275329857781],[-83.56336095234525,37.88277101849306],[-83.56329358651423,37.88275329857781],[-83.56331604179124,37.882717858734516]]]}},{"type":"Feature","properties":{"kind":"sunrise","strength":1.0,"hard":true,"sector":"r1c4"},"geometry":{"type":"Polygon","coordinates":[[[-83.56340586289927,37.884525268998004],[-83.56347322873033,37.884525268998004],[-83.56347322873033,37.884507549504846],[-83.5635630498384,37.88448983000743],[-83.5635855051154,37.8844366714896],[-83.56365287094644,37.884418951975135],[-83.56363041566944,37.88448983000743],[-83.5635855051154,37.88448983000743],[-83.56354059456137,37.884542988486885],[-83.56338340762227,37.88457842745186],[-83.56336095234525,37.884542988486885],[-83.56340586289927,37.884542988486885],[-83.56340586289927,37.884525268998004]]]}},{"type":"Feature","properties":{"kind":"sunrise","strength":1.0,"hard":true,"sector":"r1c4"},"geometry":{"type":"Polygon","coordinates":[[[-83.56345077345331,37.882717858734516],[-83.56349568400734,37.882717858734516],[-83.56349568400734,37.88270013880647],[-83.5635630498384,37.882717858734516],[-83.5635855051154,37.88277101849306],[-83.56354059456137,37.88277101849306],[-83.56351813928437,37.88273557865829],[-83.56345077345331,37.88273557865829],[-83.56345077345331,37.882717858734516]]]}},{"type":"Feature","properties":{"kind":"sunrise","strength":1.0,"hard":true,"sector":"r1c4"},"geometry":{"type":"Polygon","coordinates":[[[-83.56354059456137,37.86779616981045],[-83.56351813928437,37.86779616981045],[-83.56354059456137,37.86774299924436],[-83.5636079603924,37.86772527571381],[-83.5636079603924,37.867689828639904],[-83.56367532622345,37.86765438154895],[-83.56367532622345,37.867689828639904],[-83.56363041566944,37.86770755217899],[-83.56363041566944,37.86774299924436],[-83.5635855051154,37.86777844629269],[-83.5636079603924,37.86779616981045],[-83.5635855051154,37.867813893323955],[-83.5635855051154,37.86792023431545],[-83.56354059456137,37.86792023431545],[-83.56354059456137,37.867884787335335],[-83.56351813928437,37.867884787335335],[-83.56354059456137,37.86779616981045]]]}},{"type":"Feature","properties":{"kind":"sunrise","strength":1.0,"hard":true,"sector":"r1c4"},"geometry":{"type":"Polygon","coordinates":[[[-83.56369778150045,37.86366647495064],[-83.5636079603924,37.86361330140475],[-83.56369778150045,37.863631025924306],[-83.56369778150045,37.86366647495064]]]}},{"type":"Feature","properties":{"kind":"sunrise","strength":1.0,"hard":true,"sector":"r1c4"},"geometry":{"type":"Polygon","coordinates":[[[-83.56381005788553,37.86705177839378],[-83.56394478954763,37.86694543614895],[-83.5639223342706,37.86687454123382],[-83.56385496843957,37.866839093750656],[-83.56385496843957,37.86675047496818],[-83.56387742371658,37.86675047496818],[-83.56387742371658,37.866679579865476],[-83.5638998789936,37.866679579865476],[-83.5638998789936,37.8668213700027],[-83.56396724482464,37.86685681749437],[-83.56398970010166,37.86696315986709],[-83.5639223342706,37.86703405469698],[-83.56387742371658,37.86703405469698],[-83.56381005788553,37.86708722577463],[-83.56381005788553,37.86705177839378]]]}},{"type":"Feature","properties":{"kind":"sunrise","strength":1.0,"hard":true,"sector":"r1c4"},"geometry":{"type":"Polygon","coordinates":[[[-83.56410197648671,37.863577852352826],[-83.56403461065567,37.863577852352826],[-83.56403461065567,37.86354240328386],[-83.56410197648671,37.86356012782047],[-83.56410197648671,37.863577852352826]]]}},{"type":"Feature","properties":{"kind":"sunrise","strength":1.0,"hard":true,"sector":"r1c4"},"geometry":{"type":"Polygon","coordinates":[[[-83.56419179759477,37.88459614692796],[-83.5642591634258,37.884525268998004],[-83.56432652925686,37.884525268998004],[-83.56439389508789,37.88445439099982],[-83.56443880564191,37.88445439099982],[-83.56439389508789,37.884525268998004],[-83.56428161870284,37.88457842745186],[-83.56428161870284,37.884613866399796],[-83.56421425287178,37.884667024789714],[-83.56416934231775,37.884667024789714],[-83.56419179759477,37.88459614692796]]]}},{"type":"Feature","properties":{"kind":"sunrise","strength":1.0,"hard":true,"sector":"r1c4"},"geometry":{"type":"Polygon","coordinates":[[[-83.5642591634258,37.86623648392814],[-83.56430407397984,37.86623648392814],[-83.56430407397984,37.86625420781678],[-83.56421425287178,37.86630737945716],[-83.56421425287178,37.86627193170118],[-83.5642591634258,37.86623648392814]]]}},{"type":"Feature","properties":{"kind":"sunrise","strength":1.0,"hard":true,"sector":"r1c4"},"geometry":{"type":"Polygon","coordinates":[[[-83.5649103664592,37.87541688740575],[-83.56493282173622,37.875399165721156],[-83.56493282173622,37.87536372233919],[-83.56500000000001,37.87532827894015],[-83.56497773229025,37.875399165721156],[-83.56495527701324,37.87541688740575],[-83.5649103664592,37.87541688740575]]]}},{"type":"Feature","properties":{"kind":"sunrise","strength":1.0,"hard":true,"sector":"r1c4"},"geometry":{"type":"Polygon","coordinates":[[[-83.56493282173622,37.86623648392814],[-83.56497773229025,37.86623648392814],[-83.56500000000001,37.866218760035224],[-83.56500000000001,37.86625420781678],[-83.5649103664592,37.86627193170118],[-83.56493282173622,37.86623648392814]]]}},{"type":"Feature","properties":{"kind":"sunrise","strength":1.0,"hard":true,"sector":"r1c4"},"geometry":{"type":"Polygon","coordinates":[[[-83.56500000000001,37.86325881011825],[-83.56500000000001,37.86329425932363],[-83.56497773229025,37.86329425932363],[-83.56495527701324,37.86325881011825],[-83.56500000000001,37.86325881011825]]]}},{"type":"Feature","properties":{"kind":"sunrise","strength":1.0,"hard":true,"sector":"r1c4"},"geometry":{"type":"Polygon","coordinates":[[[-83.56495527701324,37.882044498471565],[-83.56500000000001,37.882044498471565],[-83.56500000000001,37.88206221855738],[-83.56495527701324,37.88206221855738],[-83.56495527701324,37.882044498471565]]]}},{"type":"Feature","properties":{"kind":"sunset","strength":1.0,"hard":true,"sector":"r1c4"},"geometry":{"type":"Polygon","coordinates":[[[-83.55253750882463,37.85030098352182],[-83.55251505354762,37.85030098352182],[-83.55251505354762,37.850265528067425],[-83.55253750882463,37.850265528067425],[-83.55251505354762,37.85024780033383],[-83.55251505354762,37.85015916160194],[-83.55253750882463,37.85015916160194],[-83.55253750882463,37.85012370607934],[-83.55262732993268,37.85010597831165],[-83.55255996410165,37.85017688935684],[-83.55255996410165,37.85021234485385],[-83.55258241937865,37.85021234485385],[-83.55255996410165,37.85031871124263],[-83.5526497852097,37.85038962208323],[-83.55255996410165,37.850371894379464],[-83.55253750882463,37.85030098352182]]]}},{"type":"Feature","properties":{"kind":"sunset","strength":1.0,"hard":true,"sector":"r1c4"},"geometry":{"type":"Polygon","coordinates":[[[-83.55489531291107,37.86639599877251],[-83.55485040235705,37.866431446468816],[-83.55487285763407,37.86634282719609],[-83.55489531291107,37.86634282719609],[-83.55489531291107,37.86639599877251]]]}},{"type":"Feature","properties":{"kind":"sunset","strength":1.0,"hard":true,"sector":"r1c4"},"geometry":{"type":"Polygon","coordinates":[[[-83.55505249985016,37.86912542149319],[-83.55505249985016,37.86917859106172],[-83.55503004457314,37.86917859106172],[-83.55503004457314,37.86912542149319],[-83.55505249985016,37.86912542149319]]]}},{"type":"Feature","properties":{"kind":"sunset","strength":1.0,"hard":true,"sector":"r1c4"},"geometry":{"type":"Polygon","coordinates":[[[-83.5551198656812,37.870100190819976],[-83.5551198656812,37.87006474488858],[-83.55507495512718,37.87002929894014],[-83.55507495512718,37.86988751497584],[-83.55509741040419,37.86988751497584],[-83.55509741040419,37.86994068399442],[-83.5551198656812,37.86994068399442],[-83.5551198656812,37.870011575959516],[-83.55516477623524,37.8700470219165],[-83.55516477623524,37.87013563673432],[-83.55518723151225,37.87013563673432],[-83.55520968678927,37.87022425144555],[-83.55516477623524,37.870206528511844],[-83.55514232095823,37.870100190819976],[-83.5551198656812,37.870100190819976]]]}},{"type":"Feature","properties":{"kind":"sunset","strength":1.0,"hard":true,"sector":"r1c4"},"geometry":{"type":"Polygon","coordinates":[[[-83.56041931105646,37.858650268227194],[-83.56046422161049,37.85863254250979],[-83.56048667688749,37.85875662244214],[-83.56046422161049,37.85875662244214],[-83.56041931105646,37.858650268227194]]]}},{"type":"Feature","properties":{"kind":"sunset","strength":1.0,"hard":true,"sector":"r1c4"},"geometry":{"type":"Polygon","coordinates":[[[-83.56062140854957,37.858951604770965],[-83.56059895327256,37.85896933041165],[-83.56055404271854,37.85896933041165],[-83.56057649799554,37.858916153476805],[-83.56062140854957,37.858916153476805],[-83.56062140854957,37.858951604770965]]]}},{"type":"Feature","properties":{"kind":"sunset","strength":1.0,"hard":true,"sector":"r1c4"},"geometry":{"type":"Polygon","coordinates":[[[-83.56084596131973,37.85833120466164],[-83.56091332715076,37.85827802726642],[-83.5609806929818,37.8582603014595],[-83.56095823770478,37.85833120466164],[-83.56086841659673,37.858384382018464],[-83.56082350604271,37.858384382018464],[-83.56084596131973,37.85833120466164]]]}},{"type":"Feature","properties":{"kind":"sunset","strength":1.0,"hard":true,"sector":"r1c4"},"geometry":{"type":"Polygon","coordinates":[[[-83.56111542464389,37.865509800823105],[-83.5610031482588,37.865421180442006],[-83.5610031482588,37.865385732259725],[-83.56104805881283,37.865385732259725],[-83.56109296936687,37.865421180442006],[-83.56109296936687,37.86545662860724],[-83.56116033519793,37.865509800823105],[-83.56116033519793,37.86556297300062],[-83.56111542464389,37.86554524894571],[-83.56111542464389,37.865509800823105]]]}},{"type":"Feature","properties":{"kind":"sunset","strength":1.0,"hard":true,"sector":"r1c4"},"geometry":{"type":"Polygon","coordinates":[[[-83.56120524575195,37.85810076900534],[-83.56118279047493,37.858118494850636],[-83.56113787992089,37.858118494850636],[-83.56113787992089,37.85808304315579],[-83.56120524575195,37.858065317301985],[-83.56120524575195,37.85810076900534]]]}},{"type":"Feature","properties":{"kind":"sunset","strength":1.0,"hard":true,"sector":"r1c4"},"geometry":{"type":"Polygon","coordinates":[[[-83.56122770102895,37.88992951544121],[-83.56122770102895,37.88996495181381],[-83.56118279047493,37.88996495181381],[-83.56118279047493,37.88992951544121],[-83.56122770102895,37.88992951544121]]]}},{"type":"Feature","properties":{"kind":"sunset","strength":1.0,"hard":true,"sector":"r1c4"},"geometry":{"type":"Polygon","coordinates":[[[-83.56127261158296,37.88978776978024],[-83.56127261158296,37.88975233332236],[-83.56133997741402,37.88971689684742],[-83.56136243269103,37.889646023846375],[-83.56142979852207,37.88959286905083],[-83.56147470907611,37.88959286905083],[-83.56145225379909,37.889646023846375],[-83.56133997741402,37.88973461508702],[-83.56133997741402,37.88977005155343],[-83.56129506686,37.88978776978024],[-83.56125015630596,37.889911797248516],[-83.56120524575195,37.889911797248516],[-83.56122770102895,37.889840924435084],[-83.56125015630596,37.889840924435084],[-83.56125015630596,37.88978776978024],[-83.56127261158296,37.88978776978024]]]}},{"type":"Feature","properties":{"kind":"sunset","strength":1.0,"hard":true,"sector":"r1c4"},"geometry":{"type":"Polygon","coordinates":[[[-83.56156453018416,37.88434807387463],[-83.56156453018416,37.88431263479878],[-83.56149716435313,37.88424175659594],[-83.56149716435313,37.88418859789905],[-83.56145225379909,37.88415315874646],[-83.56145225379909,37.884099999985594],[-83.56140734324507,37.88408228039013],[-83.56140734324507,37.884046841186375],[-83.56136243269103,37.88401140196557],[-83.56138488796805,37.883993682348766],[-83.56138488796805,37.88386964491181],[-83.56136243269103,37.88386964491181],[-83.56136243269103,37.8837987662826],[-83.56133997741402,37.8837987662826],[-83.56136243269103,37.883710167900155],[-83.56138488796805,37.883710167900155],[-83.56138488796805,37.883781046614644],[-83.56142979852207,37.883816485946305],[-83.56142979852207,37.8840291215781],[-83.56145225379909,37.8840291215781],[-83.56145225379909,37.88408228039013],[-83.56149716435313,37.88408228039013],[-83.56154207490715,37.88422403703457],[-83.56160944073818,37.88425947615304],[-83.5616543512922,37.8844366714896],[-83.56160944073818,37.884418951975135],[-83.56160944073818,37.88438351293341],[-83.56156453018416,37.88434807387463]]]}},{"type":"Feature","properties":{"kind":"sunset","strength":1.0,"hard":true,"sector":"r1c4"},"geometry":{"type":"Polygon","coordinates":[[[-83.56140734324507,37.88360384970053],[-83.56140734324507,37.88365700881953],[-83.56138488796805,37.88365700881953],[-83.56138488796805,37.88360384970053],[-83.56140734324507,37.88360384970053]]]}},{"type":"Feature","properties":{"kind":"sunset","strength":1.0,"hard":true,"sector":"r1c4"},"geometry":{"type":"Polygon","coordinates":[[[-83.56142979852207,37.88342665236005],[-83.56151961963013,37.883408932602556],[-83.56149716435313,37.88344437211329],[-83.56145225379909,37.88344437211329],[-83.56147470907611,37.88360384970053],[-83.56142979852207,37.88360384970053],[-83.56142979852207,37.88355069054315],[-83.56140734324507,37.88355069054315],[-83.56142979852207,37.88342665236005]]]}},{"type":"Feature","properties":{"kind":"sunset","strength":1.0,"hard":true,"sector":"r1c4"},"geometry":{"type":"Polygon","coordinates":[[[-83.5616543512922,37.88945112274175],[-83.56174417240027,37.88941568612185],[-83.56176662767729,37.88945112274175],[-83.56172171712326,37.88945112274175],[-83.56169926184624,37.88950427763964],[-83.5616318960152,37.88952199593041],[-83.5616543512922,37.88945112274175]]]}},{"type":"Feature","properties":{"kind":"sunset","strength":1.0,"hard":true,"sector":"r1c4"},"geometry":{"type":"Polygon","coordinates":[[[-83.56174417240027,37.883338053529926],[-83.56174417240027,37.88332033375111],[-83.56178908295429,37.88332033375111],[-83.56176662767729,37.883373493074764],[-83.5616543512922,37.883408932602556],[-83.56167680656922,37.883355773304466],[-83.56174417240027,37.883338053529926]]]}},{"type":"Feature","properties":{"kind":"sunset","strength":1.0,"hard":true,"sector":"r1c4"},"geometry":{"type":"Polygon","coordinates":[[[-83.56174417240027,37.884525268998004],[-83.56176662767729,37.88459614692796],[-83.56169926184624,37.88459614692796],[-83.56167680656922,37.884507549504846],[-83.56174417240027,37.884525268998004]]]}},{"type":"Feature","properties":{"kind":"sunset","strength":1.0,"hard":true,"sector":"r1c4"},"geometry":{"type":"Polygon","coordinates":[[[-83.56174417240027,37.884702463695],[-83.56172171712326,37.88468474424448],[-83.56169926184624,37.88463158586737],[-83.56174417240027,37.88463158586737],[-83.56178908295429,37.88468474424448],[-83.56183399350833,37.88468474424448],[-83.56185644878533,37.88473790258323],[-83.56174417240027,37.884702463695]]]}},{"type":"Feature","properties":{"kind":"sunset","strength":1.0,"hard":true,"sector":"r1c4"},"geometry":{"type":"Polygon","coordinates":[[[-83.56187890406235,37.88468474424448],[-83.56187890406235,37.884649305330676],[-83.56192381461639,37.884667024789714],[-83.56192381461639,37.88468474424448],[-83.56187890406235,37.88468474424448]]]}},{"type":"Feature","properties":{"kind":"sunset","strength":1.0,"hard":true,"sector":"r1c4"},"geometry":{"type":"Polygon","coordinates":[[[-83.56208100155547,37.883338053529926],[-83.56201363572443,37.883408932602556],[-83.5619687251704,37.883408932602556],[-83.56199118044741,37.883355773304466],[-83.56208100155547,37.883338053529926]]]}},{"type":"Feature","properties":{"kind":"sunset","strength":1.0,"hard":true,"sector":"r1c4"},"geometry":{"type":"Polygon","coordinates":[[[-83.56201363572443,37.88938024948489],[-83.56208100155547,37.889309376159794],[-83.56212591210951,37.889309376159794],[-83.56212591210951,37.88934481283086],[-83.56205854627846,37.88939796780549],[-83.56208100155547,37.88948655934461],[-83.56201363572443,37.88948655934461],[-83.56201363572443,37.88938024948489]]]}},{"type":"Feature","properties":{"kind":"sunset","strength":1.0,"hard":true,"sector":"r1c4"},"geometry":{"type":"Polygon","coordinates":[[[-83.56217082266353,37.883249454593205],[-83.56221573321756,37.88314313572845],[-83.56244028598769,37.88296593727943],[-83.56248519654173,37.88296593727943],[-83.56257501764979,37.882895057780445],[-83.5626423834808,37.88291277766158],[-83.5626423834808,37.88293049753847],[-83.56257501764979,37.88293049753847],[-83.56253010709575,37.88298365714353],[-83.56248519654173,37.88298365714353],[-83.56241783071067,37.88307225640001],[-83.56228309904859,37.88314313572845],[-83.56223818849458,37.883249454593205],[-83.56214836738653,37.88332033375111],[-83.56210345683249,37.88332033375111],[-83.56210345683249,37.88328489418068],[-83.56217082266353,37.883249454593205]]]}},{"type":"Feature","properties":{"kind":"sunset","strength":1.0,"hard":true,"sector":"r1c4"},"geometry":{"type":"Polygon","coordinates":[[[-83.56277711514291,37.88922078440749],[-83.56284448097394,37.8891499109289],[-83.562934302082,37.889132192548594],[-83.562934302082,37.88916762930494],[-83.56288939152797,37.88916762930494],[-83.56284448097394,37.88920306604424],[-83.56282202569693,37.88936253116001],[-83.56275465986587,37.88938024948489],[-83.56277711514291,37.88922078440749]]]}},{"type":"Feature","properties":{"kind":"sunset","strength":1.0,"hard":true,"sector":"r1c4"},"geometry":{"type":"Polygon","coordinates":[[[-83.56302412319005,37.88287733789504],[-83.56302412319005,37.88285961800536],[-83.56306903374407,37.88285961800536],[-83.56311394429811,37.88275329857781],[-83.56320376540617,37.88273557865829],[-83.56313639957513,37.88278873840404],[-83.56311394429811,37.88287733789504],[-83.56302412319005,37.882895057780445],[-83.56297921263601,37.88294821741107],[-83.562934302082,37.88294821741107],[-83.56297921263601,37.88287733789504],[-83.56302412319005,37.88287733789504]]]}},{"type":"Feature","properties":{"kind":"sunset","strength":1.0,"hard":true,"sector":"r1c4"},"geometry":{"type":"Polygon","coordinates":[[[-83.56302412319005,37.889079037382075],[-83.56306903374407,37.889079037382075],[-83.56306903374407,37.88911447416402],[-83.56295675735902,37.8891499109289],[-83.56295675735902,37.88911447416402],[-83.56302412319005,37.889096755775185],[-83.56302412319005,37.889079037382075]]]}},{"type":"Feature","properties":{"kind":"sunset","strength":1.0,"hard":true,"sector":"r1c4"},"geometry":{"type":"Polygon","coordinates":[[[-83.5632711312372,37.88459614692796],[-83.56315885485213,37.884525268998004],[-83.56315885485213,37.88448983000743],[-83.5632486759602,37.884507549504846],[-83.56329358651423,37.88456070797151],[-83.56336095234525,37.88456070797151],[-83.56336095234525,37.88457842745186],[-83.5632711312372,37.88459614692796]]]}},{"type":"Feature","properties":{"kind":"sunset","strength":1.0,"hard":true,"sector":"r1c4"},"geometry":{"type":"Polygon","coordinates":[[[-83.5632486759602,37.888937290083796],[-83.5632486759602,37.88890185321659],[-83.56329358651423,37.888884134776575],[-83.56329358651423,37.8887246686247],[-83.56331604179124,37.8887246686247],[-83.56331604179124,37.88868923165515],[-83.56338340762227,37.888671513163985],[-83.56347322873033,37.888600639156664],[-83.56347322873033,37.88856520212744],[-83.56351813928437,37.888547483606416],[-83.56347322873033,37.88837029816175],[-83.56336095234525,37.888317142445224],[-83.56336095234525,37.88828170527954],[-83.56331604179124,37.88824626809681],[-83.56331604179124,37.88812223782293],[-83.56338340762227,37.888051363286905],[-83.56338340762227,37.88801592599331],[-83.56340586289927,37.88801592599331],[-83.56340586289927,37.8879273326847],[-83.5634283181763,37.8879273326847],[-83.56345077345331,37.88783873926951],[-83.56349568400734,37.88782102057368],[-83.56354059456137,37.887732427030556],[-83.5636079603924,37.88771470830915],[-83.56365287094644,37.88775014574771],[-83.5635855051154,37.88775014574771],[-83.56354059456137,37.88778558316922],[-83.56354059456137,37.88783873926951],[-83.56349568400734,37.88785645796107],[-83.56349568400734,37.88790961401019],[-83.56345077345331,37.88794505135495],[-83.56347322873033,37.888033644642235],[-83.56340586289927,37.8880690819273],[-83.56340586289927,37.88810451919531],[-83.56336095234525,37.88813995644626],[-83.56336095234525,37.88822854949905],[-83.5634283181763,37.88828170527954],[-83.5634283181763,37.888317142445224],[-83.56354059456137,37.88833486102167],[-83.56354059456137,37.888405735284806],[-83.5635630498384,37.888405735284806],[-83.56354059456137,37.888441172390785],[-83.5635855051154,37.888476609479724],[-83.5635630498384,37.88849432801779],[-83.5635855051154,37.888529765081145],[-83.5635630498384,37.888529765081145],[-83.56354059456137,37.888600639156664],[-83.5634283181763,37.88868923165515],[-83.56336095234525,37.88870695014205],[-83.56333849706824,37.888919571652316],[-83.5632711312372,37.888937290083796],[-83.5632486759602,37.889043600583086],[-83.56318131012914,37.88906131898472],[-83.56320376540617,37.88897272693394],[-83.5632486759602,37.888937290083796]]]}},{"type":"Feature","properties":{"kind":"sunset","strength":1.0,"hard":true,"sector":"r1c4"},"geometry":{"type":"Polygon","coordinates":[[[-83.56338340762227,37.882717858734516],[-83.56336095234525,37.88277101849306],[-83.56331604179124,37.88275329857781],[-83.56331604179124,37.88273557865829],[-83.56338340762227,37.882717858734516]]]}},{"type":"Feature","properties":{"kind":"sunset","strength":1.0,"hard":true,"sector":"r1c4"},"geometry":{"type":"Polygon","coordinates":[[[-83.56394478954763,37.88220397909026],[-83.56401215537866,37.88222169913767],[-83.56401215537866,37.882239419180834],[-83.56396724482464,37.882239419180834],[-83.5639223342706,37.88227485925436],[-83.5638998789936,37.88222169913767],[-83.56394478954763,37.88222169913767],[-83.56394478954763,37.88220397909026]]]}},{"type":"Feature","properties":{"kind":"sunset","strength":1.0,"hard":true,"sector":"r1c4"},"geometry":{"type":"Polygon","coordinates":[[[-83.5638998789936,37.882257139219725],[-83.5639223342706,37.88231029931083],[-83.56383251316254,37.88238117937262],[-83.56376514733151,37.882398899377414],[-83.56376514733151,37.882505219316606],[-83.56374269205449,37.882505219316606],[-83.56376514733151,37.88259381914868],[-83.56372023677747,37.88261153910231],[-83.56369778150045,37.88270013880647],[-83.56363041566944,37.88273557865829],[-83.56363041566944,37.88277101849306],[-83.5635630498384,37.88277101849306],[-83.5635630498384,37.88273557865829],[-83.56363041566944,37.88270013880647],[-83.56367532622345,37.88259381914868],[-83.56369778150045,37.88259381914868],[-83.56369778150045,37.88245205936619],[-83.56372023677747,37.88245205936619],[-83.56374269205449,37.882363459363575],[-83.56381005788553,37.882345739350264],[-83.56385496843957,37.88231029931083],[-83.56385496843957,37.88227485925436],[-83.5638998789936,37.882257139219725]]]}},{"type":"Feature","properties":{"kind":"sunset","strength":1.0,"hard":true,"sector":"r1c4"},"geometry":{"type":"Polygon","coordinates":[[[-83.56383251316254,37.863577852352826],[-83.5638998789936,37.86352467874298],[-83.56396724482464,37.86354240328386],[-83.5638998789936,37.86359557688092],[-83.56385496843957,37.86359557688092],[-83.56381005788553,37.86364875043961],[-83.56374269205449,37.86366647495064],[-83.56378760260851,37.863577852352826],[-83.56383251316254,37.863577852352826]]]}},{"type":"Feature","properties":{"kind":"sunset","strength":1.0,"hard":true,"sector":"r1c4"},"geometry":{"type":"Polygon","coordinates":[[[-83.56381005788553,37.88771470830915],[-83.56385496843957,37.88775014574771],[-83.56376514733151,37.88776786446059],[-83.56376514733151,37.887732427030556],[-83.56381005788553,37.887732427030556],[-83.56381005788553,37.88771470830915]]]}},{"type":"Feature","properties":{"kind":"sunset","strength":1.0,"hard":true,"sector":"r1c4"},"geometry":{"type":"Polygon","coordinates":[[[-83.56401215537866,37.88459614692796],[-83.56401215537866,37.88456070797151],[-83.56394478954763,37.884525268998004],[-83.5639223342706,37.88445439099982],[-83.56396724482464,37.88445439099982],[-83.56398970010166,37.884507549504846],[-83.56407952120969,37.88456070797151],[-83.56407952120969,37.88463158586737],[-83.56412443176372,37.884649305330676],[-83.56412443176372,37.88468474424448],[-83.56405706593267,37.884667024789714],[-83.56405706593267,37.88463158586737],[-83.56401215537866,37.88459614692796]]]}},{"type":"Feature","properties":{"kind":"sunset","strength":1.0,"hard":true,"sector":"r1c4"},"geometry":{"type":"Polygon","coordinates":[[[-83.5642591634258,37.8875375208605],[-83.56430407397984,37.88755523962456],[-83.56428161870284,37.88759067713987],[-83.5642367081488,37.88757295838434],[-83.5642591634258,37.8875375208605]]]}},{"type":"Feature","properties":{"kind":"sunset","strength":1.0,"hard":true,"sector":"r1c4"},"geometry":{"type":"Polygon","coordinates":[[[-83.56421425287178,37.88757295838434],[-83.5642591634258,37.88760839589113],[-83.56416934231775,37.88760839589113],[-83.56414688704074,37.887626114638124],[-83.56414688704074,37.88771470830915],[-83.56403461065567,37.88775014574771],[-83.56403461065567,37.88771470830915],[-83.56407952120969,37.88771470830915],[-83.56407952120969,37.88764383338086],[-83.56410197648671,37.88764383338086],[-83.56412443176372,37.88759067713987],[-83.56421425287178,37.88759067713987],[-83.56421425287178,37.88757295838434]]]}},{"type":"Feature","properties":{"kind":"sunset","strength":1.0,"hard":true,"sector":"r1c4"},"geometry":{"type":"Polygon","coordinates":[[[-83.56414688704074,37.86350695419784],[-83.56414688704074,37.86354240328386],[-83.56407952120969,37.863577852352826],[-83.56407952120969,37.86354240328386],[-83.56414688704074,37.86350695419784]]]}},{"type":"Feature","properties":{"kind":"sunset","strength":1.0,"hard":true,"sector":"r1c4"},"geometry":{"type":"Polygon","coordinates":[[[-83.56421425287178,37.86322336089582],[-83.56428161870284,37.8631524623998],[-83.56432652925686,37.8631524623998],[-83.5642367081488,37.86324108550917],[-83.5642367081488,37.863311983919935],[-83.56419179759477,37.86329425932363],[-83.56421425287178,37.86322336089582]]]}},{"type":"Feature","properties":{"kind":"sunset","strength":1.0,"hard":true,"sector":"r1c4"},"geometry":{"type":"Polygon","coordinates":[[[-83.56421425287178,37.863311983919935],[-83.56419179759477,37.86347150509477],[-83.56416934231775,37.86347150509477],[-83.56416934231775,37.86336515768324],[-83.56419179759477,37.86336515768324],[-83.56419179759477,37.863311983919935],[-83.56421425287178,37.863311983919935]]]}},{"type":"Feature","properties":{"kind":"sunset","strength":1.0,"hard":true,"sector":"r1c4"},"geometry":{"type":"Polygon","coordinates":[[[-83.56437143981087,37.88750208331961],[-83.56441635036491,37.887466645761656],[-83.56446126091893,37.887466645761656],[-83.56446126091893,37.887431208186655],[-83.564573537304,37.88739577059459],[-83.564573537304,37.88736033298547],[-83.56450617147296,37.88730717653982],[-83.56452862674998,37.887165425830474],[-83.56448371619594,37.8871299881105],[-83.56448371619594,37.88707683149857],[-83.56450617147296,37.88707683149857],[-83.56448371619594,37.88688192359315],[-83.56450617147296,37.88688192359315],[-83.56450617147296,37.88684648573673],[-83.56455108202698,37.88684648573673],[-83.564573537304,37.88686420466707],[-83.56452862674998,37.88689964251495],[-83.56455108202698,37.88700595595628],[-83.564573537304,37.88700595595628],[-83.56455108202698,37.88714770697263],[-83.56459599258102,37.887165425830474],[-83.564573537304,37.8873248953593],[-83.56461844785804,37.8873248953593],[-83.56464090313504,37.88736033298547],[-83.56475317952011,37.88736033298547],[-83.56475317952011,37.88739577059459],[-83.56464090313504,37.88737805179216],[-83.56464090313504,37.887413489392756],[-83.564573537304,37.887413489392756],[-83.56450617147296,37.887484364542765],[-83.56446126091893,37.887484364542765],[-83.56446126091893,37.887519802092186],[-83.56441635036491,37.88755523962456],[-83.56434898453386,37.88755523962456],[-83.56437143981087,37.88750208331961]],[[-83.56459599258102,37.88737805179216],[-83.56461844785804,37.88739577059459],[-83.56461844785804,37.88737805179216],[-83.56459599258102,37.88737805179216]]]}},{"type":"Feature","properties":{"kind":"sunset","strength":1.0,"hard":true,"sector":"r1c4"},"geometry":{"type":"Polygon","coordinates":[[[-83.56450617147296,37.886616139254315],[-83.56452862674998,37.88654526326861],[-83.56461844785804,37.886509825250165],[-83.56461844785804,37.88645666819053],[-83.56464090313504,37.88645666819053],[-83.56464090313504,37.886403511092524],[-83.56466335841206,37.886403511092524],[-83.56466335841206,37.88626175864356],[-83.56468581368908,37.88626175864356],[-83.5647082689661,37.886190882316754],[-83.56477563479712,37.88617316322439],[-83.56479809007413,37.886137725026884],[-83.56484300062817,37.886137725026884],[-83.5648879111822,37.88610228681231],[-83.5649103664592,37.886031410332],[-83.56493282173622,37.886031410332],[-83.56493282173622,37.88606684858068],[-83.56495527701324,37.88606684858068],[-83.56493282173622,37.88612000592172],[-83.56486545590518,37.886137725026884],[-83.56482054535115,37.886190882316754],[-83.56477563479712,37.886190882316754],[-83.56475317952011,37.88624403956826],[-83.5647082689661,37.88626175864356],[-83.56473072424309,37.886403511092524],[-83.5647082689661,37.886403511092524],[-83.5647082689661,37.88645666819053],[-83.56468581368908,37.88645666819053],[-83.56468581368908,37.886509825250165],[-83.56455108202698,37.886598420264285],[-83.56452862674998,37.88674017206515],[-83.56450617147296,37.88674017206515],[-83.56450617147296,37.88681104786326],[-83.56448371619594,37.88681104786326],[-83.56446126091893,37.886669296198825],[-83.56448371619594,37.886669296198825],[-83.56448371619594,37.886616139254315],[-83.56450617147296,37.886616139254315]]]}},{"type":"Feature","properties":{"kind":"sunset","strength":1.0,"hard":true,"sector":"r1c4"},"geometry":{"type":"Polygon","coordinates":[[[-83.56459599258102,37.86628965558129],[-83.56455108202698,37.86625420781678],[-83.56452862674998,37.866183312236615],[-83.564573537304,37.866183312236615],[-83.56461844785804,37.866218760035224],[-83.56461844785804,37.86627193170118],[-83.56466335841206,37.86627193170118],[-83.56468581368908,37.86630737945716],[-83.56459599258102,37.86628965558129]]]}},{"type":"Feature","properties":{"kind":"sunset","strength":1.0,"hard":true,"sector":"r1c4"},"geometry":{"type":"Polygon","coordinates":[[[-83.56459599258102,37.88216853898261],[-83.56473072424309,37.88206221855738],[-83.56477563479712,37.88206221855738],[-83.56477563479712,37.882044498471565],[-83.56484300062817,37.88206221855738],[-83.56484300062817,37.8820799386389],[-83.56477563479712,37.8820799386389],[-83.56473072424309,37.88211537878918],[-83.56473072424309,37.88215081892239],[-83.56461844785804,37.88222169913767],[-83.56459599258102,37.88216853898261]]]}},{"type":"Feature","properties":{"kind":"sunset","strength":1.0,"hard":true,"sector":"r1c4"},"geometry":{"type":"Polygon","coordinates":[[[-83.56500000000001,37.88128253074901],[-83.56495527701324,37.88124709019796],[-83.56495527701324,37.88121164962986],[-83.56500000000001,37.88121164962986],[-83.56500000000001,37.88128253074901]]]}},{"type":"Feature","properties":{"kind":"sunset","strength":1.0,"hard":true,"sector":"r1c4"},"geometry":{"type":"Polygon","coordinates":[[[-83.56495527701324,37.88121164962986],[-83.5649103664592,37.881176209044696],[-83.5649103664592,37.88112304813499],[-83.56482054535115,37.88105216686235],[-83.56473072424309,37.88103444653352],[-83.56466335841206,37.880910404112406],[-83.56464090313504,37.880910404112406],[-83.56461844785804,37.88075092069257],[-83.56464090313504,37.88075092069257],[-83.56466335841206,37.88064459822082],[-83.5647082689661,37.8806091573628],[-83.56466335841206,37.88044967329065],[-83.56473072424309,37.880467393760156],[-83.56473072424309,37.88053827559559],[-83.56479809007413,37.88059143692738],[-83.5647082689661,37.88066231864344],[-83.5647082689661,37.88073320029127],[-83.56468581368908,37.88073320029127],[-83.56466335841206,37.880821802255134],[-83.56468581368908,37.880821802255134],[-83.56473072424309,37.88096356517561],[-83.56497773229025,37.88112304813499],[-83.56495527701324,37.88121164962986]]]}},{"type":"Feature","properties":{"kind":"sunset","strength":1.0,"hard":true,"sector":"r1c4"},"geometry":{"type":"Polygon","coordinates":[[[-83.56475317952011,37.885659307691164],[-83.56473072424309,37.88557071154716],[-83.56466335841206,37.885535273059716],[-83.56461844785804,37.88544667676648],[-83.56466335841206,37.88544667676648],[-83.56473072424309,37.88549983455521],[-83.56473072424309,37.885535273059716],[-83.56479809007413,37.88557071154716],[-83.56477563479712,37.88560615001755],[-83.56484300062817,37.885659307691164],[-83.56484300062817,37.885765622923266],[-83.56479809007413,37.88574790372858],[-83.56477563479712,37.885659307691164],[-83.56475317952011,37.885659307691164]]]}},{"type":"Feature","properties":{"kind":"sunset","strength":1.0,"hard":true,"sector":"r1c4"},"geometry":{"type":"Polygon","coordinates":[[[-83.5647082689661,37.88535808036664],[-83.5647082689661,37.88541123821933],[-83.56464090313504,37.88542895749504],[-83.56466335841206,37.88537579965513],[-83.5647082689661,37.88535808036664]]]}},{"type":"Feature","properties":{"kind":"sunset","strength":1.0,"hard":true,"sector":"r1c4"},"geometry":{"type":"Polygon","coordinates":[[[-83.56482054535115,37.88528720317004],[-83.56479809007413,37.885304922475584],[-83.56477563479712,37.88535808036664],[-83.56475317952011,37.88535808036664],[-83.56475317952011,37.885304922475584],[-83.56477563479712,37.88528720317004],[-83.56482054535115,37.88528720317004]]]}},{"type":"Feature","properties":{"kind":"sunset","strength":1.0,"hard":true,"sector":"r1c4"},"geometry":{"type":"Polygon","coordinates":[[[-83.56484300062817,37.88027246836099],[-83.56482054535115,37.88034335038402],[-83.56475317952011,37.88034335038402],[-83.56482054535115,37.880219306798956],[-83.5649103664592,37.88020158626975],[-83.56500000000001,37.88013070411029],[-83.56500000000001,37.88020158626975],[-83.5648879111822,37.880219306798956],[-83.56486545590518,37.88027246836099],[-83.56484300062817,37.88027246836099]]]}},{"type":"Feature","properties":{"kind":"sunset","strength":1.0,"hard":true,"sector":"r1c4"},"geometry":{"type":"Polygon","coordinates":[[[-83.56495527701324,37.8850922905276],[-83.56484300062817,37.8851808872472],[-83.56484300062817,37.88523404522781],[-83.56477563479712,37.88525176454615],[-83.56479809007413,37.88514544857215],[-83.56486545590518,37.8850922905276],[-83.56495527701324,37.88507457117088],[-83.56495527701324,37.88503913244466],[-83.56500000000001,37.885003693701385],[-83.56500000000001,37.8850922905276],[-83.56495527701324,37.8850922905276]]]}},{"type":"Feature","properties":{"kind":"sunset","strength":1.0,"hard":true,"sector":"r1c4"},"geometry":{"type":"Polygon","coordinates":[[[-83.56479809007413,37.885818780481756],[-83.56484300062817,37.8857833421137],[-83.56486545590518,37.88588965716673],[-83.56482054535115,37.885871938001884],[-83.56479809007413,37.885818780481756]]]}}]}
