{"type":"FeatureCollection","name":"Accepted hard sunlight rim lip r2c4","features":[{"type":"Feature","properties":{"kind":"sunrise","strength":1.0,"hard":true,"sector":"r2c4"},"geometry":{"type":"Polygon","coordinates":[[[-83.54642967347688,37.845622020961976],[-83.54647458403092,37.845586566568194],[-83.54651949458494,37.845622020961976],[-83.54647458403092,37.84563974815248],[-83.54647458403092,37.845622020961976],[-83.54642967347688,37.845622020961976]]]}},{"type":"Feature","properties":{"kind":"sunrise","strength":1.0,"hard":true,"sector":"r2c4"},"geometry":{"type":"Polygon","coordinates":[[[-83.54692368957119,37.84407973907591],[-83.54692368957119,37.84406201151042],[-83.54696860012523,37.84406201151042],[-83.54696860012523,37.84409746663715],[-83.54685632374014,37.84411519419413],[-83.54687877901716,37.84407973907591],[-83.54692368957119,37.84407973907591]]]}},{"type":"Feature","properties":{"kind":"sunrise","strength":1.0,"hard":true,"sector":"r2c4"},"geometry":{"type":"Polygon","coordinates":[[[-83.54699105540224,37.84407973907591],[-83.54705842123326,37.84400882878834],[-83.5471033317873,37.84400882878834],[-83.54708087651028,37.84406201151042],[-83.54699105540224,37.84407973907591]]]}},{"type":"Feature","properties":{"kind":"sunrise","strength":1.0,"hard":true,"sector":"r2c4"},"geometry":{"type":"Polygon","coordinates":[[[-83.54849555896216,37.84574611120598],[-83.54851801423916,37.84571065687186],[-83.54856292479319,37.84571065687186],[-83.54854046951617,37.845781565523055],[-83.54849555896216,37.84574611120598]]]}},{"type":"Feature","properties":{"kind":"sunrise","strength":1.0,"hard":true,"sector":"r2c4"},"geometry":{"type":"Polygon","coordinates":[[[-83.54934885948869,37.84081779528026],[-83.5493713147657,37.84080006693067],[-83.54934885948869,37.84062278320052],[-83.5493937700427,37.84062278320052],[-83.5493937700427,37.840658239980634],[-83.54941622531972,37.840658239980634],[-83.54941622531972,37.84074688185637],[-83.5493937700427,37.84074688185637],[-83.54941622531972,37.84081779528026],[-83.5493937700427,37.84081779528026],[-83.5493937700427,37.84085325196662],[-83.54934885948869,37.84085325196662],[-83.5493713147657,37.84083552362558],[-83.54934885948869,37.84081779528026]]]}},{"type":"Feature","properties":{"kind":"sunrise","strength":1.0,"hard":true,"sector":"r2c4"},"geometry":{"type":"Polygon","coordinates":[[[-83.55031443640027,37.84663246401921],[-83.55040425750833,37.846614737067355],[-83.55047162333936,37.8465438292173],[-83.55051653389337,37.84656155618621],[-83.55049407861637,37.846614737067355],[-83.55040425750833,37.84663246401921],[-83.55033689167728,37.84668564484922],[-83.55029198112325,37.846667917910146],[-83.55031443640027,37.84663246401921]]]}},{"type":"Feature","properties":{"kind":"sunrise","strength":1.0,"hard":true,"sector":"r2c4"},"geometry":{"type":"Polygon","coordinates":[[[-83.55051653389337,37.84649064828501],[-83.55060635500143,37.84641974031564],[-83.55065126555547,37.84641974031564],[-83.55062881027845,37.84647292129907],[-83.55058389972443,37.84647292129907],[-83.55058389972443,37.84650837526671],[-83.55051653389337,37.84652610224413],[-83.55051653389337,37.84649064828501]]]}},{"type":"Feature","properties":{"kind":"sunrise","strength":1.0,"hard":true,"sector":"r2c4"},"geometry":{"type":"Polygon","coordinates":[[[-83.55080845249456,37.84454065428321],[-83.5506961761095,37.84446974443882],[-83.5506961761095,37.84441656201078],[-83.55062881027845,37.844398834526245],[-83.55060635500143,37.84432792454549],[-83.55065126555547,37.84432792454549],[-83.55071863138652,37.84438110703744],[-83.55071863138652,37.84441656201078],[-83.55078599721756,37.84445201696706],[-83.55078599721756,37.844487471906305],[-83.55083090777157,37.84450519936953],[-83.55085336304859,37.84455838173365],[-83.55080845249456,37.844576109179826],[-83.55080845249456,37.84454065428321]]]}},{"type":"Feature","properties":{"kind":"sunrise","strength":1.0,"hard":true,"sector":"r2c4"},"geometry":{"type":"Polygon","coordinates":[[[-83.55107791581874,37.84491292984765],[-83.55105546054173,37.84482429297895],[-83.55110037109576,37.84482429297895],[-83.55110037109576,37.844859747739214],[-83.55114528164978,37.84489520248243],[-83.55114528164978,37.84494838456529],[-83.5511677369268,37.84494838456529],[-83.55114528164978,37.84500156660981],[-83.55112282637276,37.84500156660981],[-83.55110037109576,37.84491292984765],[-83.55107791581874,37.84491292984765]]]}},{"type":"Feature","properties":{"kind":"sunrise","strength":1.0,"hard":true,"sector":"r2c4"},"geometry":{"type":"Polygon","coordinates":[[[-83.55110037109576,37.84750107944002],[-83.55114528164978,37.84750107944002],[-83.55114528164978,37.84751880617881],[-83.55112282637276,37.84751880617881],[-83.55112282637276,37.8475542596436],[-83.55105546054173,37.8475719863696],[-83.55105546054173,37.84753653291334],[-83.55110037109576,37.84750107944002]]]}},{"type":"Feature","properties":{"kind":"sunrise","strength":1.0,"hard":true,"sector":"r2c4"},"geometry":{"type":"Polygon","coordinates":[[[-83.55121264748081,37.84519656711157],[-83.5511677369268,37.845090203265435],[-83.55114528164978,37.845090203265435],[-83.55114528164978,37.84505474861597],[-83.5511901922038,37.84505474861597],[-83.55121264748081,37.84512565789787],[-83.55128001331185,37.84516111251323],[-83.55130246858887,37.84523202169285],[-83.55125755803483,37.84519656711157],[-83.55121264748081,37.84519656711157]]]}},{"type":"Feature","properties":{"kind":"sunrise","strength":1.0,"hard":true,"sector":"r2c4"},"geometry":{"type":"Polygon","coordinates":[[[-83.55132492386588,37.847430172442266],[-83.5513698344199,37.84739471891782],[-83.55141474497394,37.84739471891782],[-83.55141474497394,37.847430172442266],[-83.55132492386588,37.84746562594967],[-83.55132492386588,37.847430172442266]]]}},{"type":"Feature","properties":{"kind":"sunrise","strength":1.0,"hard":true,"sector":"r2c4"},"geometry":{"type":"Polygon","coordinates":[[[-83.551482110805,37.84732381181779],[-83.55152702135901,37.847288358242196],[-83.55159438719004,37.847288358242196],[-83.55159438719004,37.84732381181779],[-83.551482110805,37.847359265376326],[-83.551482110805,37.84732381181779]]]}},{"type":"Feature","properties":{"kind":"sunrise","strength":1.0,"hard":true,"sector":"r2c4"},"geometry":{"type":"Polygon","coordinates":[[[-83.55208840328436,37.84868876151651],[-83.5521557691154,37.84867103505898],[-83.55213331383838,37.84872421441878],[-83.55208840328436,37.84874194086352],[-83.55208840328436,37.84877739374023],[-83.55204349273033,37.84877739374023],[-83.55208840328436,37.84868876151651]]]}},{"type":"Feature","properties":{"kind":"sunrise","strength":1.0,"hard":true,"sector":"r2c4"},"geometry":{"type":"Polygon","coordinates":[[[-83.55244768771658,37.84844059072335],[-83.55242523243956,37.84844059072335],[-83.55242523243956,37.84847604374493],[-83.55238032188554,37.84849377024934],[-83.55238032188554,37.84842286420616],[-83.55244768771658,37.8484051376847],[-83.55244768771658,37.84844059072335]]]}},{"type":"Feature","properties":{"kind":"sunrise","strength":1.0,"hard":true,"sector":"r2c4"},"geometry":{"type":"Polygon","coordinates":[[[-83.56190135933937,37.82663375378576],[-83.56194626989338,37.82652736317176],[-83.56199118044741,37.826509631387864],[-83.56199118044741,37.8264387042096],[-83.56203609100145,37.82640324059492],[-83.56201363572443,37.82633231331441],[-83.56205854627846,37.8262968496486],[-83.56210345683249,37.8262968496486],[-83.56208100155547,37.8264209724044],[-83.56205854627846,37.8264209724044],[-83.56203609100145,37.82649189959968],[-83.56199118044741,37.82652736317176],[-83.56199118044741,37.82658055849794],[-83.5619687251704,37.82658055849794],[-83.56194626989338,37.82665148553985],[-83.56183399350833,37.82670468077654],[-83.56183399350833,37.82666921728967],[-83.56187890406235,37.82666921728967],[-83.56187890406235,37.82663375378576],[-83.56190135933937,37.82663375378576]]]}},{"type":"Feature","properties":{"kind":"sunrise","strength":1.0,"hard":true,"sector":"r2c4"},"geometry":{"type":"Polygon","coordinates":[[[-83.5642591634258,37.827538067811744],[-83.56419179759477,37.82755579934853],[-83.56419179759477,37.8275203362707],[-83.5642591634258,37.8275203362707],[-83.5642591634258,37.827538067811744]]]}},{"type":"Feature","properties":{"kind":"sunrise","strength":1.0,"hard":true,"sector":"r2c4"},"geometry":{"type":"Polygon","coordinates":[[[-83.56428161870284,37.8275203362707],[-83.56437143981087,37.827449410063885],[-83.56441635036491,37.827449410063885],[-83.56446126091893,37.82739621536405],[-83.56450617147296,37.82739621536405],[-83.56446126091893,37.82746714162198],[-83.56428161870284,37.8275203362707]]]}},{"type":"Feature","properties":{"kind":"sunset","strength":1.0,"hard":true,"sector":"r2c4"},"geometry":{"type":"Polygon","coordinates":[[[-83.54647458403092,37.845586566568194],[-83.54654194986196,37.84556883936491],[-83.54658686041599,37.84560429376721],[-83.54647458403092,37.84563974815248],[-83.5464521287539,37.845622020961976],[-83.54647458403092,37.845586566568194]]]}},{"type":"Feature","properties":{"kind":"sunset","strength":1.0,"hard":true,"sector":"r2c4"},"geometry":{"type":"Polygon","coordinates":[[[-83.54667668152403,37.84551565772949],[-83.54672159207806,37.84555111215736],[-83.546609315693,37.845586566568194],[-83.54663177097001,37.84553338494556],[-83.54667668152403,37.84553338494556],[-83.54667668152403,37.84551565772949]]]}},{"type":"Feature","properties":{"kind":"sunset","strength":1.0,"hard":true,"sector":"r2c4"},"geometry":{"type":"Polygon","coordinates":[[[-83.54685632374014,37.845462476055715],[-83.54692368957119,37.84540929434359],[-83.54696860012523,37.84540929434359],[-83.54696860012523,37.845462476055715],[-83.54685632374014,37.84549793050916],[-83.54685632374014,37.845462476055715]]]}},{"type":"Feature","properties":{"kind":"sunset","strength":1.0,"hard":true,"sector":"r2c4"},"geometry":{"type":"Polygon","coordinates":[[[-83.54708087651028,37.84530293080428],[-83.54708087651028,37.8452674762571],[-83.54712578706432,37.845249748977096],[-83.5471033317873,37.845356112593116],[-83.54703596595625,37.84537383984753],[-83.54703596595625,37.845338385334436],[-83.54708087651028,37.84530293080428]]]}},{"type":"Feature","properties":{"kind":"sunset","strength":1.0,"hard":true,"sector":"r2c4"},"geometry":{"type":"Polygon","coordinates":[[[-83.54714824234132,37.84443428949105],[-83.54714824234132,37.844398834526245],[-83.54717069761834,37.844398834526245],[-83.54717069761834,37.84450519936953],[-83.54714824234132,37.84450519936953],[-83.54714824234132,37.84454065428321],[-83.5471033317873,37.84454065428321],[-83.5471033317873,37.844487471906305],[-83.54712578706432,37.844487471906305],[-83.54712578706432,37.84443428949105],[-83.54714824234132,37.84443428949105]]]}},{"type":"Feature","properties":{"kind":"sunset","strength":1.0,"hard":true,"sector":"r2c4"},"geometry":{"type":"Polygon","coordinates":[[[-83.54977550975195,37.846614737067355],[-83.54975305447492,37.84656155618621],[-83.54973059919791,37.84656155618621],[-83.54973059919791,37.84647292129907],[-83.54966323336687,37.84640201331265],[-83.54968568864389,37.84634883227809],[-83.54973059919791,37.84634883227809],[-83.5497081439209,37.84638428630539],[-83.54975305447492,37.84640201331265],[-83.54977550975195,37.8465438292173],[-83.54984287558297,37.84659701011123],[-83.54984287558297,37.8466501909668],[-83.54977550975195,37.846614737067355]]]}},{"type":"Feature","properties":{"kind":"sunset","strength":1.0,"hard":true,"sector":"r2c4"},"geometry":{"type":"Polygon","coordinates":[[[-83.55083090777157,37.8469160946694],[-83.55080845249456,37.846862914005584],[-83.55083090777157,37.846862914005584],[-83.55080845249456,37.84677427948067],[-83.55085336304859,37.84673882564088],[-83.55085336304859,37.846792006394175],[-83.55087581832561,37.846792006394175],[-83.55085336304859,37.84696927529486],[-83.55080845249456,37.84696927529486],[-83.55080845249456,37.8469160946694],[-83.55083090777157,37.8469160946694]]]}},{"type":"Feature","properties":{"kind":"sunset","strength":1.0,"hard":true,"sector":"r2c4"},"geometry":{"type":"Polygon","coordinates":[[[-83.55087581832561,37.84911419521869],[-83.55092072887963,37.849131921569686],[-83.55092072887963,37.849167374258876],[-83.55087581832561,37.849149647916406],[-83.55087581832561,37.84911419521869]]]}},{"type":"Feature","properties":{"kind":"sunset","strength":1.0,"hard":true,"sector":"r2c4"},"geometry":{"type":"Polygon","coordinates":[[[-83.55087581832561,37.84911419521869],[-83.55083090777157,37.84911419521869],[-83.55083090777157,37.84907874250393],[-83.55080845249456,37.84907874250393],[-83.55083090777157,37.84891920507656],[-83.55087581832561,37.84891920507656],[-83.55087581832561,37.84895465786803],[-83.55085336304859,37.84895465786803],[-83.55085336304859,37.84909646886344],[-83.55087581832561,37.84911419521869]]]}},{"type":"Feature","properties":{"kind":"sunset","strength":1.0,"hard":true,"sector":"r2c4"},"geometry":{"type":"Polygon","coordinates":[[[-83.55089827360261,37.846579283150845],[-83.55092072887963,37.84652610224413],[-83.55096563943367,37.8465438292173],[-83.55094318415664,37.846614737067355],[-83.55089827360261,37.846579283150845]]]}},{"type":"Feature","properties":{"kind":"sunset","strength":1.0,"hard":true,"sector":"r2c4"},"geometry":{"type":"Polygon","coordinates":[[[-83.551482110805,37.84794424663123],[-83.55152702135901,37.84794424663123],[-83.55152702135901,37.84797969989146],[-83.551504566082,37.84797969989146],[-83.551482110805,37.848032879749866],[-83.55143720025096,37.848032879749866],[-83.551482110805,37.84794424663123]]]}},{"type":"Feature","properties":{"kind":"sunset","strength":1.0,"hard":true,"sector":"r2c4"},"geometry":{"type":"Polygon","coordinates":[[[-83.55159438719004,37.84764289323099],[-83.55163929774407,37.84764289323099],[-83.55161684246707,37.8477138000242],[-83.55157193191303,37.847696073332294],[-83.55159438719004,37.84764289323099]]]}},{"type":"Feature","properties":{"kind":"sunset","strength":1.0,"hard":true,"sector":"r2c4"},"geometry":{"type":"Polygon","coordinates":[[[-83.56073368493466,37.82663375378576],[-83.56071122965763,37.82666921728967],[-83.5606438638266,37.82665148553985],[-83.5606438638266,37.82663375378576],[-83.56073368493466,37.82663375378576]]]}},{"type":"Feature","properties":{"kind":"sunset","strength":1.0,"hard":true,"sector":"r2c4"},"geometry":{"type":"Polygon","coordinates":[[[-83.5609806929818,37.82674014424636],[-83.56089087187375,37.82668694903523],[-83.56089087187375,37.82665148553985],[-83.56093578242776,37.82665148553985],[-83.56095823770478,37.82668694903523],[-83.5610031482588,37.82668694903523],[-83.56104805881283,37.82672241251358],[-83.56109296936687,37.82672241251358],[-83.56109296936687,37.82675787597488],[-83.5609806929818,37.82674014424636]]]}},{"type":"Feature","properties":{"kind":"sunset","strength":1.0,"hard":true,"sector":"r2c4"},"geometry":{"type":"Polygon","coordinates":[[[-83.56221573321756,37.8264209724044],[-83.56219327794055,37.826385508781186],[-83.56210345683249,37.82636777696318],[-83.56208100155547,37.8262968496486],[-83.56214836738653,37.82631458148363],[-83.56217082266353,37.826350045140934],[-83.56221573321756,37.826350045140934],[-83.56223818849458,37.826385508781186],[-83.56232800960261,37.82640324059492],[-83.56232800960261,37.8264209724044],[-83.5622606437716,37.8264209724044],[-83.5622606437716,37.82640324059492],[-83.56221573321756,37.8264209724044]]]}},{"type":"Feature","properties":{"kind":"sunset","strength":1.0,"hard":true,"sector":"r2c4"},"geometry":{"type":"Polygon","coordinates":[[[-83.56235046487964,37.8264387042096],[-83.56244028598769,37.82645643601056],[-83.56241783071067,37.82649189959968],[-83.56235046487964,37.82647416780725],[-83.56235046487964,37.8264387042096]]]}},{"type":"Feature","properties":{"kind":"sunset","strength":1.0,"hard":true,"sector":"r2c4"},"geometry":{"type":"Polygon","coordinates":[[[-83.56340586289927,37.82709477800726],[-83.5634283181763,37.82704158305177],[-83.56345077345331,37.82704158305177],[-83.56345077345331,37.82713024128962],[-83.56340586289927,37.82709477800726]]]}},{"type":"Feature","properties":{"kind":"sunset","strength":1.0,"hard":true,"sector":"r2c4"},"geometry":{"type":"Polygon","coordinates":[[[-83.5635630498384,37.82675787597488],[-83.5635855051154,37.82675787597488],[-83.56363041566944,37.82665148553985],[-83.56369778150045,37.826598290264805],[-83.56369778150045,37.82665148553985],[-83.56365287094644,37.82666921728967],[-83.56365287094644,37.82670468077654],[-83.5636079603924,37.82674014424636],[-83.5635855051154,37.82682880284636],[-83.56354059456137,37.826811071134884],[-83.5635630498384,37.82675787597488]]]}},{"type":"Feature","properties":{"kind":"sunset","strength":1.0,"hard":true,"sector":"r2c4"},"geometry":{"type":"Polygon","coordinates":[[[-83.56448371619594,37.82743167850153],[-83.56448371619594,37.82739621536405],[-83.56450617147296,37.82739621536405],[-83.56459599258102,37.827449410063885],[-83.56455108202698,37.82746714162198],[-83.56455108202698,37.827449410063885],[-83.56448371619594,37.82743167850153]]]}},{"type":"Feature","properties":{"kind":"sunset","strength":1.0,"hard":true,"sector":"r2c4"},"geometry":{"type":"Polygon","coordinates":[[[-83.56497773229025,37.82762672545308],[-83.56486545590518,37.827538067811744],[-83.56482054535115,37.827538067811744],[-83.56477563479712,37.827449410063885],[-83.56484300062817,37.82746714162198],[-83.56484300062817,37.82750260472538],[-83.56500000000001,37.827591262409335],[-83.56500000000001,37.827679919986764],[-83.56497773229025,37.827679919986764],[-83.56497773229025,37.82762672545308]]]}}]}
