{"type":"FeatureCollection","name":"Accepted hard sunlight rim lip ring-r5c6","features":[{"type":"Feature","properties":{"kind":"sunrise","strength":1.0,"hard":true,"sector":"ring-r5c6"},"geometry":{"type":"Polygon","coordinates":[[[-83.49377242401768,37.73395996099429],[-83.49374996874066,37.73390668655264],[-83.49379487929468,37.73390668655264],[-83.49381733457169,37.73395996099429],[-83.49377242401768,37.73395996099429]]]}},{"type":"Feature","properties":{"kind":"sunrise","strength":1.0,"hard":true,"sector":"ring-r5c6"},"geometry":{"type":"Polygon","coordinates":[[[-83.49386224512571,37.73390668655264],[-83.49381733457169,37.733888928396915],[-83.49381733457169,37.73385341207268],[-83.4938847004027,37.733871170236924],[-83.49390715567974,37.73392444470412],[-83.49386224512571,37.733942202851324],[-83.49386224512571,37.73390668655264]]]}},{"type":"Feature","properties":{"kind":"sunset","strength":1.0,"hard":true,"sector":"ring-r5c6"},"geometry":{"type":"Polygon","coordinates":[[[-83.49240265212008,37.752035541313724],[-83.4924700179511,37.751946772237105],[-83.49253738378215,37.75192901840899],[-83.49253738378215,37.751964526060945],[-83.4924475626741,37.752035541313724],[-83.49240265212008,37.752035541313724]]]}},{"type":"Feature","properties":{"kind":"sunset","strength":1.0,"hard":true,"sector":"ring-r5c6"},"geometry":{"type":"Polygon","coordinates":[[[-83.49258229433617,37.75192901840899],[-83.49253738378215,37.751893510740004],[-83.49260474961316,37.75184024920458],[-83.49260474961316,37.75180474149298],[-83.4926721154442,37.751786987630794],[-83.49260474961316,37.75191126457663],[-83.49258229433617,37.75192901840899]]]}}]}
