{"type":"FeatureCollection","name":"Accepted hard sunlight rim lip ring-r5c5","features":[{"type":"Feature","properties":{"kind":"sunrise","strength":1.0,"hard":true,"sector":"ring-r5c5"},"geometry":{"type":"Polygon","coordinates":[[[-83.52260462456529,37.76472842275136],[-83.52258216928827,37.76474617350796],[-83.52253725873425,37.76474617350796],[-83.52253725873425,37.7647106719905],[-83.52260462456529,37.76469292122539],[-83.52260462456529,37.76472842275136]]]}},{"type":"Feature","properties":{"kind":"sunrise","strength":1.0,"hard":true,"sector":"ring-r5c5"},"geometry":{"type":"Polygon","coordinates":[[[-83.52258216928827,37.76478167500837],[-83.52264953511931,37.76472842275136],[-83.52269444567335,37.76472842275136],[-83.52264953511931,37.76479942575219],[-83.52258216928827,37.764817176491746],[-83.52258216928827,37.76478167500837]]]}},{"type":"Feature","properties":{"kind":"sunrise","strength":1.0,"hard":true,"sector":"ring-r5c5"},"geometry":{"type":"Polygon","coordinates":[[[-83.52922893128435,37.74353098019712],[-83.52922893128435,37.74354873604004],[-83.52918402073033,37.74354873604004],[-83.52918402073033,37.74351322434994],[-83.52927384183837,37.74349546849849],[-83.52927384183837,37.74353098019712],[-83.52922893128435,37.74353098019712]]]}},{"type":"Feature","properties":{"kind":"sunrise","strength":1.0,"hard":true,"sector":"ring-r5c5"},"geometry":{"type":"Polygon","coordinates":[[[-83.52918402073033,37.74354873604004],[-83.52909419962226,37.74361975936915],[-83.52904928906824,37.74361975936915],[-83.52889210212913,37.74374405003108],[-83.52884719157511,37.74383282894754],[-83.52880228102109,37.74381507317277],[-83.52886964685213,37.7436907826301],[-83.52895946796019,37.74361975936915],[-83.52904928906824,37.74360200354325],[-83.52911665489927,37.74354873604004],[-83.52918402073033,37.74354873604004]]]}},{"type":"Feature","properties":{"kind":"sunrise","strength":1.0,"hard":true,"sector":"ring-r5c5"},"geometry":{"type":"Polygon","coordinates":[[[-83.52889210212913,37.74381507317277],[-83.52907174434525,37.74365527100814],[-83.52911665489927,37.74365527100814],[-83.52918402073033,37.74360200354325],[-83.5293412076694,37.74354873604004],[-83.5293187523924,37.74360200354325],[-83.52920647600733,37.74361975936915],[-83.52918402073033,37.74367302682125],[-83.52909419962226,37.7436907826301],[-83.52909419962226,37.74372629423501],[-83.5290043785142,37.7437618058229],[-83.5290043785142,37.743797317393735],[-83.52895946796019,37.74383282894754],[-83.52889210212913,37.743850584718054],[-83.52889210212913,37.74381507317277]]]}},{"type":"Feature","properties":{"kind":"sunrise","strength":1.0,"hard":true,"sector":"ring-r5c5"},"geometry":{"type":"Polygon","coordinates":[[[-83.5521557691154,37.76350361025752],[-83.55222313494643,37.763450357080295],[-83.55222313494643,37.7632728462126],[-83.55226804550045,37.76323734398794],[-83.55229050077747,37.763255095102394],[-83.55229050077747,37.763290597318544],[-83.55226804550045,37.763290597318544],[-83.55226804550045,37.763450357080295],[-83.55222313494643,37.76348585920271],[-83.55220067966943,37.76355686339643],[-83.5521782243924,37.76355686339643],[-83.5521782243924,37.76350361025752],[-83.5521557691154,37.76350361025752]]]}},{"type":"Feature","properties":{"kind":"sunrise","strength":1.0,"hard":true,"sector":"ring-r5c5"},"geometry":{"type":"Polygon","coordinates":[[[-83.5529866143649,37.763006579112265],[-83.5529866143649,37.763042081447686],[-83.55294170381087,37.763042081447686],[-83.55294170381087,37.763006579112265],[-83.5529866143649,37.763006579112265]]]}},{"type":"Feature","properties":{"kind":"sunrise","strength":1.0,"hard":true,"sector":"ring-r5c5"},"geometry":{"type":"Polygon","coordinates":[[[-83.55579352399162,37.73509647328426],[-83.55586088982265,37.73504319966038],[-83.55590580037669,37.73504319966038],[-83.55586088982265,37.73513198901222],[-83.55583843454565,37.73513198901222],[-83.55583843454565,37.7351852625722],[-83.55581597926864,37.7351852625722],[-83.55579352399162,37.73525629392591],[-83.55574861343759,37.73525629392591],[-83.5557710687146,37.735167504723144],[-83.55579352399162,37.735167504723144],[-83.55579352399162,37.73509647328426]]]}},{"type":"Feature","properties":{"kind":"sunrise","strength":1.0,"hard":true,"sector":"ring-r5c5"},"geometry":{"type":"Polygon","coordinates":[[[-83.55664682451815,37.76247404203592],[-83.55662436924113,37.762527295916094],[-83.55657945868711,37.76254504720096],[-83.55660191396412,37.76247404203592],[-83.55664682451815,37.76247404203592]]]}},{"type":"Feature","properties":{"kind":"sunrise","strength":1.0,"hard":true,"sector":"ring-r5c5"},"geometry":{"type":"Polygon","coordinates":[[[-83.55657945868711,37.76254504720096],[-83.55657945868711,37.76263380356141],[-83.55651209285605,37.76263380356141],[-83.55653454813307,37.76254504720096],[-83.55657945868711,37.76254504720096]]]}},{"type":"Feature","properties":{"kind":"sunrise","strength":1.0,"hard":true,"sector":"ring-r5c5"},"geometry":{"type":"Polygon","coordinates":[[[-83.55671419034918,37.74892856026742],[-83.55664682451815,37.74885754203281],[-83.55669173507218,37.74885754203281],[-83.55675910090321,37.74892856026742],[-83.55671419034918,37.74892856026742]]]}},{"type":"Feature","properties":{"kind":"sunrise","strength":1.0,"hard":true,"sector":"ring-r5c5"},"geometry":{"type":"Polygon","coordinates":[[[-83.55693874311932,37.762278777480574],[-83.5570510195044,37.762172269324026],[-83.55707347478142,37.76210126380112],[-83.55711838533543,37.76208351240974],[-83.55711838533543,37.762136766571096],[-83.55709593005842,37.762136766571096],[-83.55709593005842,37.7621900206941],[-83.5570510195044,37.76220777205991],[-83.5570510195044,37.76224327477876],[-83.55693874311932,37.762278777480574]]]}},{"type":"Feature","properties":{"kind":"sunrise","strength":1.0,"hard":true,"sector":"ring-r5c5"},"geometry":{"type":"Polygon","coordinates":[[[-83.55693874311932,37.762278777480574],[-83.55693874311932,37.76231428016534],[-83.55687137728829,37.76233203150133],[-83.55682646673425,37.76240303680271],[-83.55673664562619,37.762420788117396],[-83.55666927979517,37.76247404203592],[-83.55669173507218,37.76238528548375],[-83.55675910090321,37.76238528548375],[-83.5568938325653,37.762278777480574],[-83.55693874311932,37.762278777480574]]]}},{"type":"Feature","properties":{"kind":"sunrise","strength":1.0,"hard":true,"sector":"ring-r5c5"},"geometry":{"type":"Polygon","coordinates":[[[-83.55711838533543,37.763006579112265],[-83.55696119839635,37.762900072003724],[-83.55700610895038,37.76288232080406],[-83.55702856422738,37.76291782319913],[-83.55707347478142,37.76291782319913],[-83.55718575116647,37.763006579112265],[-83.55711838533543,37.763006579112265]]]}},{"type":"Feature","properties":{"kind":"sunrise","strength":1.0,"hard":true,"sector":"ring-r5c5"},"geometry":{"type":"Polygon","coordinates":[[[-83.55698365367336,37.76288232080406],[-83.55684892201126,37.76286456960014],[-83.55687137728829,37.76281131596279],[-83.5568938325653,37.76281131596279],[-83.5568938325653,37.76284681839195],[-83.55696119839635,37.76284681839195],[-83.55698365367336,37.76288232080406]]]}},{"type":"Feature","properties":{"kind":"sunrise","strength":1.0,"hard":true,"sector":"ring-r5c5"},"geometry":{"type":"Polygon","coordinates":[[[-83.55720820644349,37.76201250680163],[-83.55720820644349,37.76204800961422],[-83.55716329588945,37.76208351240974],[-83.55714084061245,37.76197700397202],[-83.55718575116647,37.76197700397202],[-83.55718575116647,37.76201250680163],[-83.55720820644349,37.76201250680163]]]}},{"type":"Feature","properties":{"kind":"sunrise","strength":1.0,"hard":true,"sector":"ring-r5c5"},"geometry":{"type":"Polygon","coordinates":[[[-83.55862288889536,37.76234978283307],[-83.5586902547264,37.76236753416054],[-83.5586902547264,37.76240303680271],[-83.55866779944938,37.76240303680271],[-83.55862288889536,37.76234978283307]]]}},{"type":"Feature","properties":{"kind":"sunrise","strength":1.0,"hard":true,"sector":"ring-r5c5"},"geometry":{"type":"Polygon","coordinates":[[[-83.55961092108396,37.7639118833425],[-83.55961092108396,37.76387638142457],[-83.559655831638,37.76387638142457],[-83.559655831638,37.763894132385666],[-83.55961092108396,37.7639118833425]]]}},{"type":"Feature","properties":{"kind":"sunrise","strength":1.0,"hard":true,"sector":"ring-r5c5"},"geometry":{"type":"Polygon","coordinates":[[[-83.55983547385411,37.73628624089645],[-83.55972319746903,37.73617969532255],[-83.559678286915,37.73617969532255],[-83.55963337636096,37.73614418009717],[-83.55972319746903,37.73607314959532],[-83.55974565274605,37.736019876674206],[-83.55979056330008,37.736019876674206],[-83.55979056330008,37.73603763431884],[-83.55976810802306,37.73603763431884],[-83.55976810802306,37.73607314959532],[-83.55970074219202,37.73614418009717],[-83.55976810802306,37.736161937712],[-83.55979056330008,37.73621521053089],[-83.55983547385411,37.73621521053089],[-83.55988038440813,37.73626848331145],[-83.55983547385411,37.73628624089645]]]}},{"type":"Feature","properties":{"kind":"sunrise","strength":1.0,"hard":true,"sector":"ring-r5c5"},"geometry":{"type":"Polygon","coordinates":[[[-83.559655831638,37.7638053775376],[-83.55970074219202,37.7638053775376],[-83.55970074219202,37.76385863045923],[-83.559655831638,37.76385863045923],[-83.559655831638,37.7638053775376]]]}},{"type":"Feature","properties":{"kind":"sunrise","strength":1.0,"hard":true,"sector":"ring-r5c5"},"geometry":{"type":"Polygon","coordinates":[[[-83.56021721356333,37.73655260416036],[-83.56012739245529,37.73649933158424],[-83.56014984773229,37.736463816512206],[-83.56023966884034,37.73651708911388],[-83.56028457939436,37.73662363420222],[-83.56023966884034,37.73662363420222],[-83.56021721356333,37.73655260416036]]]}},{"type":"Feature","properties":{"kind":"sunrise","strength":1.0,"hard":true,"sector":"ring-r5c5"},"geometry":{"type":"Polygon","coordinates":[[[-83.56039685577944,37.766237221852755],[-83.56023966884034,37.76613071939648],[-83.56021721356333,37.76602421678683],[-83.56026212411736,37.76604196723241],[-83.56028457939436,37.766112968972195],[-83.5603294899484,37.766112968972195],[-83.5603294899484,37.766148469816514],[-83.56041931105646,37.76618397064379],[-83.56044176633347,37.76629047302339],[-83.56039685577944,37.766272722637446],[-83.56039685577944,37.766237221852755]]]}},{"type":"Feature","properties":{"kind":"sunrise","strength":1.0,"hard":true,"sector":"ring-r5c5"},"geometry":{"type":"Polygon","coordinates":[[[-83.56046422161049,37.76653897797931],[-83.56050913216453,37.76676973183355],[-83.56053158744153,37.76676973183355],[-83.56050913216453,37.76684073287461],[-83.56048667688749,37.76684073287461],[-83.56048667688749,37.766751981562635],[-83.56046422161049,37.766751981562635],[-83.56046422161049,37.76664547984766],[-83.56044176633347,37.76664547984766],[-83.56044176633347,37.76653897797931],[-83.56046422161049,37.76653897797931]]]}},{"type":"Feature","properties":{"kind":"sunrise","strength":1.0,"hard":true,"sector":"ring-r5c5"},"geometry":{"type":"Polygon","coordinates":[[[-83.56071122965763,37.73694326854726],[-83.5606663191036,37.73694326854726],[-83.56062140854957,37.73687223881206],[-83.56057649799554,37.73687223881206],[-83.56055404271854,37.73683672391891],[-83.56048667688749,37.73683672391891],[-83.56048667688749,37.73681896646594],[-83.56053158744153,37.736801209008725],[-83.56057649799554,37.73683672391891],[-83.56062140854957,37.73683672391891],[-83.56071122965763,37.73692551111984],[-83.56075614021167,37.73692551111984],[-83.56082350604271,37.7369787833893],[-83.56077859548869,37.736996540803936],[-83.56071122965763,37.73694326854726]]]}},{"type":"Feature","properties":{"kind":"sunrise","strength":1.0,"hard":true,"sector":"ring-r5c5"},"geometry":{"type":"Polygon","coordinates":[[[-83.56057649799554,37.735806784606424],[-83.56059895327256,37.735806784606424],[-83.56059895327256,37.73561144967216],[-83.56057649799554,37.73561144967216],[-83.56055404271854,37.73552266089532],[-83.56057649799554,37.73552266089532],[-83.56057649799554,37.7354693875781],[-83.56062140854957,37.7354693875781],[-83.5606438638266,37.73578902690642],[-83.56062140854957,37.73578902690642],[-83.56059895327256,37.73589557304254],[-83.56055404271854,37.73587781536383],[-83.56057649799554,37.735806784606424]]]}},{"type":"Feature","properties":{"kind":"sunrise","strength":1.0,"hard":true,"sector":"ring-r5c5"},"geometry":{"type":"Polygon","coordinates":[[[-83.56062140854957,37.76584671209658],[-83.5606663191036,37.76584671209658],[-83.5606663191036,37.76586446258477],[-83.56057649799554,37.765917714023814],[-83.56057649799554,37.765882213068714],[-83.56062140854957,37.76584671209658]]]}},{"type":"Feature","properties":{"kind":"sunrise","strength":1.0,"hard":true,"sector":"ring-r5c5"},"geometry":{"type":"Polygon","coordinates":[[[-83.5606663191036,37.76701823517906],[-83.5606438638266,37.76701823517906],[-83.56062140854957,37.7669472343084],[-83.56057649799554,37.76691173384751],[-83.56062140854957,37.76691173384751],[-83.5606663191036,37.7669472343084],[-83.56073368493466,37.76714248653866],[-83.5606663191036,37.76708923598154],[-83.5606663191036,37.76701823517906]]]}},{"type":"Feature","properties":{"kind":"sunrise","strength":1.0,"hard":true,"sector":"ring-r5c5"},"geometry":{"type":"Polygon","coordinates":[[[-83.56071122965763,37.73561144967216],[-83.56071122965763,37.735416114222545],[-83.56073368493466,37.735416114222545],[-83.56075614021167,37.735593691925324],[-83.56077859548869,37.735593691925324],[-83.56077859548869,37.73578902690642],[-83.56075614021167,37.73578902690642],[-83.56075614021167,37.73582454230217],[-83.56073368493466,37.73582454230217],[-83.56073368493466,37.73570023834254],[-83.56071122965763,37.73570023834254],[-83.56073368493466,37.73561144967216],[-83.56071122965763,37.73561144967216]]]}},{"type":"Feature","properties":{"kind":"sunrise","strength":1.0,"hard":true,"sector":"ring-r5c5"},"geometry":{"type":"Polygon","coordinates":[[[-83.56075614021167,37.76579346060643],[-83.56075614021167,37.765775710101195],[-83.56080105076569,37.7657579595917],[-83.56080105076569,37.76579346060643],[-83.56075614021167,37.76579346060643]]]}},{"type":"Feature","properties":{"kind":"sunrise","strength":1.0,"hard":true,"sector":"ring-r5c5"},"geometry":{"type":"Polygon","coordinates":[[[-83.56113787992089,37.73731617353897],[-83.56086841659673,37.737103085202286],[-83.56086841659673,37.73706757041987],[-83.56080105076569,37.737014298214305],[-83.56086841659673,37.737014298214305],[-83.56093578242776,37.737103085202286],[-83.5609806929818,37.73713859996765],[-83.56102560353582,37.73713859996765],[-83.56102560353582,37.737174114716],[-83.56116033519793,37.73728065885879],[-83.56122770102895,37.73729841620101],[-83.56125015630596,37.73736944552733],[-83.56113787992089,37.73731617353897]]]}},{"type":"Feature","properties":{"kind":"sunrise","strength":1.0,"hard":true,"sector":"ring-r5c5"},"geometry":{"type":"Polygon","coordinates":[[[-83.56136243269103,37.73738720284825],[-83.56138488796805,37.73740496016492],[-83.56138488796805,37.73744047478548],[-83.561317522137,37.73742271747734],[-83.561317522137,37.73738720284825],[-83.56136243269103,37.73738720284825]]]}},{"type":"Feature","properties":{"kind":"sunrise","strength":1.0,"hard":true,"sector":"ring-r5c5"},"geometry":{"type":"Polygon","coordinates":[[[-83.56160944073818,37.76703598538605],[-83.5616543512922,37.767071485787305],[-83.56167680656922,37.76719573705744],[-83.5616318960152,37.767160236715846],[-83.56160944073818,37.76703598538605]]]}},{"type":"Feature","properties":{"kind":"sunrise","strength":1.0,"hard":true,"sector":"ring-r5c5"},"geometry":{"type":"Polygon","coordinates":[[[-83.5616543512922,37.76320184174623],[-83.56172171712326,37.76316633948749],[-83.56172171712326,37.76321959286921],[-83.56167680656922,37.763255095102394],[-83.5616543512922,37.76320184174623]]]}},{"type":"Feature","properties":{"kind":"sunrise","strength":1.0,"hard":true,"sector":"ring-r5c5"},"geometry":{"type":"Polygon","coordinates":[[[-83.56178908295429,37.76836723876973],[-83.56178908295429,37.76829623919426],[-83.56176662767729,37.76829623919426],[-83.56176662767729,37.76824298946791],[-83.56181153823131,37.76824298946791],[-83.56181153823131,37.76836723876973],[-83.56178908295429,37.76836723876973]]]}},{"type":"Feature","properties":{"kind":"sunrise","strength":1.0,"hard":true,"sector":"ring-r5c5"},"geometry":{"type":"Polygon","coordinates":[[[-83.56205854627846,37.73740496016492],[-83.56212591210951,37.73742271747734],[-83.56212591210951,37.73745823208937],[-83.56205854627846,37.73744047478548],[-83.56205854627846,37.73740496016492]]]}},{"type":"Feature","properties":{"kind":"sunrise","strength":1.0,"hard":true,"sector":"ring-r5c5"},"geometry":{"type":"Polygon","coordinates":[[[-83.56223818849458,37.73754701854494],[-83.5623055543256,37.737564775823266],[-83.5623055543256,37.73760029036717],[-83.56223818849458,37.73758253309735],[-83.56223818849458,37.73754701854494]]]}},{"type":"Feature","properties":{"kind":"sunrise","strength":1.0,"hard":true,"sector":"ring-r5c5"},"geometry":{"type":"Polygon","coordinates":[[[-83.56248519654173,37.761941501125364],[-83.56255256237277,37.76195925255083],[-83.56255256237277,37.761994755388955],[-83.56244028598769,37.76197700397202],[-83.56248519654173,37.761941501125364]]]}},{"type":"Feature","properties":{"kind":"sunrise","strength":1.0,"hard":true,"sector":"ring-r5c5"},"geometry":{"type":"Polygon","coordinates":[[[-83.56277711514291,37.76210126380112],[-83.56277711514291,37.762136766571096],[-83.56275465986587,37.762136766571096],[-83.56273220458887,37.76208351240974],[-83.56277711514291,37.76210126380112]]]}},{"type":"Feature","properties":{"kind":"sunrise","strength":1.0,"hard":true,"sector":"ring-r5c5"},"geometry":{"type":"Polygon","coordinates":[[[-83.56372023677747,37.766858483124224],[-83.5636079603924,37.76676973183355],[-83.56369778150045,37.766787482100206],[-83.56372023677747,37.766858483124224]]]}},{"type":"Feature","properties":{"kind":"sunrise","strength":1.0,"hard":true,"sector":"ring-r5c5"},"geometry":{"type":"Polygon","coordinates":[[[-83.5636079603924,37.76676973183355],[-83.5635630498384,37.76676973183355],[-83.5635630498384,37.76673423128745],[-83.56347322873033,37.76666323014414],[-83.5635630498384,37.766680980436355],[-83.5636079603924,37.76676973183355]]]}},{"type":"Feature","properties":{"kind":"sunrise","strength":1.0,"hard":true,"sector":"ring-r5c5"},"geometry":{"type":"Polygon","coordinates":[[[-83.56372023677747,37.7669472343084],[-83.56372023677747,37.76701823517906],[-83.56369778150045,37.76701823517906],[-83.56367532622345,37.76687623336958],[-83.56369778150045,37.76687623336958],[-83.56369778150045,37.7669472343084],[-83.56372023677747,37.7669472343084]]]}},{"type":"Feature","properties":{"kind":"sunrise","strength":1.0,"hard":true,"sector":"ring-r5c5"},"geometry":{"type":"Polygon","coordinates":[[[-83.56376514733151,37.767071485787305],[-83.56376514733151,37.7671069861715],[-83.56383251316254,37.76714248653866],[-83.56383251316254,37.76717798688878],[-83.56378760260851,37.76717798688878],[-83.56374269205449,37.76714248653866],[-83.56374269205449,37.767071485787305],[-83.56376514733151,37.767071485787305]]]}},{"type":"Feature","properties":{"kind":"sunrise","strength":1.0,"hard":true,"sector":"ring-r5c5"},"geometry":{"type":"Polygon","coordinates":[[[-83.56459599258102,37.73987318573903],[-83.56450617147296,37.73980215881497],[-83.56443880564191,37.739784402073305],[-83.56443880564191,37.739748888577196],[-83.56434898453386,37.739731131822765],[-83.56432652925686,37.739677861533885],[-83.56428161870284,37.73964234798666],[-83.5642367081488,37.73964234798666],[-83.56398970010166,37.73944702317244],[-83.5639223342706,37.73944702317244],[-83.56387742371658,37.739393752679106],[-83.56381005788553,37.739393752679106],[-83.56381005788553,37.73937599583948],[-83.56374269205449,37.73937599583948],[-83.56374269205449,37.73935823899559],[-83.56376514733151,37.73934048214745],[-83.56387742371658,37.73935823899559],[-83.56394478954763,37.73941150951447],[-83.56403461065567,37.73942926634559],[-83.56405706593267,37.739464779995025],[-83.56410197648671,37.739464779995025],[-83.56419179759477,37.73955356404409],[-83.5642367081488,37.73955356404409],[-83.5642591634258,37.73960683442241],[-83.56432652925686,37.73962459120666],[-83.56432652925686,37.73966010476241],[-83.56437143981087,37.73966010476241],[-83.56443880564191,37.739731131822765],[-83.56448371619594,37.739731131822765],[-83.56448371619594,37.73976664532738],[-83.56452862674998,37.73980215881497],[-83.564573537304,37.73980215881497],[-83.56459599258102,37.73987318573903]]]}},{"type":"Feature","properties":{"kind":"sunrise","strength":1.0,"hard":true,"sector":"ring-r5c5"},"geometry":{"type":"Polygon","coordinates":[[[-83.56437143981087,37.769840464578536],[-83.56437143981087,37.769893713154545],[-83.56434898453386,37.769893713154545],[-83.56434898453386,37.769840464578536],[-83.56437143981087,37.769840464578536]]]}},{"type":"Feature","properties":{"kind":"sunrise","strength":1.0,"hard":true,"sector":"ring-r5c5"},"geometry":{"type":"Polygon","coordinates":[[[-83.56486545590518,37.76882873434877],[-83.5648879111822,37.76882873434877],[-83.5648879111822,37.768775485005875],[-83.5649103664592,37.768775485005875],[-83.5649103664592,37.768704485822354],[-83.56493282173622,37.768704485822354],[-83.56495527701324,37.76856248725082],[-83.56497773229025,37.76856248725082],[-83.56495527701324,37.768775485005875],[-83.5649103664592,37.76881098457207],[-83.5648879111822,37.76889973341301],[-83.56482054535115,37.76893523291955],[-83.56486545590518,37.76882873434877]]]}},{"type":"Feature","properties":{"kind":"sunrise","strength":1.0,"hard":true,"sector":"ring-r5c5"},"geometry":{"type":"Polygon","coordinates":[[[-83.56500000000001,37.740192806053926],[-83.56500000000001,37.740210562697634],[-83.56495527701324,37.740210562697634],[-83.56493282173622,37.74017504940597],[-83.56500000000001,37.740192806053926]]]}},{"type":"Feature","properties":{"kind":"sunset","strength":1.0,"hard":true,"sector":"ring-r5c5"},"geometry":{"type":"Polygon","coordinates":[[[-83.52871245991302,37.74523552169442],[-83.52880228102109,37.745217766256154],[-83.5288247362981,37.745253277128434],[-83.528667549359,37.74530654340491],[-83.528667549359,37.74527103255818],[-83.52871245991302,37.74523552169442]]]}},{"type":"Feature","properties":{"kind":"sunset","strength":1.0,"hard":true,"sector":"ring-r5c5"},"geometry":{"type":"Polygon","coordinates":[[[-83.52871245991302,37.74537756504723],[-83.52877982574407,37.74530654340491],[-83.52886964685213,37.745288787983675],[-83.5288247362981,37.745359809643034],[-83.52871245991302,37.74537756504723]]]}},{"type":"Feature","properties":{"kind":"sunset","strength":1.0,"hard":true,"sector":"ring-r5c5"},"geometry":{"type":"Polygon","coordinates":[[[-83.52891455740615,37.7434777126428],[-83.5290043785142,37.743406689177384],[-83.52904928906824,37.743406689177384],[-83.52904928906824,37.74338893330037],[-83.52913911017629,37.74337117741913],[-83.52913911017629,37.743406689177384],[-83.5290268337912,37.743424445050124],[-83.52895946796019,37.74349546849849],[-83.52884719157511,37.74353098019712],[-83.52884719157511,37.74349546849849],[-83.52891455740615,37.7434777126428]]]}},{"type":"Feature","properties":{"kind":"sunset","strength":1.0,"hard":true,"sector":"ring-r5c5"},"geometry":{"type":"Polygon","coordinates":[[[-83.52884719157511,37.74353098019712],[-83.52884719157511,37.743584247713116],[-83.52880228102109,37.74361975936915],[-83.52877982574407,37.743584247713116],[-83.52884719157511,37.74353098019712]]]}},{"type":"Feature","properties":{"kind":"sunset","strength":1.0,"hard":true,"sector":"ring-r5c5"},"geometry":{"type":"Polygon","coordinates":[[[-83.52886964685213,37.74360200354325],[-83.5290043785142,37.74351322434994],[-83.52904928906824,37.74351322434994],[-83.52907174434525,37.7434777126428],[-83.52918402073033,37.743442200918615],[-83.52918402073033,37.7434777126428],[-83.52909419962226,37.74349546849849],[-83.5290043785142,37.743584247713116],[-83.52895946796019,37.743584247713116],[-83.52891455740615,37.74363751519077],[-83.52886964685213,37.74363751519077],[-83.52886964685213,37.74360200354325]]]}},{"type":"Feature","properties":{"kind":"sunset","strength":1.0,"hard":true,"sector":"ring-r5c5"},"geometry":{"type":"Polygon","coordinates":[[[-83.55776958836883,37.76249179333357],[-83.55779204364583,37.76247404203592],[-83.55779204364583,37.76250954462696],[-83.55770222253778,37.76254504720096],[-83.55770222253778,37.76250954462696],[-83.55776958836883,37.76249179333357]]]}},{"type":"Feature","properties":{"kind":"sunset","strength":1.0,"hard":true,"sector":"ring-r5c5"},"geometry":{"type":"Polygon","coordinates":[[[-83.55907199443563,37.7622610261318],[-83.55911690498966,37.76224327477876],[-83.55916181554367,37.762136766571096],[-83.5592067260977,37.762136766571096],[-83.5592067260977,37.762172269324026],[-83.55916181554367,37.76220777205991],[-83.55916181554367,37.7622610261318],[-83.55907199443563,37.76233203150133],[-83.55907199443563,37.76238528548375],[-83.5590270838816,37.76238528548375],[-83.5590270838816,37.76231428016534],[-83.55904953915862,37.76231428016534],[-83.55907199443563,37.7622610261318]]]}},{"type":"Feature","properties":{"kind":"sunset","strength":1.0,"hard":true,"sector":"ring-r5c5"},"geometry":{"type":"Polygon","coordinates":[[[-83.559678286915,37.736659149197585],[-83.55958846580694,37.73664139170204],[-83.5595210999759,37.736588119189804],[-83.55947618942189,37.73649933158424],[-83.55938636831382,37.73644605896979],[-83.55936391303682,37.73637502875757],[-83.55943127886786,37.73639278631701],[-83.55943127886786,37.736428301423125],[-83.55949864469889,37.736463816512206],[-83.55949864469889,37.73649933158424],[-83.559678286915,37.73664139170204],[-83.55974565274605,37.736659149197585],[-83.55976810802306,37.7367124216587],[-83.55970074219202,37.73669466417593],[-83.559678286915,37.736659149197585]]]}},{"type":"Feature","properties":{"kind":"sunset","strength":1.0,"hard":true,"sector":"ring-r5c5"},"geometry":{"type":"Polygon","coordinates":[[[-83.5609806929818,37.765722458559914],[-83.56102560353582,37.765722458559914],[-83.56109296936687,37.765775710101195],[-83.56107051408986,37.76579346060643],[-83.5610031482588,37.765775710101195],[-83.5609806929818,37.765722458559914]]]}},{"type":"Feature","properties":{"kind":"sunset","strength":1.0,"hard":true,"sector":"ring-r5c5"},"geometry":{"type":"Polygon","coordinates":[[[-83.56107051408986,37.76708923598154],[-83.56113787992089,37.767071485787305],[-83.56113787992089,37.7671069861715],[-83.56109296936687,37.76714248653866],[-83.5610031482588,37.767160236715846],[-83.5610031482588,37.76712473635722],[-83.56104805881283,37.76712473635722],[-83.56107051408986,37.76708923598154]]]}},{"type":"Feature","properties":{"kind":"sunset","strength":1.0,"hard":true,"sector":"ring-r5c5"},"geometry":{"type":"Polygon","coordinates":[[[-83.56122770102895,37.76701823517906],[-83.56127261158296,37.76701823517906],[-83.56127261158296,37.76703598538605],[-83.56120524575195,37.76708923598154],[-83.56116033519793,37.76708923598154],[-83.56118279047493,37.76703598538605],[-83.56122770102895,37.76703598538605],[-83.56122770102895,37.76701823517906]]]}},{"type":"Feature","properties":{"kind":"sunset","strength":1.0,"hard":true,"sector":"ring-r5c5"},"geometry":{"type":"Polygon","coordinates":[[[-83.56145225379909,37.765775710101195],[-83.56147470907611,37.76579346060643],[-83.56149716435313,37.76582896160413],[-83.56140734324507,37.765811211107405],[-83.56140734324507,37.765775710101195],[-83.56145225379909,37.765775710101195]]]}},{"type":"Feature","properties":{"kind":"sunset","strength":1.0,"hard":true,"sector":"ring-r5c5"},"geometry":{"type":"Polygon","coordinates":[[[-83.56201363572443,37.73910964273394],[-83.56208100155547,37.73912739963746],[-83.56208100155547,37.73916291343172],[-83.56201363572443,37.73914515653672],[-83.56201363572443,37.73910964273394]]]}},{"type":"Feature","properties":{"kind":"sunset","strength":1.0,"hard":true,"sector":"ring-r5c5"},"geometry":{"type":"Polygon","coordinates":[[[-83.5626423834808,37.767071485787305],[-83.5625974729268,37.76708923598154],[-83.56261992820382,37.76700048496778],[-83.5626423834808,37.76700048496778],[-83.5626423834808,37.767071485787305]]]}},{"type":"Feature","properties":{"kind":"sunset","strength":1.0,"hard":true,"sector":"ring-r5c5"},"geometry":{"type":"Polygon","coordinates":[[[-83.5625974729268,37.76708923598154],[-83.5625974729268,37.76712473635722],[-83.56255256237277,37.767160236715846],[-83.56253010709575,37.76739098863161],[-83.56250765181873,37.76739098863161],[-83.56250765181873,37.76746198907621],[-83.56248519654173,37.76746198907621],[-83.56250765181873,37.76717798688878],[-83.56253010709575,37.76717798688878],[-83.56255256237277,37.7671069861715],[-83.5625974729268,37.76708923598154]]]}},{"type":"Feature","properties":{"kind":"sunset","strength":1.0,"hard":true,"sector":"ring-r5c5"},"geometry":{"type":"Polygon","coordinates":[[[-83.56315885485213,37.76659222893266],[-83.56320376540617,37.76659222893266],[-83.56320376540617,37.76662772954692],[-83.56315885485213,37.76666323014414],[-83.56309148902109,37.76666323014414],[-83.56311394429811,37.76660997924192],[-83.56315885485213,37.76660997924192],[-83.56315885485213,37.76659222893266]]]}},{"type":"Feature","properties":{"kind":"sunset","strength":1.0,"hard":true,"sector":"ring-r5c5"},"geometry":{"type":"Polygon","coordinates":[[[-83.56401215537866,37.74005075275101],[-83.56385496843957,37.73994421259493],[-83.56385496843957,37.7399086991755],[-83.56365287094644,37.73976664532738],[-83.56365287094644,37.739731131822765],[-83.56354059456137,37.73964234798666],[-83.56347322873033,37.73962459120666],[-83.56347322873033,37.7395890776339],[-83.56336095234525,37.739535807242795],[-83.56333849706824,37.73948253681336],[-83.5634283181763,37.73950029362742],[-83.56349568400734,37.73955356404409],[-83.56349568400734,37.7395890776339],[-83.56374269205449,37.73976664532738],[-83.56374269205449,37.73980215881497],[-83.56401215537866,37.73999748269214],[-83.56401215537866,37.74005075275101]]]}},{"type":"Feature","properties":{"kind":"sunset","strength":1.0,"hard":true,"sector":"ring-r5c5"},"geometry":{"type":"Polygon","coordinates":[[[-83.56333849706824,37.73948253681336],[-83.5632486759602,37.73942926634559],[-83.56322622068318,37.73937599583948],[-83.5632711312372,37.73937599583948],[-83.56333849706824,37.73942926634559],[-83.56333849706824,37.73948253681336]]]}},{"type":"Feature","properties":{"kind":"sunset","strength":1.0,"hard":true,"sector":"ring-r5c5"},"geometry":{"type":"Polygon","coordinates":[[[-83.56387742371658,37.7400862661023],[-83.56369778150045,37.73994421259493],[-83.56369778150045,37.7399086991755],[-83.56354059456137,37.73980215881497],[-83.56354059456137,37.73976664532738],[-83.56340586289927,37.739677861533885],[-83.56338340762227,37.73962459120666],[-83.5634283181763,37.73962459120666],[-83.5635630498384,37.739731131822765],[-83.5635630498384,37.73976664532738],[-83.56376514733151,37.7399086991755],[-83.56376514733151,37.73994421259493],[-83.5638998789936,37.74005075275101],[-83.56394478954763,37.74005075275101],[-83.56398970010166,37.7400862661023],[-83.56398970010166,37.740121779436556],[-83.56387742371658,37.7400862661023]]]}},{"type":"Feature","properties":{"kind":"sunset","strength":1.0,"hard":true,"sector":"ring-r5c5"},"geometry":{"type":"Polygon","coordinates":[[[-83.56383251316254,37.76708923598154],[-83.56385496843957,37.76708923598154],[-83.56385496843957,37.767160236715846],[-83.56378760260851,37.76717798688878],[-83.56383251316254,37.76708923598154]]]}},{"type":"Feature","properties":{"kind":"sunset","strength":1.0,"hard":true,"sector":"ring-r5c5"},"geometry":{"type":"Polygon","coordinates":[[[-83.56387742371658,37.76698273475225],[-83.56401215537866,37.76687623336958],[-83.56401215537866,37.76684073287461],[-83.56405706593267,37.76684073287461],[-83.56410197648671,37.76673423128745],[-83.56416934231775,37.76671648100802],[-83.56416934231775,37.76660997924192],[-83.56412443176372,37.76659222893266],[-83.56412443176372,37.76655672830135],[-83.56407952120969,37.76652122765301],[-83.56407952120969,37.766467976648535],[-83.56412443176372,37.766467976648535],[-83.56414688704074,37.76653897797931],[-83.56421425287178,37.76659222893266],[-83.5642367081488,37.76669873072432],[-83.56412443176372,37.766787482100206],[-83.56412443176372,37.766822982620745],[-83.56403461065567,37.76689398361068],[-83.56403461065567,37.76692948408009],[-83.56398970010166,37.76696498453246],[-83.56394478954763,37.76696498453246],[-83.56394478954763,37.76703598538605],[-83.5638998789936,37.76703598538605],[-83.5638998789936,37.767071485787305],[-83.56387742371658,37.767071485787305],[-83.56387742371658,37.76698273475225]]]}},{"type":"Feature","properties":{"kind":"sunset","strength":1.0,"hard":true,"sector":"ring-r5c5"},"geometry":{"type":"Polygon","coordinates":[[[-83.56412443176372,37.74015729275376],[-83.56403461065567,37.740104022771554],[-83.56403461065567,37.74005075275101],[-83.56410197648671,37.74006850942879],[-83.56412443176372,37.74015729275376]]]}},{"type":"Feature","properties":{"kind":"sunset","strength":1.0,"hard":true,"sector":"ring-r5c5"},"geometry":{"type":"Polygon","coordinates":[[[-83.56412443176372,37.76620172105104],[-83.56421425287178,37.766148469816514],[-83.56421425287178,37.766219471454036],[-83.56416934231775,37.766219471454036],[-83.56414688704074,37.766308223405076],[-83.56407952120969,37.76632597378249],[-83.56412443176372,37.76620172105104]]]}},{"type":"Feature","properties":{"kind":"sunset","strength":1.0,"hard":true,"sector":"ring-r5c5"},"geometry":{"type":"Polygon","coordinates":[[[-83.56419179759477,37.766059717673755],[-83.56419179759477,37.76597096542449],[-83.5642591634258,37.76589996354839],[-83.5642591634258,37.76579346060643],[-83.56430407397984,37.7657579595917],[-83.56432652925686,37.765882213068714],[-83.5642591634258,37.765917714023814],[-83.5642591634258,37.76604196723241],[-83.5642367081488,37.76604196723241],[-83.56421425287178,37.766112968972195],[-83.56416934231775,37.76609521854364],[-83.56416934231775,37.766059717673755],[-83.56419179759477,37.766059717673755]]]}},{"type":"Feature","properties":{"kind":"sunset","strength":1.0,"hard":true,"sector":"ring-r5c5"},"geometry":{"type":"Polygon","coordinates":[[[-83.56443880564191,37.7655982048145],[-83.564573537304,37.7654562002784],[-83.56461844785804,37.7654562002784],[-83.56459599258102,37.765509452011386],[-83.56450617147296,37.7655804542624],[-83.56443880564191,37.7655982048145]]]}}]}
