{"type":"FeatureCollection","name":"Accepted hard sunlight rim lip ring-r3c6","features":[{"type":"Feature","properties":{"kind":"sunset","strength":1.0,"hard":true,"sector":"ring-r3c6"},"geometry":{"type":"Polygon","coordinates":[[[-83.51651961962837,37.82147363232983],[-83.51640734324332,37.8214381663292],[-83.5163848879663,37.82138496729633],[-83.51654207490537,37.8214381663292],[-83.51651961962837,37.82147363232983]]]}},{"type":"Feature","properties":{"kind":"sunset","strength":1.0,"hard":true,"sector":"ring-r3c6"},"geometry":{"type":"Polygon","coordinates":[[[-83.51654207490537,37.821402700311545],[-83.51642979852032,37.82136723427684],[-83.51642979852032,37.8213495012531],[-83.51647470907433,37.8213317682251],[-83.51647470907433,37.8213495012531],[-83.51656453018238,37.82136723427684],[-83.5165869854594,37.82142043332251],[-83.51654207490537,37.82142043332251],[-83.51654207490537,37.821402700311545]]]}}]}
