<?xml version='1.0' encoding='utf-8'?>
<gpx xmlns="http://www.topografix.com/GPX/1/1" version="1.1" creator="Red River Gorge Hiker"><metadata><name>Skybridge Arch</name></metadata><wpt lat="37.81886" lon="-83.57903"><name>Skybridge Arch</name><desc>Natural arch landmark along the route.</desc><type>Landmark</type></wpt><wpt lat="37.81913" lon="-83.57684"><name>Turnaround Overlook</name><desc>Scenic overlook at the route turnaround.</desc><type>Viewpoint</type></wpt><trk><name>Skybridge Arch</name><trkseg><trkpt lat="37.817648" lon="-83.582622" /><trkpt lat="37.817637" lon="-83.582582" /><trkpt lat="37.817586" lon="-83.582557" /><trkpt lat="37.817586" lon="-83.582507" /><trkpt lat="37.817634" lon="-83.582357" /><trkpt lat="37.817811" lon="-83.582154" /><trkpt lat="37.817869" lon="-83.582013" /><trkpt lat="37.817937" lon="-83.581945" /><trkpt lat="37.818014" lon="-83.581902" /><trkpt lat="37.818028" lon="-83.581786" /><trkpt lat="37.818015" lon="-83.581757" /><trkpt lat="37.817936" lon="-83.581750" /><trkpt lat="37.817779" lon="-83.581761" /><trkpt lat="37.817645" lon="-83.581731" /><trkpt lat="37.817523" lon="-83.581653" /><trkpt lat="37.817535" lon="-83.581597" /><trkpt lat="37.817564" lon="-83.581561" /><trkpt lat="37.817661" lon="-83.581514" /><trkpt lat="37.817959" lon="-83.581395" /><trkpt lat="37.818083" lon="-83.581102" /><trkpt lat="37.818158" lon="-83.580986" /><trkpt lat="37.818226" lon="-83.580767" /><trkpt lat="37.818235" lon="-83.580658" /><trkpt lat="37.818218" lon="-83.580469" /><trkpt lat="37.818237" lon="-83.580318" /><trkpt lat="37.818298" lon="-83.580159" /><trkpt lat="37.818286" lon="-83.580106" /><trkpt lat="37.818317" lon="-83.580100" /><trkpt lat="37.818348" lon="-83.580031" /><trkpt lat="37.818336" lon="-83.579970" /><trkpt lat="37.818365" lon="-83.579845" /><trkpt lat="37.818381" lon="-83.579834" /><trkpt lat="37.818402" lon="-83.579772" /><trkpt lat="37.818471" lon="-83.579671" /><trkpt lat="37.818542" lon="-83.579508" /><trkpt lat="37.818558" lon="-83.579422" /><trkpt lat="37.818610" lon="-83.579269" /><trkpt lat="37.818694" lon="-83.579176" /><trkpt lat="37.818747" lon="-83.579092" /><trkpt lat="37.818768" lon="-83.579037" /><trkpt lat="37.818804" lon="-83.579062" /><trkpt lat="37.818818" lon="-83.579028" /><trkpt lat="37.818848" lon="-83.579017" /><trkpt lat="37.818858" lon="-83.579044" /><trkpt lat="37.818865" lon="-83.579008" /><trkpt lat="37.818835" lon="-83.578944" /><trkpt lat="37.818828" lon="-83.578906" /><trkpt lat="37.818850" lon="-83.578810" /><trkpt lat="37.818854" lon="-83.578672" /><trkpt lat="37.818924" lon="-83.578263" /><trkpt lat="37.818980" lon="-83.578040" /><trkpt lat="37.818990" lon="-83.577793" /><trkpt lat="37.818979" lon="-83.577611" /><trkpt lat="37.818985" lon="-83.577473" /><trkpt lat="37.819015" lon="-83.577315" /><trkpt lat="37.819007" lon="-83.577167" /><trkpt lat="37.819073" lon="-83.576932" /><trkpt lat="37.819103" lon="-83.576887" /><trkpt lat="37.819146" lon="-83.576882" /><trkpt lat="37.819147" lon="-83.577035" /><trkpt lat="37.819088" lon="-83.577206" /><trkpt lat="37.819109" lon="-83.577504" /><trkpt lat="37.819074" lon="-83.577649" /><trkpt lat="37.819064" lon="-83.577732" /><trkpt lat="37.819088" lon="-83.577936" /><trkpt lat="37.819041" lon="-83.578084" /><trkpt lat="37.819048" lon="-83.578236" /><trkpt lat="37.819024" lon="-83.578407" /><trkpt lat="37.818969" lon="-83.578518" /><trkpt lat="37.818900" lon="-83.578896" /><trkpt lat="37.818852" lon="-83.579071" /><trkpt lat="37.818740" lon="-83.579347" /><trkpt lat="37.818661" lon="-83.579655" /><trkpt lat="37.818646" lon="-83.579751" /><trkpt lat="37.818612" lon="-83.580218" /><trkpt lat="37.818616" lon="-83.580287" /><trkpt lat="37.818587" lon="-83.580588" /><trkpt lat="37.818511" lon="-83.580927" /><trkpt lat="37.818432" lon="-83.581211" /><trkpt lat="37.818398" lon="-83.581283" /><trkpt lat="37.818286" lon="-83.581599" /><trkpt lat="37.818114" lon="-83.581954" /><trkpt lat="37.818070" lon="-83.581975" /><trkpt lat="37.817987" lon="-83.581956" /><trkpt lat="37.817942" lon="-83.581959" /><trkpt lat="37.817879" lon="-83.582013" /><trkpt lat="37.817793" lon="-83.582149" /><trkpt lat="37.817764" lon="-83.582256" /><trkpt lat="37.817646" lon="-83.582389" /><trkpt lat="37.817621" lon="-83.582475" /><trkpt lat="37.817605" lon="-83.582498" /><trkpt lat="37.817510" lon="-83.582473" /><trkpt lat="37.817543" lon="-83.582449" /><trkpt lat="37.817516" lon="-83.582437" /><trkpt lat="37.817546" lon="-83.582451" /><trkpt lat="37.817526" lon="-83.582477" /><trkpt lat="37.817543" lon="-83.582447" /><trkpt lat="37.817576" lon="-83.582451" /><trkpt lat="37.817580" lon="-83.582490" /><trkpt lat="37.817540" lon="-83.582609" /></trkseg></trk></gpx>